Date,Day,Date/Time,Time,Time Zone,Wind (mph),Vis. (mi.),Weather,Sky Cond.,Temp,Dew Point,Relative Humidity,Wind Chill (°F),Heat Index (°F),Altimeter (in.),sea level (mb),1-Hour Precip,3-Hour Precip,6-Hour Precip,Data Retrieval Date,Obs_Month,Obs_Year,Hour,Station,Rolling 3-Hour Precip,Rolling 6-Hour Precip,Rolling 12-Hour Precip,Rolling 24-Hour Precip,Windspeed
2025-12-11,11,2025-12-11 17:53,17:53,EST,Calm,10,Fair,CLR,35.1,12,38,,,29.92,1013.5,0,0,0,2025-12-14,12,2025,17,KCHO,0,0,0,0,0
2025-12-11,11,2025-12-11 18:53,18:53,EST,W  3,10,Fair,CLR,32,12.9,45,,,29.93,1014,0,0,0,2025-12-14,12,2025,18,KCHO,0,0,0,0,3
2025-12-11,11,2025-12-11 19:53,19:53,EST,Calm,10,Fair,CLR,32,12.9,45,,,29.94,1014.3,0,0,0,2025-12-14,12,2025,19,KCHO,0,0,0,0,0
2025-12-11,11,2025-12-11 20:53,20:53,EST,W  3,10,Fair,CLR,30.9,12.9,47,,,29.96,1015,0,0,0,2025-12-14,12,2025,20,KCHO,0,0,0,0,3
2025-12-11,11,2025-12-11 21:53,21:53,EST,Calm,10,Fair,CLR,30.9,12.9,47,,,29.97,1015.4,0,0,0,2025-12-14,12,2025,21,KCHO,0,0,0,0,0
2025-12-11,11,2025-12-11 22:53,22:53,EST,Calm,10,Partly Cloudy,SCT050,32,12.9,45,,,29.99,1015.6,0,0,0,2025-12-14,12,2025,22,KCHO,0,0,0,0,0
2025-12-11,11,2025-12-11 23:53,23:53,EST,E  3,10,Fair,CLR,28,14,56,,,29.99,1015.8,0,0,0,2025-12-14,12,2025,23,KCHO,0,0,0,0,3
2025-12-12,12,2025-12-12 0:53,0:53,EST,Calm,10,Fair,CLR,30,14,51,,,29.98,1015.6,0,0,0,2025-12-15,12,2025,0,KCHO,0,0,0,0,0
2025-12-12,12,2025-12-12 1:53,1:53,EST,Calm,10,Fair,CLR,26.1,15.1,63,,,30.03,1017.1,0,0,0,2025-12-15,12,2025,1,KCHO,0,0,0,0,0
2025-12-12,12,2025-12-12 2:53,2:53,EST,Calm,10,Fair,CLR,28.9,14,54,,,30.04,1017.4,0,0,0,2025-12-15,12,2025,2,KCHO,0,0,0,0,0
2025-12-12,12,2025-12-12 3:53,3:53,EST,S  3,10,Fair,CLR,28,16,60,,,30.04,1017.7,0,0,0,2025-12-15,12,2025,3,KCHO,0,0,0,0,3
2025-12-12,12,2025-12-12 4:53,4:53,EST,Calm,10,Fair,CLR,26.1,18,71,,,30.04,1017.7,0,0,0,2025-12-15,12,2025,4,KCHO,0,0,0,0,0
2025-12-12,12,2025-12-12 5:53,5:53,EST,Calm,10,Overcast,OVC120,28.9,16,58,,,30.07,1018.6,0,0,0,2025-12-15,12,2025,5,KCHO,0,0,0,0,0
2025-12-12,12,2025-12-12 6:53,6:53,EST,Calm,10,Mostly Cloudy,BKN110,28,21,75,,,30.09,1019.3,0,0,0,2025-12-15,12,2025,6,KCHO,0,0,0,0,0
2025-12-12,12,2025-12-12 7:53,7:53,EST,NW  3,10,Mostly Cloudy,BKN110,28,19.9,72,,,30.11,1020.1,0,0,0,2025-12-15,12,2025,7,KCHO,0,0,0,0,3
2025-12-12,12,2025-12-12 8:53,8:53,EST,SE  3,10,Overcast,OVC100,28.9,21.9,75,,,30.12,1020.4,0,0,0,2025-12-15,12,2025,8,KCHO,0,0,0,0,3
2025-12-12,12,2025-12-12 9:53,9:53,EST,Calm,10,Overcast,OVC095,30.9,19.9,64,,,30.14,1021,0,0,0,2025-12-15,12,2025,9,KCHO,0,0,0,0,0
2025-12-12,12,2025-12-12 10:53,10:53,EST,Vrbl  3,10,Overcast,BKN070 OVC085,34,16,48,,,30.15,1021.2,0,0,0,2025-12-15,12,2025,10,KCHO,0,0,0,0,3
2025-12-12,12,2025-12-12 11:53,11:53,EST,Vrbl  5,10,Overcast,BKN060 OVC075,35.1,15.1,44,32,,30.13,1020.5,0,0,0,2025-12-15,12,2025,11,KCHO,0,0,0,0,5
2025-12-12,12,2025-12-12 12:53,12:53,EST,Vrbl  3,10,Mostly Cloudy,SCT070 BKN110,36,17.1,46,,,30.1,1019.6,0,0,0,2025-12-15,12,2025,12,KCHO,0,0,0,0,3
2025-12-12,12,2025-12-12 13:53,13:53,EST,SW  5,10,Mostly Cloudy,BKN070,37,18,46,34,,30.09,1019.3,0,0,0,2025-12-15,12,2025,13,KCHO,0,0,0,0,5
2025-12-12,12,2025-12-12 14:53,14:53,EST,Calm,10,Overcast,OVC060,37,19,48,,,30.1,1019.6,0,0,0,2025-12-15,12,2025,14,KCHO,0,0,0,0,0
2025-12-12,12,2025-12-12 15:53,15:53,EST,S  3,10,Overcast,OVC055,37,19,48,,,30.11,1019.9,0,0,0,2025-12-15,12,2025,15,KCHO,0,0,0,0,3
2025-12-12,12,2025-12-12 16:53,16:53,EST,S  3,10,A Few Clouds,FEW050,36,19.9,52,,,30.11,1020.2,0,0,0,2025-12-15,12,2025,16,KCHO,0,0,0,0,3
2025-12-12,12,2025-12-12 17:53,17:53,EST,S  3,10,Fair,CLR,30.9,19,61,,,30.13,1020.7,0,0,0,2025-12-15,12,2025,17,KCHO,0,0,0,0,3
2025-12-12,12,2025-12-12 18:53,18:53,EST,S  5,10,Fair,CLR,30,18,61,26,,30.13,1020.8,0,0,0,2025-12-15,12,2025,18,KCHO,0,0,0,0,5
2025-12-12,12,2025-12-12 19:53,19:53,EST,S  5,10,Fair,CLR,30.9,19,61,27,,30.14,1021,0,0,0,2025-12-15,12,2025,19,KCHO,0,0,0,0,5
2025-12-12,12,2025-12-12 20:53,20:53,EST,Calm,10,Fair,CLR,28.9,19,66,,,30.14,1021.2,0,0,0,2025-12-15,12,2025,20,KCHO,0,0,0,0,0
2025-12-12,12,2025-12-12 21:53,21:53,EST,Calm,10,Fair,CLR,28,19,69,,,30.14,1021.1,0,0,0,2025-12-15,12,2025,21,KCHO,0,0,0,0,0
2025-12-12,12,2025-12-12 22:53,22:53,EST,S  5,10,Fair,CLR,26.1,19.9,78,21,,30.13,1020.8,0,0,0,2025-12-15,12,2025,22,KCHO,0,0,0,0,5
2025-12-12,12,2025-12-12 23:53,23:53,EST,Calm,10,Fair,CLR,25,19.9,81,,,30.13,1020.7,0,0,0,2025-12-15,12,2025,23,KCHO,0,0,0,0,0
2025-12-13,13,2025-12-13 0:53,0:53,EST,Calm,10,Fair,CLR,24.1,19.9,84,,,30.12,1020.3,0,0,0,2025-12-16,12,2025,0,KCHO,0,0,0,0,0
2025-12-13,13,2025-12-13 1:53,1:53,EST,SW  5,10,Fair,CLR,28,23,81,24,,30.11,1019.9,0,0,0,2025-12-16,12,2025,1,KCHO,0,0,0,0,5
2025-12-13,13,2025-12-13 2:53,2:53,EST,S  5,10,Overcast,OVC060,28.9,24.1,82,25,,30.1,1019.6,0,0,0,2025-12-16,12,2025,2,KCHO,0,0,0,0,5
2025-12-13,13,2025-12-13 3:53,3:53,EST,SW  5,10,Mostly Cloudy,BKN060,27,23,85,22,,30.09,1019.3,0,0,0,2025-12-16,12,2025,3,KCHO,0,0,0,0,5
2025-12-13,13,2025-12-13 4:53,4:53,EST,S  7,10,Overcast,OVC060,28,24.1,85,22,,30.08,1019,0,0,0,2025-12-16,12,2025,4,KCHO,0,0,0,0,7
2025-12-13,13,2025-12-13 5:53,5:53,EST,SW  5,10,Fair,CLR,28.9,25,85,25,,30.09,1019.4,0,0,0,2025-12-16,12,2025,5,KCHO,0,0,0,0,5
2025-12-13,13,2025-12-13 6:53,6:53,EST,S  7,10,Partly Cloudy,SCT040,27,24.1,89,20,,30.08,1019.2,0,0,0,2025-12-16,12,2025,6,KCHO,0,0,0,0,7
2025-12-13,13,2025-12-13 7:53,7:53,EST,SW  7,10,Fair,CLR,30,26.1,85,24,,30.08,1019.1,0,0,0,2025-12-16,12,2025,7,KCHO,0,0,0,0,7
2025-12-13,13,2025-12-13 8:53,8:53,EST,S  5,10,Fair,CLR,32,28,85,28,,30.09,1019.4,0,0,0,2025-12-16,12,2025,8,KCHO,0,0,0,0,5
2025-12-13,13,2025-12-13 9:53,9:53,EST,S  8,10,Fair,CLR,36,28.9,76,30,,30.1,1019.6,0,0,0,2025-12-16,12,2025,9,KCHO,0,0,0,0,8
2025-12-13,13,2025-12-13 10:53,10:53,EST,S  7,10,Fair,CLR,41,28.9,62,37,,30.09,1019.5,0,0,0,2025-12-16,12,2025,10,KCHO,0,0,0,0,7
2025-12-13,13,2025-12-13 11:53,11:53,EST,S  9,10,Fair,CLR,46,30,54,42,,30.05,1017.9,0,0,0,2025-12-16,12,2025,11,KCHO,0,0,0,0,9
2025-12-13,13,2025-12-13 12:53,12:53,EST,S  14,10,Fair,CLR,43,28.9,58,37,,30.01,1016.6,0,0,0,2025-12-16,12,2025,12,KCHO,0,0,0,0,14
2025-12-13,13,2025-12-13 13:53,13:53,EST,S  10,10,Fair,CLR,45,30,56,40,,29.99,1015.7,0,0,0,2025-12-16,12,2025,13,KCHO,0,0,0,0,10
2025-12-13,13,2025-12-13 14:53,14:53,EST,S  9,10,Fair,CLR,45,30.9,58,41,,29.96,1014.8,0,0,0,2025-12-16,12,2025,14,KCHO,0,0,0,0,9
2025-12-13,13,2025-12-13 15:53,15:53,EST,S  6,10,Fair,CLR,45,30.9,58,42,,29.98,1015.4,0,0,0,2025-12-16,12,2025,15,KCHO,0,0,0,0,6
2025-12-13,13,2025-12-13 16:53,16:53,EST,SW  3,10,Fair,CLR,44.1,30,58,,,29.99,1015.8,0,0,0,2025-12-16,12,2025,16,KCHO,0,0,0,0,3
2025-12-13,13,2025-12-13 17:53,17:53,EST,S  5,10,Fair,CLR,43,30.9,63,41,,30,1016.1,0,0,0,2025-12-16,12,2025,17,KCHO,0,0,0,0,5
2025-12-13,13,2025-12-13 18:53,18:53,EST,SW  5,10,Fair,CLR,43,30,60,41,,30,1016.2,0,0,0,2025-12-16,12,2025,18,KCHO,0,0,0,0,5
2025-12-13,13,2025-12-13 19:53,19:53,EST,Calm,10,Fair,CLR,45,28.9,54,,,30,1016,0,0,0,2025-12-16,12,2025,19,KCHO,0,0,0,0,0
2025-12-13,13,2025-12-13 20:53,20:53,EST,NE  3,10,Fair,CLR,39.9,30,68,,,29.99,1015.6,0,0,0,2025-12-16,12,2025,20,KCHO,0,0,0,0,3
2025-12-13,13,2025-12-13 21:53,21:53,EST,NE  9,10,Fair,CLR,39,28.9,67,33,,29.98,1015.4,0,0,0,2025-12-16,12,2025,21,KCHO,0,0,0,0,9
2025-12-13,13,2025-12-13 22:53,22:53,EST,NE  8,10,Mostly Cloudy,BKN070,37.9,28.9,70,33,,29.98,1015.3,0,0,0,2025-12-16,12,2025,22,KCHO,0,0,0,0,8
2025-12-13,13,2025-12-13 23:53,23:53,EST,N  7,10,Fair,CLR,37,28,70,32,,29.95,1014.2,0,0,0,2025-12-16,12,2025,23,KCHO,0,0,0,0,7
2025-12-14,14,2025-12-14 0:53,0:53,EST,NE  7,10,Overcast,FEW060 OVC075,37,28,70,32,,29.94,1014.1,0,0,0,2025-12-17,12,2025,0,KCHO,0,0,0,0,7
2025-12-14,14,2025-12-14 1:53,1:53,EST,NE  8,10,Overcast,FEW055 OVC065,37.9,27,65,33,,29.92,1013.4,0,0,0,2025-12-17,12,2025,1,KCHO,0,0,0,0,8
2025-12-14,14,2025-12-14 2:53,2:53,EST,NE  8,10,Overcast,BKN050 OVC060,37,27,67,32,,29.92,1013.2,0,0,0,2025-12-17,12,2025,2,KCHO,0,0,0,0,8
2025-12-14,14,2025-12-14 3:53,3:53,EST,NE  8,10,Overcast,OVC060,37,28,70,32,,29.92,1013.5,0,0,0,2025-12-17,12,2025,3,KCHO,0,0,0,0,8
2025-12-14,14,2025-12-14 4:53,4:53,EST,NE  7,5,Light Snow Fog/Mist,BKN023 OVC027,34,30,85,29,,29.93,1013.6,0,0,0,2025-12-17,12,2025,4,KCHO,0,0,0,0,7
2025-12-14,14,2025-12-14 5:53,5:53,EST,N  6,2.5,Light Snow Fog/Mist,SCT012 OVC026,33.1,30.9,92,28,,29.94,1014.2,0.01,0,0,2025-12-17,12,2025,5,KCHO,0.01,0.01,0.01,0.01,6
2025-12-14,14,2025-12-14 6:53,6:53,EST,N  5,7,Overcast,OVC042,33.1,30.9,92,29,,29.97,1015.2,0.03,0,0.04,2025-12-17,12,2025,6,KCHO,0.04,0.04,0.04,0.04,5
2025-12-14,14,2025-12-14 7:53,7:53,EST,NW  9,10,Overcast,FEW046 SCT080 OVC100,34,28,79,27,,29.99,1015.8,0,0,0,2025-12-17,12,2025,7,KCHO,0.04,0.04,0.04,0.04,9
2025-12-14,14,2025-12-14 8:53,8:53,EST,NW  12  G 22,10,Fair,CLR,34,17.1,50,26,,30.04,1017.5,0,0,0,2025-12-17,12,2025,8,KCHO,0.03,0.04,0.04,0.04,12
2025-12-14,14,2025-12-14 9:53,9:53,EST,NW  13  G 23,10,Fair,CLR,33.1,12.9,43,25,,30.09,1019.1,0,0,0,2025-12-17,12,2025,9,KCHO,0,0.04,0.04,0.04,13
2025-12-14,14,2025-12-14 10:53,10:53,EST,N  10  G 30,10,Fair,CLR,32,10.9,41,24,,30.1,1019.7,0,0,0,2025-12-17,12,2025,10,KCHO,0,0.04,0.04,0.04,10
2025-12-14,14,2025-12-14 11:53,11:53,EST,NW  14  G 33,10,Fair,CLR,30,5,34,20,,30.11,1019.9,0,0,0,2025-12-17,12,2025,11,KCHO,0,0.03,0.04,0.04,14
2025-12-14,14,2025-12-14 12:53,12:53,EST,NW  9,10,Fair,CLR,30.9,3.9,31,24,,30.11,1019.9,0,0,0,2025-12-17,12,2025,12,KCHO,0,0,0.04,0.04,9
2025-12-14,14,2025-12-14 13:53,13:53,EST,Calm,10,Fair,CLR,28.9,-0.9,27,,,30.13,1020.7,0,0,0,2025-12-17,12,2025,13,KCHO,0,0,0.04,0.04,0
2025-12-14,14,2025-12-14 14:53,14:53,EST,NW  12  G 25,10,Mostly Cloudy,BKN070,27,-2.9,27,17,,30.16,1021.8,0,0,0,2025-12-17,12,2025,14,KCHO,0,0,0.04,0.04,12
2025-12-14,14,2025-12-14 15:53,15:53,EST,NW  17  G 29,10,Partly Cloudy,SCT060,24.1,-2.9,30,11,,30.22,1023.7,0,0,0,2025-12-17,12,2025,15,KCHO,0,0,0.04,0.04,17
2025-12-14,14,2025-12-14 16:53,16:53,EST,NW  15  G 30,10,Mostly Cloudy,SCT050 BKN060,19.9,-4,34,7,,30.28,1026,0,0,0,2025-12-17,12,2025,16,KCHO,0,0,0.04,0.04,15
2025-12-14,14,2025-12-14 17:53,17:53,EST,N  14  G 24,10,Mostly Cloudy,BKN060,18,-7.1,32,5,,30.34,1027.9,0,0,0,2025-12-17,12,2025,17,KCHO,0,0,0.03,0.04,14
2025-12-14,14,2025-12-14 18:53,18:53,EST,NW  13  G 28,10,A Few Clouds,FEW055,17.1,-6,35,5,,30.38,1029.3,0,0,0,2025-12-17,12,2025,18,KCHO,0,0,0,0.04,13
2025-12-14,14,2025-12-14 19:53,19:53,EST,NW  13  G 22,10,Fair,CLR,17.1,-5.1,37,5,,30.39,1029.7,0,0,0,2025-12-17,12,2025,19,KCHO,0,0,0,0.04,13
2025-12-14,14,2025-12-14 20:53,20:53,EST,NW  9  G 23,10,Fair,CLR,16,-6,37,5,,30.4,1030.1,0,0,0,2025-12-17,12,2025,20,KCHO,0,0,0,0.04,9
2025-12-14,14,2025-12-14 21:53,21:53,EST,NW  8  G 22,10,Fair,CLR,16,-5.1,38,6,,30.41,1030.4,0,0,0,2025-12-17,12,2025,21,KCHO,0,0,0,0.04,8
2025-12-14,14,2025-12-14 22:53,22:53,EST,N  8,10,Fair,CLR,16,-5.1,38,6,,30.39,1030,0,0,0,2025-12-17,12,2025,22,KCHO,0,0,0,0.04,8
2025-12-14,14,2025-12-14 23:53,23:53,EST,NW  10  G 18,10,Fair,CLR,16,-5.1,38,5,,30.39,1029.7,0,0,0,2025-12-17,12,2025,23,KCHO,0,0,0,0.04,10
2025-12-15,15,2025-12-15 0:53,0:53,EST,NW  13  G 24,10,Fair,CLR,16,-4,41,3,,30.35,1028.4,0,0,0,2025-12-18,12,2025,0,KCHO,0,0,0,0.04,13
2025-12-15,15,2025-12-15 1:53,1:53,EST,NW  3,10,Fair,CLR,15.1,-2.9,44,,,30.38,1029.4,0,0,0,2025-12-18,12,2025,1,KCHO,0,0,0,0.04,3
2025-12-15,15,2025-12-15 2:53,2:53,EST,Calm,10,Fair,CLR,14,-2.9,47,,,30.39,1030.1,0,0,0,2025-12-18,12,2025,2,KCHO,0,0,0,0.04,0
2025-12-15,15,2025-12-15 3:53,3:53,EST,NW  12  G 23,10,Fair,CLR,17.1,-0.9,45,5,,30.4,1030.3,0,0,0,2025-12-18,12,2025,3,KCHO,0,0,0,0.04,12
2025-12-15,15,2025-12-15 4:53,4:53,EST,Vrbl  6,10,Fair,CLR,17.1,-0.9,45,10,,30.4,1030.3,0,0,0,2025-12-18,12,2025,4,KCHO,0,0,0,0.04,6
2025-12-15,15,2025-12-15 5:53,5:53,EST,Vrbl  3,10,Fair,CLR,17.1,0,47,,,30.41,1030.6,0,0,0,2025-12-18,12,2025,5,KCHO,0,0,0,0.03,3
2025-12-15,15,2025-12-15 6:53,6:53,EST,NW  13  G 21,10,Fair,CLR,16,0,49,3,,30.45,1031.9,0,0,0,2025-12-18,12,2025,6,KCHO,0,0,0,0,13
2025-12-15,15,2025-12-15 7:53,7:53,EST,N  3,10,Fair,CLR,18,0,45,,,30.45,1032.2,0,0,0,2025-12-18,12,2025,7,KCHO,0,0,0,0,3
2025-12-15,15,2025-12-15 8:53,8:53,EST,Vrbl  5,10,Fair,CLR,19,1,45,13,,30.45,1032,0,0,0,2025-12-18,12,2025,8,KCHO,0,0,0,0,5
2025-12-15,15,2025-12-15 9:53,9:53,EST,SW  5,10,Fair,CLR,23,1.9,40,18,,30.45,1031.8,0,0,0,2025-12-18,12,2025,9,KCHO,0,0,0,0,5
2025-12-15,15,2025-12-15 10:53,10:53,EST,W  6,10,Fair,CLR,25,1,35,19,,30.44,1031.6,0,0,0,2025-12-18,12,2025,10,KCHO,0,0,0,0,6
2025-12-15,15,2025-12-15 11:53,11:53,EST,SW  7,10,Fair,CLR,25,1.9,37,18,,30.41,1030.4,0,0,0,2025-12-18,12,2025,11,KCHO,0,0,0,0,7
2025-12-15,15,2025-12-15 12:53,12:53,EST,Vrbl  7,10,Fair,CLR,28.9,1,30,23,,30.38,1029.4,0,0,0,2025-12-18,12,2025,12,KCHO,0,0,0,0,7
2025-12-15,15,2025-12-15 13:53,13:53,EST,Calm,10,Mostly Cloudy,BKN120,32,1.9,27,,,30.34,1028.1,0,0,0,2025-12-18,12,2025,13,KCHO,0,0,0,0,0
2025-12-15,15,2025-12-15 14:53,14:53,EST,S  5,10,Mostly Cloudy,BKN110,32,3,29,28,,30.31,1027,0,0,0,2025-12-18,12,2025,14,KCHO,0,0,0,0,5
2025-12-15,15,2025-12-15 15:53,15:53,EST,SW  5,10,Fair,CLR,33.1,1,25,29,,30.3,1026.7,0,0,0,2025-12-18,12,2025,15,KCHO,0,0,0,0,5
2025-12-15,15,2025-12-15 16:53,16:53,EST,S  6,10,Fair,CLR,30,3,31,25,,30.29,1026.3,0,0,0,2025-12-18,12,2025,16,KCHO,0,0,0,0,6
2025-12-15,15,2025-12-15 17:53,17:53,EST,S  7,10,Fair,CLR,28,3.9,35,22,,30.28,1026,0,0,0,2025-12-18,12,2025,17,KCHO,0,0,0,0,7
2025-12-15,15,2025-12-15 18:53,18:53,EST,S  7,10,Fair,CLR,25,3.9,40,18,,30.27,1025.9,0,0,0,2025-12-18,12,2025,18,KCHO,0,0,0,0,7
2025-12-15,15,2025-12-15 19:53,19:53,EST,S  8,10,Fair,CLR,25,3.9,40,17,,30.26,1025.3,0,0,0,2025-12-18,12,2025,19,KCHO,0,0,0,0,8
2025-12-15,15,2025-12-15 20:53,20:53,EST,S  6,10,Fair,CLR,25,3.9,40,19,,30.24,1024.7,0,0,0,2025-12-18,12,2025,20,KCHO,0,0,0,0,6
2025-12-15,15,2025-12-15 21:53,21:53,EST,S  9,10,Fair,CLR,25,5,42,16,,30.22,1024.1,0,0,0,2025-12-18,12,2025,21,KCHO,0,0,0,0,9
2025-12-15,15,2025-12-15 22:53,22:53,EST,S  7,10,Fair,CLR,24.1,5,44,17,,30.21,1023.5,0,0,0,2025-12-18,12,2025,22,KCHO,0,0,0,0,7
2025-12-15,15,2025-12-15 23:53,23:53,EST,S  8,10,Fair,CLR,25,5,42,17,,30.18,1022.8,0,0,0,2025-12-18,12,2025,23,KCHO,0,0,0,0,8
2025-12-16,16,2025-12-16 0:53,0:53,EST,S  5,10,Fair,CLR,21,6.1,52,15,,30.17,1022.2,0,0,0,2025-12-19,12,2025,0,KCHO,0,0,0,0,5
2025-12-16,16,2025-12-16 1:53,1:53,EST,SW  7,10,Fair,CLR,25,5,42,18,,30.15,1021.5,0,0,0,2025-12-19,12,2025,1,KCHO,0,0,0,0,7
2025-12-16,16,2025-12-16 2:53,2:53,EST,E  5,10,Fair,CLR,23,6.1,48,18,,30.16,1022,0,0,0,2025-12-19,12,2025,2,KCHO,0,0,0,0,5
2025-12-16,16,2025-12-16 3:53,3:53,EST,Calm,10,Fair,CLR,23,5,46,,,30.16,1021.7,0,0,0,2025-12-19,12,2025,3,KCHO,0,0,0,0,0
2025-12-16,16,2025-12-16 4:53,4:53,EST,N  3,10,Fair,CLR,19.9,9,62,,,30.16,1022,0,0,0,2025-12-19,12,2025,4,KCHO,0,0,0,0,3
2025-12-16,16,2025-12-16 5:53,5:53,EST,Calm,10,Fair,CLR,21.9,6.1,50,,,30.18,1022.7,0,0,0,2025-12-19,12,2025,5,KCHO,0,0,0,0,0
2025-12-16,16,2025-12-16 6:53,6:53,EST,Calm,10,Fair,CLR,18,8.1,65,,,30.18,1022.8,0,0,0,2025-12-19,12,2025,6,KCHO,0,0,0,0,0
2025-12-16,16,2025-12-16 7:53,7:53,EST,Calm,10,Fair,CLR,19,8.1,62,,,30.21,1023.7,0,0,0,2025-12-19,12,2025,7,KCHO,0,0,0,0,0
2025-12-16,16,2025-12-16 8:53,8:53,EST,Calm,10,Fair,CLR,25,9,50,,,30.23,1024.3,0,0,0,2025-12-19,12,2025,8,KCHO,0,0,0,0,0
2025-12-16,16,2025-12-16 9:53,9:53,EST,Calm,10,Fair,CLR,30,9,41,,,30.23,1024.3,0,0,0,2025-12-19,12,2025,9,KCHO,0,0,0,0,0
2025-12-16,16,2025-12-16 10:53,10:53,EST,NE  3,10,Fair,CLR,35.1,10,35,,,30.22,1024,0,0,0,2025-12-19,12,2025,10,KCHO,0,0,0,0,3
2025-12-16,16,2025-12-16 11:53,11:53,EST,Calm,10,Fair,CLR,39,8.1,28,,,30.2,1023.1,0,0,0,2025-12-19,12,2025,11,KCHO,0,0,0,0,0
2025-12-16,16,2025-12-16 12:53,12:53,EST,Vrbl  5,10,Fair,CLR,42.1,6.1,22,40,,30.18,1022.4,0,0,0,2025-12-19,12,2025,12,KCHO,0,0,0,0,5
2025-12-16,16,2025-12-16 13:53,13:53,EST,S  9,10,Fair,CLR,43,7,22,38,,30.16,1021.6,0,0,0,2025-12-19,12,2025,13,KCHO,0,0,0,0,9
2025-12-16,16,2025-12-16 14:53,14:53,EST,S  7,10,Fair,CLR,44.1,9,24,41,,30.15,1021.3,0,0,0,2025-12-19,12,2025,14,KCHO,0,0,0,0,7
2025-12-16,16,2025-12-16 15:53,15:53,EST,S  6,10,Fair,CLR,43,9,25,40,,30.15,1021.5,0,0,0,2025-12-19,12,2025,15,KCHO,0,0,0,0,6
2025-12-16,16,2025-12-16 16:53,16:53,EST,SE  3,10,Fair,CLR,39.9,9,28,,,30.15,1021.5,0,0,0,2025-12-19,12,2025,16,KCHO,0,0,0,0,3
2025-12-16,16,2025-12-16 17:53,17:53,EST,Calm,10,Fair,CLR,39,8.1,28,,,30.15,1021.6,0,0,0,2025-12-19,12,2025,17,KCHO,0,0,0,0,0
2025-12-16,16,2025-12-16 18:53,18:53,EST,Calm,10,Fair,CLR,36,8.1,31,,,30.15,1021.6,0,0,0,2025-12-19,12,2025,18,KCHO,0,0,0,0,0
2025-12-16,16,2025-12-16 19:53,19:53,EST,SW  3,10,Fair,CLR,32,8.1,36,,,30.15,1021.4,0,0,0,2025-12-19,12,2025,19,KCHO,0,0,0,0,3
2025-12-16,16,2025-12-16 20:53,20:53,EST,W  3,10,Fair,CLR,30.9,9,40,,,30.14,1021.2,0,0,0,2025-12-19,12,2025,20,KCHO,0,0,0,0,3
2025-12-16,16,2025-12-16 21:53,21:53,EST,W  3,10,Fair,CLR,30,10.9,45,,,30.14,1021,0,0,0,2025-12-19,12,2025,21,KCHO,0,0,0,0,3
2025-12-16,16,2025-12-16 22:53,22:53,EST,Calm,10,Fair,CLR,27,12,53,,,30.12,1020.5,0,0,0,2025-12-19,12,2025,22,KCHO,0,0,0,0,0
2025-12-16,16,2025-12-16 23:53,23:53,EST,NW  3,10,Fair,CLR,28,12.9,53,,,30.1,1019.5,0,0,0,2025-12-19,12,2025,23,KCHO,0,0,0,0,3
2025-12-17,17,2025-12-17 0:53,0:53,EST,W  5,10,Fair,CLR,27,12,53,22,,30.08,1019,0,0,0,2025-12-20,12,2025,0,KCHO,0,0,0,0,5
2025-12-17,17,2025-12-17 1:53,1:53,EST,Calm,10,Fair,CLR,25,12.9,60,,,30.07,1018.5,0,0,0,2025-12-20,12,2025,1,KCHO,0,0,0,0,0
2025-12-17,17,2025-12-17 2:53,2:53,EST,Calm,10,Mostly Cloudy,BKN046,27,14,58,,,30.06,1018.3,0,0,0,2025-12-20,12,2025,2,KCHO,0,0,0,0,0
2025-12-17,17,2025-12-17 3:53,3:53,EST,SW  8,10,Fair,CLR,30,16,56,23,,30.04,1017.4,0,0,0,2025-12-20,12,2025,3,KCHO,0,0,0,0,8
2025-12-17,17,2025-12-17 4:53,4:53,EST,SW  8,10,Fair,CLR,30,18,61,23,,30.01,1016.7,0,0,0,2025-12-20,12,2025,4,KCHO,0,0,0,0,8
2025-12-17,17,2025-12-17 5:53,5:53,EST,SW  7,10,Fair,CLR,33.1,21.9,64,28,,30.02,1016.9,0,0,0,2025-12-20,12,2025,5,KCHO,0,0,0,0,7
2025-12-17,17,2025-12-17 6:53,6:53,EST,SW  7,10,Fair,CLR,35.1,25,67,30,,30.02,1016.7,0,0,0,2025-12-20,12,2025,6,KCHO,0,0,0,0,7
2025-12-17,17,2025-12-17 7:53,7:53,EST,SW  6,10,Fair,CLR,39,27,62,35,,30.01,1016.5,0,0,0,2025-12-20,12,2025,7,KCHO,0,0,0,0,6
2025-12-17,17,2025-12-17 8:53,8:53,EST,S  10,10,Fair,CLR,41,28,60,35,,30.01,1016.5,0,0,0,2025-12-20,12,2025,8,KCHO,0,0,0,0,10
2025-12-17,17,2025-12-17 9:53,9:53,EST,S  13,10,Fair,CLR,46,28.9,51,41,,30.01,1016.5,0,0,0,2025-12-20,12,2025,9,KCHO,0,0,0,0,13
2025-12-17,17,2025-12-17 10:53,10:53,EST,S  14,10,Fair,CLR,52,28,40,,,30,1016,0,0,0,2025-12-20,12,2025,10,KCHO,0,0,0,0,14
2025-12-17,17,2025-12-17 11:53,11:53,EST,S  13,10,Fair,CLR,55,26.1,33,,,29.96,1014.8,0,0,0,2025-12-20,12,2025,11,KCHO,0,0,0,0,13
2025-12-17,17,2025-12-17 12:53,12:53,EST,S  14,10,Fair,CLR,55.9,24.1,29,,,29.94,1014,0,0,0,2025-12-20,12,2025,12,KCHO,0,0,0,0,14
2025-12-17,17,2025-12-17 13:53,13:53,EST,S  14,10,Fair,CLR,57.9,21.9,25,,,29.94,1014,0,0,0,2025-12-20,12,2025,13,KCHO,0,0,0,0,14
2025-12-17,17,2025-12-17 14:53,14:53,EST,SW  6,10,Fair,CLR,61,32,34,,,29.98,1015.2,0,0,0,2025-12-20,12,2025,14,KCHO,0,0,0,0,6
2025-12-17,17,2025-12-17 15:53,15:53,EST,Vrbl  3,10,Fair,CLR,59,33.1,38,,,29.99,1015.6,0,0,0,2025-12-20,12,2025,15,KCHO,0,0,0,0,3
2025-12-17,17,2025-12-17 16:53,16:53,EST,Calm,10,Fair,CLR,57.9,33.1,39,,,30.02,1016.6,0,0,0,2025-12-20,12,2025,16,KCHO,0,0,0,0,0
2025-12-17,17,2025-12-17 17:53,17:53,EST,Calm,10,Fair,CLR,54,33.1,45,,,30.06,1017.8,0,0,0,2025-12-20,12,2025,17,KCHO,0,0,0,0,0
2025-12-17,17,2025-12-17 18:53,18:53,EST,S  5,10,Fair,CLR,53.1,33.1,47,,,30.08,1018.8,0,0,0,2025-12-20,12,2025,18,KCHO,0,0,0,0,5
2025-12-17,17,2025-12-17 19:53,19:53,EST,Calm,10,Fair,CLR,53.1,33.1,47,,,30.11,1019.7,0,0,0,2025-12-20,12,2025,19,KCHO,0,0,0,0,0
2025-12-17,17,2025-12-17 20:53,20:53,EST,NW  3,10,Fair,CLR,44.1,32,63,,,30.14,1020.7,0,0,0,2025-12-20,12,2025,20,KCHO,0,0,0,0,3
2025-12-17,17,2025-12-17 21:53,21:53,EST,Calm,10,Fair,CLR,43,32,65,,,30.16,1021.3,0,0,0,2025-12-20,12,2025,21,KCHO,0,0,0,0,0
2025-12-17,17,2025-12-17 22:53,22:53,EST,N  3,10,Fair,CLR,41,32,70,,,30.17,1021.6,0,0,0,2025-12-20,12,2025,22,KCHO,0,0,0,0,3
2025-12-17,17,2025-12-17 23:53,23:53,EST,N  6,10,Fair,CLR,39,30.9,73,35,,30.18,1022.1,0,0,0,2025-12-20,12,2025,23,KCHO,0,0,0,0,6
2025-12-18,18,2025-12-18 0:53,0:53,EST,N  3,10,Fair,CLR,39.9,30.9,70,,,30.18,1022.1,0,0,0,2025-12-21,12,2025,0,KCHO,0,0,0,0,3
2025-12-18,18,2025-12-18 1:53,1:53,EST,N  3,10,Fair,CLR,39,28.9,67,,,30.19,1022.2,0,0,0,2025-12-21,12,2025,1,KCHO,0,0,0,0,3
2025-12-18,18,2025-12-18 2:53,2:53,EST,N  6,10,Fair,CLR,37.9,28,68,34,,30.18,1021.9,0,0,0,2025-12-21,12,2025,2,KCHO,0,0,0,0,6
2025-12-18,18,2025-12-18 3:53,3:53,EST,Calm,10,Fair,CLR,34,28,79,,,30.2,1022.7,0,0,0,2025-12-21,12,2025,3,KCHO,0,0,0,0,0
2025-12-18,18,2025-12-18 4:53,4:53,EST,Calm,10,Fair,CLR,36,28,73,,,30.21,1022.8,0,0,0,2025-12-21,12,2025,4,KCHO,0,0,0,0,0
2025-12-18,18,2025-12-18 5:53,5:53,EST,Calm,10,Fair,CLR,33.1,28.9,85,,,30.23,1023.8,0,0,0,2025-12-21,12,2025,5,KCHO,0,0,0,0,0
2025-12-18,18,2025-12-18 6:53,6:53,EST,N  3,10,Fair,CLR,28,26.1,92,,,30.23,1023.9,0,0,0,2025-12-21,12,2025,6,KCHO,0,0,0,0,3
2025-12-18,18,2025-12-18 7:53,7:53,EST,N  5,10,Fair,CLR,33.1,27,78,29,,30.23,1023.7,0,0,0,2025-12-21,12,2025,7,KCHO,0,0,0,0,5
2025-12-18,18,2025-12-18 8:53,8:53,EST,Calm,10,Fair,CLR,35.1,28,76,,,30.23,1023.9,0,0,0,2025-12-21,12,2025,8,KCHO,0,0,0,0,0
2025-12-18,18,2025-12-18 9:53,9:53,EST,NE  5,10,Fair,CLR,44.1,28.9,55,42,,30.24,1024,0,0,0,2025-12-21,12,2025,9,KCHO,0,0,0,0,5
2025-12-18,18,2025-12-18 10:53,10:53,EST,E  5,10,Fair,CLR,48.9,27,43,48,,30.22,1023.3,0,0,0,2025-12-21,12,2025,10,KCHO,0,0,0,0,5
2025-12-18,18,2025-12-18 11:53,11:53,EST,Calm,10,Mostly Cloudy,BKN049,48.9,26.1,41,,,30.17,1021.8,0,0,0,2025-12-21,12,2025,11,KCHO,0,0,0,0,0
2025-12-18,18,2025-12-18 12:53,12:53,EST,S  5,10,Overcast,BKN035 OVC044,50,26.1,39,49,,30.13,1020.5,0,0,0,2025-12-21,12,2025,12,KCHO,0,0,0,0,5
2025-12-18,18,2025-12-18 13:53,13:53,EST,S  3,10,Overcast,OVC031,50,27,41,,,30.12,1019.9,0,0,0,2025-12-21,12,2025,13,KCHO,0,0,0,0,3
2025-12-18,18,2025-12-18 14:53,14:53,EST,Calm,10,Overcast,BKN028 BKN033 OVC050,50,27,41,,,30.1,1019.3,0,0,0,2025-12-21,12,2025,14,KCHO,0,0,0,0,0
2025-12-18,18,2025-12-18 15:53,15:53,EST,Calm,10,Overcast,SCT027 BKN036 OVC046,50,27,41,,,30.07,1018.5,0,0,0,2025-12-21,12,2025,15,KCHO,0,0,0,0,0
2025-12-18,18,2025-12-18 16:53,16:53,EST,Calm,10,Overcast,OVC030,48,28.9,48,,,30.07,1018.3,0,0,0,2025-12-21,12,2025,16,KCHO,0,0,0,0,0
2025-12-18,18,2025-12-18 17:53,17:53,EST,N  3,10,Light Rain,OVC029,44.1,34,68,,,30.04,1017.4,0,0,0,2025-12-21,12,2025,17,KCHO,0,0,0,0,3
2025-12-18,18,2025-12-18 18:53,18:53,EST,N  5,7,Light Rain,OVC022,41,39.9,96,38,,30.02,1017,0.06,0,0.06,2025-12-21,12,2025,18,KCHO,0.06,0.06,0.06,0.06,5
2025-12-18,18,2025-12-18 19:53,19:53,EST,Calm,6,Light Rain Fog/Mist,OVC021,41,39,93,,,29.99,1015.9,0.02,0,0,2025-12-21,12,2025,19,KCHO,0.08,0.08,0.08,0.08,0
2025-12-18,18,2025-12-18 20:53,20:53,EST,Calm,6,Light Rain Fog/Mist,OVC016,41,39.9,96,,,29.95,1014.4,0.04,0,0,2025-12-21,12,2025,20,KCHO,0.12,0.12,0.12,0.12,0
2025-12-18,18,2025-12-18 21:53,21:53,EST,NE  5,3,Light Rain Fog/Mist,OVC014,42.1,41,96,40,,29.89,1012.3,0.03,0.09,0,2025-12-21,12,2025,21,KCHO,0.09,0.15,0.15,0.15,5
2025-12-18,18,2025-12-18 22:53,22:53,EST,NE  5,2,Light Rain Fog/Mist,OVC010,41,41,100,38,,29.83,1010.1,0.04,0,0,2025-12-21,12,2025,22,KCHO,0.11,0.19,0.19,0.19,5
2025-12-18,18,2025-12-18 23:53,23:53,EST,N  3,1.5,Light Rain Fog/Mist,OVC004,42.1,42.1,100,,,29.76,1007.8,0.11,0,0,2025-12-21,12,2025,23,KCHO,0.18,0.3,0.3,0.3,3
2025-12-19,19,2025-12-19 0:53,0:53,EST,Vrbl  3,2,Rain Fog/Mist,OVC003,43,43,100,,,29.71,1006,0,0,0,2025-12-22,12,2025,0,KCHO,0.15,0.24,0.3,0.3,3
2025-12-19,19,2025-12-19 1:53,1:53,EST,NW  3,1.5,Light Rain Fog/Mist,OVC005,44.1,44.1,100,,,29.65,1004,0.08,0,0,2025-12-22,12,2025,1,KCHO,0.19,0.3,0.38,0.38,3
2025-12-19,19,2025-12-19 2:53,2:53,EST,Calm,1.5,Light Rain Fog/Mist,OVC003,45,45,100,,,29.6,1002.3,0.08,0,0,2025-12-22,12,2025,2,KCHO,0.16,0.34,0.46,0.46,0
2025-12-19,19,2025-12-19 3:53,3:53,EST,S  7,3,Light Rain Fog/Mist,OVC004,52,52,100,,,29.52,999.3,0.04,0.2,0,2025-12-22,12,2025,3,KCHO,0.2,0.35,0.5,0.5,7
2025-12-19,19,2025-12-19 4:53,4:53,EST,SW  7,1.5,Light Rain Fog/Mist,OVC002,53.1,53.1,100,,,29.47,997.7,0.02,0,0,2025-12-22,12,2025,4,KCHO,0.14,0.33,0.52,0.52,7
2025-12-19,19,2025-12-19 5:53,5:53,EST,Calm,10,Overcast,OVC055,53.1,48.9,86,,,29.47,997.9,0.22,0,0,2025-12-22,12,2025,5,KCHO,0.28,0.44,0.74,0.74,0
2025-12-19,19,2025-12-19 6:53,6:53,EST,Vrbl  6  G 16,10,Overcast,OVC070,54,39.9,59,,,29.46,997.4,0,0,0.44,2025-12-22,12,2025,6,KCHO,0.24,0.44,0.68,0.74,6
2025-12-19,19,2025-12-19 7:53,7:53,EST,SW  6,10,Light Rain,FEW070 OVC085,48,44.1,86,46,,29.44,997,0.05,0,0,2025-12-22,12,2025,7,KCHO,0.27,0.41,0.71,0.79,6
2025-12-19,19,2025-12-19 8:53,8:53,EST,Vrbl  6,10,A Few Clouds,FEW050,52,39.9,64,,,29.49,998.6,0,0,0,2025-12-22,12,2025,8,KCHO,0.05,0.33,0.67,0.79,6
2025-12-19,19,2025-12-19 9:53,9:53,EST,Vrbl  6  G 22,10,Partly Cloudy,SCT050 SCT060,52,36,55,,,29.54,1000.1,0,0.05,0,2025-12-22,12,2025,9,KCHO,0.05,0.29,0.64,0.79,6
2025-12-19,19,2025-12-19 10:53,10:53,EST,SW  9  G 17,10,Partly Cloudy,SCT065,54,33.1,45,,,29.54,1000.4,0,0,0,2025-12-22,12,2025,10,KCHO,0,0.27,0.6,0.79,9
2025-12-19,19,2025-12-19 11:53,11:53,EST,W  8  G 31,10,Mostly Cloudy,BKN060 BKN075,54,30,40,,,29.56,1001,0,0,0,2025-12-22,12,2025,11,KCHO,0,0.05,0.49,0.79,8
2025-12-19,19,2025-12-19 12:53,12:53,EST,W  15  G 35,10,Fair,CLR,52,27,38,,,29.61,1002.6,0,0,0.05,2025-12-22,12,2025,12,KCHO,0,0.05,0.49,0.79,15
2025-12-19,19,2025-12-19 13:53,13:53,EST,W  14  G 26,10,A Few Clouds,FEW060,50,25,38,45,,29.65,1003.9,0,0,0,2025-12-22,12,2025,13,KCHO,0,0,0.41,0.79,14
2025-12-19,19,2025-12-19 14:53,14:53,EST,W  17  G 33,10,A Few Clouds,FEW070,50,19.9,30,45,,29.69,1005.3,0,0,0,2025-12-22,12,2025,14,KCHO,0,0,0.33,0.79,17
2025-12-19,19,2025-12-19 15:53,15:53,EST,W  10  G 25,10,Fair,CLR,48,17.1,29,44,,29.73,1006.5,0,0,0,2025-12-22,12,2025,15,KCHO,0,0,0.29,0.79,10
2025-12-19,19,2025-12-19 16:53,16:53,EST,W  8  G 20,10,Fair,CLR,43,15.1,32,39,,29.79,1008.7,0,0,0,2025-12-22,12,2025,16,KCHO,0,0,0.27,0.79,8
2025-12-19,19,2025-12-19 17:53,17:53,EST,W  13  G 31,10,Fair,CLR,43,16,34,37,,29.81,1009.3,0,0,0,2025-12-22,12,2025,17,KCHO,0,0,0.05,0.79,13
2025-12-19,19,2025-12-19 18:53,18:53,EST,Calm,10,Fair,CLR,41,17.1,38,,,29.85,1010.8,0,0,0,2025-12-22,12,2025,18,KCHO,0,0,0.05,0.73,0
2025-12-19,19,2025-12-19 19:53,19:53,EST,Vrbl  6,10,Fair,CLR,41,16,36,38,,29.88,1011.8,0,0,0,2025-12-22,12,2025,19,KCHO,0,0,0,0.71,6
2025-12-19,19,2025-12-19 20:53,20:53,EST,Calm,10,Fair,CLR,39.9,15.1,36,,,29.91,1012.9,0,0,0,2025-12-22,12,2025,20,KCHO,0,0,0,0.67,0
2025-12-19,19,2025-12-19 21:53,21:53,EST,Calm,10,Fair,CLR,39.9,14,35,,,29.94,1013.9,0,0,0,2025-12-22,12,2025,21,KCHO,0,0,0,0.64,0
2025-12-19,19,2025-12-19 22:53,22:53,EST,Calm,10,Fair,CLR,39,14,36,,,29.98,1015.3,0,0,0,2025-12-22,12,2025,22,KCHO,0,0,0,0.6,0
2025-12-19,19,2025-12-19 23:53,23:53,EST,Vrbl  5,10,Fair,CLR,39.9,12.9,33,37,,30.02,1016.7,0,0,0,2025-12-22,12,2025,23,KCHO,0,0,0,0.49,5
2025-12-20,20,2025-12-20 0:53,0:53,EST,NW  5,10,Fair,CLR,37.9,12.9,36,35,,30.06,1017.9,0,0,0,2025-12-23,12,2025,0,KCHO,0,0,0,0.49,5
2025-12-20,20,2025-12-20 1:53,1:53,EST,Calm,10,Fair,CLR,35.1,14,42,,,30.1,1019.3,0,0,0,2025-12-23,12,2025,1,KCHO,0,0,0,0.41,0
2025-12-20,20,2025-12-20 2:53,2:53,EST,NW  3,10,Fair,CLR,32,16,52,,,30.13,1020.3,0,0,0,2025-12-23,12,2025,2,KCHO,0,0,0,0.33,3
2025-12-20,20,2025-12-20 3:53,3:53,EST,SE  5,10,Fair,CLR,28.9,18,63,25,,30.17,1021.9,0,0,0,2025-12-23,12,2025,3,KCHO,0,0,0,0.29,5
2025-12-20,20,2025-12-20 4:53,4:53,EST,E  6,10,Fair,CLR,28.9,18,63,23,,30.15,1021.2,0,0,0,2025-12-23,12,2025,4,KCHO,0,0,0,0.27,6
2025-12-20,20,2025-12-20 5:53,5:53,EST,Calm,10,Fair,CLR,28,19,69,,,30.18,1022.2,0,0,0,2025-12-23,12,2025,5,KCHO,0,0,0,0.05,0
2025-12-20,20,2025-12-20 6:53,6:53,EST,Calm,10,Fair,CLR,28,17.1,63,,,30.21,1023.4,0,0,0,2025-12-23,12,2025,6,KCHO,0,0,0,0.05,0
2025-12-20,20,2025-12-20 7:53,7:53,EST,SW  3,10,Fair,CLR,30,19,64,,,30.24,1024.3,0,0,0,2025-12-23,12,2025,7,KCHO,0,0,0,0,3
2025-12-20,20,2025-12-20 8:53,8:53,EST,Calm,10,Fair,CLR,32,23,69,,,30.26,1024.9,0,0,0,2025-12-23,12,2025,8,KCHO,0,0,0,0,0
2025-12-20,20,2025-12-20 9:53,9:53,EST,S  8,10,Fair,CLR,37,19.9,50,32,,30.28,1025.5,0,0,0,2025-12-23,12,2025,9,KCHO,0,0,0,0,8
2025-12-20,20,2025-12-20 10:53,10:53,EST,S  6,10,Fair,CLR,39.9,19.9,45,36,,30.25,1024.7,0,0,0,2025-12-23,12,2025,10,KCHO,0,0,0,0,6
2025-12-20,20,2025-12-20 11:53,11:53,EST,Vrbl  6,10,Fair,CLR,43,19,38,40,,30.2,1022.8,0,0,0,2025-12-23,12,2025,11,KCHO,0,0,0,0,6
2025-12-20,20,2025-12-20 12:53,12:53,EST,S  9,10,Fair,CLR,46,18,33,42,,30.15,1021.3,0,0,0,2025-12-23,12,2025,12,KCHO,0,0,0,0,9
2025-12-20,20,2025-12-20 13:53,13:53,EST,S  8,10,Fair,CLR,48.9,15.1,26,46,,30.13,1020.5,0,0,0,2025-12-23,12,2025,13,KCHO,0,0,0,0,8
2025-12-20,20,2025-12-20 14:53,14:53,EST,S  12,10,Fair,CLR,50,17.1,27,46,,30.11,1019.8,0,0,0,2025-12-23,12,2025,14,KCHO,0,0,0,0,12
2025-12-20,20,2025-12-20 15:53,15:53,EST,S  10,10,Fair,CLR,50,17.1,27,46,,30.11,1019.7,0,0,0,2025-12-23,12,2025,15,KCHO,0,0,0,0,10
2025-12-20,20,2025-12-20 16:53,16:53,EST,S  8,10,Fair,CLR,46,18,33,42,,30.11,1019.7,0,0,0,2025-12-23,12,2025,16,KCHO,0,0,0,0,8
2025-12-20,20,2025-12-20 17:53,17:53,EST,S  8,10,Fair,CLR,44.1,18,35,40,,30.11,1019.8,0,0,0,2025-12-23,12,2025,17,KCHO,0,0,0,0,8
2025-12-20,20,2025-12-20 18:53,18:53,EST,S  9,10,Fair,CLR,42.1,19,40,37,,30.11,1019.9,0,0,0,2025-12-23,12,2025,18,KCHO,0,0,0,0,9
2025-12-20,20,2025-12-20 19:53,19:53,EST,S  10,10,Fair,CLR,39.9,19.9,45,34,,30.08,1019,0,0,0,2025-12-23,12,2025,19,KCHO,0,0,0,0,10
2025-12-20,20,2025-12-20 20:53,20:53,EST,S  12,10,Fair,CLR,41,21,45,35,,30.07,1018.5,0,0,0,2025-12-23,12,2025,20,KCHO,0,0,0,0,12
2025-12-20,20,2025-12-20 21:53,21:53,EST,S  9,10,Fair,CLR,39,21,48,33,,30.06,1018.2,0,0,0,2025-12-23,12,2025,21,KCHO,0,0,0,0,9
2025-12-20,20,2025-12-20 22:53,22:53,EST,S  8,10,Fair,CLR,37,21,52,32,,30.06,1018,0,0,0,2025-12-23,12,2025,22,KCHO,0,0,0,0,8
2025-12-20,20,2025-12-20 23:53,23:53,EST,S  8,10,Fair,CLR,37,21,52,32,,30.04,1017.3,0,0,0,2025-12-23,12,2025,23,KCHO,0,0,0,0,8
2025-12-21,21,2025-12-21 0:53,0:53,EST,S  5,10,Fair,CLR,39,19.9,46,36,,30.03,1017,0,0,0,2025-12-24,12,2025,0,KCHO,0,0,0,0,5
2025-12-21,21,2025-12-21 1:53,1:53,EST,SW  6,10,Fair,CLR,37.9,21,51,34,,30.03,1016.8,0,0,0,2025-12-24,12,2025,1,KCHO,0,0,0,0,6
2025-12-21,21,2025-12-21 2:53,2:53,EST,S  9,10,Fair,CLR,37,21,52,31,,30.03,1017,0,0,0,2025-12-24,12,2025,2,KCHO,0,0,0,0,9
2025-12-21,21,2025-12-21 3:53,3:53,EST,S  9,10,Fair,CLR,37,21,52,31,,30.02,1016.7,0,0,0,2025-12-24,12,2025,3,KCHO,0,0,0,0,9
2025-12-21,21,2025-12-21 4:53,4:53,EST,S  7,10,Fair,CLR,37,21,52,32,,30.02,1016.9,0,0,0,2025-12-24,12,2025,4,KCHO,0,0,0,0,7
2025-12-21,21,2025-12-21 5:53,5:53,EST,S  5,10,Fair,CLR,37,21,52,34,,30.05,1017.7,0,0,0,2025-12-24,12,2025,5,KCHO,0,0,0,0,5
2025-12-21,21,2025-12-21 6:53,6:53,EST,Calm,10,Fair,CLR,45,21,39,,,30.07,1018.5,0,0,0,2025-12-24,12,2025,6,KCHO,0,0,0,0,0
2025-12-21,21,2025-12-21 7:53,7:53,EST,Vrbl  3,10,Fair,CLR,37.9,21.9,52,,,30.11,1019.7,0,0,0,2025-12-24,12,2025,7,KCHO,0,0,0,0,3
2025-12-21,21,2025-12-21 8:53,8:53,EST,Vrbl  5,10,Fair,CLR,50,17.1,27,49,,30.13,1020.4,0,0,0,2025-12-24,12,2025,8,KCHO,0,0,0,0,5
2025-12-21,21,2025-12-21 9:53,9:53,EST,Calm,10,Fair,CLR,50,12.9,22,,,30.16,1021.4,0,0,0,2025-12-24,12,2025,9,KCHO,0,0,0,0,0
2025-12-21,21,2025-12-21 10:53,10:53,EST,NW  5,10,Fair,CLR,51.1,1.9,13,,,30.19,1022.3,0,0,0,2025-12-24,12,2025,10,KCHO,0,0,0,0,5
2025-12-21,21,2025-12-21 11:53,11:53,EST,NW  3,10,Fair,CLR,50,1.9,14,,,30.19,1022.4,0,0,0,2025-12-24,12,2025,11,KCHO,0,0,0,0,3
2025-12-21,21,2025-12-21 12:53,12:53,EST,N  7,10,Fair,CLR,50,3,14,48,,30.2,1022.6,0,0,0,2025-12-24,12,2025,12,KCHO,0,0,0,0,7
2025-12-21,21,2025-12-21 13:53,13:53,EST,Calm,10,Fair,CLR,50,5,16,,,30.2,1022.8,0,0,0,2025-12-24,12,2025,13,KCHO,0,0,0,0,0
2025-12-21,21,2025-12-21 14:53,14:53,EST,N  3,10,Fair,CLR,51.1,6.1,16,,,30.21,1023.1,0,0,0,2025-12-24,12,2025,14,KCHO,0,0,0,0,3
2025-12-21,21,2025-12-21 15:53,15:53,EST,NW  9,10,Fair,CLR,51.1,1.9,13,,,30.25,1024.4,0,0,0,2025-12-24,12,2025,15,KCHO,0,0,0,0,9
2025-12-21,21,2025-12-21 16:53,16:53,EST,N  5,10,Fair,CLR,48.9,1,14,48,,30.28,1025.3,0,0,0,2025-12-24,12,2025,16,KCHO,0,0,0,0,5
2025-12-21,21,2025-12-21 17:53,17:53,EST,N  6,10,Fair,CLR,45,0,15,42,,30.31,1026.5,0,0,0,2025-12-24,12,2025,17,KCHO,0,0,0,0,6
2025-12-21,21,2025-12-21 18:53,18:53,EST,Vrbl  7,10,Fair,CLR,44.1,0,16,41,,30.35,1027.8,0,0,0,2025-12-24,12,2025,18,KCHO,0,0,0,0,7
2025-12-21,21,2025-12-21 19:53,19:53,EST,Vrbl  5,10,Fair,CLR,43,1,17,41,,30.39,1029.2,0,0,0,2025-12-24,12,2025,19,KCHO,0,0,0,0,5
2025-12-21,21,2025-12-21 20:53,20:53,EST,N  5,10,Fair,CLR,39.9,1.9,20,37,,30.41,1029.9,0,0,0,2025-12-24,12,2025,20,KCHO,0,0,0,0,5
2025-12-21,21,2025-12-21 21:53,21:53,EST,W  3,10,Fair,CLR,37,3,24,,,30.43,1030.6,0,0,0,2025-12-24,12,2025,21,KCHO,0,0,0,0,3
2025-12-21,21,2025-12-21 22:53,22:53,EST,Calm,10,Fair,CLR,37.9,3,23,,,30.46,1031.6,0,0,0,2025-12-24,12,2025,22,KCHO,0,0,0,0,0
2025-12-21,21,2025-12-21 23:53,23:53,EST,W  3,10,Fair,CLR,35.1,5,28,,,30.47,1031.9,0,0,0,2025-12-24,12,2025,23,KCHO,0,0,0,0,3
2025-12-22,22,2025-12-22 0:53,0:53,EST,W  5,10,Fair,CLR,35.1,5,28,32,,30.47,1031.8,0,0,0,2025-12-25,12,2025,0,KCHO,0,0,0,0,5
2025-12-22,22,2025-12-22 1:53,1:53,EST,Calm,10,Fair,CLR,34,5,29,,,30.48,1032.5,0,0,0,2025-12-25,12,2025,1,KCHO,0,0,0,0,0
2025-12-22,22,2025-12-22 2:53,2:53,EST,W  3,10,Fair,CLR,33.1,6.1,32,,,30.51,1033.3,0,0,0,2025-12-25,12,2025,2,KCHO,0,0,0,0,3
2025-12-22,22,2025-12-22 3:53,3:53,EST,W  3,10,Fair,CLR,28,8.1,43,,,30.51,1033.2,0,0,0,2025-12-25,12,2025,3,KCHO,0,0,0,0,3
2025-12-22,22,2025-12-22 4:53,4:53,EST,W  3,10,Fair,CLR,28.9,8.1,41,,,30.51,1033.3,0,0,0,2025-12-25,12,2025,4,KCHO,0,0,0,0,3
2025-12-22,22,2025-12-22 5:53,5:53,EST,Calm,10,Fair,CLR,27,10,49,,,30.52,1033.9,0,0,0,2025-12-25,12,2025,5,KCHO,0,0,0,0,0
2025-12-22,22,2025-12-22 6:53,6:53,EST,SW  3,10,Fair,CLR,24.1,12,60,,,30.54,1034.5,0,0,0,2025-12-25,12,2025,6,KCHO,0,0,0,0,3
2025-12-22,22,2025-12-22 7:53,7:53,EST,Calm,10,Fair,CLR,30.9,10,42,,,30.53,1034.3,0,0,0,2025-12-25,12,2025,7,KCHO,0,0,0,0,0
2025-12-22,22,2025-12-22 8:53,8:53,EST,Calm,10,Fair,CLR,32,16,52,,,30.55,1034.9,0,0,0,2025-12-25,12,2025,8,KCHO,0,0,0,0,0
2025-12-22,22,2025-12-22 9:53,9:53,EST,Calm,10,Fair,CLR,37,14,39,,,30.57,1035.7,0,0,0,2025-12-25,12,2025,9,KCHO,0,0,0,0,0
2025-12-22,22,2025-12-22 10:53,10:53,EST,Vrbl  3,10,Fair,CLR,43,12,28,,,30.56,1035.2,0,0,0,2025-12-25,12,2025,10,KCHO,0,0,0,0,3
2025-12-22,22,2025-12-22 11:53,11:53,EST,SW  5,10,Fair,CLR,45,10,24,43,,30.54,1034.4,0,0,0,2025-12-25,12,2025,11,KCHO,0,0,0,0,5
2025-12-22,22,2025-12-22 12:53,12:53,EST,Vrbl  5,10,Fair,CLR,48.9,12,22,48,,30.5,1033.2,0,0,0,2025-12-25,12,2025,12,KCHO,0,0,0,0,5
2025-12-22,22,2025-12-22 13:53,13:53,EST,S  7,10,Fair,CLR,48.9,10.9,21,46,,30.48,1032.5,0,0,0,2025-12-25,12,2025,13,KCHO,0,0,0,0,7
2025-12-22,22,2025-12-22 14:53,14:53,EST,S  9,10,Fair,CLR,48.9,12,22,45,,30.47,1032.2,0,0,0,2025-12-25,12,2025,14,KCHO,0,0,0,0,9
2025-12-22,22,2025-12-22 15:53,15:53,EST,S  8,10,Fair,CLR,46.9,10.9,23,44,,30.47,1032.1,0,0,0,2025-12-25,12,2025,15,KCHO,0,0,0,0,8
2025-12-22,22,2025-12-22 16:53,16:53,EST,S  6,10,Partly Cloudy,SCT085,42.1,12.9,30,39,,30.47,1032.1,0,0,0,2025-12-25,12,2025,16,KCHO,0,0,0,0,6
2025-12-22,22,2025-12-22 17:53,17:53,EST,S  5,10,Mostly Cloudy,BKN110,43,12.9,29,41,,30.45,1031.6,0,0,0,2025-12-25,12,2025,17,KCHO,0,0,0,0,5
2025-12-22,22,2025-12-22 18:53,18:53,EST,S  6,10,A Few Clouds,FEW100,39.9,14,35,36,,30.46,1031.7,0,0,0,2025-12-25,12,2025,18,KCHO,0,0,0,0,6
2025-12-22,22,2025-12-22 19:53,19:53,EST,S  6,10,Fair,CLR,41,14,33,38,,30.45,1031.4,0,0,0,2025-12-25,12,2025,19,KCHO,0,0,0,0,6
2025-12-22,22,2025-12-22 20:53,20:53,EST,S  6,10,Partly Cloudy,SCT120,41,15.1,35,38,,30.45,1031.4,0,0,0,2025-12-25,12,2025,20,KCHO,0,0,0,0,6
2025-12-22,22,2025-12-22 21:53,21:53,EST,S  6,10,Fair,CLR,39,15.1,38,35,,30.42,1030.5,0,0,0,2025-12-25,12,2025,21,KCHO,0,0,0,0,6
2025-12-22,22,2025-12-22 22:53,22:53,EST,S  7,10,Fair,CLR,39,15.1,38,35,,30.38,1029,0,0,0,2025-12-25,12,2025,22,KCHO,0,0,0,0,7
2025-12-22,22,2025-12-22 23:53,23:53,EST,Vrbl  6,10,Overcast,OVC080,41,15.1,35,38,,30.36,1028.2,0,0,0,2025-12-25,12,2025,23,KCHO,0,0,0,0,6
2025-12-23,23,2025-12-23 0:53,0:53,EST,S  9,10,Overcast,OVC060,39.9,19.9,45,34,,30.33,1027.2,0,0,0,2025-12-26,12,2025,0,KCHO,0,0,0,0,9
2025-12-23,23,2025-12-23 1:53,1:53,EST,S  9,10,Overcast,OVC055,39,21,48,33,,30.3,1026.3,0,0,0,2025-12-26,12,2025,1,KCHO,0,0,0,0,9
2025-12-23,23,2025-12-23 2:53,2:53,EST,S  9,10,Overcast,OVC050,39.9,19.9,45,34,,30.28,1025.4,0,0,0,2025-12-26,12,2025,2,KCHO,0,0,0,0,9
2025-12-23,23,2025-12-23 3:53,3:53,EST,S  9,10,Overcast,OVC044,41,19,41,36,,30.25,1024.5,0,0,0,2025-12-26,12,2025,3,KCHO,0,0,0,0,9
2025-12-23,23,2025-12-23 4:53,4:53,EST,S  10,10,Overcast,OVC055,42.1,18,38,37,,30.21,1023.3,0,0,0,2025-12-26,12,2025,4,KCHO,0,0,0,0,10
2025-12-23,23,2025-12-23 5:53,5:53,EST,S  12,10,Overcast,BKN038 OVC045,42.1,21,43,36,,30.19,1022.6,0,0,0,2025-12-26,12,2025,5,KCHO,0,0,0,0,12
2025-12-23,23,2025-12-23 6:53,6:53,EST,S  12,10,Overcast,SCT040 OVC050,41,25,53,35,,30.19,1022.5,0,0,0,2025-12-26,12,2025,6,KCHO,0,0,0,0,12
2025-12-23,23,2025-12-23 7:53,7:53,EST,S  14,10,Overcast,BKN042 OVC049,41,28,60,34,,30.16,1021.5,0,0,0,2025-12-26,12,2025,7,KCHO,0,0,0,0,14
2025-12-23,23,2025-12-23 8:53,8:53,EST,S  13,10,Overcast,BKN038 OVC048,42.1,30,62,36,,30.15,1021.2,0,0,0,2025-12-26,12,2025,8,KCHO,0,0,0,0,13
2025-12-23,23,2025-12-23 9:53,9:53,EST,S  10,10,Overcast,OVC050,43,30.9,63,38,,30.15,1021.1,0,0,0,2025-12-26,12,2025,9,KCHO,0,0,0,0,10
2025-12-23,23,2025-12-23 10:53,10:53,EST,S  9,10,Overcast,OVC055,44.1,30.9,60,40,,30.13,1020.6,0,0,0,2025-12-26,12,2025,10,KCHO,0,0,0,0,9
2025-12-23,23,2025-12-23 11:53,11:53,EST,S  7,10,Mostly Cloudy,BKN060,48,32,54,45,,30.09,1018.8,0,0,0,2025-12-26,12,2025,11,KCHO,0,0,0,0,7
2025-12-23,23,2025-12-23 12:53,12:53,EST,S  12,10,Fair,CLR,53.1,34,48,,,30.03,1017,0,0,0,2025-12-26,12,2025,12,KCHO,0,0,0,0,12
2025-12-23,23,2025-12-23 13:53,13:53,EST,S  10,10,Fair,CLR,55.9,36,47,,,30.01,1016.1,0,0,0,2025-12-26,12,2025,13,KCHO,0,0,0,0,10
2025-12-23,23,2025-12-23 14:53,14:53,EST,S  10  G 17,10,Fair,CLR,57.9,37.9,48,,,30.01,1016.1,0,0,0,2025-12-26,12,2025,14,KCHO,0,0,0,0,10
2025-12-23,23,2025-12-23 15:53,15:53,EST,S  7,10,Fair,CLR,57.9,37.9,48,,,30.01,1016.1,0,0,0,2025-12-26,12,2025,15,KCHO,0,0,0,0,7
2025-12-23,23,2025-12-23 16:53,16:53,EST,SE  7,10,Fair,CLR,55,39,55,,,30.02,1016.4,0,0,0,2025-12-26,12,2025,16,KCHO,0,0,0,0,7
2025-12-23,23,2025-12-23 17:53,17:53,EST,Calm,10,Fair,CLR,54,39.9,59,,,30.03,1016.8,0,0,0,2025-12-26,12,2025,17,KCHO,0,0,0,0,0
2025-12-23,23,2025-12-23 18:53,18:53,EST,Vrbl  3,10,Fair,CLR,53.1,39.9,61,,,30.03,1016.9,0,0,0,2025-12-26,12,2025,18,KCHO,0,0,0,0,3
2025-12-23,23,2025-12-23 19:53,19:53,EST,S  3,10,Fair,CLR,53.1,41,64,,,30.03,1016.9,0,0,0,2025-12-26,12,2025,19,KCHO,0,0,0,0,3
2025-12-23,23,2025-12-23 20:53,20:53,EST,S  6,10,Partly Cloudy,SCT055,57,43,60,,,30.03,1016.8,0,0,0,2025-12-26,12,2025,20,KCHO,0,0,0,0,6
2025-12-23,23,2025-12-23 21:53,21:53,EST,S  6,10,Fair,CLR,55.9,43,62,,,30.03,1016.7,0,0,0,2025-12-26,12,2025,21,KCHO,0,0,0,0,6
2025-12-23,23,2025-12-23 22:53,22:53,EST,S  5,10,Fair,CLR,55,44.1,67,,,30.03,1016.9,0,0,0,2025-12-26,12,2025,22,KCHO,0,0,0,0,5
2025-12-23,23,2025-12-23 23:53,23:53,EST,Calm,10,Fair,CLR,55,43,64,,,30.02,1016.3,0,0,0,2025-12-26,12,2025,23,KCHO,0,0,0,0,0
2025-12-24,24,2025-12-24 0:53,0:53,EST,S  5,10,Fair,CLR,54,44.1,69,,,30,1015.8,0,0,0,2025-12-27,12,2025,0,KCHO,0,0,0,0,5
2025-12-24,24,2025-12-24 1:53,1:53,EST,NW  5,10,Fair,CLR,55.9,44.1,65,,,30.01,1016,0,0,0,2025-12-27,12,2025,1,KCHO,0,0,0,0,5
2025-12-24,24,2025-12-24 2:53,2:53,EST,W  9,10,Fair,CLR,61,43,52,,,30.03,1016.4,0,0,0,2025-12-27,12,2025,2,KCHO,0,0,0,0,9
2025-12-24,24,2025-12-24 3:53,3:53,EST,NW  7,10,Fair,CLR,61,42.1,50,,,30.03,1016.6,0,0,0,2025-12-27,12,2025,3,KCHO,0,0,0,0,7
2025-12-24,24,2025-12-24 4:53,4:53,EST,NW  6,10,Fair,CLR,60.1,41,50,,,30.05,1017.3,0,0,0,2025-12-27,12,2025,4,KCHO,0,0,0,0,6
2025-12-24,24,2025-12-24 5:53,5:53,EST,NW  7  G 20,10,Fair,CLR,60.1,39.9,48,,,30.09,1018.6,0,0,0,2025-12-27,12,2025,5,KCHO,0,0,0,0,7
2025-12-24,24,2025-12-24 6:53,6:53,EST,NW  10  G 24,10,Fair,CLR,59,33.1,38,,,30.12,1019.7,0,0,0,2025-12-27,12,2025,6,KCHO,0,0,0,0,10
2025-12-24,24,2025-12-24 7:53,7:53,EST,Calm,10,Fair,CLR,57.9,25,28,,,30.16,1021,0,0,0,2025-12-27,12,2025,7,KCHO,0,0,0,0,0
2025-12-24,24,2025-12-24 8:53,8:53,EST,Calm,10,Fair,CLR,59,26.1,28,,,30.2,1022.3,0,0,0,2025-12-27,12,2025,8,KCHO,0,0,0,0,0
2025-12-24,24,2025-12-24 9:53,9:53,EST,NE  5,10,Fair,CLR,61,24.1,24,,,30.22,1023.1,0,0,0,2025-12-27,12,2025,9,KCHO,0,0,0,0,5
2025-12-24,24,2025-12-24 10:53,10:53,EST,N  7,10,Fair,CLR,62.1,17.1,17,,,30.24,1023.6,0,0,0,2025-12-27,12,2025,10,KCHO,0,0,0,0,7
2025-12-24,24,2025-12-24 11:53,11:53,EST,N  8,10,Fair,CLR,63,14,15,,,30.22,1023,0,0,0,2025-12-27,12,2025,11,KCHO,0,0,0,0,8
2025-12-24,24,2025-12-24 12:53,12:53,EST,N  7,10,Fair,CLR,63,14,15,,,30.19,1022,0,0,0,2025-12-27,12,2025,12,KCHO,0,0,0,0,7
2025-12-24,24,2025-12-24 13:53,13:53,EST,N  9,10,Fair,CLR,64,10.9,12,,,30.19,1022.1,0,0,0,2025-12-27,12,2025,13,KCHO,0,0,0,0,9
2025-12-24,24,2025-12-24 14:53,14:53,EST,Calm,10,Fair,CLR,64,10,12,,,30.2,1022.2,0,0,0,2025-12-27,12,2025,14,KCHO,0,0,0,0,0
2025-12-24,24,2025-12-24 15:53,15:53,EST,N  6,10,Fair,CLR,61,12,14,,,30.23,1023.2,0,0,0,2025-12-27,12,2025,15,KCHO,0,0,0,0,6
2025-12-24,24,2025-12-24 16:53,16:53,EST,NE  10,10,Fair,CLR,57.9,19.9,23,,,30.24,1023.6,0,0,0,2025-12-27,12,2025,16,KCHO,0,0,0,0,10
2025-12-24,24,2025-12-24 17:53,17:53,EST,NE  6,10,Fair,CLR,54,21,28,,,30.25,1024.2,0,0,0,2025-12-27,12,2025,17,KCHO,0,0,0,0,6
2025-12-24,24,2025-12-24 18:53,18:53,EST,NE  5,10,Fair,CLR,51.1,21,31,,,30.26,1024.4,0,0,0,2025-12-27,12,2025,18,KCHO,0,0,0,0,5
2025-12-24,24,2025-12-24 19:53,19:53,EST,Calm,10,Fair,CLR,53.1,19.9,27,,,30.28,1025,0,0,0,2025-12-27,12,2025,19,KCHO,0,0,0,0,0
2025-12-24,24,2025-12-24 20:53,20:53,EST,N  5,10,Fair,CLR,48.9,21,33,48,,30.27,1024.8,0,0,0,2025-12-27,12,2025,20,KCHO,0,0,0,0,5
2025-12-24,24,2025-12-24 21:53,21:53,EST,N  5,10,Fair,CLR,48,21,34,47,,30.27,1024.9,0,0,0,2025-12-27,12,2025,21,KCHO,0,0,0,0,5
2025-12-24,24,2025-12-24 22:53,22:53,EST,Calm,10,Fair,CLR,46,19.9,35,,,30.28,1025.2,0,0,0,2025-12-27,12,2025,22,KCHO,0,0,0,0,0
2025-12-24,24,2025-12-24 23:53,23:53,EST,Calm,10,Fair,CLR,44.1,21,40,,,30.27,1024.9,0,0,0,2025-12-27,12,2025,23,KCHO,0,0,0,0,0
2025-12-25,25,2025-12-25 0:53,0:53,EST,Calm,10,Fair,CLR,43,19.9,40,,,30.25,1024.4,0,0,0,2025-12-28,12,2025,0,KCHO,0,0,0,0,0
2025-12-25,25,2025-12-25 1:53,1:53,EST,Calm,10,Overcast,OVC060,44.1,19.9,38,,,30.24,1023.8,0,0,0,2025-12-28,12,2025,1,KCHO,0,0,0,0,0
2025-12-25,25,2025-12-25 2:53,2:53,EST,Calm,10,Mostly Cloudy,BKN060,44.1,19.9,38,,,30.21,1022.8,0,0,0,2025-12-28,12,2025,2,KCHO,0,0,0,0,0
2025-12-25,25,2025-12-25 3:53,3:53,EST,S  9,10,Overcast,OVC060,44.1,23,43,40,,30.18,1022,0,0,0,2025-12-28,12,2025,3,KCHO,0,0,0,0,9
2025-12-25,25,2025-12-25 4:53,4:53,EST,SW  6,10,Mostly Cloudy,SCT050 BKN080,43,21.9,43,40,,30.14,1020.6,0,0,0,2025-12-28,12,2025,4,KCHO,0,0,0,0,6
2025-12-25,25,2025-12-25 5:53,5:53,EST,SW  5,10,Overcast,OVC095,44.1,23,43,42,,30.13,1020.1,0,0,0,2025-12-28,12,2025,5,KCHO,0,0,0,0,5
2025-12-25,25,2025-12-25 6:53,6:53,EST,Calm,9,Light Rain,BKN090 OVC110,42.1,30.9,65,,,30.13,1020.3,0,0,0,2025-12-28,12,2025,6,KCHO,0,0,0,0,0
2025-12-25,25,2025-12-25 7:53,7:53,EST,SW  9,10,Light Rain,SCT055 BKN070 OVC100,39,36,89,33,,30.07,1018.3,0.08,0,0,2025-12-28,12,2025,7,KCHO,0.08,0.08,0.08,0.08,9
2025-12-25,25,2025-12-25 8:53,8:53,EST,SW  5,10,Overcast,BKN090 OVC100,42.1,39,89,40,,30.03,1016.8,0,0,0,2025-12-28,12,2025,8,KCHO,0.08,0.08,0.08,0.08,5
2025-12-25,25,2025-12-25 10:53,10:53,EST,SW  8,10,Partly Cloudy,SCT110,48.9,44.1,83,46,,29.99,1015.4,0,0,0,2025-12-28,12,2025,10,KCHO,0.08,0.08,0.08,0.08,8
2025-12-25,25,2025-12-25 12:53,12:53,EST,S  8,10,Fair,CLR,63,48.9,60,,,29.89,1012.1,0,0,0.08,2025-12-28,12,2025,12,KCHO,0,0.08,0.08,0.08,8
2025-12-25,25,2025-12-25 13:53,13:53,EST,S  5,10,A Few Clouds,FEW047,64,48.9,58,,,29.88,1011.6,0,0,0,2025-12-28,12,2025,13,KCHO,0,0.08,0.08,0.08,5
2025-12-25,25,2025-12-25 14:53,14:53,EST,S  8,10,Partly Cloudy,SCT055,61,48.9,65,,,29.91,1012.6,0,0,0,2025-12-28,12,2025,14,KCHO,0,0.08,0.08,0.08,8
2025-12-25,25,2025-12-25 15:53,15:53,EST,S  3,10,Mostly Cloudy,BKN060,64,50,60,,,29.92,1013,0,0,0,2025-12-28,12,2025,15,KCHO,0,0,0.08,0.08,3
2025-12-25,25,2025-12-25 16:53,16:53,EST,Calm,10,A Few Clouds,FEW055,61,50,67,,,29.95,1013.9,0,0,0,2025-12-28,12,2025,16,KCHO,0,0,0.08,0.08,0
2025-12-25,25,2025-12-25 17:53,17:53,EST,NE  5,10,Fair,CLR,57,48.9,74,,,29.99,1015.3,0,0,0,2025-12-28,12,2025,17,KCHO,0,0,0.08,0.08,5
2025-12-25,25,2025-12-25 18:53,18:53,EST,NE  7,10,Fair,CLR,55.9,46,70,,,30.04,1017.1,0,0,0,2025-12-28,12,2025,18,KCHO,0,0,0.08,0.08,7
2025-12-25,25,2025-12-25 19:53,19:53,EST,NE  3,10,Fair,CLR,54,45,72,,,30.05,1017.5,0,0,0,2025-12-28,12,2025,19,KCHO,0,0,0.08,0.08,3
2025-12-25,25,2025-12-25 20:53,20:53,EST,Calm,10,Fair,CLR,51.1,44.1,77,,,30.07,1018.4,0,0,0,2025-12-28,12,2025,20,KCHO,0,0,0.08,0.08,0
2025-12-25,25,2025-12-25 21:53,21:53,EST,N  10,10,Fair,CLR,48,35.1,61,44,,30.11,1019.8,0,0,0,2025-12-28,12,2025,21,KCHO,0,0,0,0.08,10
2025-12-25,25,2025-12-25 22:53,22:53,EST,NE  8,10,Fair,CLR,45,27,49,41,,30.13,1020.2,0,0,0,2025-12-28,12,2025,22,KCHO,0,0,0,0.08,8
2025-12-25,25,2025-12-25 23:53,23:53,EST,Calm,10,Fair,CLR,45,25,46,,,30.13,1020,0,0,0,2025-12-28,12,2025,23,KCHO,0,0,0,0.08,0
2025-12-26,26,2025-12-26 0:53,0:53,EST,NE  10,10,Fair,CLR,41,26.1,55,35,,30.12,1019.8,0,0,0,2025-12-29,12,2025,0,KCHO,0,0,0,0.08,10
2025-12-26,26,2025-12-26 1:53,1:53,EST,NE  9,10,Fair,CLR,41,28.9,62,36,,30.13,1020.2,0,0,0,2025-12-29,12,2025,1,KCHO,0,0,0,0.08,9
2025-12-26,26,2025-12-26 2:53,2:53,EST,NE  7,10,Fair,CLR,39.9,25,55,36,,30.16,1021.2,0,0,0,2025-12-29,12,2025,2,KCHO,0,0,0,0.08,7
2025-12-26,26,2025-12-26 3:53,3:53,EST,NE  9,10,Fair,CLR,37.9,21,51,32,,30.15,1020.9,0,0,0,2025-12-29,12,2025,3,KCHO,0,0,0,0.08,9
2025-12-26,26,2025-12-26 4:53,4:53,EST,NE  6,10,Fair,CLR,37,19.9,50,33,,30.16,1021.3,0,0,0,2025-12-29,12,2025,4,KCHO,0,0,0,0.08,6
2025-12-26,26,2025-12-26 5:53,5:53,EST,NE  6,10,Fair,CLR,36,19,50,32,,30.18,1022.1,0,0,0,2025-12-29,12,2025,5,KCHO,0,0,0,0.08,6
2025-12-26,26,2025-12-26 6:53,6:53,EST,NE  7,10,Fair,CLR,35.1,19,52,30,,30.18,1022.1,0,0,0,2025-12-29,12,2025,6,KCHO,0,0,0,0.08,7
2025-12-26,26,2025-12-26 7:53,7:53,EST,E  5,10,Overcast,OVC036,35.1,19,52,32,,30.2,1022.6,0,0,0,2025-12-29,12,2025,7,KCHO,0,0,0,0.08,5
2025-12-26,26,2025-12-26 8:53,8:53,EST,E  5,10,Overcast,OVC037,35.1,21,57,32,,30.21,1023.1,0,0,0,2025-12-29,12,2025,8,KCHO,0,0,0,0.08,5
2025-12-26,26,2025-12-26 9:53,9:53,EST,NE  3,10,Overcast,OVC040,35.1,19.9,54,,,30.21,1023.1,0,0,0,2025-12-29,12,2025,9,KCHO,0,0,0,0,3
2025-12-26,26,2025-12-26 10:53,10:53,EST,N  3,10,Overcast,OVC040,35.1,19.9,54,,,30.19,1022.4,0,0,0,2025-12-29,12,2025,10,KCHO,0,0,0,0,3
2025-12-26,26,2025-12-26 11:53,11:53,EST,S  5,10,Overcast,OVC039,36,19.9,52,33,,30.12,1020.3,0,0,0,2025-12-29,12,2025,11,KCHO,0,0,0,0,5
2025-12-26,26,2025-12-26 12:53,12:53,EST,S  7,10,Overcast,OVC041,37,19.9,50,32,,30.08,1018.9,0,0,0,2025-12-29,12,2025,12,KCHO,0,0,0,0,7
2025-12-26,26,2025-12-26 13:53,13:53,EST,S  7,10,Overcast,OVC040,37.9,21.9,52,33,,30.04,1017.4,0,0,0,2025-12-29,12,2025,13,KCHO,0,0,0,0,7
2025-12-26,26,2025-12-26 14:53,14:53,EST,S  9,10,Overcast,OVC041,37.9,23,55,32,,30,1016,0,0,0,2025-12-29,12,2025,14,KCHO,0,0,0,0,9
2025-12-26,26,2025-12-26 15:53,15:53,EST,S  8,10,Overcast,OVC039,37.9,23,55,33,,29.99,1015.7,0,0,0,2025-12-29,12,2025,15,KCHO,0,0,0,0,8
2025-12-26,26,2025-12-26 16:53,16:53,EST,S  10,10,Overcast,OVC035,37.9,21.9,52,32,,29.95,1014.3,0,0,0,2025-12-29,12,2025,16,KCHO,0,0,0,0,10
2025-12-26,26,2025-12-26 17:53,17:53,EST,S  8,10,Overcast,SCT060 OVC090,37.9,23,55,33,,29.92,1013.4,0,0,0,2025-12-29,12,2025,17,KCHO,0,0,0,0,8
2025-12-26,26,2025-12-26 18:53,18:53,EST,S  9,10,Overcast,OVC085,39,23,53,33,,29.89,1012.5,0,0,0,2025-12-29,12,2025,18,KCHO,0,0,0,0,9
2025-12-26,26,2025-12-26 19:53,19:53,EST,S  12,10,A Few Clouds,FEW100,37,24.1,59,30,,29.86,1011.5,0,0,0,2025-12-29,12,2025,19,KCHO,0,0,0,0,12
2025-12-26,26,2025-12-26 20:53,20:53,EST,S  9,10,A Few Clouds,FEW100,37,25,62,31,,29.84,1010.6,0,0,0,2025-12-29,12,2025,20,KCHO,0,0,0,0,9
2025-12-26,26,2025-12-26 21:53,21:53,EST,S  15,10,Fair,CLR,37.9,25,60,30,,29.79,1009,0,0,0,2025-12-29,12,2025,21,KCHO,0,0,0,0,15
2025-12-26,26,2025-12-26 22:53,22:53,EST,S  9,10,Fair,CLR,37.9,26.1,62,32,,29.78,1008.5,0,0,0,2025-12-29,12,2025,22,KCHO,0,0,0,0,9
2025-12-26,26,2025-12-26 23:53,23:53,EST,SW  6,10,Fair,CLR,39.9,27,60,36,,29.76,1007.9,0,0,0,2025-12-29,12,2025,23,KCHO,0,0,0,0,6
2025-12-27,27,2025-12-27 0:53,0:53,EST,Calm,10,Fair,CLR,39,27,62,,,29.75,1007.7,0,0,0,2025-12-30,12,2025,0,KCHO,0,0,0,0,0
2025-12-27,27,2025-12-27 1:53,1:53,EST,S  10,10,Fair,CLR,37,28.9,73,30,,29.76,1008,0,0,0,2025-12-30,12,2025,1,KCHO,0,0,0,0,10
2025-12-27,27,2025-12-27 2:53,2:53,EST,NE  3,10,Fair,CLR,34,28,79,,,29.78,1008.8,0,0,0,2025-12-30,12,2025,2,KCHO,0,0,0,0,3
2025-12-27,27,2025-12-27 3:53,3:53,EST,NE  7,10,Fair,CLR,34,28,79,29,,29.81,1009.8,0,0,0,2025-12-30,12,2025,3,KCHO,0,0,0,0,7
2025-12-27,27,2025-12-27 4:53,4:53,EST,N  5,10,Fair,CLR,34,28,79,30,,29.85,1011,0,0,0,2025-12-30,12,2025,4,KCHO,0,0,0,0,5
2025-12-27,27,2025-12-27 5:53,5:53,EST,N  6,10,Fair,CLR,34,27,76,29,,29.89,1012.5,0,0,0,2025-12-30,12,2025,5,KCHO,0,0,0,0,6
2025-12-27,27,2025-12-27 6:53,6:53,EST,N  5,10,Fair,CLR,34,26.1,73,30,,29.94,1014,0,0,0,2025-12-30,12,2025,6,KCHO,0,0,0,0,5
2025-12-27,27,2025-12-27 7:53,7:53,EST,Calm,10,Fair,CLR,34,26.1,73,,,29.98,1015.5,0,0,0,2025-12-30,12,2025,7,KCHO,0,0,0,0,0
2025-12-27,27,2025-12-27 8:53,8:53,EST,Calm,10,Fair,CLR,37,26.1,65,,,30.02,1016.7,0,0,0,2025-12-30,12,2025,8,KCHO,0,0,0,0,0
2025-12-27,27,2025-12-27 9:53,9:53,EST,Calm,10,Fair,CLR,37.9,27,65,,,30.05,1017.8,0,0,0,2025-12-30,12,2025,9,KCHO,0,0,0,0,0
2025-12-27,27,2025-12-27 10:53,10:53,EST,E  5,10,Fair,CLR,42.1,30,62,40,,30.06,1018.1,0,0,0,2025-12-30,12,2025,10,KCHO,0,0,0,0,5
2025-12-27,27,2025-12-27 11:53,11:53,EST,Calm,10,Fair,CLR,45,32,61,,,30.04,1017.4,0,0,0,2025-12-30,12,2025,11,KCHO,0,0,0,0,0
2025-12-27,27,2025-12-27 12:53,12:53,EST,Vrbl  3,10,Fair,CLR,48,34,58,,,30.03,1016.8,0,0,0,2025-12-30,12,2025,12,KCHO,0,0,0,0,3
2025-12-27,27,2025-12-27 13:53,13:53,EST,Calm,10,Partly Cloudy,SCT025,46.9,34,61,,,30.03,1017.1,0,0,0,2025-12-30,12,2025,13,KCHO,0,0,0,0,0
2025-12-27,27,2025-12-27 14:53,14:53,EST,E  5,10,Fair,CLR,48.9,35.1,59,48,,30.05,1017.6,0,0,0,2025-12-30,12,2025,14,KCHO,0,0,0,0,5
2025-12-27,27,2025-12-27 15:53,15:53,EST,E  5,10,Fair,CLR,48,35.1,61,47,,30.07,1018.5,0,0,0,2025-12-30,12,2025,15,KCHO,0,0,0,0,5
2025-12-27,27,2025-12-27 16:53,16:53,EST,NE  8,10,Fair,CLR,45,34,66,41,,30.09,1019.2,0,0,0,2025-12-30,12,2025,16,KCHO,0,0,0,0,8
2025-12-27,27,2025-12-27 17:53,17:53,EST,NE  7,10,Fair,CLR,41,33.1,73,37,,30.12,1020.3,0,0,0,2025-12-30,12,2025,17,KCHO,0,0,0,0,7
2025-12-27,27,2025-12-27 18:53,18:53,EST,NE  6,10,Fair,CLR,39.9,32,73,36,,30.14,1021,0,0,0,2025-12-30,12,2025,18,KCHO,0,0,0,0,6
2025-12-27,27,2025-12-27 19:53,19:53,EST,NE  5,10,Overcast,OVC029,37,30.9,79,34,,30.16,1021.7,0,0,0,2025-12-30,12,2025,19,KCHO,0,0,0,0,5
2025-12-27,27,2025-12-27 20:53,20:53,EST,Calm,10,Overcast,OVC026,39,32,76,,,30.18,1022.3,0,0,0,2025-12-30,12,2025,20,KCHO,0,0,0,0,0
2025-12-27,27,2025-12-27 21:53,21:53,EST,Calm,10,Overcast,OVC025,39,32,76,,,30.19,1022.6,0,0,0,2025-12-30,12,2025,21,KCHO,0,0,0,0,0
2025-12-27,27,2025-12-27 22:53,22:53,EST,NE  3,10,Overcast,OVC024,39,32,76,,,30.19,1022.5,0,0,0,2025-12-30,12,2025,22,KCHO,0,0,0,0,3
2025-12-27,27,2025-12-27 23:53,23:53,EST,Calm,10,Overcast,OVC023,39,32,76,,,30.19,1022.6,0,0,0,2025-12-30,12,2025,23,KCHO,0,0,0,0,0
2025-12-28,28,2025-12-28 0:53,0:53,EST,Calm,10,Overcast,OVC022,37.9,33.1,83,,,30.19,1022.4,0,0,0,2025-12-31,12,2025,0,KCHO,0,0,0,0,0
2025-12-28,28,2025-12-28 1:53,1:53,EST,NE  5,10,Overcast,OVC022,37.9,32,79,35,,30.19,1022.4,0,0,0,2025-12-31,12,2025,1,KCHO,0,0,0,0,5
2025-12-28,28,2025-12-28 2:53,2:53,EST,Calm,10,Overcast,OVC023,37.9,30.9,76,,,30.21,1022.9,0,0,0,2025-12-31,12,2025,2,KCHO,0,0,0,0,0
2025-12-28,28,2025-12-28 3:53,3:53,EST,S  6,10,Overcast,OVC020,37.9,30.9,76,34,,30.19,1022.5,0,0,0,2025-12-31,12,2025,3,KCHO,0,0,0,0,6
2025-12-28,28,2025-12-28 4:53,4:53,EST,S  6,10,Overcast,OVC021,37,30.9,79,33,,30.18,1022.1,0,0,0,2025-12-31,12,2025,4,KCHO,0,0,0,0,6
2025-12-28,28,2025-12-28 5:53,5:53,EST,S  8,10,Overcast,OVC020,37,30.9,79,32,,30.18,1022.2,0,0,0,2025-12-31,12,2025,5,KCHO,0,0,0,0,8
2025-12-28,28,2025-12-28 6:53,6:53,EST,S  8,10,Overcast,OVC021,37,30.9,79,32,,30.16,1021.4,0,0,0,2025-12-31,12,2025,6,KCHO,0,0,0,0,8
2025-12-28,28,2025-12-28 7:53,7:53,EST,S  7,10,Overcast,OVC020,37.9,30.9,76,33,,30.17,1022,0,0,0,2025-12-31,12,2025,7,KCHO,0,0,0,0,7
2025-12-28,28,2025-12-28 8:53,8:53,EST,S  8,10,Mostly Cloudy,BKN022,39,32,76,34,,30.16,1021.6,0,0,0,2025-12-31,12,2025,8,KCHO,0,0,0,0,8
2025-12-28,28,2025-12-28 9:53,9:53,EST,S  10,10,Overcast,OVC014,39.9,34,79,34,,30.16,1021.5,0,0,0,2025-12-31,12,2025,9,KCHO,0,0,0,0,10
2025-12-28,28,2025-12-28 10:53,10:53,EST,SW  10,10,Overcast,OVC014,41,34,76,35,,30.14,1020.9,0,0,0,2025-12-31,12,2025,10,KCHO,0,0,0,0,10
2025-12-28,28,2025-12-28 11:53,11:53,EST,S  14,10,Overcast,OVC016,42.1,34,73,35,,30.1,1019.3,0,0,0,2025-12-31,12,2025,11,KCHO,0,0,0,0,14
2025-12-28,28,2025-12-28 12:53,12:53,EST,S  14  G 20,10,Overcast,OVC018,43,35.1,74,37,,30.06,1018,0,0,0,2025-12-31,12,2025,12,KCHO,0,0,0,0,14
2025-12-28,28,2025-12-28 13:53,13:53,EST,S  13  G 20,10,Overcast,BKN019 OVC024,45,36,71,39,,30.02,1016.6,0,0,0,2025-12-31,12,2025,13,KCHO,0,0,0,0,13
2025-12-28,28,2025-12-28 14:53,14:53,EST,S  12,10,Overcast,OVC022,44.1,36,73,39,,30.01,1016.2,0,0,0,2025-12-31,12,2025,14,KCHO,0,0,0,0,12
2025-12-28,28,2025-12-28 15:53,15:53,EST,S  10,10,Overcast,OVC020,44.1,36,73,39,,29.99,1015.7,0,0,0,2025-12-31,12,2025,15,KCHO,0,0,0,0,10
2025-12-28,28,2025-12-28 16:53,16:53,EST,S  12,10,Overcast,OVC021,43,37,80,37,,29.96,1014.5,0,0,0,2025-12-31,12,2025,16,KCHO,0,0,0,0,12
2025-12-28,28,2025-12-28 17:53,17:53,EST,S  14,10,Overcast,OVC016,43,37.9,82,37,,29.95,1014.3,0,0,0,2025-12-31,12,2025,17,KCHO,0,0,0,0,14
2025-12-28,28,2025-12-28 18:53,18:53,EST,S  12,10,Overcast,OVC012,43,37.9,82,37,,29.93,1013.7,0,0,0,2025-12-31,12,2025,18,KCHO,0,0,0,0,12
2025-12-28,28,2025-12-28 19:53,19:53,EST,S  13,10,Overcast,OVC009,43,39,86,37,,29.9,1012.5,0,0,0,2025-12-31,12,2025,19,KCHO,0,0,0,0,13
2025-12-28,28,2025-12-28 20:53,20:53,EST,S  15,10,Overcast,OVC006,43,39.9,89,36,,29.85,1011,0,0,0,2025-12-31,12,2025,20,KCHO,0,0,0,0,15
2025-12-28,28,2025-12-28 21:53,21:53,EST,S  13,10,Overcast,OVC005,43,41,93,37,,29.82,1009.9,0,0,0,2025-12-31,12,2025,21,KCHO,0,0,0,0,13
2025-12-28,28,2025-12-28 22:53,22:53,EST,S  13  G 25,10,Overcast,OVC005,44.1,41,89,38,,29.78,1008.6,0,0,0,2025-12-31,12,2025,22,KCHO,0,0,0,0,13
2025-12-28,28,2025-12-28 23:53,23:53,EST,S  14,10,Overcast,OVC005,44.1,42.1,93,38,,29.75,1007.5,0,0,0,2025-12-31,12,2025,23,KCHO,0,0,0,0,14
2025-12-29,29,2025-12-29 0:53,0:53,EST,S  16,10,Overcast,OVC005,44.1,42.1,93,37,,29.72,1006.5,0,0,0,2026-01-01,12,2025,0,KCHO,0,0,0,0,16
2025-12-29,29,2025-12-29 1:53,1:53,EST,SW  14,10,Overcast,OVC005,45,43,93,39,,29.68,1005.2,0,0,0,2026-01-01,12,2025,1,KCHO,0,0,0,0,14
2025-12-29,29,2025-12-29 2:53,2:53,EST,S  15,9,Overcast,OVC004,46,44.1,93,40,,29.65,1004.1,0,0,0,2026-01-01,12,2025,2,KCHO,0,0,0,0,15
2025-12-29,29,2025-12-29 3:53,3:53,EST,S  15,8,Overcast,OVC004,46,45,96,40,,29.61,1002.6,0,0,0,2026-01-01,12,2025,3,KCHO,0,0,0,0,15
2025-12-29,29,2025-12-29 4:53,4:53,EST,S  15,9,Overcast,OVC004,46.9,46,97,41,,29.56,1001,0,0,0,2026-01-01,12,2025,4,KCHO,0,0,0,0,15
2025-12-29,29,2025-12-29 5:53,5:53,EST,SW  14  G 26,10,Overcast,BKN007 OVC013,48.9,46.9,93,44,,29.52,999.7,0,0,0,2026-01-01,12,2025,5,KCHO,0,0,0,0,14
2025-12-29,29,2025-12-29 6:53,6:53,EST,SW  5,10,Overcast,OVC013,50,48,93,49,,29.52,999.5,0,0,0,2026-01-01,12,2025,6,KCHO,0,0,0,0,5
2025-12-29,29,2025-12-29 7:53,7:53,EST,S  6,10,Overcast,FEW042 SCT049 OVC055,50,48,93,48,,29.53,999.7,0,0,0,2026-01-01,12,2025,7,KCHO,0,0,0,0,6
2025-12-29,29,2025-12-29 8:53,8:53,EST,S  12,10,Mostly Cloudy,FEW042 BKN100,52,48.9,89,,,29.49,998.6,0,0,0,2026-01-01,12,2025,8,KCHO,0,0,0,0,12
2025-12-29,29,2025-12-29 9:53,9:53,EST,S  13,10,Overcast,SCT041 BKN049 OVC110,54,48.9,83,,,29.49,998.5,0,0,0,2026-01-01,12,2025,9,KCHO,0,0,0,0,13
2025-12-29,29,2025-12-29 10:53,10:53,EST,W  8  G 21,10,A Few Clouds,FEW120,59,42.1,54,,,29.47,997.7,0,0,0,2026-01-01,12,2025,10,KCHO,0,0,0,0,8
2025-12-29,29,2025-12-29 11:53,11:53,EST,Calm,10,A Few Clouds,FEW050 FEW060,55.9,37,49,,,29.48,998,0,0,0,2026-01-01,12,2025,11,KCHO,0,0,0,0,0
2025-12-29,29,2025-12-29 12:53,12:53,EST,W  12  G 38,10,Fair,CLR,52,23,32,,,29.53,999.7,0,0,0,2026-01-01,12,2025,12,KCHO,0,0,0,0,12
2025-12-29,29,2025-12-29 13:53,13:53,EST,W  21  G 39,10,Mostly Cloudy and Breezy,BKN070,48.9,19,31,43,,29.57,1001.2,0,0,0,2026-01-01,12,2025,13,KCHO,0,0,0,0,21
2025-12-29,29,2025-12-29 14:53,14:53,EST,Calm,10,Fair,CLR,46,14,27,,,29.6,1002.4,0,0,0,2026-01-01,12,2025,14,KCHO,0,0,0,0,0
2025-12-29,29,2025-12-29 15:53,15:53,EST,Calm,10,Fair,CLR,44.1,12.9,28,,,29.64,1003.8,0,0,0,2026-01-01,12,2025,15,KCHO,0,0,0,0,0
2025-12-29,29,2025-12-29 16:53,16:53,EST,W  10  G 25,10,Fair,CLR,39.9,12.9,33,34,,29.67,1004.8,0,0,0,2026-01-01,12,2025,16,KCHO,0,0,0,0,10
2025-12-29,29,2025-12-29 17:53,17:53,EST,NW  8,10,Fair,CLR,37,12.9,37,32,,29.71,1006.2,0,0,0,2026-01-01,12,2025,17,KCHO,0,0,0,0,8
2025-12-29,29,2025-12-29 18:53,18:53,EST,NW  6,10,Partly Cloudy,SCT060,35.1,10.9,37,31,,29.75,1007.6,0,0,0,2026-01-01,12,2025,18,KCHO,0,0,0,0,6
2025-12-29,29,2025-12-29 19:53,19:53,EST,Vrbl  7,10,Mostly Cloudy,BKN055,34,10.9,38,29,,29.79,1009,0,0,0,2026-01-01,12,2025,19,KCHO,0,0,0,0,7
2025-12-29,29,2025-12-29 20:53,20:53,EST,W  14  G 21,10,Mostly Cloudy,BKN055,32,10,40,23,,29.82,1009.8,0,0,0,2026-01-01,12,2025,20,KCHO,0,0,0,0,14
2025-12-29,29,2025-12-29 21:53,21:53,EST,NW  8,10,Partly Cloudy,SCT050,30.9,10,42,24,,29.84,1010.3,0,0,0,2026-01-01,12,2025,21,KCHO,0,0,0,0,8
2025-12-29,29,2025-12-29 22:53,22:53,EST,W  12  G 22,10,Fair,CLR,30,10,43,21,,29.84,1010.6,0,0,0,2026-01-01,12,2025,22,KCHO,0,0,0,0,12
2025-12-29,29,2025-12-29 23:53,23:53,EST,W  7,10,Fair,CLR,28.9,9,43,23,,29.85,1010.8,0,0,0,2026-01-01,12,2025,23,KCHO,0,0,0,0,7
2025-12-30,30,2025-12-30 0:53,0:53,EST,W  10  G 20,10,Fair,CLR,28.9,8.1,41,20,,29.84,1010.7,0,0,0,2026-01-02,12,2025,0,KCHO,0,0,0,0,10
2025-12-30,30,2025-12-30 1:53,1:53,EST,W  8,10,Fair,CLR,28.9,8.1,41,22,,29.84,1010.7,0,0,0,2026-01-02,12,2025,1,KCHO,0,0,0,0,8
2025-12-30,30,2025-12-30 2:53,2:53,EST,W  9  G 20,10,Fair,CLR,28.9,8.1,41,21,,29.85,1011,0,0,0,2026-01-02,12,2025,2,KCHO,0,0,0,0,9
2025-12-30,30,2025-12-30 3:53,3:53,EST,Vrbl  6  G 16,10,Fair,CLR,28,8.1,43,22,,29.85,1011,0,0,0,2026-01-02,12,2025,3,KCHO,0,0,0,0,6
2025-12-30,30,2025-12-30 4:53,4:53,EST,W  9,10,Fair,CLR,27,8.1,45,19,,29.87,1011.8,0,0,0,2026-01-02,12,2025,4,KCHO,0,0,0,0,9
2025-12-30,30,2025-12-30 5:53,5:53,EST,W  8,10,Fair,CLR,27,7,43,19,,29.89,1012.6,0,0,0,2026-01-02,12,2025,5,KCHO,0,0,0,0,8
2025-12-30,30,2025-12-30 6:53,6:53,EST,W  7,10,Fair,CLR,26.1,7,44,19,,29.91,1013.4,0,0,0,2026-01-02,12,2025,6,KCHO,0,0,0,0,7
2025-12-30,30,2025-12-30 7:53,7:53,EST,Calm,10,Fair,CLR,25,7,46,,,29.93,1013.8,0,0,0,2026-01-02,12,2025,7,KCHO,0,0,0,0,0
2025-12-30,30,2025-12-30 8:53,8:53,EST,Calm,10,Fair,CLR,28,7,41,,,29.95,1014.5,0,0,0,2026-01-02,12,2025,8,KCHO,0,0,0,0,0
2025-12-30,30,2025-12-30 9:53,9:53,EST,NW  8,10,Fair,CLR,30,7,38,23,,29.97,1015.2,0,0,0,2026-01-02,12,2025,9,KCHO,0,0,0,0,8
2025-12-30,30,2025-12-30 10:53,10:53,EST,Calm,10,Fair,CLR,32,6.1,33,,,29.97,1015.3,0,0,0,2026-01-02,12,2025,10,KCHO,0,0,0,0,0
2025-12-30,30,2025-12-30 11:53,11:53,EST,W  8  G 18,10,Fair,CLR,33.1,6.1,32,27,,29.94,1014.4,0,0,0,2026-01-02,12,2025,11,KCHO,0,0,0,0,8
2025-12-30,30,2025-12-30 12:53,12:53,EST,NW  12  G 23,10,Fair,CLR,34,3.9,28,26,,29.92,1013.5,0,0,0,2026-01-02,12,2025,12,KCHO,0,0,0,0,12
2025-12-30,30,2025-12-30 13:53,13:53,EST,W  9  G 22,10,Fair,CLR,35.1,3,26,29,,29.9,1013,0,0,0,2026-01-02,12,2025,13,KCHO,0,0,0,0,9
2025-12-30,30,2025-12-30 14:53,14:53,EST,NW  12  G 26,10,Fair,CLR,35.1,1.9,24,28,,29.9,1012.8,0,0,0,2026-01-02,12,2025,14,KCHO,0,0,0,0,12
2025-12-30,30,2025-12-30 15:53,15:53,EST,W  10  G 18,10,Fair,CLR,34,1,24,27,,29.91,1013.2,0,0,0,2026-01-02,12,2025,15,KCHO,0,0,0,0,10
2025-12-30,30,2025-12-30 16:53,16:53,EST,Calm,10,Fair,CLR,33.1,1,25,,,29.92,1013.8,0,0,0,2026-01-02,12,2025,16,KCHO,0,0,0,0,0
2025-12-30,30,2025-12-30 17:53,17:53,EST,NW  3,10,Fair,CLR,30.9,1,28,,,29.93,1014.1,0,0,0,2026-01-02,12,2025,17,KCHO,0,0,0,0,3
2025-12-30,30,2025-12-30 18:53,18:53,EST,Vrbl  5,10,Fair,CLR,28.9,1,30,25,,29.94,1014.3,0,0,0,2026-01-02,12,2025,18,KCHO,0,0,0,0,5
2025-12-30,30,2025-12-30 19:53,19:53,EST,SE  5,10,Fair,CLR,28,1,31,24,,29.95,1014.7,0,0,0,2026-01-02,12,2025,19,KCHO,0,0,0,0,5
2025-12-30,30,2025-12-30 20:53,20:53,EST,Calm,10,Fair,CLR,27,1.9,34,,,29.95,1014.7,0,0,0,2026-01-02,12,2025,20,KCHO,0,0,0,0,0
2025-12-30,30,2025-12-30 21:53,21:53,EST,Vrbl  3,10,Fair,CLR,25,6.1,44,,,29.95,1014.8,0,0,0,2026-01-02,12,2025,21,KCHO,0,0,0,0,3
2025-12-30,30,2025-12-30 22:53,22:53,EST,S  6,10,Fair,CLR,25,8.1,48,19,,29.95,1014.7,0,0,0,2026-01-02,12,2025,22,KCHO,0,0,0,0,6
2025-12-30,30,2025-12-30 23:53,23:53,EST,SW  5,10,Fair,CLR,27,7,43,22,,29.94,1014.3,0,0,0,2026-01-02,12,2025,23,KCHO,0,0,0,0,5
2025-12-31,31,2025-12-31 0:53,0:53,EST,SW  5,10,Fair,CLR,27,7,43,22,,29.94,1014.3,0,0,0,2026-01-03,12,2025,0,KCHO,0,0,0,0,5
2025-12-31,31,2025-12-31 1:53,1:53,EST,Calm,10,Fair,CLR,27,7,43,,,29.93,1014,0,0,0,2026-01-03,12,2025,1,KCHO,0,0,0,0,0
2025-12-31,31,2025-12-31 2:53,2:53,EST,SW  6,10,Fair,CLR,27,7,43,21,,29.93,1014,0,0,0,2026-01-03,12,2025,2,KCHO,0,0,0,0,6
2025-12-31,31,2025-12-31 3:53,3:53,EST,Vrbl  3,10,Fair,CLR,27,7,43,,,29.92,1013.8,0,0,0,2026-01-03,12,2025,3,KCHO,0,0,0,0,3
2025-12-31,31,2025-12-31 4:53,4:53,EST,W  3,10,Fair,CLR,26.1,7,44,,,29.93,1013.9,0,0,0,2026-01-03,12,2025,4,KCHO,0,0,0,0,3
2025-12-31,31,2025-12-31 5:53,5:53,EST,Calm,10,Fair,CLR,24.1,8.1,50,,,29.94,1014.5,0,0,0,2026-01-03,12,2025,5,KCHO,0,0,0,0,0
2025-12-31,31,2025-12-31 6:53,6:53,EST,SW  3,10,Fair,CLR,24.1,9,52,,,29.95,1014.7,0,0,0,2026-01-03,12,2025,6,KCHO,0,0,0,0,3
2025-12-31,31,2025-12-31 7:53,7:53,EST,S  5,10,Fair,CLR,25,10,53,20,,29.95,1014.6,0,0,0,2026-01-03,12,2025,7,KCHO,0,0,0,0,5
2025-12-31,31,2025-12-31 8:53,8:53,EST,S  8,10,Fair,CLR,28.9,10.9,47,22,,29.95,1014.6,0,0,0,2026-01-03,12,2025,8,KCHO,0,0,0,0,8
2025-12-31,31,2025-12-31 9:53,9:53,EST,S  10,10,Fair,CLR,32,12,43,24,,29.95,1014.6,0,0,0,2026-01-03,12,2025,9,KCHO,0,0,0,0,10
2025-12-31,31,2025-12-31 10:53,10:53,EST,S  10  G 18,10,A Few Clouds,FEW050,33.1,12.9,43,26,,29.93,1013.9,0,0,0,2026-01-03,12,2025,10,KCHO,0,0,0,0,10
2025-12-31,31,2025-12-31 11:53,11:53,EST,S  12,10,Overcast,OVC048,36,14,40,29,,29.89,1012.4,0,0,0,2026-01-03,12,2025,11,KCHO,0,0,0,0,12
2025-12-31,31,2025-12-31 12:53,12:53,EST,S  13,10,Overcast,OVC050,37,16,42,30,,29.85,1011.2,0,0,0,2026-01-03,12,2025,12,KCHO,0,0,0,0,13
2025-12-31,31,2025-12-31 13:53,13:53,EST,SW  10,10,Overcast,OVC047,37,17.1,44,30,,29.83,1010.5,0,0,0,2026-01-03,12,2025,13,KCHO,0,0,0,0,10
2025-12-31,31,2025-12-31 14:53,14:53,EST,S  12,10,Overcast,OVC050,37,19,48,30,,29.82,1010,0,0,0,2026-01-03,12,2025,14,KCHO,0,0,0,0,12
2025-12-31,31,2025-12-31 15:53,15:53,EST,S  13,10,Mostly Cloudy,BKN049,37.9,19.9,48,31,,29.81,1009.6,0,0,0,2026-01-03,12,2025,15,KCHO,0,0,0,0,13
2025-12-31,31,2025-12-31 16:53,16:53,EST,S  7,10,Partly Cloudy,SCT048,35.1,19.9,54,30,,29.8,1009.6,0,0,0,2026-01-03,12,2025,16,KCHO,0,0,0,0,7
2025-12-31,31,2025-12-31 17:53,17:53,EST,SW  8,10,Fair,CLR,39,21.9,50,34,,29.8,1009.3,0,0,0,2026-01-03,12,2025,17,KCHO,0,0,0,0,8
2025-12-31,31,2025-12-31 18:53,18:53,EST,SW  7  G 17,10,Mostly Cloudy,BKN043,39.9,23,51,36,,29.8,1009.3,0,0,0,2026-01-03,12,2025,18,KCHO,0,0,0,0,7
2025-12-31,31,2025-12-31 19:53,19:53,EST,SW  8,10,Mostly Cloudy,BKN047,39.9,23,51,35,,29.77,1008.4,0,0,0,2026-01-03,12,2025,19,KCHO,0,0,0,0,8
2025-12-31,31,2025-12-31 20:53,20:53,EST,SW  10,10,Partly Cloudy,SCT050,37.9,21,51,32,,29.74,1007.4,0,0,0,2026-01-03,12,2025,20,KCHO,0,0,0,0,10
2025-12-31,31,2025-12-31 21:53,21:53,EST,SW  12  G 22,10,Mostly Cloudy,BKN048,39,21.9,50,32,,29.72,1006.6,0,0,0,2026-01-03,12,2025,21,KCHO,0,0,0,0,12
2025-12-31,31,2025-12-31 22:53,22:53,EST,S  12,10,A Few Clouds,FEW049,37.9,21.9,52,31,,29.69,1005.6,0,0,0,2026-01-03,12,2025,22,KCHO,0,0,0,0,12
2025-12-31,31,2025-12-31 23:53,23:53,EST,S  9,10,Mostly Cloudy,BKN050,35.1,21.9,59,29,,29.68,1005.2,0,0,0,2026-01-03,12,2025,23,KCHO,0,0,0,0,9
2026-01-01,1,2026-01-01 0:53,0:53,EST,S  3,10,A Few Clouds,FEW050,33.1,21,61,,,29.67,1005.1,0,0,0,2026-01-04,1,2026,0,KCHO,0,0,0,0,3
2026-01-01,1,2026-01-01 1:53,1:53,EST,SW  6,10,Mostly Cloudy,BKN050,39.9,24.1,53,36,,29.67,1004.6,0,0,0,2026-01-04,1,2026,1,KCHO,0,0,0,0,6
2026-01-01,1,2026-01-01 2:53,2:53,EST,Vrbl  5,10,Fair,CLR,39,24.1,55,36,,29.65,1004.1,0,0,0,2026-01-04,1,2026,2,KCHO,0,0,0,0,5
2026-01-01,1,2026-01-01 3:53,3:53,EST,SW  7,10,Mostly Cloudy,BKN050,41,25,53,37,,29.66,1004.3,0,0,0,2026-01-04,1,2026,3,KCHO,0,0,0,0,7
2026-01-01,1,2026-01-01 4:53,4:53,EST,Vrbl  6,10,Mostly Cloudy,BKN050,39.9,24.1,53,36,,29.66,1004.6,0,0,0,2026-01-04,1,2026,4,KCHO,0,0,0,0,6
2026-01-01,1,2026-01-01 5:53,5:53,EST,W  10  G 22,10,Fair,CLR,42.1,23,47,37,,29.68,1005,0,0,0,2026-01-04,1,2026,5,KCHO,0,0,0,0,10
2026-01-01,1,2026-01-01 6:53,6:53,EST,NW  12  G 28,10,Fair,CLR,42.1,21,43,36,,29.71,1006.2,0,0,0,2026-01-04,1,2026,6,KCHO,0,0,0,0,12
2026-01-01,1,2026-01-01 7:53,7:53,EST,N  12  G 25,10,Fair,CLR,33.1,19.9,58,25,,29.78,1008.5,0,0,0,2026-01-04,1,2026,7,KCHO,0,0,0,0,12
2026-01-01,1,2026-01-01 8:53,8:53,EST,N  8  G 17,10,Fair,CLR,34,17.1,50,28,,29.82,1010,0,0,0,2026-01-04,1,2026,8,KCHO,0,0,0,0,8
2026-01-01,1,2026-01-01 9:53,9:53,EST,NW  8,10,Fair,CLR,37.9,12.9,36,33,,29.86,1011.2,0,0,0,2026-01-04,1,2026,9,KCHO,0,0,0,0,8
2026-01-01,1,2026-01-01 10:53,10:53,EST,NW  7,10,A Few Clouds,FEW060,39,12,33,35,,29.88,1011.9,0,0,0,2026-01-04,1,2026,10,KCHO,0,0,0,0,7
2026-01-01,1,2026-01-01 11:53,11:53,EST,W  9  G 22,10,Fair,CLR,41,12.9,32,36,,29.86,1011.3,0,0,0,2026-01-04,1,2026,11,KCHO,0,0,0,0,9
2026-01-01,1,2026-01-01 12:53,12:53,EST,Calm,10,Partly Cloudy,SCT065,42.1,12.9,30,,,29.85,1010.9,0,0,0,2026-01-04,1,2026,12,KCHO,0,0,0,0,0
2026-01-01,1,2026-01-01 13:53,13:53,EST,NW  8,10,Fair,CLR,44.1,12.9,28,40,,29.82,1010.1,0,0,0,2026-01-04,1,2026,13,KCHO,0,0,0,0,8
2026-01-01,1,2026-01-01 14:53,14:53,EST,N  6,10,Fair,CLR,44.1,12.9,28,41,,29.83,1010.3,0,0,0,2026-01-04,1,2026,14,KCHO,0,0,0,0,6
2026-01-01,1,2026-01-01 15:53,15:53,EST,Calm,10,Fair,CLR,42.1,12,29,,,29.85,1010.9,0,0,0,2026-01-04,1,2026,15,KCHO,0,0,0,0,0
2026-01-01,1,2026-01-01 16:53,16:53,EST,NE  9,10,Fair,CLR,36,8.1,31,30,,29.86,1011.3,0,0,0,2026-01-04,1,2026,16,KCHO,0,0,0,0,9
2026-01-01,1,2026-01-01 17:53,17:53,EST,N  6,10,Fair,CLR,33.1,9,36,28,,29.89,1012.3,0,0,0,2026-01-04,1,2026,17,KCHO,0,0,0,0,6
2026-01-01,1,2026-01-01 18:53,18:53,EST,Calm,10,Fair,CLR,30,7,38,,,29.89,1012.4,0,0,0,2026-01-04,1,2026,18,KCHO,0,0,0,0,0
2026-01-01,1,2026-01-01 19:53,19:53,EST,NW  5,10,Fair,CLR,28.9,6.1,38,25,,29.91,1013.3,0,0,0,2026-01-04,1,2026,19,KCHO,0,0,0,0,5
2026-01-01,1,2026-01-01 20:53,20:53,EST,Calm,10,Mostly Cloudy,FEW080 BKN090,28.9,5,36,,,29.9,1012.9,0,0,0,2026-01-04,1,2026,20,KCHO,0,0,0,0,0
2026-01-01,1,2026-01-01 21:53,21:53,EST,Calm,10,Partly Cloudy,SCT100,28.9,6.1,38,,,29.88,1012.1,0,0,0,2026-01-04,1,2026,21,KCHO,0,0,0,0,0
2026-01-01,1,2026-01-01 22:53,22:53,EST,Calm,10,Fair,CLR,27,6.1,41,,,29.87,1011.8,0,0,0,2026-01-04,1,2026,22,KCHO,0,0,0,0,0
2026-01-01,1,2026-01-01 23:53,23:53,EST,N  5,10,Partly Cloudy,FEW039 SCT110,26.1,8.1,46,21,,29.85,1011.3,0,0,0,2026-01-04,1,2026,23,KCHO,0,0,0,0,5
2026-01-02,2,2026-01-02 0:53,0:53,EST,N  3,10,Overcast,OVC039,27,10,49,,,29.83,1010.5,0,0,0,2026-01-05,1,2026,0,KCHO,0,0,0,0,3
2026-01-02,2,2026-01-02 1:53,1:53,EST,N  5,10,Overcast,OVC038,28,9,44,24,,29.83,1010.2,0,0,0,2026-01-05,1,2026,1,KCHO,0,0,0,0,5
2026-01-02,2,2026-01-02 2:53,2:53,EST,Calm,10,Overcast,OVC040,28,9,44,,,29.82,1010.1,0,0,0,2026-01-05,1,2026,2,KCHO,0,0,0,0,0
2026-01-02,2,2026-01-02 3:53,3:53,EST,N  5,10,Overcast,OVC043,28,8.1,43,24,,29.81,1009.7,0,0,0,2026-01-05,1,2026,3,KCHO,0,0,0,0,5
2026-01-02,2,2026-01-02 4:53,4:53,EST,NE  6,10,Overcast,OVC043,28,7,41,22,,29.8,1009.3,0,0,0,2026-01-05,1,2026,4,KCHO,0,0,0,0,6
2026-01-02,2,2026-01-02 5:53,5:53,EST,NE  6,10,Overcast,OVC047,28,6.1,39,22,,29.79,1009.2,0,0,0,2026-01-05,1,2026,5,KCHO,0,0,0,0,6
2026-01-02,2,2026-01-02 6:53,6:53,EST,NE  5,10,A Few Clouds,FEW050,25,6.1,44,20,,29.8,1009.7,0,0,0,2026-01-05,1,2026,6,KCHO,0,0,0,0,5
2026-01-02,2,2026-01-02 7:53,7:53,EST,Calm,10,Mostly Cloudy,BKN055,26.1,7,44,,,29.8,1009.6,0,0,0,2026-01-05,1,2026,7,KCHO,0,0,0,0,0
2026-01-02,2,2026-01-02 8:53,8:53,EST,NE  5,10,A Few Clouds,FEW050,28,6.1,39,24,,29.8,1009.5,0,0,0,2026-01-05,1,2026,8,KCHO,0,0,0,0,5
2026-01-02,2,2026-01-02 9:53,9:53,EST,Vrbl  3,10,Fair,CLR,30,6.1,36,,,29.8,1009.6,0,0,0,2026-01-05,1,2026,9,KCHO,0,0,0,0,3
2026-01-02,2,2026-01-02 10:53,10:53,EST,Calm,10,Fair,CLR,32,7,35,,,29.79,1009.3,0,0,0,2026-01-05,1,2026,10,KCHO,0,0,0,0,0
2026-01-02,2,2026-01-02 11:53,11:53,EST,Calm,10,Fair,CLR,36,10,34,,,29.75,1007.8,0,0,0,2026-01-05,1,2026,11,KCHO,0,0,0,0,0
2026-01-02,2,2026-01-02 12:53,12:53,EST,N  5,10,Fair,CLR,39,12.9,34,36,,29.73,1007,0,0,0,2026-01-05,1,2026,12,KCHO,0,0,0,0,5
2026-01-02,2,2026-01-02 13:53,13:53,EST,NE  3,10,Fair,CLR,42.1,16,35,,,29.72,1006.6,0,0,0,2026-01-05,1,2026,13,KCHO,0,0,0,0,3
2026-01-02,2,2026-01-02 14:53,14:53,EST,E  7,10,Fair,CLR,42.1,15.1,33,38,,29.72,1006.8,0,0,0,2026-01-05,1,2026,14,KCHO,0,0,0,0,7
2026-01-02,2,2026-01-02 15:53,15:53,EST,E  6,10,Fair,CLR,39,14,36,35,,29.74,1007.4,0,0,0,2026-01-05,1,2026,15,KCHO,0,0,0,0,6
2026-01-02,2,2026-01-02 16:53,16:53,EST,NE  7,10,Fair,CLR,37,14,39,32,,29.76,1008.1,0,0,0,2026-01-05,1,2026,16,KCHO,0,0,0,0,7
2026-01-02,2,2026-01-02 17:53,17:53,EST,N  8,10,Fair,CLR,35.1,15.1,44,29,,29.79,1009.2,0,0,0,2026-01-05,1,2026,17,KCHO,0,0,0,0,8
2026-01-02,2,2026-01-02 18:53,18:53,EST,N  6,10,Fair,CLR,33.1,16,49,28,,29.82,1010.1,0,0,0,2026-01-05,1,2026,18,KCHO,0,0,0,0,6
2026-01-02,2,2026-01-02 19:53,19:53,EST,NE  6,10,Fair,CLR,33.1,16,49,28,,29.84,1011,0,0,0,2026-01-05,1,2026,19,KCHO,0,0,0,0,6
2026-01-02,2,2026-01-02 20:53,20:53,EST,Calm,10,Fair,CLR,32,16,52,,,29.86,1011.5,0,0,0,2026-01-05,1,2026,20,KCHO,0,0,0,0,0
2026-01-02,2,2026-01-02 21:53,21:53,EST,W  3,10,Fair,CLR,30.9,16,54,,,29.88,1012.2,0,0,0,2026-01-05,1,2026,21,KCHO,0,0,0,0,3
2026-01-02,2,2026-01-02 22:53,22:53,EST,Calm,10,Fair,CLR,30,16,56,,,29.89,1012.5,0,0,0,2026-01-05,1,2026,22,KCHO,0,0,0,0,0
2026-01-02,2,2026-01-02 23:53,23:53,EST,Calm,10,Fair,CLR,28.9,16,58,,,29.9,1012.9,0,0,0,2026-01-05,1,2026,23,KCHO,0,0,0,0,0
2026-01-03,3,2026-01-03 0:53,0:53,EST,Calm,10,Fair,CLR,28.9,15.1,56,,,29.9,1012.7,0,0,0,2026-01-06,1,2026,0,KCHO,0,0,0,0,0
2026-01-03,3,2026-01-03 1:53,1:53,EST,Calm,10,Fair,CLR,28,17.1,63,,,29.91,1013.3,0,0,0,2026-01-06,1,2026,1,KCHO,0,0,0,0,0
2026-01-03,3,2026-01-03 2:53,2:53,EST,Calm,10,Fair,CLR,28,19,69,,,29.93,1013.9,0,0,0,2026-01-06,1,2026,2,KCHO,0,0,0,0,0
2026-01-03,3,2026-01-03 3:53,3:53,EST,Calm,10,Fair,CLR,27,18,69,,,29.93,1014,0,0,0,2026-01-06,1,2026,3,KCHO,0,0,0,0,0
2026-01-03,3,2026-01-03 4:53,4:53,EST,Calm,10,Fair,CLR,28,17.1,63,,,29.95,1014.5,0,0,0,2026-01-06,1,2026,4,KCHO,0,0,0,0,0
2026-01-03,3,2026-01-03 5:53,5:53,EST,Calm,10,Fair,CLR,28,18,66,,,29.96,1015,0,0,0,2026-01-06,1,2026,5,KCHO,0,0,0,0,0
2026-01-03,3,2026-01-03 6:53,6:53,EST,Calm,10,Fair,CLR,28,18,66,,,29.99,1016.1,0,0,0,2026-01-06,1,2026,6,KCHO,0,0,0,0,0
2026-01-03,3,2026-01-03 7:53,7:53,EST,Calm,10,Fair,CLR,27,19,72,,,30,1016.3,0,0,0,2026-01-06,1,2026,7,KCHO,0,0,0,0,0
2026-01-03,3,2026-01-03 8:53,8:53,EST,Calm,10,Fair,CLR,28.9,19,66,,,30.02,1017,0,0,0,2026-01-06,1,2026,8,KCHO,0,0,0,0,0
2026-01-03,3,2026-01-03 9:53,9:53,EST,Calm,10,A Few Clouds,FEW120,30.9,18,59,,,30.02,1017.1,0,0,0,2026-01-06,1,2026,9,KCHO,0,0,0,0,0
2026-01-03,3,2026-01-03 10:53,10:53,EST,S  3,10,Fair,CLR,32,19,59,,,30.02,1017,0,0,0,2026-01-06,1,2026,10,KCHO,0,0,0,0,3
2026-01-03,3,2026-01-03 11:53,11:53,EST,S  7,10,Fair,CLR,34,17.1,50,29,,29.99,1016,0,0,0,2026-01-06,1,2026,11,KCHO,0,0,0,0,7
2026-01-03,3,2026-01-03 12:53,12:53,EST,Calm,10,A Few Clouds,FEW100,37,18,46,,,29.97,1015.2,0,0,0,2026-01-06,1,2026,12,KCHO,0,0,0,0,0
2026-01-03,3,2026-01-03 13:53,13:53,EST,Calm,10,Mostly Cloudy,BKN110,37,18,46,,,29.96,1014.9,0,0,0,2026-01-06,1,2026,13,KCHO,0,0,0,0,0
2026-01-03,3,2026-01-03 14:53,14:53,EST,S  3,10,Mostly Cloudy,BKN100,37.9,19,46,,,29.95,1014.6,0,0,0,2026-01-06,1,2026,14,KCHO,0,0,0,0,3
2026-01-03,3,2026-01-03 15:53,15:53,EST,NE  3,10,Overcast,OVC090,37.9,19,46,,,29.96,1014.8,0,0,0,2026-01-06,1,2026,15,KCHO,0,0,0,0,3
2026-01-03,3,2026-01-03 16:53,16:53,EST,Calm,10,Overcast,OVC095,37.9,19.9,48,,,29.96,1014.9,0,0,0,2026-01-06,1,2026,16,KCHO,0,0,0,0,0
2026-01-03,3,2026-01-03 17:53,17:53,EST,NE  6,10,Overcast,OVC100,36,19.9,52,32,,29.98,1015.4,0,0,0,2026-01-06,1,2026,17,KCHO,0,0,0,0,6
2026-01-03,3,2026-01-03 18:53,18:53,EST,NE  6,10,Overcast,BKN090 OVC110,36,19.9,52,32,,29.98,1015.5,0,0,0,2026-01-06,1,2026,18,KCHO,0,0,0,0,6
2026-01-03,3,2026-01-03 19:53,19:53,EST,NE  3,10,Mostly Cloudy,BKN100,34,19.9,56,,,29.98,1015.8,0,0,0,2026-01-06,1,2026,19,KCHO,0,0,0,0,3
2026-01-03,3,2026-01-03 20:53,20:53,EST,NE  3,10,A Few Clouds,FEW085,33.1,19,56,,,29.96,1015,0,0,0,2026-01-06,1,2026,20,KCHO,0,0,0,0,3
2026-01-03,3,2026-01-03 21:53,21:53,EST,N  3,10,Mostly Cloudy,BKN100,32,19,59,,,29.96,1015,0,0,0,2026-01-06,1,2026,21,KCHO,0,0,0,0,3
2026-01-03,3,2026-01-03 22:53,22:53,EST,Calm,10,Overcast,BKN060 OVC090,32,19,59,,,29.97,1015.3,0,0,0,2026-01-06,1,2026,22,KCHO,0,0,0,0,0
2026-01-03,3,2026-01-03 23:53,23:53,EST,Calm,10,Overcast,OVC085,32,19,59,,,29.97,1015.2,0,0,0,2026-01-06,1,2026,23,KCHO,0,0,0,0,0
2026-01-04,4,2026-01-04 0:53,0:53,EST,Calm,10,Overcast,OVC080,32,19,59,,,29.97,1015.4,0,0,0,2026-01-07,1,2026,0,KCHO,0,0,0,0,0
2026-01-04,4,2026-01-04 1:53,1:53,EST,Calm,10,Overcast,OVC090,32,19.9,61,,,29.98,1015.7,0,0,0,2026-01-07,1,2026,1,KCHO,0,0,0,0,0
2026-01-04,4,2026-01-04 2:53,2:53,EST,Calm,10,Overcast,BKN085 OVC110,32,19.9,61,,,30,1016.2,0,0,0,2026-01-07,1,2026,2,KCHO,0,0,0,0,0
2026-01-04,4,2026-01-04 3:53,3:53,EST,Calm,10,Overcast,SCT085 OVC110,30.9,19,61,,,30,1016.1,0,0,0,2026-01-07,1,2026,3,KCHO,0,0,0,0,0
2026-01-04,4,2026-01-04 4:53,4:53,EST,Calm,10,Mostly Cloudy,BKN100,30,19.9,66,,,30,1016.3,0,0,0,2026-01-07,1,2026,4,KCHO,0,0,0,0,0
2026-01-04,4,2026-01-04 5:53,5:53,EST,Calm,10,Overcast,OVC095,28,21,75,,,30.02,1016.8,0,0,0,2026-01-07,1,2026,5,KCHO,0,0,0,0,0
2026-01-04,4,2026-01-04 6:53,6:53,EST,Calm,10,Overcast,OVC085,30,19.9,66,,,30.03,1017.2,0,0,0,2026-01-07,1,2026,6,KCHO,0,0,0,0,0
2026-01-04,4,2026-01-04 7:53,7:53,EST,Calm,10,Overcast,OVC075,28.9,21.9,75,,,30.05,1018,0,0,0,2026-01-07,1,2026,7,KCHO,0,0,0,0,0
2026-01-04,4,2026-01-04 8:53,8:53,EST,NE  3,10,Partly Cloudy,SCT070,32,21,64,,,30.09,1019.2,0,0,0,2026-01-07,1,2026,8,KCHO,0,0,0,0,3
2026-01-04,4,2026-01-04 9:53,9:53,EST,NE  5,10,Overcast,OVC065,34,19.9,56,30,,30.11,1020,0,0,0,2026-01-07,1,2026,9,KCHO,0,0,0,0,5
2026-01-04,4,2026-01-04 10:53,10:53,EST,Vrbl  3,10,Overcast,OVC060,37,21,52,,,30.12,1020.4,0,0,0,2026-01-07,1,2026,10,KCHO,0,0,0,0,3
2026-01-04,4,2026-01-04 11:53,11:53,EST,NE  3,10,Fair,CLR,39,21,48,,,30.1,1019.5,0,0,0,2026-01-07,1,2026,11,KCHO,0,0,0,0,3
2026-01-04,4,2026-01-04 12:53,12:53,EST,Calm,10,Fair,CLR,42.1,21,43,,,30.08,1019,0,0,0,2026-01-07,1,2026,12,KCHO,0,0,0,0,0
2026-01-04,4,2026-01-04 13:53,13:53,EST,Calm,10,Fair,CLR,44.1,19,37,,,30.08,1018.9,0,0,0,2026-01-07,1,2026,13,KCHO,0,0,0,0,0
2026-01-04,4,2026-01-04 14:53,14:53,EST,Vrbl  6,10,Fair,CLR,46,19,34,44,,30.07,1018.4,0,0,0,2026-01-07,1,2026,14,KCHO,0,0,0,0,6
2026-01-04,4,2026-01-04 15:53,15:53,EST,Calm,10,Fair,CLR,46,19,34,,,30.09,1019,0,0,0,2026-01-07,1,2026,15,KCHO,0,0,0,0,0
2026-01-04,4,2026-01-04 16:53,16:53,EST,N  5,10,Fair,CLR,43,18,37,41,,30.09,1019.2,0,0,0,2026-01-07,1,2026,16,KCHO,0,0,0,0,5
2026-01-04,4,2026-01-04 17:53,17:53,EST,N  5,10,Fair,CLR,37.9,19,46,35,,30.12,1020.5,0,0,0,2026-01-07,1,2026,17,KCHO,0,0,0,0,5
2026-01-04,4,2026-01-04 18:53,18:53,EST,N  5,10,Fair,CLR,37.9,17.1,43,35,,30.16,1021.8,0,0,0,2026-01-07,1,2026,18,KCHO,0,0,0,0,5
2026-01-04,4,2026-01-04 19:53,19:53,EST,N  6,10,Fair,CLR,37,17.1,44,33,,30.16,1021.8,0,0,0,2026-01-07,1,2026,19,KCHO,0,0,0,0,6
2026-01-04,4,2026-01-04 20:53,20:53,EST,NE  5,10,Fair,CLR,34,17.1,50,30,,30.2,1022.9,0,0,0,2026-01-07,1,2026,20,KCHO,0,0,0,0,5
2026-01-04,4,2026-01-04 21:53,21:53,EST,Calm,10,Fair,CLR,35.1,17.1,48,,,30.21,1023.3,0,0,0,2026-01-07,1,2026,21,KCHO,0,0,0,0,0
2026-01-04,4,2026-01-04 22:53,22:53,EST,Calm,10,Fair,CLR,33.1,19,56,,,30.21,1023.2,0,0,0,2026-01-07,1,2026,22,KCHO,0,0,0,0,0
2026-01-04,4,2026-01-04 23:53,23:53,EST,Calm,10,Fair,CLR,30.9,18,59,,,30.21,1023.4,0,0,0,2026-01-07,1,2026,23,KCHO,0,0,0,0,0
2026-01-05,5,2026-01-05 0:53,0:53,EST,N  3,10,Fair,CLR,30,18,61,,,30.21,1023.4,0,0,0,2026-01-08,1,2026,0,KCHO,0,0,0,0,3
2026-01-05,5,2026-01-05 1:53,1:53,EST,Calm,10,Fair,CLR,28.9,18,63,,,30.21,1023.3,0,0,0,2026-01-08,1,2026,1,KCHO,0,0,0,0,0
2026-01-05,5,2026-01-05 2:53,2:53,EST,Calm,10,Fair,CLR,28,18,66,,,30.22,1023.6,0,0,0,2026-01-08,1,2026,2,KCHO,0,0,0,0,0
2026-01-05,5,2026-01-05 3:53,3:53,EST,N  3,10,Fair,CLR,27,17.1,66,,,30.22,1023.6,0,0,0,2026-01-08,1,2026,3,KCHO,0,0,0,0,3
2026-01-05,5,2026-01-05 4:53,4:53,EST,Calm,10,Fair,CLR,27,17.1,66,,,30.21,1023.3,0,0,0,2026-01-08,1,2026,4,KCHO,0,0,0,0,0
2026-01-05,5,2026-01-05 5:53,5:53,EST,Calm,10,Fair,CLR,26.1,18,71,,,30.2,1023.1,0,0,0,2026-01-08,1,2026,5,KCHO,0,0,0,0,0
2026-01-05,5,2026-01-05 6:53,6:53,EST,Calm,10,Fair,CLR,26.1,19,75,,,30.2,1023.1,0,0,0,2026-01-08,1,2026,6,KCHO,0,0,0,0,0
2026-01-05,5,2026-01-05 7:53,7:53,EST,Calm,10,Fair,CLR,26.1,18,71,,,30.21,1023.3,0,0,0,2026-01-08,1,2026,7,KCHO,0,0,0,0,0
2026-01-05,5,2026-01-05 8:53,8:53,EST,SW  5,10,Mostly Cloudy,BKN038,28.9,19.9,69,25,,30.21,1023.4,0,0,0,2026-01-08,1,2026,8,KCHO,0,0,0,0,5
2026-01-05,5,2026-01-05 9:53,9:53,EST,S  5,10,Overcast,OVC032,32,19.9,61,28,,30.2,1023,0,0,0,2026-01-08,1,2026,9,KCHO,0,0,0,0,5
2026-01-05,5,2026-01-05 10:53,10:53,EST,S  7,10,Overcast,OVC026,34,19,54,29,,30.18,1022.4,0,0,0,2026-01-08,1,2026,10,KCHO,0,0,0,0,7
2026-01-05,5,2026-01-05 11:53,11:53,EST,S  7,10,Overcast,OVC025,35.1,21.9,59,30,,30.13,1020.8,0,0,0,2026-01-08,1,2026,11,KCHO,0,0,0,0,7
2026-01-05,5,2026-01-05 12:53,12:53,EST,S  9,10,Overcast,BKN023 OVC030,36,23,59,30,,30.09,1019.4,0,0,0,2026-01-08,1,2026,12,KCHO,0,0,0,0,9
2026-01-05,5,2026-01-05 13:53,13:53,EST,S  10,10,Overcast,SCT022 OVC029,39,26.1,60,33,,30.06,1018.4,0,0,0,2026-01-08,1,2026,13,KCHO,0,0,0,0,10
2026-01-05,5,2026-01-05 14:53,14:53,EST,S  12  G 20,10,Overcast,OVC025,39.9,27,60,34,,30.05,1017.8,0,0,0,2026-01-08,1,2026,14,KCHO,0,0,0,0,12
2026-01-05,5,2026-01-05 15:53,15:53,EST,S  10,10,Overcast,OVC025,39,28,65,33,,30.03,1017.4,0,0,0,2026-01-08,1,2026,15,KCHO,0,0,0,0,10
2026-01-05,5,2026-01-05 16:53,16:53,EST,S  8,10,Fair,CLR,37.9,28,68,33,,30.03,1017.3,0,0,0,2026-01-08,1,2026,16,KCHO,0,0,0,0,8
2026-01-05,5,2026-01-05 17:53,17:53,EST,S  5,10,Fair,CLR,35.1,28,76,32,,30.03,1017.3,0,0,0,2026-01-08,1,2026,17,KCHO,0,0,0,0,5
2026-01-05,5,2026-01-05 18:53,18:53,EST,SW  6,10,Fair,CLR,34,28.9,82,29,,30.03,1017.3,0,0,0,2026-01-08,1,2026,18,KCHO,0,0,0,0,6
2026-01-05,5,2026-01-05 19:53,19:53,EST,SW  3,10,Fair,CLR,34,28.9,82,,,30.02,1016.9,0,0,0,2026-01-08,1,2026,19,KCHO,0,0,0,0,3
2026-01-05,5,2026-01-05 20:53,20:53,EST,S  7,10,Fair,CLR,35.1,30,82,30,,30,1016.4,0,0,0,2026-01-08,1,2026,20,KCHO,0,0,0,0,7
2026-01-05,5,2026-01-05 21:53,21:53,EST,SW  3,10,Fair,CLR,33.1,28.9,85,,,29.99,1016,0,0,0,2026-01-08,1,2026,21,KCHO,0,0,0,0,3
2026-01-05,5,2026-01-05 22:53,22:53,EST,Calm,10,Fair,CLR,32,28,85,,,29.98,1015.5,0,0,0,2026-01-08,1,2026,22,KCHO,0,0,0,0,0
2026-01-05,5,2026-01-05 23:53,23:53,EST,Calm,10,Fair,CLR,30,27,88,,,29.97,1015.3,0,0,0,2026-01-08,1,2026,23,KCHO,0,0,0,0,0
2026-01-06,6,2026-01-06 1:53,1:53,EST,SW  3,10,Fair,CLR,34,30.9,89,,,29.94,1014.2,0,0,0,2026-01-09,1,2026,1,KCHO,0,0,0,0,3
2026-01-06,6,2026-01-06 2:53,2:53,EST,SW  9,9,Fair,CLR,37,34,89,31,,29.93,1013.6,0,0,0,2026-01-09,1,2026,2,KCHO,0,0,0,0,9
2026-01-06,6,2026-01-06 3:53,3:53,EST,Calm,9,Fair,CLR,32,30,92,,,29.94,1014,0,0,0,2026-01-09,1,2026,3,KCHO,0,0,0,0,0
2026-01-06,6,2026-01-06 4:53,4:53,EST,Calm,7,Fair,CLR,33.1,30.9,92,,,29.92,1013.4,0,0,0,2026-01-09,1,2026,4,KCHO,0,0,0,0,0
2026-01-06,6,2026-01-06 5:53,5:53,EST,Calm,7,Fair,CLR,30.9,28.9,92,,,29.93,1013.7,0,0,0,2026-01-09,1,2026,5,KCHO,0,0,0,0,0
2026-01-06,6,2026-01-06 6:53,6:53,EST,Calm,5,Fog/Mist,CLR,30.9,30,96,,,29.93,1013.8,0,0,0,2026-01-09,1,2026,6,KCHO,0,0,0,0,0
2026-01-06,6,2026-01-06 7:53,7:53,EST,Calm,5,Fog/Mist,CLR,32,30.9,96,,,29.92,1013.5,0,0,0,2026-01-09,1,2026,7,KCHO,0,0,0,0,0
2026-01-06,6,2026-01-06 8:53,8:53,EST,S  5,6,Fog/Mist,CLR,34,32,92,30,,29.92,1013.6,0,0,0,2026-01-09,1,2026,8,KCHO,0,0,0,0,5
2026-01-06,6,2026-01-06 9:53,9:53,EST,S  7,10,Fair,CLR,39.9,36,86,36,,29.91,1012.9,0,0,0,2026-01-09,1,2026,9,KCHO,0,0,0,0,7
2026-01-06,6,2026-01-06 10:53,10:53,EST,S  6,10,Fair,CLR,44.1,37,76,41,,29.86,1011.4,0,0,0,2026-01-09,1,2026,10,KCHO,0,0,0,0,6
2026-01-06,6,2026-01-06 11:53,11:53,EST,S  8,10,Fair,CLR,46.9,37.9,71,44,,29.82,1009.8,0,0,0,2026-01-09,1,2026,11,KCHO,0,0,0,0,8
2026-01-06,6,2026-01-06 12:53,12:53,EST,S  9,10,Fair,CLR,48.9,41,74,45,,29.79,1008.8,0,0,0,2026-01-09,1,2026,12,KCHO,0,0,0,0,9
2026-01-06,6,2026-01-06 13:53,13:53,EST,S  9,10,Fair,CLR,51.1,42.1,71,,,29.75,1007.4,0,0,0,2026-01-09,1,2026,13,KCHO,0,0,0,0,9
2026-01-06,6,2026-01-06 14:53,14:53,EST,S  7,10,Fair,CLR,51.1,42.1,71,,,29.74,1007.2,0,0,0,2026-01-09,1,2026,14,KCHO,0,0,0,0,7
2026-01-06,6,2026-01-06 15:53,15:53,EST,S  6,10,A Few Clouds,FEW055,51.1,43,74,,,29.73,1006.9,0,0,0,2026-01-09,1,2026,15,KCHO,0,0,0,0,6
2026-01-06,6,2026-01-06 16:53,16:53,EST,Calm,10,A Few Clouds,FEW065,48.9,43,80,,,29.74,1007.1,0,0,0,2026-01-09,1,2026,16,KCHO,0,0,0,0,0
2026-01-06,6,2026-01-06 17:53,17:53,EST,Calm,10,Mostly Cloudy,BKN065,46.9,42.1,83,,,29.74,1007.1,0,0,0,2026-01-09,1,2026,17,KCHO,0,0,0,0,0
2026-01-06,6,2026-01-06 18:53,18:53,EST,W  3,10,Overcast,OVC070,48,42.1,80,,,29.73,1006.8,0,0,0,2026-01-09,1,2026,18,KCHO,0,0,0,0,3
2026-01-06,6,2026-01-06 19:53,19:53,EST,Calm,10,Overcast,OVC070,48.9,42.1,77,,,29.72,1006.5,0,0,0,2026-01-09,1,2026,19,KCHO,0,0,0,0,0
2026-01-06,6,2026-01-06 20:53,20:53,EST,S  6,10,Fair,CLR,46,41,83,44,,29.7,1005.9,0,0,0,2026-01-09,1,2026,20,KCHO,0,0,0,0,6
2026-01-06,6,2026-01-06 21:53,21:53,EST,SW  6,10,Fair,CLR,48,43,83,46,,29.71,1005.9,0,0,0,2026-01-09,1,2026,21,KCHO,0,0,0,0,6
2026-01-06,6,2026-01-06 22:53,22:53,EST,S  8,10,Fair,CLR,45,42.1,90,41,,29.69,1005.5,0,0,0,2026-01-09,1,2026,22,KCHO,0,0,0,0,8
2026-01-06,6,2026-01-06 23:53,23:53,EST,S  5,10,Fair,CLR,46.9,43,86,45,,29.69,1005.4,0,0,0,2026-01-09,1,2026,23,KCHO,0,0,0,0,5
2026-01-07,7,2026-01-07 0:53,0:53,EST,Calm,10,Fair,CLR,45,42.1,90,,,29.69,1005.3,0,0,0,2026-01-10,1,2026,0,KCHO,0,0,0,0,0
2026-01-07,7,2026-01-07 1:53,1:53,EST,S  8,10,Fair,CLR,43,41,93,39,,29.7,1005.7,0,0,0,2026-01-10,1,2026,1,KCHO,0,0,0,0,8
2026-01-07,7,2026-01-07 2:53,2:53,EST,S  10,10,Fair,CLR,46,43,89,42,,29.7,1005.8,0,0,0,2026-01-10,1,2026,2,KCHO,0,0,0,0,10
2026-01-07,7,2026-01-07 3:53,3:53,EST,S  7,10,A Few Clouds,FEW060,44.1,41,89,41,,29.71,1006,0,0,0,2026-01-10,1,2026,3,KCHO,0,0,0,0,7
2026-01-07,7,2026-01-07 4:53,4:53,EST,S  5,10,Fair,CLR,46,42.1,86,44,,29.71,1006.1,0,0,0,2026-01-10,1,2026,4,KCHO,0,0,0,0,5
2026-01-07,7,2026-01-07 5:53,5:53,EST,S  10,10,Fair,CLR,46.9,41,80,43,,29.72,1006.3,0,0,0,2026-01-10,1,2026,5,KCHO,0,0,0,0,10
2026-01-07,7,2026-01-07 6:53,6:53,EST,Vrbl  3,10,Fair,CLR,52,39.9,64,,,29.74,1007,0,0,0,2026-01-10,1,2026,6,KCHO,0,0,0,0,3
2026-01-07,7,2026-01-07 7:53,7:53,EST,Vrbl  3,10,Fair,CLR,55,39.9,57,,,29.78,1008.2,0,0,0,2026-01-10,1,2026,7,KCHO,0,0,0,0,3
2026-01-07,7,2026-01-07 8:53,8:53,EST,W  7,10,Partly Cloudy,SCT075,57.9,39.9,51,,,29.8,1008.9,0,0,0,2026-01-10,1,2026,8,KCHO,0,0,0,0,7
2026-01-07,7,2026-01-07 9:53,9:53,EST,SW  6,10,Fair,CLR,61,39,44,,,29.82,1009.4,0,0,0,2026-01-10,1,2026,9,KCHO,0,0,0,0,6
2026-01-07,7,2026-01-07 10:53,10:53,EST,W  8,10,Fair,CLR,63,39,41,,,29.81,1009.2,0,0,0,2026-01-10,1,2026,10,KCHO,0,0,0,0,8
2026-01-07,7,2026-01-07 11:53,11:53,EST,Vrbl  5  G 17,10,Fair,CLR,64.9,37,36,,,29.8,1008.8,0,0,0,2026-01-10,1,2026,11,KCHO,0,0,0,0,5
2026-01-07,7,2026-01-07 12:53,12:53,EST,NW  10  G 17,10,A Few Clouds,FEW070,66.9,36,32,,,29.81,1009.2,0,0,0,2026-01-10,1,2026,12,KCHO,0,0,0,0,10
2026-01-07,7,2026-01-07 13:53,13:53,EST,N  8  G 20,10,Mostly Cloudy,SCT070 BKN085,66.9,36,32,,,29.84,1010.1,0,0,0,2026-01-10,1,2026,13,KCHO,0,0,0,0,8
2026-01-07,7,2026-01-07 14:53,14:53,EST,N  9,10,A Few Clouds,FEW085,66,35.1,32,,,29.87,1011.1,0,0,0,2026-01-10,1,2026,14,KCHO,0,0,0,0,9
2026-01-07,7,2026-01-07 15:53,15:53,EST,Vrbl  3,10,Fair,CLR,64.9,35.1,33,,,29.88,1011.6,0,0,0,2026-01-10,1,2026,15,KCHO,0,0,0,0,3
2026-01-07,7,2026-01-07 16:53,16:53,EST,Vrbl  7,10,Fair,CLR,62.1,36,38,,,29.91,1012.5,0,0,0,2026-01-10,1,2026,16,KCHO,0,0,0,0,7
2026-01-07,7,2026-01-07 17:53,17:53,EST,NW  5,10,Fair,CLR,59,36,42,,,29.94,1013.8,0,0,0,2026-01-10,1,2026,17,KCHO,0,0,0,0,5
2026-01-07,7,2026-01-07 18:53,18:53,EST,NW  3,10,Fair,CLR,55.9,36,47,,,29.99,1015.2,0,0,0,2026-01-10,1,2026,18,KCHO,0,0,0,0,3
2026-01-07,7,2026-01-07 19:53,19:53,EST,NW  3,10,Fair,CLR,55,36,49,,,30,1015.5,0,0,0,2026-01-10,1,2026,19,KCHO,0,0,0,0,3
2026-01-07,7,2026-01-07 20:53,20:53,EST,Calm,10,Fair,CLR,53.1,36,52,,,30,1015.7,0,0,0,2026-01-10,1,2026,20,KCHO,0,0,0,0,0
2026-01-07,7,2026-01-07 21:53,21:53,EST,W  3,10,Fair,CLR,51.1,36,56,,,30.02,1016.4,0,0,0,2026-01-10,1,2026,21,KCHO,0,0,0,0,3
2026-01-07,7,2026-01-07 22:53,22:53,EST,SE  3,10,Fair,CLR,45,35.1,68,,,30.03,1016.5,0,0,0,2026-01-10,1,2026,22,KCHO,0,0,0,0,3
2026-01-07,7,2026-01-07 23:53,23:53,EST,Calm,10,Fair,CLR,48.9,36,61,,,30.03,1016.8,0,0,0,2026-01-10,1,2026,23,KCHO,0,0,0,0,0
2026-01-08,8,2026-01-08 0:53,0:53,EST,W  3,10,Fair,CLR,44.1,35.1,71,,,30.04,1017.1,0,0,0,2026-01-11,1,2026,0,KCHO,0,0,0,0,3
2026-01-08,8,2026-01-08 1:53,1:53,EST,S  6,10,Fair,CLR,44.1,36,73,41,,30.07,1018,0,0,0,2026-01-11,1,2026,1,KCHO,0,0,0,0,6
2026-01-08,8,2026-01-08 2:53,2:53,EST,SW  8,10,Fair,CLR,46,37,71,42,,30.1,1019,0,0,0,2026-01-11,1,2026,2,KCHO,0,0,0,0,8
2026-01-08,8,2026-01-08 3:53,3:53,EST,SE  3,10,Fair,CLR,41,35.1,79,,,30.11,1019.4,0,0,0,2026-01-11,1,2026,3,KCHO,0,0,0,0,3
2026-01-08,8,2026-01-08 4:53,4:53,EST,SW  5,10,Fair,CLR,43,36,76,41,,30.11,1019.6,0,0,0,2026-01-11,1,2026,4,KCHO,0,0,0,0,5
2026-01-08,8,2026-01-08 5:53,5:53,EST,Calm,10,Fair,CLR,35.1,33.1,93,,,30.13,1020.2,0,0,0,2026-01-11,1,2026,5,KCHO,0,0,0,0,0
2026-01-08,8,2026-01-08 6:53,6:53,EST,Calm,10,Fair,CLR,36,33.1,89,,,30.16,1021.4,0,0,0,2026-01-11,1,2026,6,KCHO,0,0,0,0,0
2026-01-08,8,2026-01-08 7:53,7:53,EST,NW  3,10,Fair,CLR,33.1,30,89,,,30.18,1022.2,0,0,0,2026-01-11,1,2026,7,KCHO,0,0,0,0,3
2026-01-08,8,2026-01-08 8:53,8:53,EST,Calm,10,Fair,CLR,39.9,35.1,83,,,30.21,1022.9,0,0,0,2026-01-11,1,2026,8,KCHO,0,0,0,0,0
2026-01-08,8,2026-01-08 9:53,9:53,EST,Calm,10,Fair,CLR,46.9,37.9,71,,,30.24,1023.9,0,0,0,2026-01-11,1,2026,9,KCHO,0,0,0,0,0
2026-01-08,8,2026-01-08 10:53,10:53,EST,S  7,10,Fair,CLR,51.1,37.9,61,,,30.25,1024.3,0,0,0,2026-01-11,1,2026,10,KCHO,0,0,0,0,7
2026-01-08,8,2026-01-08 11:53,11:53,EST,Vrbl  5,10,Fair,CLR,54,37.9,55,,,30.23,1023.6,0,0,0,2026-01-11,1,2026,11,KCHO,0,0,0,0,5
2026-01-08,8,2026-01-08 12:53,12:53,EST,Vrbl  3,10,Fair,CLR,55,37.9,53,,,30.21,1022.9,0,0,0,2026-01-11,1,2026,12,KCHO,0,0,0,0,3
2026-01-08,8,2026-01-08 13:53,13:53,EST,S  7,10,Fair,CLR,57,37.9,49,,,30.18,1021.9,0,0,0,2026-01-11,1,2026,13,KCHO,0,0,0,0,7
2026-01-08,8,2026-01-08 14:53,14:53,EST,S  5,10,Fair,CLR,55.9,37.9,51,,,30.19,1022.2,0,0,0,2026-01-11,1,2026,14,KCHO,0,0,0,0,5
2026-01-08,8,2026-01-08 15:53,15:53,EST,SE  6,10,Fair,CLR,55.9,37.9,51,,,30.2,1022.5,0,0,0,2026-01-11,1,2026,15,KCHO,0,0,0,0,6
2026-01-08,8,2026-01-08 16:53,16:53,EST,S  5,10,Fair,CLR,51.1,37,59,,,30.22,1023.3,0,0,0,2026-01-11,1,2026,16,KCHO,0,0,0,0,5
2026-01-08,8,2026-01-08 17:53,17:53,EST,S  3,10,Fair,CLR,52,37,57,,,30.23,1023.8,0,0,0,2026-01-11,1,2026,17,KCHO,0,0,0,0,3
2026-01-08,8,2026-01-08 18:53,18:53,EST,Calm,10,Fair,CLR,48,37.9,68,,,30.23,1023.8,0,0,0,2026-01-11,1,2026,18,KCHO,0,0,0,0,0
2026-01-08,8,2026-01-08 19:53,19:53,EST,Calm,10,Fair,CLR,48,37.9,68,,,30.24,1024.3,0,0,0,2026-01-11,1,2026,19,KCHO,0,0,0,0,0
2026-01-08,8,2026-01-08 20:53,20:53,EST,Calm,10,Fair,CLR,46,37.9,73,,,30.24,1024,0,0,0,2026-01-11,1,2026,20,KCHO,0,0,0,0,0
2026-01-08,8,2026-01-08 21:53,21:53,EST,Calm,10,Fair,CLR,45,37,74,,,30.25,1024.4,0,0,0,2026-01-11,1,2026,21,KCHO,0,0,0,0,0
2026-01-08,8,2026-01-08 22:53,22:53,EST,Calm,10,Fair,CLR,44.1,37,76,,,30.23,1023.7,0,0,0,2026-01-11,1,2026,22,KCHO,0,0,0,0,0
2026-01-08,8,2026-01-08 23:53,23:53,EST,SE  3,10,Fair,CLR,43,37,80,,,30.24,1023.9,0,0,0,2026-01-11,1,2026,23,KCHO,0,0,0,0,3
2026-01-09,9,2026-01-09 0:53,0:53,EST,S  6,10,Fair,CLR,45,37,74,42,,30.24,1023.8,0,0,0,2026-01-12,1,2026,0,KCHO,0,0,0,0,6
2026-01-09,9,2026-01-09 1:53,1:53,EST,S  6,10,Fair,CLR,42.1,37,82,39,,30.24,1023.8,0,0,0,2026-01-12,1,2026,1,KCHO,0,0,0,0,6
2026-01-09,9,2026-01-09 2:53,2:53,EST,SW  5,10,Mostly Cloudy,BKN050,44.1,37.9,79,42,,30.24,1024.1,0,0,0,2026-01-12,1,2026,2,KCHO,0,0,0,0,5
2026-01-09,9,2026-01-09 3:53,3:53,EST,S  7,10,Overcast,OVC046,45,39,80,42,,30.23,1023.7,0,0,0,2026-01-12,1,2026,3,KCHO,0,0,0,0,7
2026-01-09,9,2026-01-09 4:53,4:53,EST,S  7,10,Overcast,OVC036,45,39,80,42,,30.22,1023.2,0,0,0,2026-01-12,1,2026,4,KCHO,0,0,0,0,7
2026-01-09,9,2026-01-09 5:53,5:53,EST,S  8,10,Overcast,OVC031,45,39,80,41,,30.21,1023.1,0,0,0,2026-01-12,1,2026,5,KCHO,0,0,0,0,8
2026-01-09,9,2026-01-09 6:53,6:53,EST,S  6,10,Overcast,OVC031,45,37.9,77,42,,30.22,1023.2,0,0,0,2026-01-12,1,2026,6,KCHO,0,0,0,0,6
2026-01-09,9,2026-01-09 7:53,7:53,EST,S  8,10,Overcast,OVC027,46,37.9,73,42,,30.2,1022.8,0,0,0,2026-01-12,1,2026,7,KCHO,0,0,0,0,8
2026-01-09,9,2026-01-09 8:53,8:53,EST,S  8,10,Overcast,OVC019,46,37.9,73,42,,30.2,1022.8,0,0,0,2026-01-12,1,2026,8,KCHO,0,0,0,0,8
2026-01-09,9,2026-01-09 9:53,9:53,EST,S  10,10,Overcast,OVC018,46.9,39,74,43,,30.18,1022,0,0,0,2026-01-12,1,2026,9,KCHO,0,0,0,0,10
2026-01-09,9,2026-01-09 10:53,10:53,EST,S  7,10,Overcast,OVC018,48,39,71,45,,30.17,1021.8,0,0,0,2026-01-12,1,2026,10,KCHO,0,0,0,0,7
2026-01-09,9,2026-01-09 11:53,11:53,EST,SW  3,10,Overcast,OVC015,48.9,39.9,71,,,30.15,1021,0,0,0,2026-01-12,1,2026,11,KCHO,0,0,0,0,3
2026-01-09,9,2026-01-09 12:53,12:53,EST,S  10,10,Overcast,OVC015,52,42.1,69,,,30.11,1019.7,0,0,0,2026-01-12,1,2026,12,KCHO,0,0,0,0,10
2026-01-09,9,2026-01-09 13:53,13:53,EST,S  10,10,Overcast,OVC018,53.1,45,74,,,30.09,1018.9,0,0,0,2026-01-12,1,2026,13,KCHO,0,0,0,0,10
2026-01-09,9,2026-01-09 14:53,14:53,EST,S  12,10,Light Rain,BKN022 OVC033,54,46.9,77,,,30.08,1018.7,0,0,0,2026-01-12,1,2026,14,KCHO,0,0,0,0,12
2026-01-09,9,2026-01-09 15:53,15:53,EST,S  13,8,Light Rain,BKN026 BKN033 BKN050,54,50,87,,,30.1,1019,0,0,0,2026-01-12,1,2026,15,KCHO,0,0,0,0,13
2026-01-09,9,2026-01-09 16:53,16:53,EST,S  10,4,Light Rain Fog/Mist,OVC100,53.1,52,96,,,30.1,1019.2,0.02,0,0,2026-01-12,1,2026,16,KCHO,0.02,0.02,0.02,0.02,10
2026-01-09,9,2026-01-09 17:53,17:53,EST,S  10,6,Fog/Mist,OVC100,53.1,52,96,,,30.09,1019.1,0.01,0,0,2026-01-12,1,2026,17,KCHO,0.03,0.03,0.03,0.03,10
2026-01-09,9,2026-01-09 18:53,18:53,EST,SW  6,7,Mostly Cloudy,BKN110,53.1,52,96,,,30.1,1019.2,0,0,0.03,2026-01-12,1,2026,18,KCHO,0.03,0.03,0.03,0.03,6
2026-01-09,9,2026-01-09 19:53,19:53,EST,SW  7,7,Mostly Cloudy,BKN110,53.1,52,96,,,30.12,1019.9,0,0,0,2026-01-12,1,2026,19,KCHO,0.01,0.03,0.03,0.03,7
2026-01-09,9,2026-01-09 20:53,20:53,EST,S  8,8,Overcast,OVC100,53.1,52,96,,,30.12,1019.9,0,0,0,2026-01-12,1,2026,20,KCHO,0,0.03,0.03,0.03,8
2026-01-09,9,2026-01-09 21:53,21:53,EST,Vrbl  3,10,Mostly Cloudy,FEW100 BKN120,54,52,93,,,30.12,1019.9,0,0,0,2026-01-12,1,2026,21,KCHO,0,0.03,0.03,0.03,3
2026-01-09,9,2026-01-09 22:53,22:53,EST,Calm,7,Fair,CLR,51.1,51.1,100,,,30.13,1020,0,0,0,2026-01-12,1,2026,22,KCHO,0,0.01,0.03,0.03,0
2026-01-09,9,2026-01-09 23:53,23:53,EST,SW  5,8,Fair,CLR,53.1,52,96,,,30.13,1020.1,0,0,0,2026-01-12,1,2026,23,KCHO,0,0,0.03,0.03,5
2026-01-10,10,2026-01-10 0:53,0:53,EST,SW  5,6,Fog/Mist,CLR,52,52,100,,,30.13,1020.3,0,0,0,2026-01-13,1,2026,0,KCHO,0,0,0.03,0.03,5
2026-01-10,10,2026-01-10 1:53,1:53,EST,Calm,3,Fog/Mist,SCT001 BKN065 OVC095,51.1,51.1,100,,,30.15,1020.9,0,0,0,2026-01-13,1,2026,1,KCHO,0,0,0.03,0.03,0
2026-01-10,10,2026-01-10 2:53,2:53,EST,Calm,1.25,Fog/Mist,BKN060,51.1,51.1,100,,,30.12,1020,0,0,0,2026-01-13,1,2026,2,KCHO,0,0,0.03,0.03,0
2026-01-10,10,2026-01-10 3:53,3:53,EST,Calm,3,Fog/Mist,BKN060,51.1,50,96,,,30.12,1019.7,0,0,0,2026-01-13,1,2026,3,KCHO,0,0,0.03,0.03,0
2026-01-10,10,2026-01-10 4:53,4:53,EST,NE  3,3,Light Rain Fog/Mist,SCT003 OVC055,51.1,51.1,100,,,30.14,1020.4,0,0,0,2026-01-13,1,2026,4,KCHO,0,0,0.01,0.03,3
2026-01-10,10,2026-01-10 5:53,5:53,EST,N  8,5,Light Rain Fog/Mist,FEW004 FEW048 OVC090,51.1,50,96,,,30.15,1020.8,0.02,0,0,2026-01-13,1,2026,5,KCHO,0.02,0.02,0.02,0.05,8
2026-01-10,10,2026-01-10 6:53,6:53,EST,NE  10,5,Light Rain Fog/Mist,FEW050 OVC085,51.1,50,96,,,30.13,1020.1,0.06,0,0.08,2026-01-13,1,2026,6,KCHO,0.08,0.08,0.08,0.11,10
2026-01-10,10,2026-01-10 7:53,7:53,EST,NE  10,10,Light Rain,OVC031,51.1,48,89,,,30.12,1019.7,0.03,0,0,2026-01-13,1,2026,7,KCHO,0.11,0.11,0.11,0.14,10
2026-01-10,10,2026-01-10 8:53,8:53,EST,NE  8,4,Light Rain Fog/Mist,OVC012,50,48,93,47,,30.12,1019.7,0.04,0,0,2026-01-13,1,2026,8,KCHO,0.13,0.15,0.15,0.18,8
2026-01-10,10,2026-01-10 9:53,9:53,EST,NE  9,2.5,Rain Fog/Mist,OVC007,50,48.9,96,47,,30.11,1019.4,0.07,0.14,0,2026-01-13,1,2026,9,KCHO,0.14,0.22,0.22,0.25,9
2026-01-10,10,2026-01-10 10:53,10:53,EST,NE  13,2.5,Light Rain Fog/Mist,SCT007 BKN031 OVC070,48.9,48,97,44,,30.08,1018.5,0.15,0,0,2026-01-13,1,2026,10,KCHO,0.26,0.37,0.37,0.4,13
2026-01-10,10,2026-01-10 11:53,11:53,EST,NE  10,2,Rain Fog/Mist,OVC006,48,46.9,96,44,,30.03,1016.9,0.09,0,0,2026-01-13,1,2026,11,KCHO,0.31,0.44,0.46,0.49,10
2026-01-10,10,2026-01-10 12:53,12:53,EST,N  5,3,Light Rain Fog/Mist,OVC005,48,46.9,96,47,,30,1015.7,0.14,0,0.52,2026-01-13,1,2026,12,KCHO,0.38,0.52,0.6,0.63,5
2026-01-10,10,2026-01-10 13:53,13:53,EST,NE  6,3,Light Rain Fog/Mist,BKN007 OVC012,48,46.9,96,46,,29.96,1014.5,0.11,0,0,2026-01-13,1,2026,13,KCHO,0.34,0.6,0.71,0.74,6
2026-01-10,10,2026-01-10 14:53,14:53,EST,NE  9,4,Light Rain Fog/Mist,BKN005 OVC014,46.9,46,97,43,,29.95,1014,0.08,0,0,2026-01-13,1,2026,14,KCHO,0.33,0.64,0.79,0.82,9
2026-01-10,10,2026-01-10 15:53,15:53,EST,E  5,2.5,Light Rain Fog/Mist,BKN005 OVC014,46.9,46.9,100,45,,29.92,1013,0.07,0.26,0,2026-01-13,1,2026,15,KCHO,0.26,0.64,0.86,0.89,5
2026-01-10,10,2026-01-10 16:53,16:53,EST,Vrbl  3,4,Light Rain Fog/Mist,BKN003 OVC023,46.9,46,97,,,29.89,1012.1,0.02,0,0,2026-01-13,1,2026,16,KCHO,0.17,0.51,0.88,0.89,3
2026-01-10,10,2026-01-10 17:53,17:53,EST,Calm,6,Fog/Mist,BKN002 OVC018,46.9,46,97,,,29.88,1011.6,0,0,0,2026-01-13,1,2026,17,KCHO,0.09,0.42,0.86,0.88,0
2026-01-10,10,2026-01-10 18:53,18:53,EST,Calm,4,Light Rain Fog/Mist,BKN004 OVC014,46.9,46,97,,,29.86,1011,0.01,0,0.29,2026-01-13,1,2026,18,KCHO,0.03,0.29,0.81,0.89,0
2026-01-10,10,2026-01-10 19:53,19:53,EST,Calm,5,Fog/Mist,BKN002 OVC013,46.9,46,97,,,29.84,1010.4,0,0,0,2026-01-13,1,2026,19,KCHO,0.01,0.18,0.78,0.89,0
2026-01-10,10,2026-01-10 20:53,20:53,EST,S  5,6,Fog/Mist,FEW002 OVC015,46.9,46.9,100,45,,29.83,1010,0.01,0,0,2026-01-13,1,2026,20,KCHO,0.02,0.11,0.75,0.9,5
2026-01-10,10,2026-01-10 21:53,21:53,EST,S  6,3,Fog/Mist,BKN002 BKN019 OVC031,46.9,46.9,100,45,,29.82,1009.6,0,0.01,0,2026-01-13,1,2026,21,KCHO,0.01,0.04,0.68,0.9,6
2026-01-10,10,2026-01-10 22:53,22:53,EST,Calm,8,Overcast,OVC090,48,46.9,96,,,29.8,1009.2,0,0,0,2026-01-13,1,2026,22,KCHO,0.01,0.02,0.53,0.9,0
2026-01-10,10,2026-01-10 23:53,23:53,EST,S  6,7,Overcast,FEW037 OVC095,46.9,46.9,100,45,,29.8,1009.2,0,0,0,2026-01-13,1,2026,23,KCHO,0,0.02,0.44,0.9,6
2026-01-11,11,2026-01-11 0:53,0:53,EST,Calm,10,Mostly Cloudy,BKN090,48.9,48,97,,,29.81,1009.3,0,0,0.01,2026-01-14,1,2026,0,KCHO,0,0.01,0.3,0.9,0
2026-01-11,11,2026-01-11 1:53,1:53,EST,Calm,10,Fair,CLR,53.1,46,77,,,29.82,1009.7,0,0,0,2026-01-14,1,2026,1,KCHO,0,0.01,0.19,0.9,0
2026-01-11,11,2026-01-11 2:53,2:53,EST,SW  3,10,Overcast,OVC090,53.1,44.1,72,,,29.85,1010.5,0,0,0,2026-01-14,1,2026,2,KCHO,0,0,0.11,0.9,3
2026-01-11,11,2026-01-11 3:53,3:53,EST,Calm,10,Overcast,OVC085,51.1,43,74,,,29.86,1010.9,0,0,0,2026-01-14,1,2026,3,KCHO,0,0,0.04,0.9,0
2026-01-11,11,2026-01-11 4:53,4:53,EST,Vrbl  7,10,Overcast,OVC090,50,36,59,48,,29.87,1011.3,0,0,0,2026-01-14,1,2026,4,KCHO,0,0,0.02,0.9,7
2026-01-11,11,2026-01-11 5:53,5:53,EST,Calm,10,Fair,CLR,48,33.1,56,,,29.89,1012.1,0,0,0,2026-01-14,1,2026,5,KCHO,0,0,0.02,0.88,0
2026-01-11,11,2026-01-11 6:53,6:53,EST,NW  6,10,Fair,CLR,44.1,32,63,41,,29.89,1012.2,0,0,0,2026-01-14,1,2026,6,KCHO,0,0,0.01,0.82,6
2026-01-11,11,2026-01-11 7:53,7:53,EST,NW  3,10,Fair,CLR,43,28.9,58,,,29.93,1013.4,0,0,0,2026-01-14,1,2026,7,KCHO,0,0,0.01,0.79,3
2026-01-11,11,2026-01-11 8:53,8:53,EST,Vrbl  7,10,Fair,CLR,44.1,28,53,41,,29.95,1014.2,0,0,0,2026-01-14,1,2026,8,KCHO,0,0,0,0.75,7
2026-01-11,11,2026-01-11 9:53,9:53,EST,Vrbl  7  G 16,10,Fair,CLR,46,23,40,43,,29.94,1013.9,0,0,0,2026-01-14,1,2026,9,KCHO,0,0,0,0.68,7
2026-01-11,11,2026-01-11 10:53,10:53,EST,W  9  G 20,10,Mostly Cloudy,BKN065 BKN075,46.9,23,39,43,,29.95,1014.1,0,0,0,2026-01-14,1,2026,10,KCHO,0,0,0,0.53,9
2026-01-11,11,2026-01-11 11:53,11:53,EST,W  12  G 18,10,Mostly Cloudy,BKN060 BKN080,46.9,21.9,37,42,,29.94,1013.7,0,0,0,2026-01-14,1,2026,11,KCHO,0,0,0,0.44,12
2026-01-11,11,2026-01-11 12:53,12:53,EST,W  8  G 20,10,Mostly Cloudy,SCT075 BKN090,48,21,34,45,,29.93,1013.4,0,0,0,2026-01-14,1,2026,12,KCHO,0,0,0,0.3,8
2026-01-11,11,2026-01-11 13:53,13:53,EST,W  7  G 20,10,Partly Cloudy,FEW029 SCT047,42.1,25,51,38,,29.98,1015.3,0,0,0,2026-01-14,1,2026,13,KCHO,0,0,0,0.19,7
2026-01-11,11,2026-01-11 14:53,14:53,EST,NW  14  G 29,10,Mostly Cloudy,BKN060,42.1,19.9,41,35,,30.03,1016.9,0,0,0,2026-01-14,1,2026,14,KCHO,0,0,0,0.11,14
2026-01-11,11,2026-01-11 15:53,15:53,EST,W  14  G 30,10,Partly Cloudy,SCT060,37.9,10.9,33,30,,30.12,1020,0,0,0,2026-01-14,1,2026,15,KCHO,0,0,0,0.04,14
2026-01-11,11,2026-01-11 16:53,16:53,EST,Calm,10,Fair,CLR,36,10.9,35,,,30.13,1020.2,0,0,0,2026-01-14,1,2026,16,KCHO,0,0,0,0.02,0
2026-01-11,11,2026-01-11 17:53,17:53,EST,NW  10  G 29,10,Fair,CLR,35.1,10.9,37,28,,30.14,1020.9,0,0,0,2026-01-14,1,2026,17,KCHO,0,0,0,0.02,10
2026-01-11,11,2026-01-11 18:53,18:53,EST,Vrbl  5,10,Fair,CLR,34,12,40,30,,30.17,1021.8,0,0,0,2026-01-14,1,2026,18,KCHO,0,0,0,0.01,5
2026-01-11,11,2026-01-11 19:53,19:53,EST,NW  6,10,Fair,CLR,33.1,12,42,28,,30.21,1023.2,0,0,0,2026-01-14,1,2026,19,KCHO,0,0,0,0.01,6
2026-01-11,11,2026-01-11 20:53,20:53,EST,Calm,10,A Few Clouds,FEW050,30.9,12,45,,,30.22,1023.6,0,0,0,2026-01-14,1,2026,20,KCHO,0,0,0,0,0
2026-01-11,11,2026-01-11 21:53,21:53,EST,N  6,10,Mostly Cloudy,BKN050,33.1,12.9,43,28,,30.25,1024.6,0,0,0,2026-01-14,1,2026,21,KCHO,0,0,0,0,6
2026-01-11,11,2026-01-11 22:53,22:53,EST,W  8,10,Fair,CLR,32,14,47,25,,30.28,1025.5,0,0,0,2026-01-14,1,2026,22,KCHO,0,0,0,0,8
2026-01-11,11,2026-01-11 23:53,23:53,EST,W  3,10,Overcast,OVC047,32,16,52,,,30.3,1026.2,0,0,0,2026-01-14,1,2026,23,KCHO,0,0,0,0,3
2026-01-12,12,2026-01-12 0:53,0:53,EST,W  3,10,Fair,CLR,32,16,52,,,30.28,1025.5,0,0,0,2026-01-15,1,2026,0,KCHO,0,0,0,0,3
2026-01-12,12,2026-01-12 1:53,1:53,EST,S  6,10,Fair,CLR,28,16,60,22,,30.27,1025.5,0,0,0,2026-01-15,1,2026,1,KCHO,0,0,0,0,6
2026-01-12,12,2026-01-12 2:53,2:53,EST,NW  6,10,Fair,CLR,30,17.1,58,25,,30.27,1025.4,0,0,0,2026-01-15,1,2026,2,KCHO,0,0,0,0,6
2026-01-12,12,2026-01-12 3:53,3:53,EST,SW  3,10,Fair,CLR,30.9,17.1,56,,,30.29,1026,0,0,0,2026-01-15,1,2026,3,KCHO,0,0,0,0,3
2026-01-12,12,2026-01-12 4:53,4:53,EST,S  3,10,Fair,CLR,30,18,61,,,30.29,1026.2,0,0,0,2026-01-15,1,2026,4,KCHO,0,0,0,0,3
2026-01-12,12,2026-01-12 5:53,5:53,EST,Vrbl  3,10,Fair,CLR,30.9,17.1,56,,,30.3,1026.5,0,0,0,2026-01-15,1,2026,5,KCHO,0,0,0,0,3
2026-01-12,12,2026-01-12 6:53,6:53,EST,Vrbl  3,10,Fair,CLR,32,17.1,54,,,30.3,1026.5,0,0,0,2026-01-15,1,2026,6,KCHO,0,0,0,0,3
2026-01-12,12,2026-01-12 7:53,7:53,EST,SW  5,10,Fair,CLR,33.1,18,54,29,,30.31,1026.9,0,0,0,2026-01-15,1,2026,7,KCHO,0,0,0,0,5
2026-01-12,12,2026-01-12 8:53,8:53,EST,Vrbl  3,10,Fair,CLR,35.1,18,50,,,30.32,1027,0,0,0,2026-01-15,1,2026,8,KCHO,0,0,0,0,3
2026-01-12,12,2026-01-12 9:53,9:53,EST,SW  8,10,Fair,CLR,37.9,18,44,33,,30.32,1027,0,0,0,2026-01-15,1,2026,9,KCHO,0,0,0,0,8
2026-01-12,12,2026-01-12 10:53,10:53,EST,S  10  G 17,10,Fair,CLR,39.9,17.1,40,34,,30.31,1026.6,0,0,0,2026-01-15,1,2026,10,KCHO,0,0,0,0,10
2026-01-12,12,2026-01-12 11:53,11:53,EST,S  12,10,Fair,CLR,44.1,17.1,34,39,,30.28,1025.6,0,0,0,2026-01-15,1,2026,11,KCHO,0,0,0,0,12
2026-01-12,12,2026-01-12 12:53,12:53,EST,S  12,10,Fair,CLR,46.9,15.1,28,42,,30.24,1024.2,0,0,0,2026-01-15,1,2026,12,KCHO,0,0,0,0,12
2026-01-12,12,2026-01-12 13:53,13:53,EST,SW  10,10,Fair,CLR,48.9,15.1,26,45,,30.22,1023.4,0,0,0,2026-01-15,1,2026,13,KCHO,0,0,0,0,10
2026-01-12,12,2026-01-12 14:53,14:53,EST,Vrbl  7,10,Fair,CLR,50,12.9,22,48,,30.2,1022.8,0,0,0,2026-01-15,1,2026,14,KCHO,0,0,0,0,7
2026-01-12,12,2026-01-12 15:53,15:53,EST,Calm,10,Fair,CLR,48.9,12,22,,,30.19,1022.6,0,0,0,2026-01-15,1,2026,15,KCHO,0,0,0,0,0
2026-01-12,12,2026-01-12 16:53,16:53,EST,Vrbl  5,10,Fair,CLR,46.9,12,24,45,,30.19,1022.5,0,0,0,2026-01-15,1,2026,16,KCHO,0,0,0,0,5
2026-01-12,12,2026-01-12 17:53,17:53,EST,SW  6,10,Fair,CLR,45,12,26,42,,30.19,1022.5,0,0,0,2026-01-15,1,2026,17,KCHO,0,0,0,0,6
2026-01-12,12,2026-01-12 18:53,18:53,EST,S  7,10,Fair,CLR,41,15.1,35,37,,30.18,1022.2,0,0,0,2026-01-15,1,2026,18,KCHO,0,0,0,0,7
2026-01-12,12,2026-01-12 19:53,19:53,EST,S  7,10,Fair,CLR,39.9,15.1,36,36,,30.18,1022.1,0,0,0,2026-01-15,1,2026,19,KCHO,0,0,0,0,7
2026-01-12,12,2026-01-12 20:53,20:53,EST,SW  7,10,Fair,CLR,41,12.9,32,37,,30.16,1021.5,0,0,0,2026-01-15,1,2026,20,KCHO,0,0,0,0,7
2026-01-12,12,2026-01-12 21:53,21:53,EST,S  9,10,Fair,CLR,37,12.9,37,31,,30.15,1021.4,0,0,0,2026-01-15,1,2026,21,KCHO,0,0,0,0,9
2026-01-12,12,2026-01-12 22:53,22:53,EST,SW  7,10,Fair,CLR,39,14,36,35,,30.15,1021.1,0,0,0,2026-01-15,1,2026,22,KCHO,0,0,0,0,7
2026-01-12,12,2026-01-12 23:53,23:53,EST,S  6,10,Fair,CLR,35.1,15.1,44,31,,30.16,1021.4,0,0,0,2026-01-15,1,2026,23,KCHO,0,0,0,0,6
2026-01-13,13,2026-01-13 0:53,0:53,EST,S  5,10,Fair,CLR,34,15.1,46,30,,30.16,1021.5,0,0,0,2026-01-16,1,2026,0,KCHO,0,0,0,0,5
2026-01-13,13,2026-01-13 1:53,1:53,EST,W  3,10,Fair,CLR,37,12.9,37,,,30.16,1021.4,0,0,0,2026-01-16,1,2026,1,KCHO,0,0,0,0,3
2026-01-13,13,2026-01-13 2:53,2:53,EST,Calm,10,Fair,CLR,36,14,40,,,30.16,1021.5,0,0,0,2026-01-16,1,2026,2,KCHO,0,0,0,0,0
2026-01-13,13,2026-01-13 3:53,3:53,EST,Calm,10,Fair,CLR,32,15.1,50,,,30.15,1021.1,0,0,0,2026-01-16,1,2026,3,KCHO,0,0,0,0,0
2026-01-13,13,2026-01-13 4:53,4:53,EST,W  3,10,Fair,CLR,34,15.1,46,,,30.13,1020.6,0,0,0,2026-01-16,1,2026,4,KCHO,0,0,0,0,3
2026-01-13,13,2026-01-13 5:53,5:53,EST,N  5,10,Fair,CLR,28.9,19.9,69,25,,30.13,1020.6,0,0,0,2026-01-16,1,2026,5,KCHO,0,0,0,0,5
2026-01-13,13,2026-01-13 6:53,6:53,EST,Vrbl  3,10,Fair,CLR,30.9,17.1,56,,,30.13,1020.6,0,0,0,2026-01-16,1,2026,6,KCHO,0,0,0,0,3
2026-01-13,13,2026-01-13 7:53,7:53,EST,SW  3,10,Fair,CLR,37,17.1,44,,,30.12,1020.1,0,0,0,2026-01-16,1,2026,7,KCHO,0,0,0,0,3
2026-01-13,13,2026-01-13 8:53,8:53,EST,Vrbl  3,10,Fair,CLR,41,17.1,38,,,30.11,1019.8,0,0,0,2026-01-16,1,2026,8,KCHO,0,0,0,0,3
2026-01-13,13,2026-01-13 9:53,9:53,EST,Vrbl  3,10,Fair,CLR,46.9,19,33,,,30.08,1018.6,0,0,0,2026-01-16,1,2026,9,KCHO,0,0,0,0,3
2026-01-13,13,2026-01-13 10:53,10:53,EST,S  9,10,Fair,CLR,50,21,32,47,,30.06,1018,0,0,0,2026-01-16,1,2026,10,KCHO,0,0,0,0,9
2026-01-13,13,2026-01-13 11:53,11:53,EST,S  10,10,Fair,CLR,51.1,21,31,,,30.02,1016.7,0,0,0,2026-01-16,1,2026,11,KCHO,0,0,0,0,10
2026-01-13,13,2026-01-13 12:53,12:53,EST,S  10,10,Fair,CLR,52,21.9,31,,,29.97,1014.9,0,0,0,2026-01-16,1,2026,12,KCHO,0,0,0,0,10
2026-01-13,13,2026-01-13 13:53,13:53,EST,S  13,10,Fair,CLR,55,21,26,,,29.93,1013.6,0,0,0,2026-01-16,1,2026,13,KCHO,0,0,0,0,13
2026-01-13,13,2026-01-13 14:53,14:53,EST,S  14,10,Fair,CLR,54,21,28,,,29.9,1012.5,0,0,0,2026-01-16,1,2026,14,KCHO,0,0,0,0,14
2026-01-13,13,2026-01-13 15:53,15:53,EST,S  13  G 23,10,Fair,CLR,55,21.9,28,,,29.88,1012,0,0,0,2026-01-16,1,2026,15,KCHO,0,0,0,0,13
2026-01-13,13,2026-01-13 16:53,16:53,EST,SW  7,10,Fair,CLR,54,19.9,26,,,29.86,1011.3,0,0,0,2026-01-16,1,2026,16,KCHO,0,0,0,0,7
2026-01-13,13,2026-01-13 17:53,17:53,EST,S  9,10,Fair,CLR,51.1,21,31,,,29.84,1010.5,0,0,0,2026-01-16,1,2026,17,KCHO,0,0,0,0,9
2026-01-13,13,2026-01-13 18:53,18:53,EST,S  12,10,Fair,CLR,51.1,21,31,,,29.83,1010.1,0,0,0,2026-01-16,1,2026,18,KCHO,0,0,0,0,12
2026-01-13,13,2026-01-13 19:53,19:53,EST,S  14,10,Fair,CLR,50,19.9,30,45,,29.81,1009.5,0,0,0,2026-01-16,1,2026,19,KCHO,0,0,0,0,14
2026-01-13,13,2026-01-13 20:53,20:53,EST,S  16  G 24,10,Fair,CLR,50,19.9,30,45,,29.8,1009.1,0,0,0,2026-01-16,1,2026,20,KCHO,0,0,0,0,16
2026-01-13,13,2026-01-13 21:53,21:53,EST,S  14,10,,,48.9,21,33,44,,29.78,1008.5,0,0,0,2026-01-16,1,2026,21,KCHO,0,0,0,0,14
2026-01-13,13,2026-01-13 22:53,22:53,EST,S  14,10,Fair,CLR,46.9,21.9,37,42,,29.78,1008.5,0,0,0,2026-01-16,1,2026,22,KCHO,0,0,0,0,14
2026-01-13,13,2026-01-13 23:53,23:53,EST,S  8,10,Fair,CLR,42.1,21.9,45,38,,29.78,1008.2,0,0,0,2026-01-16,1,2026,23,KCHO,0,0,0,0,8
2026-01-14,14,2026-01-14 0:53,0:53,EST,S  6,10,Mostly Cloudy,BKN110,43,23,45,40,,29.75,1007.5,0,0,0,2026-01-17,1,2026,0,KCHO,0,0,0,0,6
2026-01-14,14,2026-01-14 1:53,1:53,EST,S  7,10,A Few Clouds,FEW110,41,21.9,47,37,,29.74,1006.9,0,0,0,2026-01-17,1,2026,1,KCHO,0,0,0,0,7
2026-01-14,14,2026-01-14 2:53,2:53,EST,S  8,10,Fair,CLR,44.1,23,43,40,,29.73,1006.7,0,0,0,2026-01-17,1,2026,2,KCHO,0,0,0,0,8
2026-01-14,14,2026-01-14 3:53,3:53,EST,S  8,10,Fair,CLR,43,23,45,39,,29.71,1006,0,0,0,2026-01-17,1,2026,3,KCHO,0,0,0,0,8
2026-01-14,14,2026-01-14 4:53,4:53,EST,S  8,10,Fair,CLR,43,23,45,39,,29.69,1005.2,0,0,0,2026-01-17,1,2026,4,KCHO,0,0,0,0,8
2026-01-14,14,2026-01-14 5:53,5:53,EST,S  10,10,Mostly Cloudy,BKN120,43,23,45,38,,29.69,1005.3,0,0,0,2026-01-17,1,2026,5,KCHO,0,0,0,0,10
2026-01-14,14,2026-01-14 6:53,6:53,EST,SW  9,10,Fair,CLR,39,23,53,33,,29.69,1005.5,0,0,0,2026-01-17,1,2026,6,KCHO,0,0,0,0,9
2026-01-14,14,2026-01-14 7:53,7:53,EST,S  6,10,Fair,CLR,39.9,23,51,36,,29.68,1005.2,0,0,0,2026-01-17,1,2026,7,KCHO,0,0,0,0,6
2026-01-14,14,2026-01-14 8:53,8:53,EST,S  5,10,Fair,CLR,44.1,25,47,42,,29.68,1005,0,0,0,2026-01-17,1,2026,8,KCHO,0,0,0,0,5
2026-01-14,14,2026-01-14 9:53,9:53,EST,S  6,10,Fair,CLR,46,25,44,44,,29.66,1004.4,0,0,0,2026-01-17,1,2026,9,KCHO,0,0,0,0,6
2026-01-14,14,2026-01-14 10:53,10:53,EST,S  7,10,Fair,CLR,48,25,41,45,,29.63,1003.4,0,0,0,2026-01-17,1,2026,10,KCHO,0,0,0,0,7
2026-01-14,14,2026-01-14 11:53,11:53,EST,S  9,10,Fair,CLR,48,27,44,44,,29.6,1002.3,0,0,0,2026-01-17,1,2026,11,KCHO,0,0,0,0,9
2026-01-14,14,2026-01-14 12:53,12:53,EST,S  8,10,Fair,CLR,50,28,43,47,,29.58,1001.6,0,0,0,2026-01-17,1,2026,12,KCHO,0,0,0,0,8
2026-01-14,14,2026-01-14 13:53,13:53,EST,S  9,10,Mostly Cloudy,BKN110,51.1,28,41,,,29.53,1000.1,0,0,0,2026-01-17,1,2026,13,KCHO,0,0,0,0,9
2026-01-14,14,2026-01-14 14:53,14:53,EST,S  9,10,Overcast,OVC110,50,28.9,44,47,,29.52,999.5,0,0,0,2026-01-17,1,2026,14,KCHO,0,0,0,0,9
2026-01-14,14,2026-01-14 15:53,15:53,EST,S  10,10,Partly Cloudy,SCT110,51.1,30,45,,,29.49,998.5,0,0,0,2026-01-17,1,2026,15,KCHO,0,0,0,0,10
2026-01-14,14,2026-01-14 16:53,16:53,EST,S  9,10,Fair,CLR,48.9,28,44,45,,29.47,997.9,0,0,0,2026-01-17,1,2026,16,KCHO,0,0,0,0,9
2026-01-14,14,2026-01-14 17:53,17:53,EST,S  10,10,Fair,CLR,46.9,28,48,43,,29.47,997.7,0,0,0,2026-01-17,1,2026,17,KCHO,0,0,0,0,10
2026-01-14,14,2026-01-14 18:53,18:53,EST,S  10,10,Mostly Cloudy,SCT100 BKN120,46,28,50,42,,29.47,998,0,0,0,2026-01-17,1,2026,18,KCHO,0,0,0,0,10
2026-01-14,14,2026-01-14 19:53,19:53,EST,S  9,10,Overcast,OVC085,45,28,52,41,,29.47,997.9,0,0,0,2026-01-17,1,2026,19,KCHO,0,0,0,0,9
2026-01-14,14,2026-01-14 20:53,20:53,EST,S  6,10,Overcast,OVC090,44.1,28.9,55,41,,29.46,997.6,0,0,0,2026-01-17,1,2026,20,KCHO,0,0,0,0,6
2026-01-14,14,2026-01-14 21:53,21:53,EST,S  6,10,Overcast,OVC090,42.1,28.9,60,39,,29.45,997.1,0,0,0,2026-01-15,1,2026,21,KCHO,0,0,0,0,6
2026-01-14,14,2026-01-14 22:53,22:53,EST,S  5,10,Overcast,SCT095 OVC120,42.1,28.9,60,40,,29.44,996.9,0,0,0,2026-01-17,1,2026,22,KCHO,0,0,0,0,5
2026-01-14,14,2026-01-14 23:53,23:53,EST,Vrbl  6,10,Overcast,OVC046,44.1,28.9,55,41,,29.46,997.5,0,0,0,2026-01-17,1,2026,23,KCHO,0,0,0,0,6
2026-01-15,15,2026-01-15 0:53,0:53,EST,W  12  G 24,10,Mostly Cloudy,FEW060 BKN075,45,25,46,40,,29.46,997.4,0,0,0,2026-01-18,1,2026,0,KCHO,0,0,0,0,12
2026-01-15,15,2026-01-15 1:53,1:53,EST,W  10  G 21,10,Overcast,OVC100,44.1,23,43,39,,29.47,998,0,0,0,2026-01-18,1,2026,1,KCHO,0,0,0,0,10
2026-01-15,15,2026-01-15 2:53,2:53,EST,W  10  G 25,10,A Few Clouds,FEW085,37.9,15.1,39,32,,29.51,999.4,0,0,0,2026-01-18,1,2026,2,KCHO,0,0,0,0,10
2026-01-15,15,2026-01-15 3:53,3:53,EST,W  14  G 30,10,Fair,CLR,35.1,12,38,27,,29.55,1000.6,0,0,0,2026-01-18,1,2026,3,KCHO,0,0,0,0,14
2026-01-15,15,2026-01-15 4:53,4:53,EST,Calm,10,Fair,CLR,30.9,9,40,,,29.57,1001.3,0,0,0,2026-01-18,1,2026,4,KCHO,0,0,0,0,0
2026-01-15,15,2026-01-15 5:53,5:53,EST,Calm,10,Fair,CLR,30,6.1,36,,,29.59,1002,0,0,0,2026-01-15,1,2026,5,KCHO,0,0,0,0,0
2026-01-15,15,2026-01-15 6:53,6:53,EST,NW  10  G 17,10,Fair,CLR,28,3.9,35,19,,29.62,1003.1,0,0,0,2026-01-18,1,2026,6,KCHO,0,0,0,0,10
2026-01-15,15,2026-01-15 7:53,7:53,EST,Vrbl  6,10,A Few Clouds,FEW060,28,3.9,35,22,,29.64,1004,0,0,0,2026-01-18,1,2026,7,KCHO,0,0,0,0,6
2026-01-15,15,2026-01-15 8:53,8:53,EST,NW  10  G 18,10,Fair,CLR,28.9,3.9,34,20,,29.67,1004.8,0,0,0,2026-01-18,1,2026,8,KCHO,0,0,0,0,10
2026-01-15,15,2026-01-15 9:53,9:53,EST,Vrbl  6,10,Fair,CLR,30,1.9,30,25,,29.7,1005.9,0,0,0,2026-01-18,1,2026,9,KCHO,0,0,0,0,6
2026-01-15,15,2026-01-15 10:53,10:53,EST,NW  10  G 23,10,Mostly Cloudy,BKN060,30.9,3,30,23,,29.7,1005.8,0,0,0,2026-01-18,1,2026,10,KCHO,0,0,0,0,10
2026-01-15,15,2026-01-15 11:53,11:53,EST,NW  10  G 22,10,Fair,CLR,32,1,26,24,,29.67,1004.8,0,0,0,2026-01-18,1,2026,11,KCHO,0,0,0,0,10
2026-01-15,15,2026-01-15 12:53,12:53,EST,NW  8,10,Fair,CLR,32,1.9,27,25,,29.64,1003.7,0,0,0,2026-01-18,1,2026,12,KCHO,0,0,0,0,8
2026-01-15,15,2026-01-15 13:53,13:53,EST,W  7  G 22,10,Fair,CLR,32,1,26,26,,29.63,1003.5,0,0,0,2026-01-18,1,2026,13,KCHO,0,0,0,0,7
2026-01-15,15,2026-01-15 14:53,14:53,EST,NW  10  G 21,10,Partly Cloudy,SCT070,32,1,26,24,,29.63,1003.8,0,0,0,2026-01-18,1,2026,14,KCHO,0,0,0,0,10
2026-01-15,15,2026-01-15 15:53,15:53,EST,W  9  G 20,10,Fair,CLR,32,1,26,25,,29.65,1004.2,0,0,0,2026-01-18,1,2026,15,KCHO,0,0,0,0,9
2026-01-15,15,2026-01-15 16:53,16:53,EST,Vrbl  6  G 18,10,A Few Clouds,FEW060,30,1.9,30,25,,29.66,1004.7,0,0,0,2026-01-18,1,2026,16,KCHO,0,0,0,0,6
2026-01-15,15,2026-01-15 17:53,17:53,EST,NW  10  G 22,10,Fair,CLR,27,1.9,34,18,,29.68,1005.6,0,0,0,2026-01-18,1,2026,17,KCHO,0,0,0,0,10
2026-01-15,15,2026-01-15 18:53,18:53,EST,W  8  G 20,10,A Few Clouds,FEW060,25,1,35,17,,29.71,1006.5,0,0,0,2026-01-18,1,2026,18,KCHO,0,0,0,0,8
2026-01-15,15,2026-01-15 19:53,19:53,EST,Vrbl  6,10,Mostly Cloudy,BKN055,24.1,1,36,18,,29.73,1007.3,0,0,0,2026-01-18,1,2026,19,KCHO,0,0,0,0,6
2026-01-15,15,2026-01-15 20:53,20:53,EST,Calm,10,Partly Cloudy,SCT055,23,1.9,40,,,29.75,1007.9,0,0,0,2026-01-18,1,2026,20,KCHO,0,0,0,0,0
2026-01-15,15,2026-01-15 21:53,21:53,EST,Calm,10,A Few Clouds,FEW055,23,3,42,,,29.76,1008.2,0,0,0,2026-01-18,1,2026,21,KCHO,0,0,0,0,0
2026-01-15,15,2026-01-15 22:53,22:53,EST,NW  3,10,Fair,CLR,23,3.9,44,,,29.78,1008.8,0,0,0,2026-01-18,1,2026,22,KCHO,0,0,0,0,3
2026-01-15,15,2026-01-15 23:53,23:53,EST,Vrbl  5,10,Fair,CLR,23,3.9,44,18,,29.79,1009.3,0,0,0,2026-01-18,1,2026,23,KCHO,0,0,0,0,5
2026-01-16,16,2026-01-16 0:53,0:53,EST,W  7,10,Fair,CLR,24.1,0,35,17,,29.81,1009.9,0,0,0,2026-01-19,1,2026,0,KCHO,0,0,0,0,7
2026-01-16,16,2026-01-16 1:53,1:53,EST,Vrbl  3,10,Fair,CLR,23,-0.9,35,,,29.84,1011,0,0,0,2026-01-19,1,2026,1,KCHO,0,0,0,0,3
2026-01-16,16,2026-01-16 2:53,2:53,EST,NW  7,10,Fair,CLR,24.1,-0.9,33,17,,29.86,1011.8,0,0,0,2026-01-19,1,2026,2,KCHO,0,0,0,0,7
2026-01-16,16,2026-01-16 3:53,3:53,EST,Calm,10,Fair,CLR,19.9,0,41,,,29.9,1012.9,0,0,0,2026-01-19,1,2026,3,KCHO,0,0,0,0,0
2026-01-16,16,2026-01-16 4:53,4:53,EST,Vrbl  5,10,Fair,CLR,21.9,1,40,16,,29.91,1013.4,0,0,0,2026-01-19,1,2026,4,KCHO,0,0,0,0,5
2026-01-16,16,2026-01-16 5:53,5:53,EST,Vrbl  3,10,Fair,CLR,19.9,3,48,,,29.94,1014.5,0,0,0,2026-01-19,1,2026,5,KCHO,0,0,0,0,3
2026-01-16,16,2026-01-16 6:53,6:53,EST,S  5,10,Fair,CLR,19.9,3.9,50,14,,29.96,1015.3,0,0,0,2026-01-19,1,2026,6,KCHO,0,0,0,0,5
2026-01-16,16,2026-01-16 7:53,7:53,EST,SW  5,10,Fair,CLR,21,6.1,52,15,,29.97,1015.5,0,0,0,2026-01-19,1,2026,7,KCHO,0,0,0,0,5
2026-01-16,16,2026-01-16 8:53,8:53,EST,Vrbl  3,10,Fair,CLR,24.1,6.1,46,,,29.99,1016.3,0,0,0,2026-01-19,1,2026,8,KCHO,0,0,0,0,3
2026-01-16,16,2026-01-16 9:53,9:53,EST,S  9,10,Fair,CLR,26.1,6.1,42,18,,30,1016.7,0,0,0,2026-01-19,1,2026,9,KCHO,0,0,0,0,9
2026-01-16,16,2026-01-16 10:53,10:53,EST,S  13,10,Overcast,OVC110,27,6.1,41,17,,30.03,1017.5,0,0,0,2026-01-19,1,2026,10,KCHO,0,0,0,0,13
2026-01-16,16,2026-01-16 11:53,11:53,EST,S  13,10,Mostly Cloudy,BKN110,30,6.1,36,21,,30.01,1016.7,0,0,0,2026-01-19,1,2026,11,KCHO,0,0,0,0,13
2026-01-16,16,2026-01-16 12:53,12:53,EST,SW  9,10,Overcast,OVC090,30,6.1,36,22,,30.01,1016.7,0,0,0,2026-01-19,1,2026,12,KCHO,0,0,0,0,9
2026-01-16,16,2026-01-16 13:53,13:53,EST,SW  8,10,Overcast,BKN080 OVC095,33.1,5,30,27,,29.98,1015.9,0,0,0,2026-01-19,1,2026,13,KCHO,0,0,0,0,8
2026-01-16,16,2026-01-16 14:53,14:53,EST,S  10,10,Overcast,OVC085,33.1,6.1,32,26,,29.99,1015.9,0,0,0,2026-01-19,1,2026,14,KCHO,0,0,0,0,10
2026-01-16,16,2026-01-16 15:53,15:53,EST,Vrbl  5,10,Overcast,OVC080,34,5,29,30,,29.99,1016.1,0,0,0,2026-01-19,1,2026,15,KCHO,0,0,0,0,5
2026-01-16,16,2026-01-16 16:53,16:53,EST,SW  5,10,Overcast,OVC075,35.1,3.9,27,32,,30,1016.2,0,0,0,2026-01-19,1,2026,16,KCHO,0,0,0,0,5
2026-01-16,16,2026-01-16 17:53,17:53,EST,Calm,10,Overcast,OVC075,34,3.9,28,,,30.01,1016.8,0,0,0,2026-01-19,1,2026,17,KCHO,0,0,0,0,0
2026-01-16,16,2026-01-16 18:53,18:53,EST,SW  5,10,Overcast,OVC070,35.1,6.1,29,32,,30.01,1016.9,0,0,0,2026-01-19,1,2026,18,KCHO,0,0,0,0,5
2026-01-16,16,2026-01-16 19:53,19:53,EST,Calm,10,Overcast,OVC085,34,5,29,,,30.02,1017.3,0,0,0,2026-01-19,1,2026,19,KCHO,0,0,0,0,0
2026-01-16,16,2026-01-16 20:53,20:53,EST,S  8,10,Overcast,OVC100,32,6.1,33,25,,30,1016.4,0,0,0,2026-01-19,1,2026,20,KCHO,0,0,0,0,8
2026-01-16,16,2026-01-16 21:53,21:53,EST,S  8,10,Fair,CLR,32,6.1,33,25,,29.99,1016.1,0,0,0,2026-01-19,1,2026,21,KCHO,0,0,0,0,8
2026-01-16,16,2026-01-16 22:53,22:53,EST,S  12,10,Fair,CLR,34,5,29,26,,29.99,1016.1,0,0,0,2026-01-19,1,2026,22,KCHO,0,0,0,0,12
2026-01-16,16,2026-01-16 23:53,23:53,EST,S  10,10,A Few Clouds,FEW075,35.1,6.1,29,28,,29.99,1015.7,0,0,0,2026-01-19,1,2026,23,KCHO,0,0,0,0,10
2026-01-17,17,2026-01-17 0:53,0:53,EST,S  9,10,Mostly Cloudy,BKN110,35.1,6.1,29,29,,29.98,1015.6,0,0,0,2026-01-20,1,2026,0,KCHO,0,0,0,0,9
2026-01-17,17,2026-01-17 1:53,1:53,EST,S  10,10,A Few Clouds,FEW100,34,7,32,27,,29.99,1016.1,0,0,0,2026-01-20,1,2026,1,KCHO,0,0,0,0,10
2026-01-17,17,2026-01-17 2:53,2:53,EST,S  10,10,Overcast,OVC100,36,8.1,31,29,,30,1016.3,0,0,0,2026-01-20,1,2026,2,KCHO,0,0,0,0,10
2026-01-17,17,2026-01-17 3:53,3:53,EST,S  10,10,Fair,CLR,34,9,35,27,,29.97,1015.3,0,0,0,2026-01-20,1,2026,3,KCHO,0,0,0,0,10
2026-01-17,17,2026-01-17 4:53,4:53,EST,S  12,10,Overcast,OVC075,36,10,34,29,,29.97,1015.2,0,0,0,2026-01-20,1,2026,4,KCHO,0,0,0,0,12
2026-01-17,17,2026-01-17 5:53,5:53,EST,S  10,10,Overcast,OVC080,36,10.9,35,29,,29.97,1015.3,0,0,0,2026-01-20,1,2026,5,KCHO,0,0,0,0,10
2026-01-17,17,2026-01-17 6:53,6:53,EST,S  6,10,Overcast,FEW065 OVC090,35.1,12,38,31,,29.99,1016,0,0,0,2026-01-20,1,2026,6,KCHO,0,0,0,0,6
2026-01-17,17,2026-01-17 7:53,7:53,EST,S  12,10,Overcast,BKN055 OVC070,36,12.9,39,29,,30,1016.1,0,0,0,2026-01-20,1,2026,7,KCHO,0,0,0,0,12
2026-01-17,17,2026-01-17 8:53,8:53,EST,S  3,1,Light Snow,BKN022 OVC031,33.1,21,61,,,30.02,1017,0,0,0,2026-01-20,1,2026,8,KCHO,0,0,0,0,3
2026-01-17,17,2026-01-17 9:53,9:53,EST,S  8,10,Mostly Cloudy,SCT050 BKN095,35.1,25,67,29,,30.02,1017,0,0,0,2026-01-20,1,2026,9,KCHO,0,0,0,0,8
2026-01-17,17,2026-01-17 10:53,10:53,EST,SW  9  G 17,10,Mostly Cloudy,BKN080,37,28,70,31,,30.05,1017.8,0,0,0,2026-01-20,1,2026,10,KCHO,0,0,0,0,9
2026-01-17,17,2026-01-17 11:53,11:53,EST,S  7,10,Overcast,OVC075,37.9,28,68,33,,30.02,1017,0,0,0,2026-01-20,1,2026,11,KCHO,0,0,0,0,7
2026-01-17,17,2026-01-17 12:53,12:53,EST,S  8,10,Partly Cloudy,SCT080,41,27,57,36,,30.01,1016.3,0,0,0,2026-01-20,1,2026,12,KCHO,0,0,0,0,8
2026-01-17,17,2026-01-17 13:53,13:53,EST,S  14,10,Partly Cloudy,SCT075,46.9,28,48,42,,30,1016,0,0,0,2026-01-20,1,2026,13,KCHO,0,0,0,0,14
2026-01-17,17,2026-01-17 14:53,14:53,EST,S  9,10,Fair,CLR,48.9,28,44,45,,30.01,1016.2,0,0,0,2026-01-20,1,2026,14,KCHO,0,0,0,0,9
2026-01-17,17,2026-01-17 15:53,15:53,EST,Vrbl  3,10,Fair,CLR,51.1,23,33,,,30.02,1016.5,0,0,0,2026-01-20,1,2026,15,KCHO,0,0,0,0,3
2026-01-17,17,2026-01-17 16:53,16:53,EST,S  8,10,Fair,CLR,45,27,49,41,,30.03,1017.1,0,0,0,2026-01-20,1,2026,16,KCHO,0,0,0,0,8
2026-01-17,17,2026-01-17 17:53,17:53,EST,S  5,10,Overcast,OVC070,42.1,28,58,40,,30.05,1017.8,0,0,0,2026-01-20,1,2026,17,KCHO,0,0,0,0,5
2026-01-17,17,2026-01-17 18:53,18:53,EST,S  3,10,Fair,CLR,42.1,28,58,,,30.06,1018,0,0,0,2026-01-20,1,2026,18,KCHO,0,0,0,0,3
2026-01-17,17,2026-01-17 19:53,19:53,EST,SW  5,10,Fair,CLR,41,28,60,38,,30.06,1018.1,0,0,0,2026-01-20,1,2026,19,KCHO,0,0,0,0,5
2026-01-17,17,2026-01-17 20:53,20:53,EST,S  7,10,A Few Clouds,FEW110,39.9,28.9,65,36,,30.06,1018.3,0,0,0,2026-01-20,1,2026,20,KCHO,0,0,0,0,7
2026-01-17,17,2026-01-17 21:53,21:53,EST,Calm,10,Partly Cloudy,SCT120,36,28.9,76,,,30.05,1017.8,0,0,0,2026-01-20,1,2026,21,KCHO,0,0,0,0,0
2026-01-17,17,2026-01-17 22:53,22:53,EST,Calm,10,Partly Cloudy,SCT120,37.9,28.9,70,,,30.06,1018.1,0,0,0,2026-01-20,1,2026,22,KCHO,0,0,0,0,0
2026-01-17,17,2026-01-17 23:53,23:53,EST,Calm,10,Mostly Cloudy,BKN120,37,27,67,,,30.03,1017.3,0,0,0,2026-01-20,1,2026,23,KCHO,0,0,0,0,0
2026-01-18,18,2026-01-18 0:53,0:53,EST,Calm,10,Overcast,FEW060 BKN080 OVC110,36,28,73,,,30.02,1016.8,0,0,0,2026-01-20,1,2026,0,KCHO,0,0,0,0,0
2026-01-18,18,2026-01-18 1:53,1:53,EST,Calm,10,Mostly Cloudy,BKN055,36,28,73,,,30,1016,0,0,0,2026-01-20,1,2026,1,KCHO,0,0,0,0,0
2026-01-18,18,2026-01-18 2:53,2:53,EST,W  5,10,Overcast,SCT055 OVC110,34,28,79,30,,30.02,1016.6,0,0,0,2026-01-20,1,2026,2,KCHO,0,0,0,0,5
2026-01-18,18,2026-01-18 3:53,3:53,EST,Calm,10,Overcast,OVC049,36,27,70,,,29.99,1015.6,0,0,0,2026-01-20,1,2026,3,KCHO,0,0,0,0,0
2026-01-18,18,2026-01-18 4:53,4:53,EST,Calm,10,Light Rain,BKN032 OVC045,36,28,73,,,30,1015.9,0,0,0,2026-01-20,1,2026,4,KCHO,0,0,0,0,0
2026-01-18,18,2026-01-18 5:53,5:53,EST,Calm,10,Overcast,SCT060 BKN075 OVC095,35.1,30.9,85,,,30,1015.9,0,0,0,2026-01-20,1,2026,5,KCHO,0,0,0,0,0
2026-01-18,18,2026-01-18 6:53,6:53,EST,S  3,10,Overcast,OVC100,37,30.9,79,,,29.99,1015.8,0,0,0,2026-01-20,1,2026,6,KCHO,0,0,0,0,3
2026-01-18,18,2026-01-18 7:53,7:53,EST,N  3,10,Fair,CLR,33.1,30.9,92,,,29.98,1015.3,0,0,0,2026-01-20,1,2026,7,KCHO,0,0,0,0,3
2026-01-18,18,2026-01-18 8:53,8:53,EST,NE  8,10,Fair,CLR,36,32,86,30,,29.98,1015.4,0,0,0,2026-01-20,1,2026,8,KCHO,0,0,0,0,8
2026-01-18,18,2026-01-18 9:53,9:53,EST,NE  7,10,Partly Cloudy,SCT120,37,32,82,32,,29.97,1015.2,0,0,0,2026-01-20,1,2026,9,KCHO,0,0,0,0,7
2026-01-18,18,2026-01-18 10:53,10:53,EST,NE  8,10,Overcast,BKN037 OVC110,37,30.9,79,32,,29.99,1015.8,0,0,0,2026-01-20,1,2026,10,KCHO,0,0,0,0,8
2026-01-18,18,2026-01-18 11:53,11:53,EST,E  7,10,Partly Cloudy,FEW043 SCT120,37.9,30.9,76,33,,29.93,1013.9,0,0,0,2026-01-20,1,2026,11,KCHO,0,0,0,0,7
2026-01-18,18,2026-01-18 12:53,12:53,EST,E  5,10,Overcast,OVC095,37.9,30,73,35,,29.9,1012.8,0,0,0,2026-01-20,1,2026,12,KCHO,0,0,0,0,5
2026-01-18,18,2026-01-18 13:53,13:53,EST,E  6,10,Overcast,BKN025 OVC050,37,28,70,33,,29.88,1012,0,0,0,2026-01-20,1,2026,13,KCHO,0,0,0,0,6
2026-01-18,18,2026-01-18 14:53,14:53,EST,NE  7,1.5,Light Snow Fog/Mist,OVC022,34,30,85,29,,29.88,1012.2,0,0,0,2026-01-20,1,2026,14,KCHO,0,0,0,0,7
2026-01-18,18,2026-01-18 15:53,15:53,EST,NE  5,1,Light Snow Fog/Mist,FEW004 OVC016,32,30,92,28,,29.89,1012.6,0,0,0,2026-01-20,1,2026,15,KCHO,0,0,0,0,5
2026-01-18,18,2026-01-18 16:53,16:53,EST,E  6,5,Fog/Mist,SCT005 BKN023 OVC060,30.9,30,96,26,,29.92,1013.5,0.04,0,0,2026-01-20,1,2026,16,KCHO,0.04,0.04,0.04,0.04,6
2026-01-18,18,2026-01-18 17:53,17:53,EST,NE  3,10,Overcast,SCT004 OVC080,30.9,28.9,92,,,29.93,1013.8,0,0,0,2026-01-20,1,2026,17,KCHO,0.04,0.04,0.04,0.04,3
2026-01-18,18,2026-01-18 18:53,18:53,EST,Calm,10,Mostly Cloudy,BKN009 BKN014,30,28,92,,,29.93,1013.7,0,0,0.04,2026-01-20,1,2026,18,KCHO,0.04,0.04,0.04,0.04,0
2026-01-18,18,2026-01-18 19:53,19:53,EST,Calm,7,Fair,CLR,28,27,96,,,29.93,1014,0,0,0,2026-01-20,1,2026,19,KCHO,0,0.04,0.04,0.04,0
2026-01-18,18,2026-01-18 20:53,20:53,EST,NW  3,10,Fair,CLR,28,26.1,92,,,29.94,1014.2,0,0,0,2026-01-20,1,2026,20,KCHO,0,0.04,0.04,0.04,3
2026-01-18,18,2026-01-18 21:53,21:53,EST,W  5,10,Fair,CLR,27,17.1,66,22,,29.95,1014.4,0,0,0,2026-01-20,1,2026,21,KCHO,0,0.04,0.04,0.04,5
2026-01-18,18,2026-01-18 22:53,22:53,EST,SW  3,10,Fair,CLR,26.1,12.9,57,,,29.95,1014.7,0,0,0,2026-01-20,1,2026,22,KCHO,0,0,0.04,0.04,3
2026-01-18,18,2026-01-18 23:53,23:53,EST,Calm,10,Fair,CLR,23,14,68,,,29.94,1014.2,0,0,0,2026-01-20,1,2026,23,KCHO,0,0,0.04,0.04,0
2026-01-19,19,2026-01-19 0:53,0:53,EST,Calm,10,Fair,CLR,24.1,12.9,62,,,29.95,1014.6,0,0,0,2026-01-20,1,2026,0,KCHO,0,0,0.04,0.04,0
2026-01-19,19,2026-01-19 1:53,1:53,EST,Calm,10,Overcast,OVC110,25,12,58,,,29.96,1014.8,0,0,0,2026-01-20,1,2026,1,KCHO,0,0,0.04,0.04,0
2026-01-19,19,2026-01-19 2:53,2:53,EST,S  5,10,Mostly Cloudy,BKN110,24.1,12,60,19,,29.96,1015.1,0,0,0,2026-01-20,1,2026,2,KCHO,0,0,0.04,0.04,5
2026-01-19,19,2026-01-19 3:53,3:53,EST,S  3,10,Fair,CLR,23,12,63,,,29.95,1014.9,0,0,0,2026-01-20,1,2026,3,KCHO,0,0,0.04,0.04,3
2026-01-19,19,2026-01-19 4:53,4:53,EST,S  6,10,Fair,CLR,19.9,12.9,74,13,,29.94,1014.4,0,0,0,2026-01-20,1,2026,4,KCHO,0,0,0,0.04,6
2026-01-19,19,2026-01-19 5:53,5:53,EST,SW  6,10,Fair,CLR,23,12.9,65,17,,29.96,1015.1,0,0,0,2026-01-20,1,2026,5,KCHO,0,0,0,0.04,6
2026-01-19,19,2026-01-19 6:53,6:53,EST,SW  6,10,Fair,CLR,24.1,12,60,18,,29.97,1015.4,0,0,0,2026-01-20,1,2026,6,KCHO,0,0,0,0.04,6
2026-01-19,19,2026-01-19 7:53,7:53,EST,Calm,10,Fair,CLR,23,12.9,65,,,29.98,1015.7,0,0,0,2026-01-20,1,2026,7,KCHO,0,0,0,0.04,0
2026-01-19,19,2026-01-19 8:53,8:53,EST,SW  8,10,Fair,CLR,28.9,12,49,22,,29.98,1015.6,0,0,0,2026-01-20,1,2026,8,KCHO,0,0,0,0.04,8
2026-01-19,19,2026-01-19 9:53,9:53,EST,Vrbl  7,10,Fair,CLR,32,14,47,26,,30,1016.2,0,0,0,2026-01-20,1,2026,9,KCHO,0,0,0,0.04,7
2026-01-19,19,2026-01-19 10:53,10:53,EST,Vrbl  7,10,Fair,CLR,34,14,44,29,,29.99,1016,0,0,0,2026-01-20,1,2026,10,KCHO,0,0,0,0.04,7
2026-01-19,19,2026-01-19 11:53,11:53,EST,SW  12  G 21,10,Fair,CLR,37,15.1,41,30,,29.98,1015.5,0,0,0,2026-01-20,1,2026,11,KCHO,0,0,0,0.04,12
2026-01-19,19,2026-01-19 12:53,12:53,EST,SW  8  G 23,10,Fair,CLR,39,12,33,34,,29.95,1014.7,0,0,0,2026-01-20,1,2026,12,KCHO,0,0,0,0.04,8
2026-01-19,19,2026-01-19 13:53,13:53,EST,Calm,10,Fair,CLR,41,10.9,29,,,29.95,1014.6,0,0,0,2026-01-20,1,2026,13,KCHO,0,0,0,0.04,0
2026-01-19,19,2026-01-19 14:53,14:53,EST,Vrbl  7,10,Fair,CLR,42.1,8.1,24,38,,29.96,1014.8,0,0,0,2026-01-20,1,2026,14,KCHO,0,0,0,0.04,7
2026-01-19,19,2026-01-19 15:53,15:53,EST,W  8  G 23,10,Fair,CLR,42.1,7,23,38,,29.98,1015.6,0,0,0,2026-01-20,1,2026,15,KCHO,0,0,0,0.04,8
2026-01-19,19,2026-01-19 16:53,16:53,EST,Vrbl  3,10,Fair,CLR,39.9,6.1,24,,,29.99,1015.8,0,0,0,2026-01-20,1,2026,16,KCHO,0,0,0,0,3
2026-01-19,19,2026-01-19 17:53,17:53,EST,W  6,10,Fair,CLR,37.9,3.9,24,34,,30.01,1016.8,0,0,0,2026-01-20,1,2026,17,KCHO,0,0,0,0,6
2026-01-19,19,2026-01-19 18:53,18:53,EST,W  5,10,Fair,CLR,36,3,25,33,,30.05,1018.1,0,0,0,2026-01-20,1,2026,18,KCHO,0,0,0,0,5
2026-01-19,19,2026-01-19 19:53,19:53,EST,W  7,10,Fair,CLR,35.1,3.9,27,30,,30.07,1018.9,0,0,0,2026-01-20,1,2026,19,KCHO,0,0,0,0,7
2026-01-19,19,2026-01-19 20:53,20:53,EST,Vrbl  6,10,Fair,CLR,35.1,3.9,27,31,,30.08,1019,0,0,0,2026-01-20,1,2026,20,KCHO,0,0,0,0,6
2026-01-19,19,2026-01-19 21:53,21:53,EST,NW  8,10,Fair,CLR,34,3,27,28,,30.11,1020,0,0,0,2026-01-20,1,2026,21,KCHO,0,0,0,0,8
2026-01-19,19,2026-01-19 22:53,22:53,EST,NW  8  G 20,10,Fair,CLR,34,1.9,25,28,,30.13,1020.8,0,0,0,2026-01-20,1,2026,22,KCHO,0,0,0,0,8
2026-01-19,19,2026-01-19 23:53,23:53,EST,Vrbl  7,10,Fair,CLR,32,-0.9,24,26,,30.16,1021.7,0,0,0,2026-01-20,1,2026,23,KCHO,0,0,0,0,7
2026-01-20,20,2026-01-20 0:53,0:53,EST,Vrbl  6,10,Fair,CLR,30,-4,22,25,,30.18,1022.2,0,0,0,2026-01-20,1,2026,0,KCHO,0,0,0,0,6
2026-01-20,20,2026-01-20 1:53,1:53,EST,Vrbl  3,10,Fair,CLR,28.9,-6,21,,,30.2,1023.1,0,0,0,2026-01-20,1,2026,1,KCHO,0,0,0,0,3
2026-01-20,20,2026-01-20 2:53,2:53,EST,Calm,10,Fair,CLR,26.1,-5.1,25,,,30.23,1024,0,0,0,2026-01-20,1,2026,2,KCHO,0,0,0,0,0
2026-01-20,20,2026-01-20 3:53,3:53,EST,N  3,10,Fair,CLR,24.1,-2.9,30,,,30.24,1024.6,0,0,0,2026-01-20,1,2026,3,KCHO,0,0,0,0,3
2026-01-20,20,2026-01-20 4:53,4:53,EST,N  3,10,Fair,CLR,21.9,-2.9,33,,,30.27,1025.4,0,0,0,2026-01-20,1,2026,4,KCHO,0,0,0,0,3
2026-01-20,20,2026-01-20 5:53,5:53,EST,Calm,10,Fair,CLR,21.9,-4,31,,,30.29,1026.1,0,0,0,2026-01-20,1,2026,5,KCHO,0,0,0,0,0
2026-01-20,20,2026-01-20 6:53,6:53,EST,NW  3,10,Fair,CLR,19.9,-2,38,,,30.32,1027.2,0,0,0,2026-01-20,1,2026,6,KCHO,0,0,0,0,3
2026-01-20,20,2026-01-20 7:53,7:53,EST,Calm,10,Fair,CLR,19.9,-2,38,,,30.33,1027.8,0,0,0,2026-01-20,1,2026,7,KCHO,0,0,0,0,0
2026-01-20,20,2026-01-20 8:53,8:53,EST,Vrbl  6,10,Fair,CLR,23,-4,30,17,,30.36,1028.5,0,0,0,2026-01-20,1,2026,8,KCHO,0,0,0,0,6
2026-01-20,20,2026-01-20 9:53,9:53,EST,SW  9,10,Fair,CLR,25,-6,25,16,,30.38,1029.4,0,0,0,2026-01-20,1,2026,9,KCHO,0,0,0,0,9
2026-01-20,20,2026-01-20 10:53,10:53,EST,SW  9,10,Fair,CLR,27,-7.1,22,19,,30.39,1029.7,0,0,0,2026-01-20,1,2026,10,KCHO,0,0,0,0,9
2026-01-20,20,2026-01-20 11:53,11:53,EST,Vrbl  7  G 18,10,Fair,CLR,28,-8,20,22,,30.38,1029.2,0,0,0,2026-01-20,1,2026,11,KCHO,0,0,0,0,7
2026-01-20,20,2026-01-20 12:53,12:53,EST,Vrbl  7  G 20,10,Fair,CLR,28.9,-9,18,23,,30.36,1028.5,0,0,0,2026-01-20,1,2026,12,KCHO,0,0,0,0,7
2026-01-20,20,2026-01-20 13:53,13:53,EST,SW  6,10,Fair,CLR,30.9,-9.9,16,26,,30.35,1028.1,0,0,0,2026-01-20,1,2026,13,KCHO,0,0,0,0,6
2026-01-20,20,2026-01-20 14:53,14:53,EST,Vrbl  3,10,Fair,CLR,30.9,-13,14,,,30.35,1028.3,0,0,0,2026-01-20,1,2026,14,KCHO,0,0,0,0,3
2026-01-20,20,2026-01-20 15:53,15:53,EST,SW  6,10,Fair,CLR,32,-13,13,27,,30.36,1028.8,0,0,0,2026-01-20,1,2026,15,KCHO,0,0,0,0,6
2026-01-20,20,2026-01-20 16:53,16:53,EST,Vrbl  6,10,Fair,CLR,30.9,-11.9,15,26,,30.37,1028.9,0,0,0,2026-01-20,1,2026,16,KCHO,0,0,0,0,6
2026-01-20,20,2026-01-20 17:53,17:53,EST,W  3,10,Fair,CLR,28.9,-11,17,,,30.4,1029.9,0,0,0,2026-01-20,1,2026,17,KCHO,0,0,0,0,3
2026-01-20,20,2026-01-20 18:53,18:53,EST,Calm,10,Fair,CLR,27,-11,18,,,30.42,1030.9,0,0,0,2026-01-20,1,2026,18,KCHO,0,0,0,0,0
2026-01-20,20,2026-01-20 19:53,19:53,EST,Calm,10,Fair,CLR,26.1,-11.9,18,,,30.44,1031.5,0,0,0,2026-01-20,1,2026,19,KCHO,0,0,0,0,0