Date,Day,Date/Time,Time,Time Zone,Wind (mph),Vis. (mi.),Weather,Sky Cond.,Temp,Dew Point,Relative Humidity,Wind Chill (°F),Heat Index (°F),Altimeter (in.),sea level (mb),1-Hour Precip,3-Hour Precip,6-Hour Precip,Data Retrieval Date,Obs_Month,Obs_Year,Hour,Station,Rolling 3-Hour Precip,Rolling 6-Hour Precip,Rolling 12-Hour Precip,Rolling 24-Hour Precip,Windspeed
2024-11-19,19,2024-11-19 00:55,00:55,EST,Calm,10.0,Fair,CLR,51.8,46.4,82.0,,,29.95,0.0,0.0,0.0,0.0,2024-11-22,11,2024,0,KOKV,,,,,0
2024-11-19,19,2024-11-19 01:55,01:55,EST,Calm,10.0,Fair,CLR,50.0,46.4,88.0,,,29.95,0.0,0.0,0.0,0.0,2024-11-22,11,2024,1,KOKV,,,,,0
2024-11-19,19,2024-11-19 02:55,02:55,EST,Calm,10.0,Fair,CLR,50.0,46.4,88.0,,,29.96,0.0,0.0,0.0,0.0,2024-11-22,11,2024,2,KOKV,0.0,,,,0
2024-11-19,19,2024-11-19 03:55,03:55,EST,Calm,10.0,Fair,CLR,46.4,44.6,93.0,,,29.96,0.0,0.0,0.0,0.0,2024-11-22,11,2024,3,KOKV,0.0,,,,0
2024-11-19,19,2024-11-19 04:55,04:55,EST,Calm,7.0,Fair,CLR,44.6,44.6,100.0,,,29.94,0.0,0.0,0.0,0.0,2024-11-22,11,2024,4,KOKV,0.0,,,,0
2024-11-19,19,2024-11-19 05:55,05:55,EST,Calm,5.0,Fair,CLR,44.6,44.6,100.0,,,29.95,0.0,0.0,0.0,0.0,2024-11-22,11,2024,5,KOKV,0.0,0.0,,,0
2024-11-19,19,2024-11-19 06:55,06:55,EST,Calm,4.0,Fair,CLR,44.6,44.6,100.0,,,29.96,0.0,0.0,0.0,0.0,2024-11-22,11,2024,6,KOKV,0.0,0.0,,,0
2024-11-19,19,2024-11-19 07:55,07:55,EST,Calm,5.0,Fair,CLR,46.4,46.4,100.0,,,29.97,0.0,0.0,0.0,0.0,2024-11-22,11,2024,7,KOKV,0.0,0.0,,,0
2024-11-19,19,2024-11-19 08:55,08:55,EST,Calm,10.0,Fair,CLR,51.8,44.6,77.0,,,29.97,0.0,0.0,0.0,0.0,2024-11-22,11,2024,8,KOKV,0.0,0.0,,,0
2024-11-19,19,2024-11-19 09:55,09:55,EST,E  3,10.0,Fair,CLR,51.8,42.8,72.0,,,29.97,0.0,0.0,0.0,0.0,2024-11-22,11,2024,9,KOKV,0.0,0.0,,,3
2024-11-19,19,2024-11-19 10:55,10:55,EST,Calm,10.0,Fair,CLR,53.6,42.8,67.0,,,29.97,0.0,0.0,0.0,0.0,2024-11-22,11,2024,10,KOKV,0.0,0.0,,,0
2024-11-19,19,2024-11-19 11:55,11:55,EST,SE  6,10.0,Fair,CLR,53.6,41.0,63.0,,,29.92,0.0,0.0,0.0,0.0,2024-11-22,11,2024,11,KOKV,0.0,0.0,0.0,,6
2024-11-19,19,2024-11-19 12:55,12:55,EST,SE  3,10.0,Fair,CLR,55.4,42.8,63.0,,,29.9,0.0,0.0,0.0,0.0,2024-11-22,11,2024,12,KOKV,0.0,0.0,0.0,,3
2024-11-19,19,2024-11-19 13:55,13:55,EST,Calm,10.0,Mostly Cloudy,BKN110,55.4,42.8,63.0,,,29.85,0.0,0.0,0.0,0.0,2024-11-22,11,2024,13,KOKV,0.0,0.0,0.0,,0
2024-11-19,19,2024-11-19 14:55,14:55,EST,E  3,10.0,Mostly Cloudy,BKN120,55.4,42.8,63.0,,,29.84,0.0,0.0,0.0,0.0,2024-11-22,11,2024,14,KOKV,0.0,0.0,0.0,,3
2024-11-19,19,2024-11-19 15:55,15:55,EST,E  3,10.0,Partly Cloudy,SCT110,55.4,42.8,63.0,,,29.83,0.0,0.0,0.0,0.0,2024-11-22,11,2024,15,KOKV,0.0,0.0,0.0,,3
2024-11-19,19,2024-11-19 16:35,16:35,EST,SE  3,10.0,Mostly Cloudy,BKN110,53.6,42.8,67.0,,,29.83,0.0,0.0,0.0,0.0,2024-11-22,11,2024,16,KOKV,0.0,0.0,0.0,,3
2024-11-19,19,2024-11-19 17:55,17:55,EST,Calm,10.0,Overcast,OVC080,51.8,42.8,72.0,,,29.83,0.0,0.0,0.0,0.0,2024-11-22,11,2024,17,KOKV,0.0,0.0,0.0,,0
2024-11-19,19,2024-11-19 18:55,18:55,EST,Calm,10.0,Overcast,OVC070,51.8,44.6,77.0,,,29.84,0.0,0.0,0.0,0.0,2024-11-22,11,2024,18,KOKV,0.0,0.0,0.0,,0
2024-11-19,19,2024-11-19 19:55,19:55,EST,Calm,10.0,Overcast,SCT060 BKN070 OVC080,50.0,46.4,88.0,,,29.84,0.0,0.0,0.0,0.0,2024-11-22,11,2024,19,KOKV,0.0,0.0,0.0,,0
2024-11-19,19,2024-11-19 20:55,20:55,EST,Calm,10.0,Overcast,OVC050,50.0,48.2,94.0,,,29.83,0.0,0.0,0.0,0.0,2024-11-22,11,2024,20,KOKV,0.0,0.0,0.0,,0
2024-11-19,19,2024-11-19 21:55,21:55,EST,N  3,10.0,Overcast,OVC044,50.0,46.4,88.0,,,29.83,0.0,0.0,0.0,0.0,2024-11-22,11,2024,21,KOKV,0.0,0.0,0.0,,3
2024-11-19,19,2024-11-19 22:55,22:55,EST,N  3,10.0,Overcast,OVC046,50.0,46.4,88.0,,,29.82,0.0,0.0,0.0,0.0,2024-11-22,11,2024,22,KOKV,0.0,0.0,0.0,,3
2024-11-19,19,2024-11-19 23:55,23:55,EST,Calm,10.0,Overcast,OVC038,50.0,44.6,82.0,,,29.82,0.0,0.0,0.0,0.0,2024-11-22,11,2024,23,KOKV,0.0,0.0,0.0,0.0,0
2024-11-20,20,2024-11-20 00:55,00:55,EST,Calm,10.0,Overcast,OVC030,50.0,44.6,82.0,,,29.79,0.0,0.0,0.0,0.0,2024-11-23,11,2024,0,KOKV,0.0,0.0,0.0,0.0,0
2024-11-20,20,2024-11-20 01:55,01:55,EST,Calm,10.0,Overcast,SCT030 OVC110,50.0,46.4,88.0,,,29.8,0.0,0.0,0.0,0.0,2024-11-23,11,2024,1,KOKV,0.0,0.0,0.0,0.0,0
2024-11-20,20,2024-11-20 02:55,02:55,EST,Calm,10.0,Overcast,OVC110,50.0,46.4,88.0,,,29.8,0.0,0.0,0.0,0.0,2024-11-23,11,2024,2,KOKV,0.0,0.0,0.0,0.0,0
2024-11-20,20,2024-11-20 03:55,03:55,EST,Calm,10.0,Partly Cloudy,SCT110,46.4,44.6,93.0,,,29.79,0.0,0.0,0.0,0.0,2024-11-23,11,2024,3,KOKV,0.0,0.0,0.0,0.0,0
2024-11-20,20,2024-11-20 04:55,04:55,EST,Calm,10.0,Overcast,OVC050,46.4,46.4,100.0,,,29.79,0.0,0.0,0.0,0.0,2024-11-23,11,2024,4,KOKV,0.0,0.0,0.0,0.0,0
2024-11-20,20,2024-11-20 05:55,05:55,EST,Calm,10.0,Overcast,OVC048,48.2,44.6,87.0,,,29.8,0.0,0.0,0.0,0.0,2024-11-23,11,2024,5,KOKV,0.0,0.0,0.0,0.0,0
2024-11-20,20,2024-11-20 06:55,06:55,EST,Calm,10.0,Overcast,OVC048,50.0,42.8,76.0,,,29.81,0.0,0.0,0.0,0.0,2024-11-23,11,2024,6,KOKV,0.0,0.0,0.0,0.0,0
2024-11-20,20,2024-11-20 07:55,07:55,EST,Calm,10.0,Overcast,OVC050,50.0,42.8,76.0,,,29.8,0.0,0.0,0.0,0.0,2024-11-23,11,2024,7,KOKV,0.0,0.0,0.0,0.0,0
2024-11-20,20,2024-11-20 08:55,08:55,EST,Calm,10.0,Partly Cloudy,SCT050,51.8,42.8,72.0,,,29.78,0.0,0.0,0.0,0.0,2024-11-23,11,2024,8,KOKV,0.0,0.0,0.0,0.0,0
2024-11-20,20,2024-11-20 09:55,09:55,EST,Calm,10.0,Fair,CLR,55.4,44.6,67.0,,,29.77,0.0,0.0,0.0,0.0,2024-11-23,11,2024,9,KOKV,0.0,0.0,0.0,0.0,0
2024-11-20,20,2024-11-20 10:55,10:55,EST,Calm,10.0,Overcast,SCT038 OVC049,57.2,46.4,67.0,,,29.77,0.0,0.0,0.0,0.0,2024-11-23,11,2024,10,KOKV,0.0,0.0,0.0,0.0,0
2024-11-20,20,2024-11-20 11:15,11:15,EST,Calm,10.0,Overcast,BKN040 OVC045,59.0,46.4,63.0,,,29.75,0.0,0.0,0.0,0.0,2024-11-23,11,2024,11,KOKV,0.0,0.0,0.0,0.0,0
2024-11-20,20,2024-11-20 12:35,12:35,EST,S  3,10.0,Overcast,OVC038,60.8,50.0,68.0,,,29.71,0.0,0.0,0.0,0.0,2024-11-23,11,2024,12,KOKV,0.0,0.0,0.0,0.0,3
2024-11-20,20,2024-11-20 13:55,13:55,EST,SE  5,10.0,Overcast,OVC036,60.8,51.8,72.0,,,29.68,0.0,0.0,0.0,0.0,2024-11-23,11,2024,13,KOKV,0.0,0.0,0.0,0.0,5
2024-11-20,20,2024-11-20 14:55,14:55,EST,E  7,10.0,Overcast,OVC038,62.6,51.8,68.0,,,29.65,0.0,0.0,0.0,0.0,2024-11-23,11,2024,14,KOKV,0.0,0.0,0.0,0.0,7
2024-11-20,20,2024-11-20 15:55,15:55,EST,E  6,10.0,Overcast,OVC042,60.8,50.0,68.0,,,29.62,0.0,0.0,0.0,0.0,2024-11-23,11,2024,15,KOKV,0.0,0.0,0.0,0.0,6
2024-11-20,20,2024-11-20 16:35,16:35,EST,SE  6,10.0,Overcast,BKN040 OVC060,59.0,50.0,72.0,,,29.61,0.0,0.0,0.0,0.0,2024-11-23,11,2024,16,KOKV,0.0,0.0,0.0,0.0,6
2024-11-20,20,2024-11-20 17:55,17:55,EST,S  6,10.0,Overcast,OVC043,59.0,51.8,77.0,,,29.59,0.0,0.0,0.0,0.0,2024-11-23,11,2024,17,KOKV,0.0,0.0,0.0,0.0,6
2024-11-20,20,2024-11-20 18:55,18:55,EST,Calm,10.0,Overcast,BKN021 BKN026 OVC050,55.4,53.6,94.0,,,29.61,0.0,0.0,0.0,0.0,2024-11-23,11,2024,18,KOKV,0.0,0.0,0.0,0.0,0
2024-11-20,20,2024-11-20 19:55,19:55,EST,NW  23  G 33,7.0,Thunderstorm in Vicinity and Breezy,SCT013 BKN029 OVC048,50.0,42.8,76.0,44.0,,29.71,0.0,0.0,0.0,0.0,2024-11-23,11,2024,19,KOKV,0.0,0.0,0.0,0.0,23
2024-11-20,20,2024-11-20 20:55,20:55,EST,W  18  G 28,10.0,Overcast,OVC060,46.4,35.6,66.0,40.0,,29.75,0.0,0.0,0.0,0.0,2024-11-23,11,2024,20,KOKV,0.0,0.0,0.0,0.0,18
2024-11-20,20,2024-11-20 21:55,21:55,EST,NW  15  G 28,10.0,Overcast,OVC070,44.6,35.6,71.0,38.0,,29.73,0.0,0.0,0.0,0.0,2024-11-23,11,2024,21,KOKV,0.0,0.0,0.0,0.0,15
2024-11-20,20,2024-11-20 22:35,22:35,EST,NW  16  G 23,10.0,Overcast,SCT070 OVC080,44.6,33.8,66.0,38.0,,29.76,0.0,0.0,0.0,0.0,2024-11-23,11,2024,22,KOKV,0.0,0.0,0.0,0.0,16
2024-11-20,20,2024-11-20 23:55,23:55,EST,Calm,0.0,Partly Cloudy,SCT100,41.0,30.2,66.0,,,0.0,0.0,0.0,0.0,0.0,2024-11-23,11,2024,23,KOKV,0.0,0.0,0.0,0.0,0
2024-11-21,21,2024-11-21 00:15,00:15,EST,Calm,0.0,,,41.0,30.2,66.0,,,0.0,0.0,0.0,0.0,0.0,2024-11-23,11,2024,0,KOKV,0.0,0.0,0.0,0.0,0
2024-11-21,21,2024-11-21 06:55,06:55,EST,Calm,10.0,Mostly Cloudy,BKN044,32.0,30.2,93.0,,,29.68,0.0,0.0,0.0,0.0,2024-11-24,11,2024,6,KOKV,0.0,0.0,0.0,0.0,0
2024-11-21,21,2024-11-21 07:55,07:55,EST,SW  3,10.0,Partly Cloudy,SCT050,32.0,32.0,100.0,,,29.68,0.0,0.0,0.0,0.0,2024-11-24,11,2024,7,KOKV,0.0,0.0,0.0,0.0,3
2024-11-21,21,2024-11-21 08:55,08:55,EST,S  5,10.0,Overcast,BKN050 OVC070,39.2,32.0,75.0,36.0,,29.67,0.0,0.0,0.0,0.0,2024-11-24,11,2024,8,KOKV,0.0,0.0,0.0,0.0,5
2024-11-21,21,2024-11-21 09:55,09:55,EST,SW  5,10.0,Overcast,BKN050 OVC065,41.0,32.0,70.0,38.0,,29.65,0.0,0.0,0.0,0.0,2024-11-24,11,2024,9,KOKV,0.0,0.0,0.0,0.0,5
2024-11-21,21,2024-11-21 10:55,10:55,EST,W  5,10.0,Overcast,OVC046,41.0,32.0,70.0,38.0,,29.64,0.0,0.0,0.0,0.0,2024-11-24,11,2024,10,KOKV,0.0,0.0,0.0,0.0,5
2024-11-21,21,2024-11-21 11:55,11:55,EST,NW  12,10.0,Overcast,BKN041 OVC049,37.4,32.0,81.0,30.0,,29.63,0.0,0.0,0.0,0.0,2024-11-24,11,2024,11,KOKV,0.0,0.0,0.0,0.0,12
2024-11-21,21,2024-11-21 12:55,12:55,EST,NW  3,10.0,Overcast,OVC044,37.4,32.0,81.0,,,29.62,0.0,0.0,0.0,0.0,2024-11-24,11,2024,12,KOKV,0.0,0.0,0.0,0.0,3
2024-11-21,21,2024-11-21 13:55,13:55,EST,Calm,10.0,Overcast,SCT070 OVC080,41.0,33.8,76.0,,,29.59,0.0,0.0,0.0,0.0,2024-11-24,11,2024,13,KOKV,0.0,0.0,0.0,0.0,0
2024-11-21,21,2024-11-21 14:55,14:55,EST,W  3,10.0,Overcast,SCT048 SCT080 OVC110,41.0,32.0,70.0,,,29.59,0.0,0.0,0.0,0.0,2024-11-24,11,2024,14,KOKV,0.0,0.0,0.0,0.0,3
2024-11-21,21,2024-11-21 15:55,15:55,EST,NW  6,10.0,Overcast,SCT070 OVC100,41.0,32.0,70.0,38.0,,29.59,0.0,0.0,0.0,0.0,2024-11-24,11,2024,15,KOKV,0.0,0.0,0.0,0.0,6
2024-11-21,21,2024-11-21 16:55,16:55,EST,NW  10,10.0,Overcast,SCT013 BKN070 OVC100,37.4,32.0,81.0,31.0,,29.61,0.0,0.0,0.0,0.0,2024-11-24,11,2024,16,KOKV,0.0,0.0,0.0,0.0,10
2024-11-21,21,2024-11-21 17:55,17:55,EST,NW  9,10.0,Overcast,BKN100 OVC120,37.4,32.0,81.0,31.0,,29.62,0.0,0.0,0.0,0.0,2024-11-24,11,2024,17,KOKV,0.0,0.0,0.0,0.0,9
2024-11-21,21,2024-11-21 18:55,18:55,EST,W  10,10.0,Overcast,SCT035 BKN060 OVC090,37.4,32.0,81.0,31.0,,29.64,0.0,0.0,0.0,0.0,2024-11-24,11,2024,18,KOKV,0.0,0.0,0.0,0.0,10
2024-11-21,21,2024-11-21 19:55,19:55,EST,W  10,10.0,Mostly Cloudy,BKN120,35.6,28.4,75.0,29.0,,29.64,0.0,0.0,0.0,0.0,2024-11-24,11,2024,19,KOKV,0.0,0.0,0.0,0.0,10
2024-11-21,21,2024-11-21 20:55,20:55,EST,W  9,10.0,Mostly Cloudy,BKN110,35.6,26.6,70.0,29.0,,29.65,0.0,0.0,0.0,0.0,2024-11-24,11,2024,20,KOKV,0.0,0.0,0.0,0.0,9
2024-11-21,21,2024-11-21 21:55,21:55,EST,NW  13,10.0,Fair,CLR,33.8,24.8,70.0,25.0,,29.65,0.0,0.0,0.0,0.0,2024-11-24,11,2024,21,KOKV,0.0,0.0,0.0,0.0,13
2024-11-21,21,2024-11-21 22:55,22:55,EST,W  9,10.0,Fair,CLR,33.8,23.0,65.0,27.0,,29.65,0.0,0.0,0.0,0.0,2024-11-24,11,2024,22,KOKV,0.0,0.0,0.0,0.0,9
2024-11-21,21,2024-11-21 23:55,23:55,EST,W  12,10.0,Fair,CLR,32.0,23.0,69.0,24.0,,29.62,0.0,0.0,0.0,0.0,2024-11-24,11,2024,23,KOKV,0.0,0.0,0.0,0.0,12
2024-11-22,22,2024-11-22 00:55,00:55,EST,W  14  G 20,10.0,Fair,CLR,32.0,23.0,69.0,23.0,,29.61,0.0,0.0,0.0,0.0,2024-11-25,11,2024,0,KOKV,0.0,0.0,0.0,0.0,14
2024-11-22,22,2024-11-22 01:55,01:55,EST,W  10  G 18,10.0,Fair,CLR,32.0,23.0,69.0,24.0,,29.59,0.0,0.0,0.0,0.0,2024-11-25,11,2024,1,KOKV,0.0,0.0,0.0,0.0,10
2024-11-22,22,2024-11-22 02:55,02:55,EST,W  10,10.0,Mostly Cloudy,BKN037,32.0,21.2,64.0,24.0,,29.61,0.0,0.0,0.0,0.0,2024-11-25,11,2024,2,KOKV,0.0,0.0,0.0,0.0,10
2024-11-22,22,2024-11-22 03:55,03:55,EST,W  9  G 16,10.0,Overcast,OVC037,32.0,21.2,64.0,25.0,,29.6,0.0,0.0,0.0,0.0,2024-11-25,11,2024,3,KOKV,0.0,0.0,0.0,0.0,9
2024-11-22,22,2024-11-22 04:55,04:55,EST,W  10,10.0,Mostly Cloudy,BKN035,32.0,23.0,69.0,24.0,,29.59,0.0,0.0,0.0,0.0,2024-11-25,11,2024,4,KOKV,0.0,0.0,0.0,0.0,10
2024-11-22,22,2024-11-22 05:55,05:55,EST,W  13  G 18,10.0,Overcast,OVC033,32.0,21.2,64.0,23.0,,29.59,0.0,0.0,0.0,0.0,2024-11-25,11,2024,5,KOKV,0.0,0.0,0.0,0.0,13
2024-11-22,22,2024-11-22 06:35,06:35,EST,W  14,10.0,Partly Cloudy,SCT033,32.0,23.0,69.0,23.0,,29.59,0.0,0.0,0.0,0.0,2024-11-25,11,2024,6,KOKV,0.0,0.0,0.0,0.0,14
2024-11-22,22,2024-11-22 07:55,07:55,EST,W  10  G 16,10.0,Partly Cloudy,SCT110,33.8,23.0,65.0,26.0,,29.56,0.0,0.0,0.0,0.0,2024-11-25,11,2024,7,KOKV,0.0,0.0,0.0,0.0,10
2024-11-22,22,2024-11-22 08:55,08:55,EST,W  14,10.0,Overcast,SCT045 BKN065 OVC090,33.8,24.8,70.0,25.0,,29.55,0.0,0.0,0.0,0.0,2024-11-25,11,2024,8,KOKV,0.0,0.0,0.0,0.0,14
2024-11-22,22,2024-11-22 09:55,09:55,EST,W  10  G 17,10.0,Overcast,SCT032 SCT042 OVC060,35.6,26.6,70.0,29.0,,29.55,0.0,0.0,0.0,0.0,2024-11-25,11,2024,9,KOKV,0.0,0.0,0.0,0.0,10
2024-11-22,22,2024-11-22 10:55,10:55,EST,W  16  G 23,10.0,Overcast,BKN039 OVC048,33.8,30.2,87.0,24.0,,29.53,0.0,0.0,0.0,0.0,2024-11-25,11,2024,10,KOKV,0.0,0.0,0.0,0.0,16
2024-11-22,22,2024-11-22 11:55,11:55,EST,W  16  G 21,10.0,Overcast,BKN038 OVC044,35.6,30.2,81.0,27.0,,29.5,0.0,0.0,0.0,0.0,2024-11-25,11,2024,11,KOKV,0.0,0.0,0.0,0.0,16
2024-11-22,22,2024-11-22 12:55,12:55,EST,W  15  G 24,10.0,Overcast,OVC037,37.4,30.2,75.0,29.0,,29.48,0.0,0.0,0.0,0.0,2024-11-25,11,2024,12,KOKV,0.0,0.0,0.0,0.0,15
2024-11-22,22,2024-11-22 13:55,13:55,EST,W  18  G 26,10.0,Overcast,BKN025 OVC032,35.6,30.2,81.0,26.0,,29.46,0.0,0.0,0.0,0.0,2024-11-25,11,2024,13,KOKV,0.0,0.0,0.0,0.0,18
2024-11-22,22,2024-11-22 14:55,14:55,EST,W  10  G 21,10.0,Overcast,OVC040,37.4,30.2,75.0,31.0,,29.45,0.0,0.0,0.0,0.0,2024-11-25,11,2024,14,KOKV,0.0,0.0,0.0,0.0,10
2024-11-22,22,2024-11-22 15:55,15:55,EST,W  14  G 23,10.0,Overcast,BKN038 OVC046,37.4,30.2,75.0,30.0,,29.46,0.0,0.0,0.0,0.0,2024-11-25,11,2024,15,KOKV,0.0,0.0,0.0,0.0,14
2024-11-22,22,2024-11-22 16:55,16:55,EST,W  13  G 21,10.0,Overcast,SCT039 SCT047 OVC055,41.0,28.4,61.0,34.0,,29.46,0.0,0.0,0.0,0.0,2024-11-25,11,2024,16,KOKV,0.0,0.0,0.0,0.0,13
2024-11-22,22,2024-11-22 17:55,17:55,EST,W  16  G 26,10.0,Overcast,SCT040 SCT046 OVC060,41.0,30.2,66.0,33.0,,29.47,0.0,0.0,0.0,0.0,2024-11-25,11,2024,17,KOKV,0.0,0.0,0.0,0.0,16
2024-11-22,22,2024-11-22 18:55,18:55,EST,W  17  G 24,10.0,Overcast,BKN042 BKN048 OVC065,42.8,30.2,61.0,35.0,,29.47,0.0,0.0,0.0,0.0,2024-11-25,11,2024,18,KOKV,0.0,0.0,0.0,0.0,17
2024-11-22,22,2024-11-22 19:55,19:55,EST,W  16  G 22,10.0,Overcast,BKN038 BKN047 OVC070,42.8,32.0,66.0,36.0,,29.47,0.0,0.0,0.0,0.0,2024-11-25,11,2024,19,KOKV,0.0,0.0,0.0,0.0,16
2024-11-22,22,2024-11-22 20:55,20:55,EST,W  17  G 24,10.0,Overcast,BKN036 BKN046 OVC065,42.8,32.0,66.0,35.0,,29.5,0.0,0.0,0.0,0.0,2024-11-25,11,2024,20,KOKV,0.0,0.0,0.0,0.0,17
2024-11-22,22,2024-11-22 21:55,21:55,EST,NW  18  G 30,10.0,Overcast,BKN032 BKN043 OVC060,41.0,33.8,76.0,33.0,,29.51,0.0,0.0,0.0,0.0,2024-11-25,11,2024,21,KOKV,0.0,0.0,0.0,0.0,18
2024-11-22,22,2024-11-22 22:55,22:55,EST,W  17  G 24,10.0,Overcast,SCT029 OVC070,42.8,32.0,66.0,35.0,,29.52,0.0,0.0,0.0,0.0,2024-11-25,11,2024,22,KOKV,0.0,0.0,0.0,0.0,17
2024-11-22,22,2024-11-22 23:55,23:55,EST,W  18  G 30,10.0,Overcast,BKN030 BKN038 OVC080,42.8,32.0,66.0,35.0,,29.53,0.0,0.0,0.0,0.0,2024-11-25,11,2024,23,KOKV,0.0,0.0,0.0,0.0,18
2024-11-23,23,2024-11-23 00:55,00:55,EST,NW  21  G 29,10.0,Mostly Cloudy and Breezy,BKN032,42.8,32.0,66.0,35.0,,29.55,0.0,0.0,0.0,0.0,2024-11-26,11,2024,0,KOKV,0.0,0.0,0.0,0.0,21
2024-11-23,23,2024-11-23 01:55,01:55,EST,NW  16  G 22,10.0,Mostly Cloudy,BKN028 BKN034 BKN042,42.8,33.8,71.0,36.0,,29.57,0.0,0.0,0.0,0.0,2024-11-26,11,2024,1,KOKV,0.0,0.0,0.0,0.0,16
2024-11-23,23,2024-11-23 02:55,02:55,EST,NW  9  G 21,10.0,Overcast,OVC030,42.8,33.8,71.0,38.0,,29.6,0.0,0.0,0.0,0.0,2024-11-26,11,2024,2,KOKV,0.0,0.0,0.0,0.0,9
2024-11-23,23,2024-11-23 03:55,03:55,EST,NW  21,10.0,Overcast and Breezy,SCT020 BKN028 OVC070,41.0,33.8,76.0,32.0,,29.63,0.0,0.0,0.0,0.0,2024-11-26,11,2024,3,KOKV,0.0,0.0,0.0,0.0,21
2024-11-23,23,2024-11-23 04:55,04:55,EST,NW  13  G 20,10.0,Overcast,SCT060 OVC070,41.0,33.8,76.0,34.0,,29.66,0.0,0.0,0.0,0.0,2024-11-26,11,2024,4,KOKV,0.0,0.0,0.0,0.0,13
2024-11-23,23,2024-11-23 05:55,05:55,EST,NW  5,10.0,Overcast,SCT030 BKN060 OVC070,41.0,33.8,76.0,38.0,,29.7,0.0,0.0,0.0,0.0,2024-11-26,11,2024,5,KOKV,0.0,0.0,0.0,0.0,5
2024-11-23,23,2024-11-23 06:55,06:55,EST,NW  5,10.0,Overcast,SCT031 OVC050,41.0,32.0,70.0,38.0,,29.72,0.0,0.0,0.0,0.0,2024-11-26,11,2024,6,KOKV,0.0,0.0,0.0,0.0,5
2024-11-23,23,2024-11-23 07:55,07:55,EST,W  9  G 16,10.0,Partly Cloudy,SCT028 SCT048 SCT060,41.0,33.8,76.0,36.0,,29.75,0.0,0.0,0.0,0.0,2024-11-26,11,2024,7,KOKV,0.0,0.0,0.0,0.0,9
2024-11-23,23,2024-11-23 08:55,08:55,EST,W  15  G 18,10.0,Mostly Cloudy,SCT029 BKN041 BKN055,42.8,33.8,71.0,36.0,,29.78,0.0,0.0,0.0,0.0,2024-11-26,11,2024,8,KOKV,0.0,0.0,0.0,0.0,15
2024-11-23,23,2024-11-23 09:55,09:55,EST,NW  15  G 18,10.0,Overcast,BKN029 OVC038,44.6,35.6,71.0,38.0,,29.8,0.0,0.0,0.0,0.0,2024-11-26,11,2024,9,KOKV,0.0,0.0,0.0,0.0,15
2024-11-23,23,2024-11-23 10:55,10:55,EST,W  10  G 21,10.0,Overcast,OVC029,44.6,35.6,71.0,40.0,,29.81,0.0,0.0,0.0,0.0,2024-11-26,11,2024,10,KOKV,0.0,0.0,0.0,0.0,10
2024-11-23,23,2024-11-23 11:55,11:55,EST,NW  17,10.0,Overcast,OVC031,48.2,35.6,62.0,42.0,,29.79,0.0,0.0,0.0,0.0,2024-11-26,11,2024,11,KOKV,0.0,0.0,0.0,0.0,17
2024-11-23,23,2024-11-23 12:55,12:55,EST,NW  24  G 31,10.0,Overcast and Breezy,OVC035,50.0,35.6,58.0,43.0,,29.79,0.0,0.0,0.0,0.0,2024-11-26,11,2024,12,KOKV,0.0,0.0,0.0,0.0,24
2024-11-23,23,2024-11-23 13:55,13:55,EST,W  21  G 28,10.0,Mostly Cloudy and Breezy,BKN039,50.0,35.6,58.0,44.0,,29.8,0.0,0.0,0.0,0.0,2024-11-26,11,2024,13,KOKV,0.0,0.0,0.0,0.0,21
2024-11-23,23,2024-11-23 14:55,14:55,EST,W  14  G 26,10.0,Mostly Cloudy,BKN041,50.0,33.8,54.0,45.0,,29.82,0.0,0.0,0.0,0.0,2024-11-26,11,2024,14,KOKV,0.0,0.0,0.0,0.0,14
2024-11-23,23,2024-11-23 15:55,15:55,EST,W  17  G 29,10.0,Mostly Cloudy,BKN041,48.2,33.8,58.0,42.0,,29.84,0.0,0.0,0.0,0.0,2024-11-26,11,2024,15,KOKV,0.0,0.0,0.0,0.0,17
2024-11-23,23,2024-11-23 16:55,16:55,EST,W  15  G 18,10.0,Overcast,OVC039,46.4,33.8,62.0,41.0,,29.86,0.0,0.0,0.0,0.0,2024-11-26,11,2024,16,KOKV,0.0,0.0,0.0,0.0,15
2024-11-23,23,2024-11-23 17:55,17:55,EST,W  8  G 22,10.0,Overcast,OVC035,46.4,33.8,62.0,43.0,,29.88,0.0,0.0,0.0,0.0,2024-11-26,11,2024,17,KOKV,0.0,0.0,0.0,0.0,8
2024-11-23,23,2024-11-23 18:55,18:55,EST,W  13,10.0,Overcast,OVC035,46.4,33.8,62.0,41.0,,29.9,0.0,0.0,0.0,0.0,2024-11-26,11,2024,18,KOKV,0.0,0.0,0.0,0.0,13
2024-11-23,23,2024-11-23 19:55,19:55,EST,W  14  G 20,10.0,Overcast,BKN033 OVC039,44.6,33.8,66.0,39.0,,29.92,0.0,0.0,0.0,0.0,2024-11-26,11,2024,19,KOKV,0.0,0.0,0.0,0.0,14
2024-11-23,23,2024-11-23 20:55,20:55,EST,W  12  G 22,10.0,Overcast,OVC035,44.6,33.8,66.0,39.0,,29.92,0.0,0.0,0.0,0.0,2024-11-26,11,2024,20,KOKV,0.0,0.0,0.0,0.0,12
2024-11-23,23,2024-11-23 21:55,21:55,EST,W  16,10.0,Overcast,OVC035,46.4,33.8,62.0,40.0,,29.93,0.0,0.0,0.0,0.0,2024-11-26,11,2024,21,KOKV,0.0,0.0,0.0,0.0,16
2024-11-23,23,2024-11-23 22:55,22:55,EST,W  8,10.0,Overcast,OVC035,44.6,33.8,66.0,41.0,,29.92,0.0,0.0,0.0,0.0,2024-11-26,11,2024,22,KOKV,0.0,0.0,0.0,0.0,8
2024-11-23,23,2024-11-23 23:55,23:55,EST,W  12,10.0,Overcast,OVC035,46.4,33.8,62.0,42.0,,29.93,0.0,0.0,0.0,0.0,2024-11-26,11,2024,23,KOKV,0.0,0.0,0.0,0.0,12
2024-11-24,24,2024-11-24 00:55,00:55,EST,NW  8,10.0,Overcast,OVC035,46.4,33.8,62.0,43.0,,29.93,0.0,0.0,0.0,0.0,2024-11-27,11,2024,0,KOKV,0.0,0.0,0.0,0.0,8
2024-11-24,24,2024-11-24 01:55,01:55,EST,W  10  G 17,10.0,Overcast,OVC031,46.4,33.8,62.0,42.0,,29.95,0.0,0.0,0.0,0.0,2024-11-27,11,2024,1,KOKV,0.0,0.0,0.0,0.0,10
2024-11-24,24,2024-11-24 02:55,02:55,EST,W  6,10.0,Overcast,OVC035,46.4,33.8,62.0,44.0,,29.97,0.0,0.0,0.0,0.0,2024-11-27,11,2024,2,KOKV,0.0,0.0,0.0,0.0,6
2024-11-24,24,2024-11-24 03:55,03:55,EST,W  7,10.0,Overcast,OVC035,46.4,33.8,62.0,43.0,,29.98,0.0,0.0,0.0,0.0,2024-11-27,11,2024,3,KOKV,0.0,0.0,0.0,0.0,7
2024-11-24,24,2024-11-24 04:55,04:55,EST,W  6,10.0,Overcast,OVC035,44.6,33.8,66.0,42.0,,29.98,0.0,0.0,0.0,0.0,2024-11-27,11,2024,4,KOKV,0.0,0.0,0.0,0.0,6
2024-11-24,24,2024-11-24 05:55,05:55,EST,W  7,10.0,Mostly Cloudy,SCT033 BKN120,44.6,33.8,66.0,41.0,,29.99,0.0,0.0,0.0,0.0,2024-11-27,11,2024,5,KOKV,0.0,0.0,0.0,0.0,7
2024-11-24,24,2024-11-24 06:55,06:55,EST,W  12,10.0,Overcast,OVC110,44.6,33.8,66.0,39.0,,29.99,0.0,0.0,0.0,0.0,2024-11-27,11,2024,6,KOKV,0.0,0.0,0.0,0.0,12
2024-11-24,24,2024-11-24 07:55,07:55,EST,W  10,10.0,Partly Cloudy,SCT120,44.6,33.8,66.0,40.0,,30.0,0.0,0.0,0.0,0.0,2024-11-27,11,2024,7,KOKV,0.0,0.0,0.0,0.0,10
2024-11-24,24,2024-11-24 08:55,08:55,EST,W  9,10.0,Partly Cloudy,SCT120,44.6,33.8,66.0,40.0,,30.01,0.0,0.0,0.0,0.0,2024-11-27,11,2024,8,KOKV,0.0,0.0,0.0,0.0,9
2024-11-24,24,2024-11-24 09:55,09:55,EST,W  7,10.0,Fair,CLR,48.2,33.8,58.0,46.0,,30.04,0.0,0.0,0.0,0.0,2024-11-27,11,2024,9,KOKV,0.0,0.0,0.0,0.0,7
2024-11-24,24,2024-11-24 10:55,10:55,EST,W  7,10.0,Fair,CLR,50.0,33.8,54.0,48.0,,30.02,0.0,0.0,0.0,0.0,2024-11-27,11,2024,10,KOKV,0.0,0.0,0.0,0.0,7
2024-11-24,24,2024-11-24 11:55,11:55,EST,Calm,10.0,Fair,CLR,51.8,33.8,50.0,,,29.99,0.0,0.0,0.0,0.0,2024-11-27,11,2024,11,KOKV,0.0,0.0,0.0,0.0,0
2024-11-24,24,2024-11-24 12:55,12:55,EST,SE  3,10.0,Fair,CLR,51.8,33.8,50.0,,,29.97,0.0,0.0,0.0,0.0,2024-11-27,11,2024,12,KOKV,0.0,0.0,0.0,0.0,3
2024-11-24,24,2024-11-24 13:55,13:55,EST,SW  3,10.0,Fair,CLR,53.6,33.8,47.0,,,29.95,0.0,0.0,0.0,0.0,2024-11-27,11,2024,13,KOKV,0.0,0.0,0.0,0.0,3
2024-11-24,24,2024-11-24 14:55,14:55,EST,Calm,10.0,Fair,CLR,53.6,35.6,51.0,,,29.95,0.0,0.0,0.0,0.0,2024-11-27,11,2024,14,KOKV,0.0,0.0,0.0,0.0,0
2024-11-24,24,2024-11-24 15:55,15:55,EST,NW  9,10.0,Fair,CLR,53.6,32.0,44.0,,,29.96,0.0,0.0,0.0,0.0,2024-11-27,11,2024,15,KOKV,0.0,0.0,0.0,0.0,9
2024-11-24,24,2024-11-24 16:55,16:55,EST,NW  9,10.0,Fair,CLR,50.0,32.0,50.0,47.0,,29.97,0.0,0.0,0.0,0.0,2024-11-27,11,2024,16,KOKV,0.0,0.0,0.0,0.0,9
2024-11-24,24,2024-11-24 17:55,17:55,EST,Calm,10.0,Fair,CLR,46.4,32.0,57.0,,,30.0,0.0,0.0,0.0,0.0,2024-11-27,11,2024,17,KOKV,0.0,0.0,0.0,0.0,0
2024-11-24,24,2024-11-24 18:55,18:55,EST,NW  6,10.0,Fair,CLR,46.4,32.0,57.0,44.0,,30.02,0.0,0.0,0.0,0.0,2024-11-27,11,2024,18,KOKV,0.0,0.0,0.0,0.0,6
2024-11-24,24,2024-11-24 19:55,19:55,EST,E  3,10.0,Fair,CLR,41.0,32.0,70.0,,,30.04,0.0,0.0,0.0,0.0,2024-11-27,11,2024,19,KOKV,0.0,0.0,0.0,0.0,3
2024-11-24,24,2024-11-24 20:55,20:55,EST,Calm,10.0,Fair,CLR,39.2,32.0,75.0,,,30.05,0.0,0.0,0.0,0.0,2024-11-27,11,2024,20,KOKV,0.0,0.0,0.0,0.0,0
2024-11-24,24,2024-11-24 21:55,21:55,EST,Calm,10.0,Fair,CLR,35.6,32.0,87.0,,,30.07,0.0,0.0,0.0,0.0,2024-11-27,11,2024,21,KOKV,0.0,0.0,0.0,0.0,0
2024-11-24,24,2024-11-24 22:55,22:55,EST,Calm,10.0,Fair,CLR,35.6,32.0,87.0,,,30.07,0.0,0.0,0.0,0.0,2024-11-27,11,2024,22,KOKV,0.0,0.0,0.0,0.0,0
2024-11-24,24,2024-11-24 23:55,23:55,EST,NW  3,10.0,Fair,CLR,33.8,32.0,93.0,,,30.07,0.0,0.0,0.0,0.0,2024-11-27,11,2024,23,KOKV,0.0,0.0,0.0,0.0,3
2024-11-25,25,2024-11-25 00:55,00:55,EST,NW  3,10.0,Fair,CLR,33.8,32.0,93.0,,,30.07,0.0,0.0,0.0,0.0,2024-11-28,11,2024,0,KOKV,0.0,0.0,0.0,0.0,3
2024-11-25,25,2024-11-25 01:55,01:55,EST,Calm,10.0,Fair,CLR,33.8,32.0,93.0,,,30.08,0.0,0.0,0.0,0.0,2024-11-28,11,2024,1,KOKV,0.0,0.0,0.0,0.0,0
2024-11-25,25,2024-11-25 02:55,02:55,EST,Calm,10.0,Fair,CLR,33.8,32.0,93.0,,,30.09,0.0,0.0,0.0,0.0,2024-11-28,11,2024,2,KOKV,0.0,0.0,0.0,0.0,0
2024-11-25,25,2024-11-25 03:55,03:55,EST,Calm,10.0,Fair,CLR,33.8,32.0,93.0,,,30.09,0.0,0.0,0.0,0.0,2024-11-28,11,2024,3,KOKV,0.0,0.0,0.0,0.0,0
2024-11-25,25,2024-11-25 04:55,04:55,EST,Calm,7.0,Fair,CLR,30.2,28.4,93.0,,,30.08,0.0,0.0,0.0,0.0,2024-11-28,11,2024,4,KOKV,0.0,0.0,0.0,0.0,0
2024-11-25,25,2024-11-25 05:55,05:55,EST,Calm,10.0,Fair,CLR,32.0,30.2,93.0,,,30.08,0.0,0.0,0.0,0.0,2024-11-28,11,2024,5,KOKV,0.0,0.0,0.0,0.0,0
2024-11-25,25,2024-11-25 06:55,06:55,EST,Calm,10.0,Fair,CLR,30.2,28.4,93.0,,,30.09,0.0,0.0,0.0,0.0,2024-11-28,11,2024,6,KOKV,0.0,0.0,0.0,0.0,0
2024-11-25,25,2024-11-25 07:55,07:55,EST,Calm,10.0,Fair,CLR,30.2,28.4,93.0,,,30.1,0.0,0.0,0.0,0.0,2024-11-28,11,2024,7,KOKV,0.0,0.0,0.0,0.0,0
2024-11-25,25,2024-11-25 08:55,08:55,EST,Calm,10.0,Fair,CLR,37.4,32.0,81.0,,,30.1,0.0,0.0,0.0,0.0,2024-11-28,11,2024,8,KOKV,0.0,0.0,0.0,0.0,0
2024-11-25,25,2024-11-25 09:55,09:55,EST,S  5,10.0,Fair,CLR,44.6,33.8,66.0,43.0,,30.1,0.0,0.0,0.0,0.0,2024-11-28,11,2024,9,KOKV,0.0,0.0,0.0,0.0,5
2024-11-25,25,2024-11-25 10:55,10:55,EST,S  7,10.0,Fair,CLR,48.2,35.6,62.0,46.0,,30.08,0.0,0.0,0.0,0.0,2024-11-28,11,2024,10,KOKV,0.0,0.0,0.0,0.0,7
2024-11-25,25,2024-11-25 11:35,11:35,EST,S  3,10.0,Fair,CLR,51.8,33.8,50.0,,,30.05,0.0,0.0,0.0,0.0,2024-11-28,11,2024,11,KOKV,0.0,0.0,0.0,0.0,3
2024-11-25,25,2024-11-25 12:55,12:55,EST,SE  3,10.0,Fair,CLR,55.4,35.6,47.0,,,30.0,0.0,0.0,0.0,0.0,2024-11-28,11,2024,12,KOKV,0.0,0.0,0.0,0.0,3
2024-11-25,25,2024-11-25 13:55,13:55,EST,E  5,10.0,Fair,CLR,57.2,35.6,44.0,,,29.98,0.0,0.0,0.0,0.0,2024-11-28,11,2024,13,KOKV,0.0,0.0,0.0,0.0,5
2024-11-25,25,2024-11-25 14:55,14:55,EST,E  7,10.0,Mostly Cloudy,BKN075,57.2,35.6,44.0,,,29.96,0.0,0.0,0.0,0.0,2024-11-28,11,2024,14,KOKV,0.0,0.0,0.0,0.0,7
2024-11-25,25,2024-11-25 15:55,15:55,EST,Calm,10.0,Overcast,OVC060,55.4,37.4,51.0,,,29.97,0.0,0.0,0.0,0.0,2024-11-28,11,2024,15,KOKV,0.0,0.0,0.0,0.0,0
2024-11-25,25,2024-11-25 16:55,16:55,EST,SE  6,10.0,Overcast,SCT060 SCT065 OVC080,53.6,37.4,54.0,,,29.97,0.0,0.0,0.0,0.0,2024-11-28,11,2024,16,KOKV,0.0,0.0,0.0,0.0,6
2024-11-25,25,2024-11-25 17:55,17:55,EST,Calm,10.0,Overcast,BKN055 OVC080,51.8,37.4,58.0,,,29.97,0.0,0.0,0.0,0.0,2024-11-28,11,2024,17,KOKV,0.0,0.0,0.0,0.0,0
2024-11-25,25,2024-11-25 18:55,18:55,EST,Calm,10.0,Overcast,OVC050,50.0,39.2,67.0,,,29.97,0.0,0.0,0.0,0.0,2024-11-28,11,2024,18,KOKV,0.0,0.0,0.0,0.0,0
2024-11-25,25,2024-11-25 19:55,19:55,EST,Calm,10.0,Overcast,BKN050 OVC095,51.8,37.4,58.0,,,29.97,0.0,0.0,0.0,0.0,2024-11-28,11,2024,19,KOKV,0.0,0.0,0.0,0.0,0
2024-11-25,25,2024-11-25 20:55,20:55,EST,Calm,10.0,Overcast,BKN050 OVC065,50.0,39.2,67.0,,,29.95,0.0,0.0,0.0,0.0,2024-11-28,11,2024,20,KOKV,0.0,0.0,0.0,0.0,0
2024-11-25,25,2024-11-25 21:55,21:55,EST,Calm,10.0,Overcast,BKN050 OVC100,50.0,39.2,67.0,,,29.93,0.0,0.0,0.0,0.0,2024-11-28,11,2024,21,KOKV,0.0,0.0,0.0,0.0,0
2024-11-25,25,2024-11-25 22:55,22:55,EST,Calm,10.0,Partly Cloudy,SCT100,48.2,37.4,66.0,,,29.91,0.0,0.0,0.0,0.0,2024-11-28,11,2024,22,KOKV,0.0,0.0,0.0,0.0,0
2024-11-25,25,2024-11-25 23:55,23:55,EST,Calm,10.0,Overcast,SCT050 OVC110,46.4,39.2,76.0,,,29.88,0.0,0.0,0.0,0.0,2024-11-28,11,2024,23,KOKV,0.0,0.0,0.0,0.0,0
2024-11-26,26,2024-11-26 00:55,00:55,EST,Calm,10.0,Overcast,SCT065 OVC080,46.4,42.8,87.0,,,29.86,0.0,0.0,0.0,0.0,2024-11-29,11,2024,0,KOKV,0.0,0.0,0.0,0.0,0
2024-11-26,26,2024-11-26 01:55,01:55,EST,Calm,10.0,Mostly Cloudy,SCT065 BKN110,46.4,44.6,93.0,,,29.83,0.0,0.0,0.0,0.0,2024-11-29,11,2024,1,KOKV,0.0,0.0,0.0,0.0,0
2024-11-26,26,2024-11-26 02:55,02:55,EST,Calm,10.0,Partly Cloudy,SCT100,44.6,42.8,93.0,,,29.8,0.0,0.0,0.0,0.0,2024-11-29,11,2024,2,KOKV,0.0,0.0,0.0,0.0,0
2024-11-26,26,2024-11-26 03:55,03:55,EST,Calm,10.0,Mostly Cloudy,SCT060 BKN110,46.4,42.8,87.0,,,29.78,0.0,0.0,0.0,0.0,2024-11-29,11,2024,3,KOKV,0.0,0.0,0.0,0.0,0
2024-11-26,26,2024-11-26 04:55,04:55,EST,SW  12  G 16,5.0,Overcast,SCT043 BKN060 OVC080,53.6,46.4,77.0,,,29.79,0.0,0.0,0.0,0.0,2024-11-29,11,2024,4,KOKV,0.0,0.0,0.0,0.0,12
2024-11-26,26,2024-11-26 05:55,05:55,EST,W  8,10.0,Mostly Cloudy,SCT090 BKN120,51.8,48.2,88.0,,,29.79,0.0,0.0,0.0,0.0,2024-11-29,11,2024,5,KOKV,0.0,0.0,0.0,0.0,8
2024-11-26,26,2024-11-26 06:55,06:55,EST,W  3,10.0,Partly Cloudy,SCT050 SCT110,51.8,50.0,94.0,,,29.82,0.0,0.0,0.0,0.0,2024-11-29,11,2024,6,KOKV,0.0,0.0,0.0,0.0,3
2024-11-26,26,2024-11-26 07:55,07:55,EST,W  14  G 17,10.0,Overcast,SCT035 BKN050 OVC085,57.2,50.0,77.0,,,29.85,0.0,0.0,0.0,0.0,2024-11-29,11,2024,7,KOKV,0.0,0.0,0.0,0.0,14
2024-11-26,26,2024-11-26 08:55,08:55,EST,W  20  G 26,10.0,Partly Cloudy,SCT047 SCT060 SCT070,55.4,46.4,72.0,,,29.89,0.0,0.0,0.0,0.0,2024-11-29,11,2024,8,KOKV,0.0,0.0,0.0,0.0,20
2024-11-26,26,2024-11-26 09:55,09:55,EST,W  20  G 35,10.0,Partly Cloudy,SCT045,55.4,42.8,63.0,,,29.93,0.0,0.0,0.0,0.0,2024-11-29,11,2024,9,KOKV,0.0,0.0,0.0,0.0,20
2024-11-26,26,2024-11-26 10:55,10:55,EST,W  24  G 30,10.0,Partly Cloudy and Breezy,SCT048,57.2,37.4,48.0,,,29.95,0.0,0.0,0.0,0.0,2024-11-29,11,2024,10,KOKV,0.0,0.0,0.0,0.0,24
2024-11-26,26,2024-11-26 11:55,11:55,EST,W  20  G 26,10.0,Fair,CLR,57.2,33.8,41.0,,,29.94,0.0,0.0,0.0,0.0,2024-11-29,11,2024,11,KOKV,0.0,0.0,0.0,0.0,20
2024-11-26,26,2024-11-26 12:55,12:55,EST,NW  18,10.0,Fair,CLR,57.2,33.8,41.0,,,29.93,0.0,0.0,0.0,0.0,2024-11-29,11,2024,12,KOKV,0.0,0.0,0.0,0.0,18
2024-11-26,26,2024-11-26 13:55,13:55,EST,W  13  G 20,10.0,Fair,CLR,59.0,33.8,39.0,,,29.94,0.0,0.0,0.0,0.0,2024-11-29,11,2024,13,KOKV,0.0,0.0,0.0,0.0,13
2024-11-26,26,2024-11-26 14:55,14:55,EST,NW  15  G 24,10.0,Fair,CLR,55.4,30.2,38.0,,,29.95,0.0,0.0,0.0,0.0,2024-11-29,11,2024,14,KOKV,0.0,0.0,0.0,0.0,15
2024-11-26,26,2024-11-26 15:55,15:55,EST,NW  10,10.0,Fair,CLR,53.6,28.4,38.0,,,29.99,0.0,0.0,0.0,0.0,2024-11-29,11,2024,15,KOKV,0.0,0.0,0.0,0.0,10
2024-11-26,26,2024-11-26 16:55,16:55,EST,W  12,10.0,Fair,CLR,50.0,28.4,43.0,46.0,,30.0,0.0,0.0,0.0,0.0,2024-11-29,11,2024,16,KOKV,0.0,0.0,0.0,0.0,12
2024-11-26,26,2024-11-26 17:55,17:55,EST,W  14  G 17,10.0,Fair,CLR,50.0,28.4,43.0,45.0,,30.02,0.0,0.0,0.0,0.0,2024-11-29,11,2024,17,KOKV,0.0,0.0,0.0,0.0,14
2024-11-26,26,2024-11-26 18:55,18:55,EST,NW  12,10.0,Fair,CLR,48.2,28.4,46.0,44.0,,30.02,0.0,0.0,0.0,0.0,2024-11-29,11,2024,18,KOKV,0.0,0.0,0.0,0.0,12
2024-11-26,26,2024-11-26 19:55,19:55,EST,NW  8,10.0,Fair,CLR,44.6,30.2,57.0,41.0,,30.03,0.0,0.0,0.0,0.0,2024-11-29,11,2024,19,KOKV,0.0,0.0,0.0,0.0,8
2024-11-26,26,2024-11-26 20:55,20:55,EST,Calm,10.0,Fair,CLR,42.8,28.4,57.0,,,30.04,0.0,0.0,0.0,0.0,2024-11-29,11,2024,20,KOKV,0.0,0.0,0.0,0.0,0
2024-11-26,26,2024-11-26 21:55,21:55,EST,SW  3,10.0,Fair,CLR,42.8,26.6,53.0,,,30.05,0.0,0.0,0.0,0.0,2024-11-29,11,2024,21,KOKV,0.0,0.0,0.0,0.0,3
2024-11-26,26,2024-11-26 22:55,22:55,EST,W  6,10.0,Fair,CLR,42.8,26.6,53.0,40.0,,30.05,0.0,0.0,0.0,0.0,2024-11-29,11,2024,22,KOKV,0.0,0.0,0.0,0.0,6
2024-11-26,26,2024-11-26 23:55,23:55,EST,Calm,10.0,Fair,CLR,41.0,26.6,57.0,,,30.05,0.0,0.0,0.0,0.0,2024-11-29,11,2024,23,KOKV,0.0,0.0,0.0,0.0,0
2024-11-27,27,2024-11-27 00:55,00:55,EST,Calm,10.0,Fair,CLR,41.0,26.6,57.0,,,30.05,0.0,0.0,0.0,0.0,2024-11-30,11,2024,0,KOKV,0.0,0.0,0.0,0.0,0
2024-11-27,27,2024-11-27 01:55,01:55,EST,Calm,10.0,Fair,CLR,41.0,26.6,57.0,,,30.06,0.0,0.0,0.0,0.0,2024-11-30,11,2024,1,KOKV,0.0,0.0,0.0,0.0,0
2024-11-27,27,2024-11-27 02:55,02:55,EST,Calm,10.0,Fair,CLR,39.2,26.6,61.0,,,30.06,0.0,0.0,0.0,0.0,2024-11-30,11,2024,2,KOKV,0.0,0.0,0.0,0.0,0
2024-11-27,27,2024-11-27 03:55,03:55,EST,Calm,10.0,Fair,CLR,42.8,26.6,53.0,,,30.06,0.0,0.0,0.0,0.0,2024-11-30,11,2024,3,KOKV,0.0,0.0,0.0,0.0,0
2024-11-27,27,2024-11-27 04:55,04:55,EST,S  3,10.0,Fair,CLR,37.4,28.4,70.0,,,30.06,0.0,0.0,0.0,0.0,2024-11-30,11,2024,4,KOKV,0.0,0.0,0.0,0.0,3
2024-11-27,27,2024-11-27 05:55,05:55,EST,W  3,10.0,Fair,CLR,37.4,28.4,70.0,,,30.07,0.0,0.0,0.0,0.0,2024-11-30,11,2024,5,KOKV,0.0,0.0,0.0,0.0,3
2024-11-27,27,2024-11-27 06:55,06:55,EST,SW  3,10.0,Fair,CLR,35.6,26.6,70.0,,,30.08,0.0,0.0,0.0,0.0,2024-11-30,11,2024,6,KOKV,0.0,0.0,0.0,0.0,3
2024-11-27,27,2024-11-27 07:55,07:55,EST,SW  6,10.0,Fair,CLR,37.4,26.6,65.0,33.0,,30.08,0.0,0.0,0.0,0.0,2024-11-30,11,2024,7,KOKV,0.0,0.0,0.0,0.0,6
2024-11-27,27,2024-11-27 08:55,08:55,EST,SW  5,10.0,Fair,CLR,42.8,28.4,57.0,41.0,,30.09,0.0,0.0,0.0,0.0,2024-11-30,11,2024,8,KOKV,0.0,0.0,0.0,0.0,5
2024-11-27,27,2024-11-27 09:55,09:55,EST,W  6,10.0,Fair,CLR,46.4,26.6,46.0,44.0,,30.08,0.0,0.0,0.0,0.0,2024-11-30,11,2024,9,KOKV,0.0,0.0,0.0,0.0,6
2024-11-27,27,2024-11-27 10:55,10:55,EST,S  7,10.0,Fair,CLR,48.2,30.2,50.0,46.0,,30.08,0.0,0.0,0.0,0.0,2024-11-30,11,2024,10,KOKV,0.0,0.0,0.0,0.0,7
2024-11-27,27,2024-11-27 11:55,11:55,EST,S  7,10.0,Fair,CLR,50.0,30.2,47.0,48.0,,30.05,0.0,0.0,0.0,0.0,2024-11-30,11,2024,11,KOKV,0.0,0.0,0.0,0.0,7
2024-11-27,27,2024-11-27 12:55,12:55,EST,S  7,10.0,Fair,CLR,51.8,28.4,41.0,,,30.0,0.0,0.0,0.0,0.0,2024-11-30,11,2024,12,KOKV,0.0,0.0,0.0,0.0,7
2024-11-27,27,2024-11-27 13:55,13:55,EST,S  6,10.0,Fair,CLR,51.8,28.4,41.0,,,29.98,0.0,0.0,0.0,0.0,2024-11-30,11,2024,13,KOKV,0.0,0.0,0.0,0.0,6
2024-11-27,27,2024-11-27 14:55,14:55,EST,Calm,10.0,Fair,CLR,51.8,26.6,38.0,,,29.95,0.0,0.0,0.0,0.0,2024-11-30,11,2024,14,KOKV,0.0,0.0,0.0,0.0,0
2024-11-27,27,2024-11-27 15:55,15:55,EST,SE  6,10.0,Fair,CLR,51.8,26.6,38.0,,,29.95,0.0,0.0,0.0,0.0,2024-11-30,11,2024,15,KOKV,0.0,0.0,0.0,0.0,6
2024-11-27,27,2024-11-27 16:55,16:55,EST,SE  7,10.0,Fair,CLR,48.2,26.6,43.0,46.0,,29.94,0.0,0.0,0.0,0.0,2024-11-30,11,2024,16,KOKV,0.0,0.0,0.0,0.0,7
2024-11-27,27,2024-11-27 17:55,17:55,EST,S  8,10.0,Mostly Cloudy,BKN120,46.4,26.6,46.0,43.0,,29.94,0.0,0.0,0.0,0.0,2024-11-30,11,2024,17,KOKV,0.0,0.0,0.0,0.0,8
2024-11-27,27,2024-11-27 18:55,18:55,EST,SE  3,10.0,Overcast,OVC100,46.4,28.4,50.0,,,29.92,0.0,0.0,0.0,0.0,2024-11-30,11,2024,18,KOKV,0.0,0.0,0.0,0.0,3
2024-11-27,27,2024-11-27 19:55,19:55,EST,S  6,10.0,Overcast,OVC100,46.4,28.4,50.0,44.0,,29.93,0.0,0.0,0.0,0.0,2024-11-30,11,2024,19,KOKV,0.0,0.0,0.0,0.0,6
2024-11-27,27,2024-11-27 20:35,20:35,EST,S  8,10.0,Overcast,SCT050 OVC070,46.4,28.4,50.0,43.0,,29.93,0.0,0.0,0.0,0.0,2024-11-30,11,2024,20,KOKV,0.0,0.0,0.0,0.0,8
2024-11-27,27,2024-11-27 21:55,21:55,EST,SE  6,10.0,Overcast,OVC100,46.4,32.0,57.0,44.0,,29.88,0.0,0.0,0.0,0.0,2024-11-30,11,2024,21,KOKV,0.0,0.0,0.0,0.0,6
2024-11-27,27,2024-11-27 22:55,22:55,EST,SE  9,10.0,Overcast,OVC065,44.6,32.0,61.0,40.0,,29.84,0.0,0.0,0.0,0.0,2024-11-30,11,2024,22,KOKV,0.0,0.0,0.0,0.0,9
2024-11-27,27,2024-11-27 23:55,23:55,EST,SE  12,10.0,Overcast,OVC055,46.4,32.0,57.0,42.0,,29.81,0.0,0.0,0.0,0.0,2024-11-30,11,2024,23,KOKV,0.0,0.0,0.0,0.0,12
2024-11-28,28,2024-11-28 00:55,00:55,EST,SE  5,10.0,Overcast,BKN042 OVC050,44.6,32.0,61.0,43.0,,29.78,0.0,0.0,0.0,0.0,2024-12-01,11,2024,0,KOKV,0.0,0.0,0.0,0.0,5
2024-11-28,28,2024-11-28 01:55,01:55,EST,Calm,10.0,Overcast,SCT037 OVC048,42.8,37.4,81.0,,,29.75,0.0,0.0,0.0,0.0,2024-12-01,11,2024,1,KOKV,0.0,0.0,0.0,0.0,0
2024-11-28,28,2024-11-28 02:55,02:55,EST,NE  3,10.0,Overcast,SCT031 OVC041,41.0,37.4,87.0,,,29.71,0.0,0.0,0.0,0.0,2024-12-01,11,2024,2,KOKV,0.0,0.0,0.0,0.0,3
2024-11-28,28,2024-11-28 03:55,03:55,EST,Calm,10.0,Overcast,BKN034 BKN050 OVC070,41.0,39.2,93.0,,,29.67,0.0,0.0,0.0,0.0,2024-12-01,11,2024,3,KOKV,0.0,0.0,0.0,0.0,0
2024-11-28,28,2024-11-28 04:55,04:55,EST,NE  3,7.0,Overcast,SCT002 OVC030,41.0,41.0,100.0,,,29.62,0.0,0.0,0.0,0.0,2024-12-01,11,2024,4,KOKV,0.0,0.0,0.0,0.0,3
2024-11-28,28,2024-11-28 05:55,05:55,EST,Calm,7.0,Overcast,OVC002,41.0,41.0,100.0,,,29.61,0.0,0.0,0.0,0.0,2024-12-01,11,2024,5,KOKV,0.0,0.0,0.0,0.0,0
2024-11-28,28,2024-11-28 06:55,06:55,EST,Calm,5.0,Overcast,SCT022 OVC026,41.0,41.0,100.0,,,29.57,0.0,0.0,0.0,0.0,2024-12-01,11,2024,6,KOKV,0.0,0.0,0.0,0.0,0
2024-11-28,28,2024-11-28 07:55,07:55,EST,Calm,3.0,Overcast,SCT006 BKN060 OVC075,41.0,41.0,100.0,,,29.55,0.0,0.0,0.0,0.0,2024-12-01,11,2024,7,KOKV,0.0,0.0,0.0,0.0,0
2024-11-28,28,2024-11-28 08:55,08:55,EST,Calm,4.0,Overcast,BKN006 BKN022 OVC060,42.8,41.0,93.0,,,29.57,0.0,0.0,0.0,0.0,2024-12-01,11,2024,8,KOKV,0.0,0.0,0.0,0.0,0
2024-11-28,28,2024-11-28 09:55,09:55,EST,NW  5,5.0,Overcast,OVC004,42.8,41.0,93.0,41.0,,29.59,0.0,0.0,0.0,0.0,2024-12-01,11,2024,9,KOKV,0.0,0.0,0.0,0.0,5
2024-11-28,28,2024-11-28 10:55,10:55,EST,W  5,10.0,Mostly Cloudy,SCT010 SCT014 BKN020,46.4,42.8,87.0,45.0,,29.6,0.0,0.0,0.0,0.0,2024-12-01,11,2024,10,KOKV,0.0,0.0,0.0,0.0,5
2024-11-28,28,2024-11-28 11:55,11:55,EST,W  20  G 25,10.0,Mostly Cloudy,SCT022 BKN031,50.0,41.0,71.0,44.0,,29.6,0.0,0.0,0.0,0.0,2024-12-01,11,2024,11,KOKV,0.0,0.0,0.0,0.0,20
2024-11-28,28,2024-11-28 12:55,12:55,EST,W  22  G 31,10.0,Mostly Cloudy and Breezy,BKN034 BKN040,50.0,35.6,58.0,44.0,,29.63,0.0,0.0,0.0,0.0,2024-12-01,11,2024,12,KOKV,0.0,0.0,0.0,0.0,22
2024-11-28,28,2024-11-28 13:55,13:55,EST,W  14  G 25,10.0,Overcast,BKN038 BKN045 OVC065,50.0,35.6,58.0,45.0,,29.67,0.0,0.0,0.0,0.0,2024-12-01,11,2024,13,KOKV,0.0,0.0,0.0,0.0,14
2024-11-28,28,2024-11-28 14:55,14:55,EST,W  23  G 28,10.0,Overcast and Breezy,SCT041 BKN048 OVC050,46.4,33.8,62.0,39.0,,29.7,0.0,0.0,0.0,0.0,2024-12-01,11,2024,14,KOKV,0.0,0.0,0.0,0.0,23
2024-11-28,28,2024-11-28 15:55,15:55,EST,W  26  G 32,7.0,Overcast and Windy,BKN035 BKN045 OVC050,44.6,33.8,66.0,36.0,,29.77,0.0,0.0,0.0,0.0,2024-12-01,11,2024,15,KOKV,0.0,0.0,0.0,0.0,26
2024-11-28,28,2024-11-28 16:55,16:55,EST,NW  14  G 23,10.0,Overcast,BKN040 BKN046 OVC060,42.8,32.0,66.0,36.0,,29.81,0.0,0.0,0.0,0.0,2024-12-01,11,2024,16,KOKV,0.0,0.0,0.0,0.0,14
2024-11-28,28,2024-11-28 17:55,17:55,EST,W  13  G 20,10.0,Overcast,OVC040,42.8,32.0,66.0,37.0,,29.85,0.0,0.0,0.0,0.0,2024-12-01,11,2024,17,KOKV,0.0,0.0,0.0,0.0,13
2024-11-28,28,2024-11-28 18:55,18:55,EST,NW  15  G 20,10.0,Partly Cloudy,SCT036 SCT043 SCT065,41.0,32.0,70.0,34.0,,29.86,0.0,0.0,0.0,0.0,2024-12-01,11,2024,18,KOKV,0.0,0.0,0.0,0.0,15
2024-11-28,28,2024-11-28 19:55,19:55,EST,W  9  G 20,10.0,Partly Cloudy,SCT032,41.0,32.0,70.0,36.0,,29.88,0.0,0.0,0.0,0.0,2024-12-01,11,2024,19,KOKV,0.0,0.0,0.0,0.0,9
2024-11-28,28,2024-11-28 20:55,20:55,EST,W  9,10.0,Partly Cloudy,SCT035 SCT043,41.0,32.0,70.0,36.0,,29.9,0.0,0.0,0.0,0.0,2024-12-01,11,2024,20,KOKV,0.0,0.0,0.0,0.0,9
2024-11-28,28,2024-11-28 21:55,21:55,EST,W  14  G 18,10.0,Overcast,BKN037 OVC042,41.0,32.0,70.0,34.0,,29.9,0.0,0.0,0.0,0.0,2024-12-01,11,2024,21,KOKV,0.0,0.0,0.0,0.0,14
2024-11-28,28,2024-11-28 22:55,22:55,EST,W  7,10.0,Overcast,BKN037 OVC050,41.0,32.0,70.0,37.0,,29.92,0.0,0.0,0.0,0.0,2024-12-01,11,2024,22,KOKV,0.0,0.0,0.0,0.0,7
2024-11-28,28,2024-11-28 23:55,23:55,EST,W  13,10.0,Overcast,OVC041,41.0,28.4,61.0,34.0,,29.92,0.0,0.0,0.0,0.0,2024-12-01,11,2024,23,KOKV,0.0,0.0,0.0,0.0,13
2024-11-29,29,2024-11-29 00:55,00:55,EST,W  10,10.0,Overcast,OVC044,41.0,26.6,57.0,35.0,,29.94,0.0,0.0,0.0,0.0,2024-12-02,11,2024,0,KOKV,0.0,0.0,0.0,0.0,10
2024-11-29,29,2024-11-29 01:55,01:55,EST,W  7,10.0,Overcast,SCT047 OVC055,37.4,23.0,56.0,33.0,,29.94,0.0,0.0,0.0,0.0,2024-12-02,11,2024,1,KOKV,0.0,0.0,0.0,0.0,7
2024-11-29,29,2024-11-29 02:55,02:55,EST,W  3,10.0,Overcast,OVC065,37.4,23.0,56.0,,,29.95,0.0,0.0,0.0,0.0,2024-12-02,11,2024,2,KOKV,0.0,0.0,0.0,0.0,3
2024-11-29,29,2024-11-29 03:55,03:55,EST,Calm,10.0,Mostly Cloudy,BKN065,32.0,24.8,75.0,,,29.93,0.0,0.0,0.0,0.0,2024-12-02,11,2024,3,KOKV,0.0,0.0,0.0,0.0,0
2024-11-29,29,2024-11-29 04:55,04:55,EST,Calm,10.0,Overcast,OVC065,32.0,24.8,75.0,,,29.93,0.0,0.0,0.0,0.0,2024-12-02,11,2024,4,KOKV,0.0,0.0,0.0,0.0,0
2024-11-29,29,2024-11-29 05:55,05:55,EST,Calm,10.0,Fair,CLR,30.2,24.8,80.0,,,29.93,0.0,0.0,0.0,0.0,2024-12-02,11,2024,5,KOKV,0.0,0.0,0.0,0.0,0
2024-11-29,29,2024-11-29 06:55,06:55,EST,SW  5,10.0,Overcast,OVC046,32.0,26.6,80.0,28.0,,29.94,0.0,0.0,0.0,0.0,2024-12-02,11,2024,6,KOKV,0.0,0.0,0.0,0.0,5
2024-11-29,29,2024-11-29 07:55,07:55,EST,SW  3,10.0,Fair,CLR,33.8,26.6,75.0,,,29.95,0.0,0.0,0.0,0.0,2024-12-02,11,2024,7,KOKV,0.0,0.0,0.0,0.0,3
2024-11-29,29,2024-11-29 08:55,08:55,EST,SW  5,10.0,Overcast,OVC060,35.6,26.6,70.0,32.0,,29.96,0.0,0.0,0.0,0.0,2024-12-02,11,2024,8,KOKV,0.0,0.0,0.0,0.0,5
2024-11-29,29,2024-11-29 09:55,09:55,EST,SW  5,10.0,Overcast,BKN047 OVC060,37.4,28.4,70.0,34.0,,29.97,0.0,0.0,0.0,0.0,2024-12-02,11,2024,9,KOKV,0.0,0.0,0.0,0.0,5
2024-11-29,29,2024-11-29 10:55,10:55,EST,NW  12,10.0,Overcast,BKN038 OVC044,37.4,28.4,70.0,30.0,,29.97,0.0,0.0,0.0,0.0,2024-12-02,11,2024,10,KOKV,0.0,0.0,0.0,0.0,12
2024-11-29,29,2024-11-29 11:55,11:55,EST,W  14  G 22,10.0,Overcast,OVC049,39.2,23.0,52.0,32.0,,29.95,0.0,0.0,0.0,0.0,2024-12-02,11,2024,11,KOKV,0.0,0.0,0.0,0.0,14
2024-11-29,29,2024-11-29 12:55,12:55,EST,NW  20  G 23,10.0,Overcast,OVC055,41.0,24.8,53.0,33.0,,29.94,0.0,0.0,0.0,0.0,2024-12-02,11,2024,12,KOKV,0.0,0.0,0.0,0.0,20
2024-11-29,29,2024-11-29 13:55,13:55,EST,NW  20  G 26,10.0,Mostly Cloudy,BKN055,37.4,21.2,52.0,28.0,,29.95,0.0,0.0,0.0,0.0,2024-12-02,11,2024,13,KOKV,0.0,0.0,0.0,0.0,20
2024-11-29,29,2024-11-29 14:55,14:55,EST,W  17  G 26,10.0,Partly Cloudy,SCT065,35.6,21.2,56.0,26.0,,29.96,0.0,0.0,0.0,0.0,2024-12-02,11,2024,14,KOKV,0.0,0.0,0.0,0.0,17
2024-11-29,29,2024-11-29 15:55,15:55,EST,W  12,10.0,Overcast,BKN043 BKN050 OVC055,33.8,21.2,60.0,26.0,,29.98,0.0,0.0,0.0,0.0,2024-12-02,11,2024,15,KOKV,0.0,0.0,0.0,0.0,12
2024-11-29,29,2024-11-29 16:55,16:55,EST,W  18  G 24,10.0,Overcast,OVC050,33.8,17.6,51.0,24.0,,30.0,0.0,0.0,0.0,0.0,2024-12-02,11,2024,16,KOKV,0.0,0.0,0.0,0.0,18
2024-11-29,29,2024-11-29 17:55,17:55,EST,W  9,10.0,Mostly Cloudy,BKN055,32.0,15.8,51.0,25.0,,30.0,0.0,0.0,0.0,0.0,2024-12-02,11,2024,17,KOKV,0.0,0.0,0.0,0.0,9
2024-11-29,29,2024-11-29 18:55,18:55,EST,W  9  G 18,10.0,Mostly Cloudy,SCT046 SCT055 BKN070,32.0,17.6,55.0,25.0,,30.02,0.0,0.0,0.0,0.0,2024-12-02,11,2024,18,KOKV,0.0,0.0,0.0,0.0,9
2024-11-29,29,2024-11-29 19:55,19:55,EST,W  9,10.0,Fair,CLR,32.0,15.8,51.0,25.0,,30.03,0.0,0.0,0.0,0.0,2024-12-02,11,2024,19,KOKV,0.0,0.0,0.0,0.0,9
2024-11-29,29,2024-11-29 20:55,20:55,EST,W  13  G 16,10.0,Partly Cloudy,SCT049 SCT065,32.0,15.8,51.0,23.0,,30.03,0.0,0.0,0.0,0.0,2024-12-02,11,2024,20,KOKV,0.0,0.0,0.0,0.0,13
2024-11-29,29,2024-11-29 21:55,21:55,EST,W  8  G 20,10.0,Fair,CLR,32.0,14.0,47.0,25.0,,30.06,0.0,0.0,0.0,0.0,2024-12-02,11,2024,21,KOKV,0.0,0.0,0.0,0.0,8
2024-11-29,29,2024-11-29 22:55,22:55,EST,NW  7,10.0,Mostly Cloudy,BKN060,28.4,14.0,55.0,22.0,,30.05,0.0,0.0,0.0,0.0,2024-12-02,11,2024,22,KOKV,0.0,0.0,0.0,0.0,7
2024-11-29,29,2024-11-29 23:55,23:55,EST,Calm,10.0,Partly Cloudy,SCT060,28.4,14.0,55.0,,,30.04,0.0,0.0,0.0,0.0,2024-12-02,11,2024,23,KOKV,0.0,0.0,0.0,0.0,0
2024-11-30,30,2024-11-30 00:55,00:55,EST,NW  7,10.0,Overcast,SCT039 SCT050 OVC060,28.4,15.8,59.0,22.0,,30.04,0.0,0.0,0.0,0.0,2024-12-03,11,2024,0,KOKV,0.0,0.0,0.0,0.0,7
2024-11-30,30,2024-11-30 01:55,01:55,EST,NW  5,10.0,Overcast,BKN042 BKN048 OVC060,30.2,17.6,59.0,26.0,,30.04,0.0,0.0,0.0,0.0,2024-12-03,11,2024,1,KOKV,0.0,0.0,0.0,0.0,5
2024-11-30,30,2024-11-30 02:55,02:55,EST,W  10,10.0,Overcast,SCT040 OVC049,30.2,17.6,59.0,22.0,,30.05,0.0,0.0,0.0,0.0,2024-12-03,11,2024,2,KOKV,0.0,0.0,0.0,0.0,10
2024-11-30,30,2024-11-30 03:55,03:55,EST,W  8,10.0,Overcast,OVC045,32.0,17.6,55.0,25.0,,30.04,0.0,0.0,0.0,0.0,2024-12-03,11,2024,3,KOKV,0.0,0.0,0.0,0.0,8
2024-11-30,30,2024-11-30 04:55,04:55,EST,NW  10,10.0,Overcast,OVC045,32.0,15.8,51.0,24.0,,30.06,0.0,0.0,0.0,0.0,2024-12-03,11,2024,4,KOKV,0.0,0.0,0.0,0.0,10
2024-11-30,30,2024-11-30 05:55,05:55,EST,W  15  G 20,10.0,Overcast,OVC046,30.2,14.0,51.0,20.0,,30.07,0.0,0.0,0.0,0.0,2024-12-03,11,2024,5,KOKV,0.0,0.0,0.0,0.0,15
2024-11-30,30,2024-11-30 06:55,06:55,EST,W  9,10.0,Overcast,OVC046,30.2,14.0,51.0,23.0,,30.09,0.0,0.0,0.0,0.0,2024-12-03,11,2024,6,KOKV,0.0,0.0,0.0,0.0,9
2024-11-30,30,2024-11-30 07:55,07:55,EST,W  12,10.0,Overcast,OVC042,30.2,14.0,51.0,21.0,,30.1,0.0,0.0,0.0,0.0,2024-12-03,11,2024,7,KOKV,0.0,0.0,0.0,0.0,12
2024-11-30,30,2024-11-30 08:55,08:55,EST,W  10  G 16,10.0,Overcast,OVC044,30.2,14.0,51.0,22.0,,30.11,0.0,0.0,0.0,0.0,2024-12-03,11,2024,8,KOKV,0.0,0.0,0.0,0.0,10
2024-11-30,30,2024-11-30 09:55,09:55,EST,W  15  G 18,10.0,Overcast,OVC042,30.2,14.0,51.0,20.0,,30.13,0.0,0.0,0.0,0.0,2024-12-03,11,2024,9,KOKV,0.0,0.0,0.0,0.0,15
2024-11-30,30,2024-11-30 10:55,10:55,EST,NW  15,10.0,Mostly Cloudy,BKN044 BKN050,30.2,12.2,47.0,20.0,,30.13,0.0,0.0,0.0,0.0,2024-12-03,11,2024,10,KOKV,0.0,0.0,0.0,0.0,15
2024-11-30,30,2024-11-30 11:55,11:55,EST,W  17  G 25,10.0,Fair,CLR,32.0,12.2,44.0,22.0,,30.11,0.0,0.0,0.0,0.0,2024-12-03,11,2024,11,KOKV,0.0,0.0,0.0,0.0,17
2024-11-30,30,2024-11-30 12:55,12:55,EST,NW  7  G 16,10.0,Mostly Cloudy,BKN050,32.0,12.2,44.0,26.0,,30.1,0.0,0.0,0.0,0.0,2024-12-03,11,2024,12,KOKV,0.0,0.0,0.0,0.0,7
2024-11-30,30,2024-11-30 13:55,13:55,EST,NW  10,10.0,Partly Cloudy,SCT050,32.0,12.2,44.0,24.0,,30.08,0.0,0.0,0.0,0.0,2024-12-03,11,2024,13,KOKV,0.0,0.0,0.0,0.0,10
2024-11-30,30,2024-11-30 14:55,14:55,EST,NW  10,10.0,Fair,CLR,33.8,14.0,44.0,26.0,,30.07,0.0,0.0,0.0,0.0,2024-12-03,11,2024,14,KOKV,0.0,0.0,0.0,0.0,10
2024-11-30,30,2024-11-30 15:55,15:55,EST,NW  9,10.0,Fair,CLR,32.0,14.0,47.0,25.0,,30.08,0.0,0.0,0.0,0.0,2024-12-03,11,2024,15,KOKV,0.0,0.0,0.0,0.0,9
2024-11-30,30,2024-11-30 16:55,16:55,EST,NW  8,10.0,Fair,CLR,32.0,12.2,44.0,25.0,,30.08,0.0,0.0,0.0,0.0,2024-12-03,11,2024,16,KOKV,0.0,0.0,0.0,0.0,8
2024-11-30,30,2024-11-30 17:55,17:55,EST,NW  5,10.0,Fair,CLR,28.4,12.2,51.0,24.0,,30.1,0.0,0.0,0.0,0.0,2024-12-03,11,2024,17,KOKV,0.0,0.0,0.0,0.0,5
2024-11-30,30,2024-11-30 18:35,18:35,EST,Calm,10.0,Fair,CLR,28.4,14.0,55.0,,,30.11,0.0,0.0,0.0,0.0,2024-12-03,11,2024,18,KOKV,0.0,0.0,0.0,0.0,0
2024-11-30,30,2024-11-30 19:55,19:55,EST,N  3,10.0,Fair,CLR,26.6,12.2,54.0,,,30.11,0.0,0.0,0.0,0.0,2024-12-03,11,2024,19,KOKV,0.0,0.0,0.0,0.0,3
2024-11-30,30,2024-11-30 20:55,20:55,EST,Calm,10.0,Fair,CLR,24.8,12.2,59.0,,,30.1,0.0,0.0,0.0,0.0,2024-12-03,11,2024,20,KOKV,0.0,0.0,0.0,0.0,0
2024-11-30,30,2024-11-30 21:55,21:55,EST,Calm,10.0,Fair,CLR,19.4,12.2,73.0,,,30.11,0.0,0.0,0.0,0.0,2024-12-03,11,2024,21,KOKV,0.0,0.0,0.0,0.0,0
2024-11-30,30,2024-11-30 22:55,22:55,EST,SE  6,10.0,Fair,CLR,19.4,12.2,73.0,12.0,,30.11,0.0,0.0,0.0,0.0,2024-12-03,11,2024,22,KOKV,0.0,0.0,0.0,0.0,6
2024-11-30,30,2024-11-30 23:55,23:55,EST,Calm,10.0,Fair,CLR,19.4,12.2,73.0,,,30.12,0.0,0.0,0.0,0.0,2024-12-03,11,2024,23,KOKV,0.0,0.0,0.0,0.0,0
2024-12-01,1,2024-12-01 00:55,00:55,EST,Calm,10.0,Fair,CLR,21.2,12.2,68.0,,,30.11,0.0,0.0,0.0,0.0,2024-12-04,12,2024,0,KOKV,0.0,0.0,0.0,0.0,0
2024-12-01,1,2024-12-01 01:55,01:55,EST,Calm,10.0,Partly Cloudy,SCT080,17.6,12.2,79.0,,,30.11,0.0,0.0,0.0,0.0,2024-12-04,12,2024,1,KOKV,0.0,0.0,0.0,0.0,0
2024-12-01,1,2024-12-01 02:55,02:55,EST,W  3,10.0,Overcast,OVC070,21.2,14.0,74.0,,,30.11,0.0,0.0,0.0,0.0,2024-12-04,12,2024,2,KOKV,0.0,0.0,0.0,0.0,3
2024-12-01,1,2024-12-01 03:55,03:55,EST,Calm,10.0,Overcast,OVC050,24.8,15.8,69.0,,,30.1,0.0,0.0,0.0,0.0,2024-12-04,12,2024,3,KOKV,0.0,0.0,0.0,0.0,0
2024-12-01,1,2024-12-01 04:55,04:55,EST,Calm,10.0,Overcast,OVC050,21.2,17.6,86.0,,,30.11,0.0,0.0,0.0,0.0,2024-12-04,12,2024,4,KOKV,0.0,0.0,0.0,0.0,0
2024-12-01,1,2024-12-01 05:55,05:55,EST,Calm,10.0,Overcast,OVC048,24.8,19.4,80.0,,,30.11,0.0,0.0,0.0,0.0,2024-12-04,12,2024,5,KOKV,0.0,0.0,0.0,0.0,0
2024-12-01,1,2024-12-01 06:55,06:55,EST,Calm,10.0,Overcast,OVC044,24.8,21.2,86.0,,,30.11,0.0,0.0,0.0,0.0,2024-12-04,12,2024,6,KOKV,0.0,0.0,0.0,0.0,0
2024-12-01,1,2024-12-01 07:55,07:55,EST,Calm,10.0,Overcast,OVC048,26.6,21.2,80.0,,,30.1,0.0,0.0,0.0,0.0,2024-12-04,12,2024,7,KOKV,0.0,0.0,0.0,0.0,0
2024-12-01,1,2024-12-01 08:55,08:55,EST,Calm,10.0,Overcast,OVC046,28.4,19.4,69.0,,,30.11,0.0,0.0,0.0,0.0,2024-12-04,12,2024,8,KOKV,0.0,0.0,0.0,0.0,0
2024-12-01,1,2024-12-01 09:55,09:55,EST,Calm,10.0,Overcast,OVC050,30.2,17.6,59.0,,,30.11,0.0,0.0,0.0,0.0,2024-12-04,12,2024,9,KOKV,0.0,0.0,0.0,0.0,0
2024-12-01,1,2024-12-01 10:55,10:55,EST,Calm,10.0,Overcast,BKN047 OVC050,32.0,21.2,64.0,,,30.1,0.0,0.0,0.0,0.0,2024-12-04,12,2024,10,KOKV,0.0,0.0,0.0,0.0,0
2024-12-01,1,2024-12-01 11:55,11:55,EST,Calm,10.0,Overcast,SCT040 OVC050,35.6,21.2,56.0,,,30.07,0.0,0.0,0.0,0.0,2024-12-04,12,2024,11,KOKV,0.0,0.0,0.0,0.0,0
2024-12-01,1,2024-12-01 12:55,12:55,EST,SW  6,10.0,Overcast,OVC042,37.4,21.2,52.0,33.0,,30.06,0.0,0.0,0.0,0.0,2024-12-04,12,2024,12,KOKV,0.0,0.0,0.0,0.0,6
2024-12-01,1,2024-12-01 13:55,13:55,EST,W  13  G 16,10.0,Overcast,OVC065,37.4,23.0,56.0,30.0,,30.05,0.0,0.0,0.0,0.0,2024-12-04,12,2024,13,KOKV,0.0,0.0,0.0,0.0,13
2024-12-01,1,2024-12-01 14:55,14:55,EST,NW  14,10.0,Overcast,SCT048 OVC050,35.6,24.8,65.0,27.0,,30.05,0.0,0.0,0.0,0.0,2024-12-04,12,2024,14,KOKV,0.0,0.0,0.0,0.0,14
2024-12-01,1,2024-12-01 15:55,15:55,EST,W  3,10.0,Overcast,SCT050 OVC090,35.6,23.0,60.0,,,30.06,0.0,0.0,0.0,0.0,2024-12-04,12,2024,15,KOKV,0.0,0.0,0.0,0.0,3
2024-12-01,1,2024-12-01 16:55,16:55,EST,W  9,10.0,Overcast,OVC070,35.6,17.6,48.0,29.0,,30.07,0.0,0.0,0.0,0.0,2024-12-04,12,2024,16,KOKV,0.0,0.0,0.0,0.0,9
2024-12-01,1,2024-12-01 17:55,17:55,EST,NW  9,10.0,Overcast,SCT050 OVC070,33.8,21.2,60.0,27.0,,30.09,0.0,0.0,0.0,0.0,2024-12-04,12,2024,17,KOKV,0.0,0.0,0.0,0.0,9
2024-12-01,1,2024-12-01 18:55,18:55,EST,NW  8,10.0,Overcast,OVC065,32.0,19.4,60.0,25.0,,30.12,0.0,0.0,0.0,0.0,2024-12-04,12,2024,18,KOKV,0.0,0.0,0.0,0.0,8
2024-12-01,1,2024-12-01 19:55,19:55,EST,NW  6,10.0,Overcast,OVC060,32.0,17.6,55.0,27.0,,30.13,0.0,0.0,0.0,0.0,2024-12-04,12,2024,19,KOKV,0.0,0.0,0.0,0.0,6
2024-12-01,1,2024-12-01 20:55,20:55,EST,NW  7,10.0,Partly Cloudy,SCT060,28.4,17.6,64.0,22.0,,30.14,0.0,0.0,0.0,0.0,2024-12-04,12,2024,20,KOKV,0.0,0.0,0.0,0.0,7
2024-12-01,1,2024-12-01 21:55,21:55,EST,NW  12  G 17,10.0,Partly Cloudy,SCT055,30.2,14.0,51.0,21.0,,30.15,0.0,0.0,0.0,0.0,2024-12-04,12,2024,21,KOKV,0.0,0.0,0.0,0.0,12
2024-12-01,1,2024-12-01 22:55,22:55,EST,NW  10,10.0,Fair,CLR,28.4,12.2,51.0,20.0,,30.16,0.0,0.0,0.0,0.0,2024-12-04,12,2024,22,KOKV,0.0,0.0,0.0,0.0,10
2024-12-01,1,2024-12-01 23:55,23:55,EST,W  9,10.0,Fair,CLR,23.0,12.2,63.0,14.0,,30.17,0.0,0.0,0.0,0.0,2024-12-04,12,2024,23,KOKV,0.0,0.0,0.0,0.0,9
2024-12-02,2,2024-12-02 00:55,00:55,EST,W  10,10.0,Fair,CLR,28.4,10.4,47.0,20.0,,30.16,0.0,0.0,0.0,0.0,2024-12-05,12,2024,0,KOKV,0.0,0.0,0.0,0.0,10
2024-12-02,2,2024-12-02 01:55,01:55,EST,W  9,10.0,Fair,CLR,26.6,10.4,50.0,18.0,,30.16,0.0,0.0,0.0,0.0,2024-12-05,12,2024,1,KOKV,0.0,0.0,0.0,0.0,9
2024-12-02,2,2024-12-02 02:55,02:55,EST,W  8,10.0,Fair,CLR,26.6,10.4,50.0,19.0,,30.17,0.0,0.0,0.0,0.0,2024-12-05,12,2024,2,KOKV,0.0,0.0,0.0,0.0,8
2024-12-02,2,2024-12-02 03:55,03:55,EST,W  9,10.0,Fair,CLR,26.6,10.4,50.0,18.0,,30.17,0.0,0.0,0.0,0.0,2024-12-05,12,2024,3,KOKV,0.0,0.0,0.0,0.0,9
2024-12-02,2,2024-12-02 04:55,04:55,EST,W  7,10.0,Fair,CLR,26.6,12.2,54.0,20.0,,30.18,0.0,0.0,0.0,0.0,2024-12-05,12,2024,4,KOKV,0.0,0.0,0.0,0.0,7
2024-12-02,2,2024-12-02 05:55,05:55,EST,Calm,10.0,Fair,CLR,24.8,12.2,59.0,,,30.19,0.0,0.0,0.0,0.0,2024-12-05,12,2024,5,KOKV,0.0,0.0,0.0,0.0,0
2024-12-02,2,2024-12-02 06:55,06:55,EST,W  6,10.0,Fair,CLR,24.8,12.2,59.0,19.0,,30.2,0.0,0.0,0.0,0.0,2024-12-05,12,2024,6,KOKV,0.0,0.0,0.0,0.0,6
2024-12-02,2,2024-12-02 07:55,07:55,EST,Calm,10.0,Fair,CLR,21.2,12.2,68.0,,,30.22,0.0,0.0,0.0,0.0,2024-12-05,12,2024,7,KOKV,0.0,0.0,0.0,0.0,0
2024-12-02,2,2024-12-02 08:55,08:55,EST,Calm,10.0,Fair,CLR,28.4,14.0,55.0,,,30.23,0.0,0.0,0.0,0.0,2024-12-05,12,2024,8,KOKV,0.0,0.0,0.0,0.0,0
2024-12-02,2,2024-12-02 09:55,09:55,EST,NW  9,10.0,Fair,CLR,32.0,12.2,44.0,25.0,,30.24,0.0,0.0,0.0,0.0,2024-12-05,12,2024,9,KOKV,0.0,0.0,0.0,0.0,9
2024-12-02,2,2024-12-02 10:55,10:55,EST,NW  7,10.0,Fair,CLR,32.0,14.0,47.0,26.0,,30.24,0.0,0.0,0.0,0.0,2024-12-05,12,2024,10,KOKV,0.0,0.0,0.0,0.0,7
2024-12-02,2,2024-12-02 11:55,11:55,EST,NW  10  G 17,10.0,Fair,CLR,33.8,14.0,44.0,26.0,,30.22,0.0,0.0,0.0,0.0,2024-12-05,12,2024,11,KOKV,0.0,0.0,0.0,0.0,10
2024-12-02,2,2024-12-02 12:55,12:55,EST,W  15,10.0,Fair,CLR,33.8,14.0,44.0,25.0,,30.2,0.0,0.0,0.0,0.0,2024-12-05,12,2024,12,KOKV,0.0,0.0,0.0,0.0,15
2024-12-02,2,2024-12-02 13:55,13:55,EST,NW  14,10.0,Partly Cloudy,SCT049,33.8,14.0,44.0,25.0,,30.2,0.0,0.0,0.0,0.0,2024-12-05,12,2024,13,KOKV,0.0,0.0,0.0,0.0,14
2024-12-02,2,2024-12-02 14:55,14:55,EST,NW  9  G 16,10.0,Partly Cloudy,SCT048,33.8,14.0,44.0,27.0,,30.2,0.0,0.0,0.0,0.0,2024-12-05,12,2024,14,KOKV,0.0,0.0,0.0,0.0,9
2024-12-02,2,2024-12-02 15:55,15:55,EST,NW  10,10.0,Fair,CLR,33.8,14.0,44.0,26.0,,30.22,0.0,0.0,0.0,0.0,2024-12-05,12,2024,15,KOKV,0.0,0.0,0.0,0.0,10
2024-12-02,2,2024-12-02 16:55,16:55,EST,NW  9,10.0,Fair,CLR,32.0,14.0,47.0,25.0,,30.23,0.0,0.0,0.0,0.0,2024-12-05,12,2024,16,KOKV,0.0,0.0,0.0,0.0,9
2024-12-02,2,2024-12-02 17:55,17:55,EST,W  6,10.0,Fair,CLR,26.6,14.0,59.0,21.0,,30.24,0.0,0.0,0.0,0.0,2024-12-05,12,2024,17,KOKV,0.0,0.0,0.0,0.0,6
2024-12-02,2,2024-12-02 18:55,18:55,EST,W  7,10.0,Fair,CLR,24.8,14.0,63.0,18.0,,30.25,0.0,0.0,0.0,0.0,2024-12-05,12,2024,18,KOKV,0.0,0.0,0.0,0.0,7
2024-12-02,2,2024-12-02 19:55,19:55,EST,W  3,10.0,Fair,CLR,28.4,14.0,55.0,,,30.27,0.0,0.0,0.0,0.0,2024-12-05,12,2024,19,KOKV,0.0,0.0,0.0,0.0,3
2024-12-02,2,2024-12-02 20:55,20:55,EST,W  5,10.0,Fair,CLR,28.4,14.0,55.0,24.0,,30.27,0.0,0.0,0.0,0.0,2024-12-05,12,2024,20,KOKV,0.0,0.0,0.0,0.0,5
2024-12-02,2,2024-12-02 21:55,21:55,EST,W  3,10.0,Fair,CLR,28.4,14.0,55.0,,,30.28,0.0,0.0,0.0,0.0,2024-12-05,12,2024,21,KOKV,0.0,0.0,0.0,0.0,3
2024-12-02,2,2024-12-02 22:55,22:55,EST,W  6,10.0,Fair,CLR,26.6,14.0,59.0,21.0,,30.28,0.0,0.0,0.0,0.0,2024-12-05,12,2024,22,KOKV,0.0,0.0,0.0,0.0,6
2024-12-02,2,2024-12-02 23:55,23:55,EST,W  7,10.0,Fair,CLR,26.6,14.0,59.0,20.0,,30.29,0.0,0.0,0.0,0.0,2024-12-05,12,2024,23,KOKV,0.0,0.0,0.0,0.0,7
2024-12-03,3,2024-12-03 00:55,00:55,EST,SW  3,10.0,Fair,CLR,26.6,14.0,59.0,,,30.28,0.0,0.0,0.0,0.0,2024-12-06,12,2024,0,KOKV,0.0,0.0,0.0,0.0,3
2024-12-03,3,2024-12-03 01:55,01:55,EST,W  7,10.0,Fair,CLR,26.6,14.0,59.0,20.0,,30.3,0.0,0.0,0.0,0.0,2024-12-06,12,2024,1,KOKV,0.0,0.0,0.0,0.0,7
2024-12-03,3,2024-12-03 02:55,02:55,EST,SW  3,10.0,Fair,CLR,23.0,14.0,68.0,,,30.31,0.0,0.0,0.0,0.0,2024-12-06,12,2024,2,KOKV,0.0,0.0,0.0,0.0,3
2024-12-03,3,2024-12-03 03:55,03:55,EST,SW  3,10.0,Fair,CLR,21.2,12.2,68.0,,,30.3,0.0,0.0,0.0,0.0,2024-12-06,12,2024,3,KOKV,0.0,0.0,0.0,0.0,3
2024-12-03,3,2024-12-03 04:55,04:55,EST,Calm,10.0,Fair,CLR,19.4,12.2,73.0,,,30.31,0.0,0.0,0.0,0.0,2024-12-06,12,2024,4,KOKV,0.0,0.0,0.0,0.0,0
2024-12-03,3,2024-12-03 05:55,05:55,EST,SW  3,10.0,Fair,CLR,19.4,12.2,73.0,,,30.32,0.0,0.0,0.0,0.0,2024-12-06,12,2024,5,KOKV,0.0,0.0,0.0,0.0,3
2024-12-03,3,2024-12-03 06:55,06:55,EST,Calm,10.0,Partly Cloudy,SCT070,21.2,12.2,68.0,,,30.34,0.0,0.0,0.0,0.0,2024-12-06,12,2024,6,KOKV,0.0,0.0,0.0,0.0,0
2024-12-03,3,2024-12-03 07:55,07:55,EST,Calm,10.0,Fair,CLR,21.2,14.0,74.0,,,30.35,0.0,0.0,0.0,0.0,2024-12-06,12,2024,7,KOKV,0.0,0.0,0.0,0.0,0
2024-12-03,3,2024-12-03 08:55,08:55,EST,W  6,10.0,Fair,CLR,28.4,15.8,59.0,23.0,,30.37,0.0,0.0,0.0,0.0,2024-12-06,12,2024,8,KOKV,0.0,0.0,0.0,0.0,6
2024-12-03,3,2024-12-03 09:55,09:55,EST,W  12  G 18,10.0,Fair,CLR,32.0,17.6,55.0,24.0,,30.37,0.0,0.0,0.0,0.0,2024-12-06,12,2024,9,KOKV,0.0,0.0,0.0,0.0,12
2024-12-03,3,2024-12-03 10:55,10:55,EST,W  13  G 17,10.0,Partly Cloudy,SCT038,33.8,17.6,51.0,25.0,,30.38,0.0,0.0,0.0,0.0,2024-12-06,12,2024,10,KOKV,0.0,0.0,0.0,0.0,13
2024-12-03,3,2024-12-03 11:55,11:55,EST,NW  12  G 22,10.0,Fair,CLR,33.8,17.6,51.0,26.0,,30.35,0.0,0.0,0.0,0.0,2024-12-06,12,2024,11,KOKV,0.0,0.0,0.0,0.0,12
2024-12-03,3,2024-12-03 12:55,12:55,EST,NW  17  G 22,10.0,Fair,CLR,35.6,17.6,48.0,26.0,,30.34,0.0,0.0,0.0,0.0,2024-12-06,12,2024,12,KOKV,0.0,0.0,0.0,0.0,17
2024-12-03,3,2024-12-03 13:55,13:55,EST,NW  16  G 24,10.0,Fair,CLR,35.6,17.6,48.0,27.0,,30.33,0.0,0.0,0.0,0.0,2024-12-06,12,2024,13,KOKV,0.0,0.0,0.0,0.0,16
2024-12-03,3,2024-12-03 14:55,14:55,EST,W  13  G 17,10.0,Fair,CLR,35.6,15.8,44.0,28.0,,30.33,0.0,0.0,0.0,0.0,2024-12-06,12,2024,14,KOKV,0.0,0.0,0.0,0.0,13
2024-12-03,3,2024-12-03 15:55,15:55,EST,W  9,10.0,Partly Cloudy,SCT050,33.8,15.8,48.0,27.0,,30.35,0.0,0.0,0.0,0.0,2024-12-06,12,2024,15,KOKV,0.0,0.0,0.0,0.0,9
2024-12-03,3,2024-12-03 16:55,16:55,EST,W  8,10.0,Fair,CLR,32.0,15.8,51.0,25.0,,30.36,0.0,0.0,0.0,0.0,2024-12-06,12,2024,16,KOKV,0.0,0.0,0.0,0.0,8
2024-12-03,3,2024-12-03 17:55,17:55,EST,W  5,10.0,Partly Cloudy,SCT044,30.2,14.0,51.0,26.0,,30.37,0.0,0.0,0.0,0.0,2024-12-06,12,2024,17,KOKV,0.0,0.0,0.0,0.0,5
2024-12-03,3,2024-12-03 18:55,18:55,EST,W  6,10.0,Fair,CLR,30.2,14.0,51.0,25.0,,30.37,0.0,0.0,0.0,0.0,2024-12-06,12,2024,18,KOKV,0.0,0.0,0.0,0.0,6
2024-12-03,3,2024-12-03 19:55,19:55,EST,W  7,10.0,Fair,CLR,28.4,14.0,55.0,22.0,,30.37,0.0,0.0,0.0,0.0,2024-12-06,12,2024,19,KOKV,0.0,0.0,0.0,0.0,7
2024-12-03,3,2024-12-03 20:55,20:55,EST,SW  3,10.0,Fair,CLR,28.4,14.0,55.0,,,30.37,0.0,0.0,0.0,0.0,2024-12-06,12,2024,20,KOKV,0.0,0.0,0.0,0.0,3
2024-12-03,3,2024-12-03 21:55,21:55,EST,W  8,10.0,Fair,CLR,28.4,14.0,55.0,21.0,,30.36,0.0,0.0,0.0,0.0,2024-12-06,12,2024,21,KOKV,0.0,0.0,0.0,0.0,8
2024-12-03,3,2024-12-03 22:55,22:55,EST,S  3,10.0,Fair,CLR,21.2,12.2,68.0,,,30.36,0.0,0.0,0.0,0.0,2024-12-06,12,2024,22,KOKV,0.0,0.0,0.0,0.0,3
2024-12-03,3,2024-12-03 23:55,23:55,EST,SW  5,10.0,Fair,CLR,23.0,14.0,68.0,18.0,,30.35,0.0,0.0,0.0,0.0,2024-12-06,12,2024,23,KOKV,0.0,0.0,0.0,0.0,5
2024-12-04,4,2024-12-04 00:55,00:55,EST,W  7,10.0,Fair,CLR,24.8,14.0,63.0,18.0,,30.33,0.0,0.0,0.0,0.0,2024-12-07,12,2024,0,KOKV,0.0,0.0,0.0,0.0,7
2024-12-04,4,2024-12-04 01:55,01:55,EST,SW  5,10.0,Fair,CLR,24.8,14.0,63.0,20.0,,30.32,0.0,0.0,0.0,0.0,2024-12-07,12,2024,1,KOKV,0.0,0.0,0.0,0.0,5
2024-12-04,4,2024-12-04 02:55,02:55,EST,SW  5,10.0,Fair,CLR,23.0,14.0,68.0,18.0,,30.33,0.0,0.0,0.0,0.0,2024-12-07,12,2024,2,KOKV,0.0,0.0,0.0,0.0,5
2024-12-04,4,2024-12-04 03:55,03:55,EST,W  5,10.0,Fair,CLR,23.0,14.0,68.0,18.0,,30.31,0.0,0.0,0.0,0.0,2024-12-07,12,2024,3,KOKV,0.0,0.0,0.0,0.0,5
2024-12-04,4,2024-12-04 04:55,04:55,EST,SW  5,10.0,Partly Cloudy,SCT120,23.0,14.0,68.0,18.0,,30.29,0.0,0.0,0.0,0.0,2024-12-07,12,2024,4,KOKV,0.0,0.0,0.0,0.0,5
2024-12-04,4,2024-12-04 05:55,05:55,EST,SW  7,10.0,Partly Cloudy,SCT120,23.0,14.0,68.0,16.0,,30.28,0.0,0.0,0.0,0.0,2024-12-07,12,2024,5,KOKV,0.0,0.0,0.0,0.0,7
2024-12-04,4,2024-12-04 06:55,06:55,EST,SW  5,10.0,Overcast,OVC110,23.0,14.0,68.0,18.0,,30.26,0.0,0.0,0.0,0.0,2024-12-07,12,2024,6,KOKV,0.0,0.0,0.0,0.0,5
2024-12-04,4,2024-12-04 07:55,07:55,EST,SW  5,10.0,Partly Cloudy,SCT110,23.0,14.0,68.0,18.0,,30.25,0.0,0.0,0.0,0.0,2024-12-07,12,2024,7,KOKV,0.0,0.0,0.0,0.0,5
2024-12-04,4,2024-12-04 08:55,08:55,EST,SW  6,10.0,Fair,CLR,26.6,14.0,59.0,21.0,,30.22,0.0,0.0,0.0,0.0,2024-12-07,12,2024,8,KOKV,0.0,0.0,0.0,0.0,6
2024-12-04,4,2024-12-04 09:35,09:35,EST,SW  8,10.0,Partly Cloudy,SCT090,28.4,14.0,55.0,21.0,,30.2,0.0,0.0,0.0,0.0,2024-12-07,12,2024,9,KOKV,0.0,0.0,0.0,0.0,8
2024-12-04,4,2024-12-04 10:35,10:35,EST,SW  7,10.0,Fair,CLR,32.0,15.8,51.0,26.0,,30.16,0.0,0.0,0.0,0.0,2024-12-07,12,2024,10,KOKV,0.0,0.0,0.0,0.0,7
2024-12-04,4,2024-12-04 11:55,11:55,EST,SW  8,10.0,Mostly Cloudy,BKN070,33.8,14.0,44.0,28.0,,30.08,0.0,0.0,0.0,0.0,2024-12-07,12,2024,11,KOKV,0.0,0.0,0.0,0.0,8
2024-12-04,4,2024-12-04 12:55,12:55,EST,SW  7,10.0,Overcast,OVC070,33.8,15.8,48.0,28.0,,30.03,0.0,0.0,0.0,0.0,2024-12-07,12,2024,12,KOKV,0.0,0.0,0.0,0.0,7
2024-12-04,4,2024-12-04 13:55,13:55,EST,SW  7,10.0,Overcast,OVC060,35.6,15.8,44.0,31.0,,29.99,0.0,0.0,0.0,0.0,2024-12-07,12,2024,13,KOKV,0.0,0.0,0.0,0.0,7
2024-12-04,4,2024-12-04 14:55,14:55,EST,S  3,10.0,Overcast,OVC048,35.6,15.8,44.0,,,29.93,0.0,0.0,0.0,0.0,2024-12-07,12,2024,14,KOKV,0.0,0.0,0.0,0.0,3
2024-12-04,4,2024-12-04 15:55,15:55,EST,S  8,10.0,Overcast,OVC050,35.6,15.8,44.0,30.0,,29.89,0.0,0.0,0.0,0.0,2024-12-07,12,2024,15,KOKV,0.0,0.0,0.0,0.0,8
2024-12-04,4,2024-12-04 16:55,16:55,EST,S  8,10.0,Overcast,OVC060,35.6,15.8,44.0,30.0,,29.85,0.0,0.0,0.0,0.0,2024-12-07,12,2024,16,KOKV,0.0,0.0,0.0,0.0,8
2024-12-04,4,2024-12-04 17:55,17:55,EST,S  5,10.0,Partly Cloudy,SCT060,33.8,17.6,51.0,30.0,,29.83,0.0,0.0,0.0,0.0,2024-12-07,12,2024,17,KOKV,0.0,0.0,0.0,0.0,5
2024-12-04,4,2024-12-04 18:55,18:55,EST,S  6,10.0,Partly Cloudy,SCT060,33.8,17.6,51.0,29.0,,29.79,0.0,0.0,0.0,0.0,2024-12-07,12,2024,18,KOKV,0.0,0.0,0.0,0.0,6
2024-12-04,4,2024-12-04 19:55,19:55,EST,Calm,10.0,Overcast,BKN065 OVC075,35.6,17.6,48.0,,,29.76,0.0,0.0,0.0,0.0,2024-12-07,12,2024,19,KOKV,0.0,0.0,0.0,0.0,0
2024-12-04,4,2024-12-04 20:55,20:55,EST,SW  7,10.0,Overcast,SCT038 OVC046,37.4,19.4,48.0,33.0,,29.75,0.0,0.0,0.0,0.0,2024-12-07,12,2024,20,KOKV,0.0,0.0,0.0,0.0,7
2024-12-04,4,2024-12-04 21:55,21:55,EST,SW  6,10.0,Overcast,BKN041 BKN047 OVC055,39.2,23.0,52.0,36.0,,29.72,0.0,0.0,0.0,0.0,2024-12-07,12,2024,21,KOKV,0.0,0.0,0.0,0.0,6
2024-12-04,4,2024-12-04 22:55,22:55,EST,SW  9,10.0,Mostly Cloudy,BKN050,39.2,26.6,61.0,34.0,,29.68,0.0,0.0,0.0,0.0,2024-12-07,12,2024,22,KOKV,0.0,0.0,0.0,0.0,9
2024-12-04,4,2024-12-04 23:55,23:55,EST,S  3,10.0,Mostly Cloudy,BKN120,37.4,23.0,56.0,,,29.66,0.0,0.0,0.0,0.0,2024-12-07,12,2024,23,KOKV,0.0,0.0,0.0,0.0,3
2024-12-05,5,2024-12-05 00:55,00:55,EST,SW  7,10.0,Mostly Cloudy,SCT055 BKN110,35.6,24.8,65.0,31.0,,29.62,0.0,0.0,0.0,0.0,2024-12-08,12,2024,0,KOKV,0.0,0.0,0.0,0.0,7
2024-12-05,5,2024-12-05 01:55,01:55,EST,S  10  G 17,10.0,Fair,CLR,37.4,28.4,70.0,31.0,,29.56,0.0,0.0,0.0,0.0,2024-12-08,12,2024,1,KOKV,0.0,0.0,0.0,0.0,10
2024-12-05,5,2024-12-05 02:55,02:55,EST,SW  6,10.0,Overcast,BKN075 OVC085,37.4,26.6,65.0,33.0,,29.53,0.0,0.0,0.0,0.0,2024-12-08,12,2024,2,KOKV,0.0,0.0,0.0,0.0,6
2024-12-05,5,2024-12-05 03:55,03:55,EST,NW  23  G 30,4.0,Overcast and Breezy,SCT014 BKN033 OVC044,35.6,32.0,87.0,25.0,,29.6,0.0,0.0,0.0,0.0,2024-12-08,12,2024,3,KOKV,0.0,0.0,0.0,0.0,23
2024-12-05,5,2024-12-05 04:55,04:55,EST,W  9  G 20,10.0,Overcast,SCT060 SCT070 OVC075,37.4,32.0,81.0,31.0,,29.58,0.0,0.0,0.0,0.0,2024-12-08,12,2024,4,KOKV,0.0,0.0,0.0,0.0,9
2024-12-05,5,2024-12-05 05:55,05:55,EST,W  12,10.0,Mostly Cloudy,SCT090 BKN120,37.4,30.2,75.0,30.0,,29.59,0.0,0.0,0.0,0.0,2024-12-08,12,2024,5,KOKV,0.0,0.0,0.0,0.0,12
2024-12-05,5,2024-12-05 06:55,06:55,EST,NW  22  G 30,10.0,Overcast and Breezy,SCT030 BKN043 OVC075,35.6,30.2,81.0,25.0,,29.65,0.0,0.0,0.0,0.0,2024-12-08,12,2024,6,KOKV,0.0,0.0,0.0,0.0,22
2024-12-05,5,2024-12-05 07:55,07:55,EST,W  13  G 36,10.0,Mostly Cloudy,SCT049 BKN060 BKN070,33.8,19.4,56.0,25.0,,29.72,0.0,0.0,0.0,0.0,2024-12-08,12,2024,7,KOKV,0.0,0.0,0.0,0.0,13
2024-12-05,5,2024-12-05 08:55,08:55,EST,NW  22  G 30,10.0,Partly Cloudy and Breezy,SCT055 SCT070,30.2,10.4,43.0,18.0,,29.79,0.0,0.0,0.0,0.0,2024-12-08,12,2024,8,KOKV,0.0,0.0,0.0,0.0,22
2024-12-05,5,2024-12-05 09:55,09:55,EST,NW  32  G 39,10.0,Fair and Windy,CLR,30.2,8.6,40.0,16.0,,29.83,0.0,0.0,0.0,0.0,2024-12-08,12,2024,9,KOKV,0.0,0.0,0.0,0.0,32
2024-12-05,5,2024-12-05 10:55,10:55,EST,W  28  G 37,10.0,Fair and Windy,CLR,32.0,10.4,40.0,19.0,,29.84,0.0,0.0,0.0,0.0,2024-12-08,12,2024,10,KOKV,0.0,0.0,0.0,0.0,28
2024-12-05,5,2024-12-05 11:55,11:55,EST,W  24  G 33,10.0,Overcast and Breezy,OVC055,30.2,10.4,43.0,17.0,,29.87,0.0,0.0,0.0,0.0,2024-12-08,12,2024,11,KOKV,0.0,0.0,0.0,0.0,24
2024-12-05,5,2024-12-05 12:55,12:55,EST,W  31  G 39,10.0,Partly Cloudy and Windy,SCT050,32.0,10.4,40.0,18.0,,29.87,0.0,0.0,0.0,0.0,2024-12-08,12,2024,12,KOKV,0.0,0.0,0.0,0.0,31
2024-12-05,5,2024-12-05 13:55,13:55,EST,W  24  G 31,10.0,Partly Cloudy and Breezy,SCT050,32.0,10.4,40.0,20.0,,29.91,0.0,0.0,0.0,0.0,2024-12-08,12,2024,13,KOKV,0.0,0.0,0.0,0.0,24
2024-12-05,5,2024-12-05 14:55,14:55,EST,W  15  G 30,10.0,Overcast,OVC050,30.2,8.6,40.0,20.0,,29.96,0.0,0.0,0.0,0.0,2024-12-08,12,2024,14,KOKV,0.0,0.0,0.0,0.0,15
2024-12-05,5,2024-12-05 15:55,15:55,EST,W  23  G 29,10.0,Partly Cloudy and Breezy,SCT050,28.4,8.6,43.0,15.0,,30.01,0.0,0.0,0.0,0.0,2024-12-08,12,2024,15,KOKV,0.0,0.0,0.0,0.0,23
2024-12-05,5,2024-12-05 16:55,16:55,EST,W  17  G 23,10.0,Partly Cloudy,SCT048,26.6,8.6,46.0,15.0,,30.05,0.0,0.0,0.0,0.0,2024-12-08,12,2024,16,KOKV,0.0,0.0,0.0,0.0,17
2024-12-05,5,2024-12-05 17:55,17:55,EST,W  13  G 30,10.0,Mostly Cloudy,BKN048,26.6,8.6,46.0,16.0,,30.1,0.0,0.0,0.0,0.0,2024-12-08,12,2024,17,KOKV,0.0,0.0,0.0,0.0,13
2024-12-05,5,2024-12-05 18:55,18:55,EST,W  12  G 15,10.0,Fair,CLR,24.8,8.6,50.0,15.0,,30.09,0.0,0.0,0.0,0.0,2024-12-08,12,2024,18,KOKV,0.0,0.0,0.0,0.0,12
2024-12-05,5,2024-12-05 19:55,19:55,EST,W  12,10.0,Fair,CLR,26.6,8.6,46.0,17.0,,30.11,0.0,0.0,0.0,0.0,2024-12-08,12,2024,19,KOKV,0.0,0.0,0.0,0.0,12
2024-12-05,5,2024-12-05 20:55,20:55,EST,W  13  G 18,10.0,Fair,CLR,26.6,10.4,50.0,16.0,,30.11,0.0,0.0,0.0,0.0,2024-12-08,12,2024,20,KOKV,0.0,0.0,0.0,0.0,13
2024-12-05,5,2024-12-05 21:55,21:55,EST,W  10  G 21,10.0,Partly Cloudy,SCT042,26.6,12.2,54.0,18.0,,30.12,0.0,0.0,0.0,0.0,2024-12-08,12,2024,21,KOKV,0.0,0.0,0.0,0.0,10
2024-12-05,5,2024-12-05 22:55,22:55,EST,W  16  G 20,10.0,Mostly Cloudy,BKN038 BKN060,26.6,12.2,54.0,15.0,,30.12,0.0,0.0,0.0,0.0,2024-12-08,12,2024,22,KOKV,0.0,0.0,0.0,0.0,16
2024-12-05,5,2024-12-05 23:55,23:55,EST,W  16  G 23,10.0,Mostly Cloudy,BKN038,26.6,14.0,59.0,15.0,,30.11,0.0,0.0,0.0,0.0,2024-12-08,12,2024,23,KOKV,0.0,0.0,0.0,0.0,16
2024-12-06,6,2024-12-06 00:55,00:55,EST,W  7  G 23,10.0,Mostly Cloudy,BKN036,26.6,14.0,59.0,20.0,,30.12,0.0,0.0,0.0,0.0,2024-12-09,12,2024,0,KOKV,0.0,0.0,0.0,0.0,7
2024-12-06,6,2024-12-06 01:55,01:55,EST,W  13,10.0,Partly Cloudy,SCT034 SCT041,26.6,14.0,59.0,16.0,,30.13,0.0,0.0,0.0,0.0,2024-12-09,12,2024,1,KOKV,0.0,0.0,0.0,0.0,13
2024-12-06,6,2024-12-06 02:55,02:55,EST,W  10,10.0,Overcast,BKN035 BKN043 OVC055,26.6,14.0,59.0,18.0,,30.16,0.0,0.0,0.0,0.0,2024-12-09,12,2024,2,KOKV,0.0,0.0,0.0,0.0,10
2024-12-06,6,2024-12-06 03:55,03:55,EST,W  12  G 21,10.0,Overcast,BKN035 OVC048,28.4,14.0,55.0,19.0,,30.16,0.0,0.0,0.0,0.0,2024-12-09,12,2024,3,KOKV,0.0,0.0,0.0,0.0,12
2024-12-06,6,2024-12-06 04:55,04:55,EST,W  18  G 23,10.0,Mostly Cloudy,SCT032 BKN039 BKN045,26.6,14.0,59.0,14.0,,30.16,0.0,0.0,0.0,0.0,2024-12-09,12,2024,4,KOKV,0.0,0.0,0.0,0.0,18
2024-12-06,6,2024-12-06 05:55,05:55,EST,NW  9  G 18,10.0,Partly Cloudy,SCT037 SCT047,26.6,14.0,59.0,18.0,,30.18,0.0,0.0,0.0,0.0,2024-12-09,12,2024,5,KOKV,0.0,0.0,0.0,0.0,9
2024-12-06,6,2024-12-06 06:55,06:55,EST,W  10  G 17,10.0,Partly Cloudy,SCT039,26.6,12.2,54.0,18.0,,30.2,0.0,0.0,0.0,0.0,2024-12-09,12,2024,6,KOKV,0.0,0.0,0.0,0.0,10
2024-12-06,6,2024-12-06 07:55,07:55,EST,W  12  G 16,10.0,Partly Cloudy,SCT041,26.6,12.2,54.0,17.0,,30.22,0.0,0.0,0.0,0.0,2024-12-09,12,2024,7,KOKV,0.0,0.0,0.0,0.0,12
2024-12-06,6,2024-12-06 08:55,08:55,EST,NW  16  G 23,10.0,Fair,CLR,28.4,12.2,51.0,17.0,,30.23,0.0,0.0,0.0,0.0,2024-12-09,12,2024,8,KOKV,0.0,0.0,0.0,0.0,16
2024-12-06,6,2024-12-06 09:55,09:55,EST,NW  20  G 28,10.0,Fair,CLR,30.2,12.2,47.0,19.0,,30.25,0.0,0.0,0.0,0.0,2024-12-09,12,2024,9,KOKV,0.0,0.0,0.0,0.0,20
2024-12-06,6,2024-12-06 10:35,10:35,EST,NW  17  G 23,10.0,Mostly Cloudy,BKN047,32.0,12.2,44.0,22.0,,30.24,0.0,0.0,0.0,0.0,2024-12-09,12,2024,10,KOKV,0.0,0.0,0.0,0.0,17
2024-12-06,6,2024-12-06 11:55,11:55,EST,NW  17  G 24,10.0,Overcast,OVC045,32.0,12.2,44.0,22.0,,30.24,0.0,0.0,0.0,0.0,2024-12-09,12,2024,11,KOKV,0.0,0.0,0.0,0.0,17
2024-12-06,6,2024-12-06 12:55,12:55,EST,NW  13  G 22,10.0,Overcast,OVC045,32.0,12.2,44.0,23.0,,30.23,0.0,0.0,0.0,0.0,2024-12-09,12,2024,12,KOKV,0.0,0.0,0.0,0.0,13
2024-12-06,6,2024-12-06 13:55,13:55,EST,NW  20  G 25,10.0,Mostly Cloudy,BKN045,30.2,10.4,43.0,19.0,,30.22,0.0,0.0,0.0,0.0,2024-12-09,12,2024,13,KOKV,0.0,0.0,0.0,0.0,20
2024-12-06,6,2024-12-06 14:55,14:55,EST,NW  20  G 24,10.0,Partly Cloudy,SCT046,32.0,12.2,44.0,21.0,,30.21,0.0,0.0,0.0,0.0,2024-12-09,12,2024,14,KOKV,0.0,0.0,0.0,0.0,20
2024-12-06,6,2024-12-06 15:55,15:55,EST,NW  15,10.0,Partly Cloudy,SCT050,30.2,10.4,43.0,20.0,,30.21,0.0,0.0,0.0,0.0,2024-12-09,12,2024,15,KOKV,0.0,0.0,0.0,0.0,15
2024-12-06,6,2024-12-06 17:55,17:55,EST,W  9,10.0,Partly Cloudy,SCT046,28.4,12.2,51.0,20.0,,30.22,0.0,0.0,0.0,0.0,2024-12-09,12,2024,17,KOKV,0.0,0.0,0.0,0.0,9
2024-12-06,6,2024-12-06 18:55,18:55,EST,W  8,10.0,Fair,CLR,28.4,12.2,51.0,21.0,,30.23,0.0,0.0,0.0,0.0,2024-12-09,12,2024,18,KOKV,0.0,0.0,0.0,0.0,8
2024-12-06,6,2024-12-06 19:55,19:55,EST,W  3,10.0,Fair,CLR,28.4,10.4,47.0,,,30.22,0.0,0.0,0.0,0.0,2024-12-09,12,2024,19,KOKV,0.0,0.0,0.0,0.0,3
2024-12-06,6,2024-12-06 20:55,20:55,EST,SW  5,10.0,Fair,CLR,26.6,12.2,54.0,22.0,,30.22,0.0,0.0,0.0,0.0,2024-12-09,12,2024,20,KOKV,0.0,0.0,0.0,0.0,5
2024-12-06,6,2024-12-06 21:55,21:55,EST,SW  7,10.0,Fair,CLR,26.6,12.2,54.0,20.0,,30.2,0.0,0.0,0.0,0.0,2024-12-09,12,2024,21,KOKV,0.0,0.0,0.0,0.0,7
2024-12-06,6,2024-12-06 22:55,22:55,EST,W  3,10.0,Fair,CLR,24.8,12.2,59.0,,,30.21,0.0,0.0,0.0,0.0,2024-12-09,12,2024,22,KOKV,0.0,0.0,0.0,0.0,3
2024-12-06,6,2024-12-06 23:55,23:55,EST,SW  3,10.0,Fair,CLR,24.8,10.4,54.0,,,30.22,0.0,0.0,0.0,0.0,2024-12-09,12,2024,23,KOKV,0.0,0.0,0.0,0.0,3
2024-12-07,7,2024-12-07 00:55,00:55,EST,W  5,10.0,Mostly Cloudy,BKN100,24.8,12.2,59.0,20.0,,30.21,0.0,0.0,0.0,0.0,2024-12-10,12,2024,0,KOKV,0.0,0.0,0.0,0.0,5
2024-12-07,7,2024-12-07 01:55,01:55,EST,W  6,10.0,Overcast,OVC100,24.8,12.2,59.0,19.0,,30.21,0.0,0.0,0.0,0.0,2024-12-10,12,2024,1,KOKV,0.0,0.0,0.0,0.0,6
2024-12-07,7,2024-12-07 02:55,02:55,EST,SW  5,10.0,Mostly Cloudy,BKN090,24.8,12.2,59.0,20.0,,30.22,0.0,0.0,0.0,0.0,2024-12-10,12,2024,2,KOKV,0.0,0.0,0.0,0.0,5
2024-12-07,7,2024-12-07 03:55,03:55,EST,SW  7,10.0,Mostly Cloudy,BKN060,26.6,12.2,54.0,20.0,,30.21,0.0,0.0,0.0,0.0,2024-12-10,12,2024,3,KOKV,0.0,0.0,0.0,0.0,7
2024-12-07,7,2024-12-07 04:55,04:55,EST,SW  6,10.0,Overcast,OVC050,28.4,12.2,51.0,23.0,,30.21,0.0,0.0,0.0,0.0,2024-12-10,12,2024,4,KOKV,0.0,0.0,0.0,0.0,6
2024-12-07,7,2024-12-07 05:55,05:55,EST,W  5,10.0,Overcast,OVC050,28.4,12.2,51.0,24.0,,30.22,0.0,0.0,0.0,0.0,2024-12-10,12,2024,5,KOKV,0.0,0.0,0.0,0.0,5
2024-12-07,7,2024-12-07 06:55,06:55,EST,SW  6,10.0,Partly Cloudy,SCT065,26.6,10.4,50.0,21.0,,30.22,0.0,0.0,0.0,0.0,2024-12-10,12,2024,6,KOKV,0.0,0.0,0.0,0.0,6
2024-12-07,7,2024-12-07 07:55,07:55,EST,W  7,10.0,Fair,CLR,26.6,10.4,50.0,20.0,,30.21,0.0,0.0,0.0,0.0,2024-12-10,12,2024,7,KOKV,0.0,0.0,0.0,0.0,7
2024-12-07,7,2024-12-07 08:55,08:55,EST,SW  3,10.0,Fair,CLR,28.4,12.2,51.0,,,30.22,0.0,0.0,0.0,0.0,2024-12-10,12,2024,8,KOKV,0.0,0.0,0.0,0.0,3
2024-12-07,7,2024-12-07 09:55,09:55,EST,SW  5,10.0,Mostly Cloudy,BKN060,32.0,12.2,44.0,28.0,,30.23,0.0,0.0,0.0,0.0,2024-12-10,12,2024,9,KOKV,0.0,0.0,0.0,0.0,5
2024-12-07,7,2024-12-07 10:55,10:55,EST,SW  7,10.0,Mostly Cloudy,BKN060,33.8,12.2,41.0,28.0,,30.22,0.0,0.0,0.0,0.0,2024-12-10,12,2024,10,KOKV,0.0,0.0,0.0,0.0,7
2024-12-07,7,2024-12-07 11:15,11:15,EST,SW  5,10.0,Fair,CLR,33.8,12.2,41.0,30.0,,30.21,0.0,0.0,0.0,0.0,2024-12-10,12,2024,11,KOKV,0.0,0.0,0.0,0.0,5
2024-12-07,7,2024-12-07 12:35,12:35,EST,SW  8,10.0,Fair,CLR,35.6,10.4,35.0,30.0,,30.17,0.0,0.0,0.0,0.0,2024-12-10,12,2024,12,KOKV,0.0,0.0,0.0,0.0,8
2024-12-07,7,2024-12-07 13:55,13:55,EST,SW  8,10.0,Mostly Cloudy,BKN055,41.0,10.4,28.0,36.0,,30.13,0.0,0.0,0.0,0.0,2024-12-10,12,2024,13,KOKV,0.0,0.0,0.0,0.0,8
2024-12-07,7,2024-12-07 14:55,14:55,EST,SW  8,10.0,Fair,CLR,41.0,10.4,28.0,36.0,,30.1,0.0,0.0,0.0,0.0,2024-12-10,12,2024,14,KOKV,0.0,0.0,0.0,0.0,8
2024-12-07,7,2024-12-07 15:55,15:55,EST,SW  7,10.0,Fair,CLR,41.0,10.4,28.0,37.0,,30.07,0.0,0.0,0.0,0.0,2024-12-10,12,2024,15,KOKV,0.0,0.0,0.0,0.0,7
2024-12-07,7,2024-12-07 16:55,16:55,EST,S  3,10.0,Fair,CLR,35.6,12.2,38.0,,,30.07,0.0,0.0,0.0,0.0,2024-12-10,12,2024,16,KOKV,0.0,0.0,0.0,0.0,3
2024-12-07,7,2024-12-07 17:55,17:55,EST,S  3,10.0,Fair,CLR,35.6,12.2,38.0,,,30.07,0.0,0.0,0.0,0.0,2024-12-10,12,2024,17,KOKV,0.0,0.0,0.0,0.0,3
2024-12-07,7,2024-12-07 18:55,18:55,EST,S  3,10.0,Fair,CLR,33.8,12.2,41.0,,,30.04,0.0,0.0,0.0,0.0,2024-12-10,12,2024,18,KOKV,0.0,0.0,0.0,0.0,3
2024-12-07,7,2024-12-07 19:55,19:55,EST,S  3,10.0,Fair,CLR,32.0,12.2,44.0,,,30.03,0.0,0.0,0.0,0.0,2024-12-10,12,2024,19,KOKV,0.0,0.0,0.0,0.0,3
2024-12-07,7,2024-12-07 20:55,20:55,EST,Calm,10.0,Fair,CLR,32.0,14.0,47.0,,,30.0,0.0,0.0,0.0,0.0,2024-12-10,12,2024,20,KOKV,0.0,0.0,0.0,0.0,0
2024-12-07,7,2024-12-07 21:55,21:55,EST,S  3,10.0,Fair,CLR,32.0,14.0,47.0,,,29.97,0.0,0.0,0.0,0.0,2024-12-10,12,2024,21,KOKV,0.0,0.0,0.0,0.0,3
2024-12-07,7,2024-12-07 22:55,22:55,EST,SW  6,10.0,Fair,CLR,33.8,17.6,51.0,29.0,,29.95,0.0,0.0,0.0,0.0,2024-12-10,12,2024,22,KOKV,0.0,0.0,0.0,0.0,6
2024-12-07,7,2024-12-07 23:55,23:55,EST,SW  7,10.0,Fair,CLR,35.6,19.4,52.0,31.0,,29.93,0.0,0.0,0.0,0.0,2024-12-10,12,2024,23,KOKV,0.0,0.0,0.0,0.0,7
2024-12-08,8,2024-12-08 00:55,00:55,EST,SW  7,10.0,Fair,CLR,35.6,19.4,52.0,31.0,,29.9,0.0,0.0,0.0,0.0,2024-12-11,12,2024,0,KOKV,0.0,0.0,0.0,0.0,7
2024-12-08,8,2024-12-08 01:55,01:55,EST,SW  7,10.0,Fair,CLR,37.4,19.4,48.0,33.0,,29.88,0.0,0.0,0.0,0.0,2024-12-11,12,2024,1,KOKV,0.0,0.0,0.0,0.0,7
2024-12-08,8,2024-12-08 02:55,02:55,EST,SW  9  G 16,10.0,Fair,CLR,41.0,21.2,45.0,36.0,,29.88,0.0,0.0,0.0,0.0,2024-12-11,12,2024,2,KOKV,0.0,0.0,0.0,0.0,9
2024-12-08,8,2024-12-08 03:55,03:55,EST,SW  12,10.0,Fair,CLR,42.8,23.0,46.0,37.0,,29.87,0.0,0.0,0.0,0.0,2024-12-11,12,2024,3,KOKV,0.0,0.0,0.0,0.0,12
2024-12-08,8,2024-12-08 04:55,04:55,EST,SW  12,10.0,Fair,CLR,42.8,24.8,49.0,37.0,,29.86,0.0,0.0,0.0,0.0,2024-12-11,12,2024,4,KOKV,0.0,0.0,0.0,0.0,12
2024-12-08,8,2024-12-08 05:55,05:55,EST,S  5,10.0,Fair,CLR,39.2,24.8,56.0,36.0,,29.84,0.0,0.0,0.0,0.0,2024-12-11,12,2024,5,KOKV,0.0,0.0,0.0,0.0,5
2024-12-08,8,2024-12-08 06:55,06:55,EST,SW  9,10.0,Fair,CLR,41.0,26.6,57.0,36.0,,29.83,0.0,0.0,0.0,0.0,2024-12-11,12,2024,6,KOKV,0.0,0.0,0.0,0.0,9
2024-12-08,8,2024-12-08 07:55,07:55,EST,SW  6,10.0,Fair,CLR,41.0,26.6,57.0,38.0,,29.84,0.0,0.0,0.0,0.0,2024-12-11,12,2024,7,KOKV,0.0,0.0,0.0,0.0,6
2024-12-08,8,2024-12-08 08:35,08:35,EST,SW  9,10.0,Fair,CLR,42.8,26.6,53.0,38.0,,29.84,0.0,0.0,0.0,0.0,2024-12-11,12,2024,8,KOKV,0.0,0.0,0.0,0.0,9
2024-12-08,8,2024-12-08 09:35,09:35,EST,SW  10,10.0,Fair,CLR,48.2,28.4,46.0,44.0,,29.86,0.0,0.0,0.0,0.0,2024-12-11,12,2024,9,KOKV,0.0,0.0,0.0,0.0,10
2024-12-08,8,2024-12-08 10:55,10:55,EST,SW  10,10.0,Fair,CLR,53.6,28.4,38.0,,,29.87,0.0,0.0,0.0,0.0,2024-12-11,12,2024,10,KOKV,0.0,0.0,0.0,0.0,10
2024-12-08,8,2024-12-08 11:55,11:55,EST,SW  7,10.0,Fair,CLR,55.4,30.2,38.0,,,29.86,0.0,0.0,0.0,0.0,2024-12-11,12,2024,11,KOKV,0.0,0.0,0.0,0.0,7
2024-12-08,8,2024-12-08 12:55,12:55,EST,SW  8,10.0,Fair,CLR,59.0,30.2,34.0,,,29.85,0.0,0.0,0.0,0.0,2024-12-11,12,2024,12,KOKV,0.0,0.0,0.0,0.0,8
2024-12-08,8,2024-12-08 13:55,13:55,EST,W  15  G 18,10.0,Fair,CLR,60.8,32.0,34.0,,,29.85,0.0,0.0,0.0,0.0,2024-12-11,12,2024,13,KOKV,0.0,0.0,0.0,0.0,15
2024-12-08,8,2024-12-08 14:55,14:55,EST,W  14  G 22,10.0,Fair,CLR,60.8,32.0,34.0,,,29.86,0.0,0.0,0.0,0.0,2024-12-11,12,2024,14,KOKV,0.0,0.0,0.0,0.0,14
2024-12-08,8,2024-12-08 15:55,15:55,EST,W  14  G 25,10.0,Fair,CLR,60.8,32.0,34.0,,,29.88,0.0,0.0,0.0,0.0,2024-12-11,12,2024,15,KOKV,0.0,0.0,0.0,0.0,14
2024-12-08,8,2024-12-08 16:55,16:55,EST,W  12,10.0,Fair,CLR,59.0,32.0,36.0,,,29.91,0.0,0.0,0.0,0.0,2024-12-11,12,2024,16,KOKV,0.0,0.0,0.0,0.0,12
2024-12-08,8,2024-12-08 17:55,17:55,EST,W  10,10.0,Fair,CLR,55.4,32.0,41.0,,,29.92,0.0,0.0,0.0,0.0,2024-12-11,12,2024,17,KOKV,0.0,0.0,0.0,0.0,10
2024-12-08,8,2024-12-08 18:55,18:55,EST,Calm,10.0,Fair,CLR,50.0,32.0,50.0,,,29.95,0.0,0.0,0.0,0.0,2024-12-11,12,2024,18,KOKV,0.0,0.0,0.0,0.0,0
2024-12-08,8,2024-12-08 19:55,19:55,EST,W  5,10.0,Fair,CLR,46.4,32.0,57.0,45.0,,29.95,0.0,0.0,0.0,0.0,2024-12-11,12,2024,19,KOKV,0.0,0.0,0.0,0.0,5
2024-12-08,8,2024-12-08 20:55,20:55,EST,Calm,10.0,Fair,CLR,46.4,32.0,57.0,,,29.96,0.0,0.0,0.0,0.0,2024-12-11,12,2024,20,KOKV,0.0,0.0,0.0,0.0,0
2024-12-08,8,2024-12-08 21:55,21:55,EST,Calm,10.0,Fair,CLR,41.0,30.2,66.0,,,29.96,0.0,0.0,0.0,0.0,2024-12-11,12,2024,21,KOKV,0.0,0.0,0.0,0.0,0
2024-12-08,8,2024-12-08 22:55,22:55,EST,Calm,10.0,Fair,CLR,42.8,32.0,66.0,,,29.96,0.0,0.0,0.0,0.0,2024-12-11,12,2024,22,KOKV,0.0,0.0,0.0,0.0,0
2024-12-08,8,2024-12-08 23:55,23:55,EST,Calm,10.0,Fair,CLR,39.2,32.0,75.0,,,29.95,0.0,0.0,0.0,0.0,2024-12-11,12,2024,23,KOKV,0.0,0.0,0.0,0.0,0
2024-12-09,9,2024-12-09 00:55,00:55,EST,Calm,10.0,Fair,CLR,37.4,32.0,81.0,,,29.93,0.0,0.0,0.0,0.0,2024-12-12,12,2024,0,KOKV,0.0,0.0,0.0,0.0,0
2024-12-09,9,2024-12-09 01:55,01:55,EST,Calm,10.0,Fair,CLR,37.4,32.0,81.0,,,29.94,0.0,0.0,0.0,0.0,2024-12-12,12,2024,1,KOKV,0.0,0.0,0.0,0.0,0
2024-12-09,9,2024-12-09 02:55,02:55,EST,S  3,10.0,Fair,CLR,41.0,33.8,76.0,,,29.94,0.0,0.0,0.0,0.0,2024-12-12,12,2024,2,KOKV,0.0,0.0,0.0,0.0,3
2024-12-09,9,2024-12-09 03:55,03:55,EST,SE  3,10.0,Mostly Cloudy,BKN100,37.4,33.8,87.0,,,29.93,0.0,0.0,0.0,0.0,2024-12-12,12,2024,3,KOKV,0.0,0.0,0.0,0.0,3
2024-12-09,9,2024-12-09 04:55,04:55,EST,SW  5,10.0,Fair,CLR,44.6,37.4,76.0,43.0,,29.91,0.0,0.0,0.0,0.0,2024-12-12,12,2024,4,KOKV,0.0,0.0,0.0,0.0,5
2024-12-09,9,2024-12-09 05:55,05:55,EST,Calm,10.0,Mostly Cloudy,SCT080 BKN120,41.0,35.6,81.0,,,29.89,0.0,0.0,0.0,0.0,2024-12-12,12,2024,5,KOKV,0.0,0.0,0.0,0.0,0
2024-12-09,9,2024-12-09 06:55,06:55,EST,SW  6,10.0,Overcast,SCT060 SCT075 OVC090,46.4,37.4,71.0,44.0,,29.91,0.0,0.0,0.0,0.0,2024-12-12,12,2024,6,KOKV,0.0,0.0,0.0,0.0,6
2024-12-09,9,2024-12-09 07:55,07:55,EST,Calm,5.0,Overcast,BKN038 OVC050,44.6,41.0,87.0,,,29.9,0.0,0.0,0.0,0.0,2024-12-12,12,2024,7,KOKV,0.0,0.0,0.0,0.0,0
2024-12-09,9,2024-12-09 08:35,08:35,EST,SE  5,5.0,Overcast,BKN035 BKN044 OVC085,42.8,41.0,93.0,41.0,,29.9,0.0,0.0,0.0,0.0,2024-12-12,12,2024,8,KOKV,0.0,0.0,0.0,0.0,5
2024-12-09,9,2024-12-09 09:55,09:55,EST,Calm,5.0,Overcast,SCT025 SCT048 OVC065,44.6,42.8,93.0,,,29.87,0.0,0.0,0.0,0.0,2024-12-12,12,2024,9,KOKV,0.0,0.0,0.0,0.0,0
2024-12-09,9,2024-12-09 10:55,10:55,EST,S  5,10.0,Overcast,SCT065 BKN080 OVC110,48.2,46.4,94.0,47.0,,29.85,0.0,0.0,0.0,0.0,2024-12-12,12,2024,10,KOKV,0.0,0.0,0.0,0.0,5
2024-12-09,9,2024-12-09 11:55,11:55,EST,S  6,10.0,Overcast,SCT007 BKN100 OVC120,53.6,50.0,88.0,,,29.81,0.0,0.0,0.0,0.0,2024-12-12,12,2024,11,KOKV,0.0,0.0,0.0,0.0,6
2024-12-09,9,2024-12-09 12:55,12:55,EST,SW  10  G 18,10.0,Partly Cloudy,SCT110,57.2,50.0,77.0,,,29.81,0.0,0.0,0.0,0.0,2024-12-12,12,2024,12,KOKV,0.0,0.0,0.0,0.0,10
2024-12-09,9,2024-12-09 13:55,13:55,EST,SW  9,10.0,Overcast,SCT049 OVC060,59.0,50.0,72.0,,,29.8,0.0,0.0,0.0,0.0,2024-12-12,12,2024,13,KOKV,0.0,0.0,0.0,0.0,9
2024-12-09,9,2024-12-09 14:55,14:55,EST,W  6,10.0,Partly Cloudy,SCT047,62.6,50.0,64.0,,,29.82,0.0,0.0,0.0,0.0,2024-12-12,12,2024,14,KOKV,0.0,0.0,0.0,0.0,6
2024-12-09,9,2024-12-09 15:55,15:55,EST,Calm,10.0,Fair,CLR,60.8,50.0,68.0,,,29.83,0.0,0.0,0.0,0.0,2024-12-12,12,2024,15,KOKV,0.0,0.0,0.0,0.0,0
2024-12-09,9,2024-12-09 16:55,16:55,EST,NE  5,10.0,Overcast,SCT060 OVC065,53.6,50.0,88.0,,,29.86,0.0,0.0,0.0,0.0,2024-12-12,12,2024,16,KOKV,0.0,0.0,0.0,0.0,5
2024-12-09,9,2024-12-09 17:55,17:55,EST,Calm,10.0,Mostly Cloudy,BKN070,51.8,48.2,88.0,,,29.89,0.0,0.0,0.0,0.0,2024-12-12,12,2024,17,KOKV,0.0,0.0,0.0,0.0,0
2024-12-09,9,2024-12-09 18:55,18:55,EST,Calm,5.0,Mostly Cloudy,BKN070,46.4,44.6,93.0,,,29.9,0.0,0.0,0.0,0.0,2024-12-12,12,2024,18,KOKV,0.0,0.0,0.0,0.0,0
2024-12-09,9,2024-12-09 19:55,19:55,EST,Calm,10.0,Overcast,OVC070,50.0,46.4,88.0,,,29.92,0.0,0.0,0.0,0.0,2024-12-12,12,2024,19,KOKV,0.0,0.0,0.0,0.0,0
2024-12-09,9,2024-12-09 20:55,20:55,EST,Calm,10.0,Mostly Cloudy,BKN060,46.4,46.4,100.0,,,29.92,0.0,0.0,0.0,0.0,2024-12-12,12,2024,20,KOKV,0.0,0.0,0.0,0.0,0
2024-12-09,9,2024-12-09 21:55,21:55,EST,Calm,10.0,Overcast,OVC060,46.4,44.6,93.0,,,29.93,0.0,0.0,0.0,0.0,2024-12-12,12,2024,21,KOKV,0.0,0.0,0.0,0.0,0
2024-12-09,9,2024-12-09 22:55,22:55,EST,Calm,10.0,Overcast,OVC060,46.4,44.6,93.0,,,29.94,0.0,0.0,0.0,0.0,2024-12-12,12,2024,22,KOKV,0.0,0.0,0.0,0.0,0
2024-12-09,9,2024-12-09 23:55,23:55,EST,Calm,10.0,Fair,CLR,46.4,42.8,87.0,,,29.95,0.0,0.0,0.0,0.0,2024-12-12,12,2024,23,KOKV,0.0,0.0,0.0,0.0,0
2024-12-10,10,2024-12-10 00:55,00:55,EST,SW  5,10.0,Mostly Cloudy,SCT050 BKN065,46.4,42.8,87.0,45.0,,29.95,0.0,0.0,0.0,0.0,2024-12-13,12,2024,0,KOKV,0.0,0.0,0.0,0.0,5
2024-12-10,10,2024-12-10 01:55,01:55,EST,SW  3,10.0,Overcast,SCT050 OVC065,50.0,44.6,82.0,,,29.95,0.0,0.0,0.0,0.0,2024-12-13,12,2024,1,KOKV,0.0,0.0,0.0,0.0,3
2024-12-10,10,2024-12-10 02:55,02:55,EST,SW  3,10.0,Mostly Cloudy,BKN065,50.0,44.6,82.0,,,29.96,0.0,0.0,0.0,0.0,2024-12-13,12,2024,2,KOKV,0.0,0.0,0.0,0.0,3
2024-12-10,10,2024-12-10 03:55,03:55,EST,SW  3,10.0,Fair,CLR,44.6,42.8,93.0,,,29.94,0.0,0.0,0.0,0.0,2024-12-13,12,2024,3,KOKV,0.0,0.0,0.0,0.0,3
2024-12-10,10,2024-12-10 04:55,04:55,EST,W  3,10.0,Fair,CLR,46.4,42.8,87.0,,,29.95,0.0,0.0,0.0,0.0,2024-12-13,12,2024,4,KOKV,0.0,0.0,0.0,0.0,3
2024-12-10,10,2024-12-10 05:55,05:55,EST,Calm,7.0,Fair,CLR,42.8,41.0,93.0,,,29.95,0.0,0.0,0.0,0.0,2024-12-13,12,2024,5,KOKV,0.0,0.0,0.0,0.0,0
2024-12-10,10,2024-12-10 06:55,06:55,EST,Calm,0.5,Mostly Cloudy,BKN003 BKN060,39.2,37.4,93.0,,,29.97,0.0,0.0,0.0,0.0,2024-12-13,12,2024,6,KOKV,0.0,0.0,0.0,0.0,0
2024-12-10,10,2024-12-10 07:55,07:55,EST,Calm,7.0,Overcast,OVC060,41.0,41.0,100.0,,,29.98,0.0,0.0,0.0,0.0,2024-12-13,12,2024,7,KOKV,0.0,0.0,0.0,0.0,0
2024-12-10,10,2024-12-10 08:55,08:55,EST,S  3,10.0,Fair,CLR,48.2,44.6,87.0,,,29.98,0.0,0.0,0.0,0.0,2024-12-13,12,2024,8,KOKV,0.0,0.0,0.0,0.0,3
2024-12-10,10,2024-12-10 09:55,09:55,EST,Calm,10.0,Fair,CLR,51.8,44.6,77.0,,,29.98,0.0,0.0,0.0,0.0,2024-12-13,12,2024,9,KOKV,0.0,0.0,0.0,0.0,0
2024-12-10,10,2024-12-10 10:55,10:55,EST,S  3,10.0,Fair,CLR,55.4,46.4,72.0,,,29.96,0.0,0.0,0.0,0.0,2024-12-13,12,2024,10,KOKV,0.0,0.0,0.0,0.0,3
2024-12-10,10,2024-12-10 11:55,11:55,EST,Calm,10.0,Mostly Cloudy,BKN110,55.4,46.4,72.0,,,29.92,0.0,0.0,0.0,0.0,2024-12-13,12,2024,11,KOKV,0.0,0.0,0.0,0.0,0
2024-12-10,10,2024-12-10 12:55,12:55,EST,E  6,10.0,Overcast,OVC080,55.4,46.4,72.0,,,29.9,0.0,0.0,0.0,0.0,2024-12-13,12,2024,12,KOKV,0.0,0.0,0.0,0.0,6
2024-12-10,10,2024-12-10 13:55,13:55,EST,E  7,10.0,Overcast,BKN065 BKN075 OVC090,51.8,46.4,82.0,,,29.89,0.0,0.0,0.0,0.0,2024-12-13,12,2024,13,KOKV,0.0,0.0,0.0,0.0,7
2024-12-10,10,2024-12-10 14:55,14:55,EST,E  5,10.0,Overcast,SCT060 OVC075,50.0,44.6,82.0,49.0,,29.88,0.0,0.0,0.0,0.0,2024-12-13,12,2024,14,KOKV,0.0,0.0,0.0,0.0,5
2024-12-10,10,2024-12-10 15:55,15:55,EST,E  5,10.0,Mostly Cloudy,SCT005 SCT035 BKN085,48.2,46.4,94.0,47.0,,29.88,0.0,0.0,0.0,0.0,2024-12-13,12,2024,15,KOKV,0.0,0.0,0.0,0.0,5
2024-12-10,10,2024-12-10 16:55,16:55,EST,Calm,5.0,Partly Cloudy,SCT005,46.4,44.6,93.0,,,29.88,0.0,0.0,0.0,0.0,2024-12-13,12,2024,16,KOKV,0.0,0.0,0.0,0.0,0
2024-12-10,10,2024-12-10 17:55,17:55,EST,Calm,5.0,Partly Cloudy,SCT029,44.6,42.8,93.0,,,29.87,0.0,0.0,0.0,0.0,2024-12-13,12,2024,17,KOKV,0.0,0.0,0.0,0.0,0
2024-12-10,10,2024-12-10 18:55,18:55,EST,Calm,7.0,Fair,CLR,44.6,44.6,100.0,,,29.86,0.0,0.0,0.0,0.0,2024-12-13,12,2024,18,KOKV,0.0,0.0,0.0,0.0,0
2024-12-10,10,2024-12-10 19:55,19:55,EST,Calm,7.0,Fair,CLR,44.6,44.6,100.0,,,29.86,0.0,0.0,0.0,0.0,2024-12-13,12,2024,19,KOKV,0.0,0.0,0.0,0.0,0
2024-12-10,10,2024-12-10 20:55,20:55,EST,SE  3,10.0,Overcast,OVC090,46.4,46.4,100.0,,,29.84,0.0,0.0,0.0,0.0,2024-12-13,12,2024,20,KOKV,0.0,0.0,0.0,0.0,3
2024-12-10,10,2024-12-10 21:55,21:55,EST,Calm,10.0,Overcast,BKN030 OVC043,50.0,48.2,94.0,,,29.83,0.0,0.0,0.0,0.0,2024-12-13,12,2024,21,KOKV,0.0,0.0,0.0,0.0,0
2024-12-10,10,2024-12-10 22:55,22:55,EST,Calm,7.0,Mostly Cloudy,BKN021 BKN026 BKN095,46.4,46.4,100.0,,,29.81,0.0,0.0,0.0,0.0,2024-12-13,12,2024,22,KOKV,0.0,0.0,0.0,0.0,0
2024-12-10,10,2024-12-10 23:55,23:55,EST,NW  5,5.0,Partly Cloudy,SCT026 SCT120,46.4,46.4,100.0,45.0,,29.78,0.0,0.0,0.0,0.0,2024-12-13,12,2024,23,KOKV,0.0,0.0,0.0,0.0,5
2024-12-11,11,2024-12-11 00:55,00:55,EST,Calm,5.0,Overcast,BKN100 OVC120,46.4,46.4,100.0,,,29.76,0.0,0.0,0.0,0.0,2024-12-14,12,2024,0,KOKV,0.0,0.0,0.0,0.0,0
2024-12-11,11,2024-12-11 01:55,01:55,EST,N  3,5.0,Overcast,SCT038 BKN046 OVC070,48.2,46.4,94.0,,,29.73,0.0,0.0,0.0,0.0,2024-12-14,12,2024,1,KOKV,0.0,0.0,0.0,0.0,3
2024-12-11,11,2024-12-11 02:55,02:55,EST,Calm,4.0,Overcast,SCT034 BKN047 OVC100,46.4,46.4,100.0,,,29.71,0.0,0.0,0.0,0.0,2024-12-14,12,2024,2,KOKV,0.0,0.0,0.0,0.0,0
2024-12-11,11,2024-12-11 03:55,03:55,EST,Calm,3.0,Overcast,OVC100,48.2,46.4,94.0,,,29.67,0.0,0.0,0.0,0.0,2024-12-14,12,2024,3,KOKV,0.0,0.0,0.0,0.0,0
2024-12-11,11,2024-12-11 04:55,04:55,EST,NW  6,2.0,Overcast,SCT002 SCT019 OVC024,50.0,48.2,94.0,48.0,,29.67,0.0,0.0,0.0,0.0,2024-12-14,12,2024,4,KOKV,0.0,0.0,0.0,0.0,6
2024-12-11,11,2024-12-11 05:55,05:55,EST,NW  3,4.0,Overcast,SCT005 BKN017 OVC023,50.0,50.0,100.0,,,29.64,0.0,0.0,0.0,0.0,2024-12-14,12,2024,5,KOKV,0.0,0.0,0.0,0.0,3
2024-12-11,11,2024-12-11 06:55,06:55,EST,E  3,4.0,Overcast,SCT013 BKN022 OVC034,51.8,50.0,94.0,,,0.0,0.0,0.0,0.0,0.0,2024-12-14,12,2024,6,KOKV,0.0,0.0,0.0,0.0,3
2024-12-11,11,2024-12-11 07:55,07:55,EST,Calm,3.0,Overcast,OVC020,51.8,50.0,94.0,,,0.0,0.0,0.0,0.0,0.0,2024-12-14,12,2024,7,KOKV,0.0,0.0,0.0,0.0,0
2024-12-11,11,2024-12-11 08:55,08:55,EST,W  10,4.0,Overcast,SCT008 BKN014 OVC022,50.0,50.0,100.0,46.0,,29.66,0.0,0.0,0.0,0.0,2024-12-14,12,2024,8,KOKV,0.0,0.0,0.0,0.0,10
2024-12-11,11,2024-12-11 09:55,09:55,EST,NW  8,7.0,Overcast,SCT019 OVC029,50.0,46.4,88.0,47.0,,29.61,0.0,0.0,0.0,0.0,2024-12-14,12,2024,9,KOKV,0.0,0.0,0.0,0.0,8
2024-12-11,11,2024-12-11 10:55,10:55,EST,Calm,5.0,Overcast,SCT007 BKN040 OVC065,50.0,48.2,94.0,,,29.59,0.0,0.0,0.0,0.0,2024-12-14,12,2024,10,KOKV,0.0,0.0,0.0,0.0,0
2024-12-11,11,2024-12-11 11:55,11:55,EST,N  5,10.0,Overcast,OVC006,48.2,48.2,100.0,47.0,,0.0,0.0,0.0,0.0,0.0,2024-12-14,12,2024,11,KOKV,0.0,0.0,0.0,0.0,5
2024-12-11,11,2024-12-11 12:55,12:55,EST,NW  10  G 18,2.5,Overcast,SCT011 BKN031 OVC041,46.4,46.4,100.0,42.0,,29.52,0.0,0.0,0.0,0.0,2024-12-14,12,2024,12,KOKV,0.0,0.0,0.0,0.0,10
2024-12-11,11,2024-12-11 13:55,13:55,EST,NW  21  G 33,5.0,Overcast and Breezy,BKN013 BKN020 OVC055,44.6,41.0,87.0,37.0,,0.0,0.0,0.0,0.0,0.0,2024-12-14,12,2024,13,KOKV,0.0,0.0,0.0,0.0,21
2024-12-11,11,2024-12-11 14:55,14:55,EST,NW  21  G 28,10.0,Overcast and Breezy,SCT049 BKN070 OVC075,39.2,35.6,87.0,30.0,,29.59,0.0,0.0,0.0,0.0,2024-12-14,12,2024,14,KOKV,0.0,0.0,0.0,0.0,21
2024-12-11,11,2024-12-11 15:55,15:55,EST,NW  18  G 25,10.0,Overcast,SCT028 OVC055,39.2,33.8,81.0,31.0,,0.0,0.0,0.0,0.0,0.0,2024-12-14,12,2024,15,KOKV,0.0,0.0,0.0,0.0,18
2024-12-11,11,2024-12-11 16:55,16:55,EST,W  16  G 22,10.0,Overcast,OVC030,39.2,32.0,75.0,31.0,,0.0,0.0,0.0,0.0,0.0,2024-12-14,12,2024,16,KOKV,0.0,0.0,0.0,0.0,16
2024-12-11,11,2024-12-11 17:35,17:35,EST,W  17  G 26,10.0,Overcast,SCT034 BKN042 OVC100,37.4,28.4,70.0,29.0,,0.0,0.0,0.0,0.0,0.0,2024-12-14,12,2024,17,KOKV,0.0,0.0,0.0,0.0,17
2024-12-11,11,2024-12-11 18:55,18:55,EST,NW  18  G 29,10.0,Overcast,BKN042 OVC048,35.6,26.6,70.0,26.0,,29.77,0.0,0.0,0.0,0.0,2024-12-14,12,2024,18,KOKV,0.0,0.0,0.0,0.0,18
2024-12-11,11,2024-12-11 19:55,19:55,EST,W  21  G 25,10.0,Overcast and Breezy,BKN040 OVC046,33.8,24.8,70.0,23.0,,29.84,0.0,0.0,0.0,0.0,2024-12-14,12,2024,19,KOKV,0.0,0.0,0.0,0.0,21
2024-12-11,11,2024-12-11 20:55,20:55,EST,W  17  G 33,10.0,Mostly Cloudy,BKN042,33.8,21.2,60.0,24.0,,29.89,0.0,0.0,0.0,0.0,2024-12-14,12,2024,20,KOKV,0.0,0.0,0.0,0.0,17
2024-12-11,11,2024-12-11 21:55,21:55,EST,W  20  G 43,10.0,Overcast,BKN041 OVC047,32.0,21.2,64.0,21.0,,29.94,0.0,0.0,0.0,0.0,2024-12-14,12,2024,21,KOKV,0.0,0.0,0.0,0.0,20
2024-12-11,11,2024-12-11 22:55,22:55,EST,W  10  G 24,10.0,Mostly Cloudy,BKN043,32.0,19.4,60.0,24.0,,29.95,0.0,0.0,0.0,0.0,2024-12-14,12,2024,22,KOKV,0.0,0.0,0.0,0.0,10
2024-12-11,11,2024-12-11 23:55,23:55,EST,W  9,10.0,Partly Cloudy,SCT055,32.0,19.4,60.0,25.0,,29.95,0.0,0.0,0.0,0.0,2024-12-14,12,2024,23,KOKV,0.0,0.0,0.0,0.0,9
2024-12-12,12,2024-12-12 00:55,00:55,EST,SW  5,10.0,Partly Cloudy,SCT047,32.0,19.4,60.0,28.0,,29.96,0.0,0.0,0.0,0.0,2024-12-15,12,2024,0,KOKV,0.0,0.0,0.0,0.0,5
2024-12-12,12,2024-12-12 01:55,01:55,EST,W  12,10.0,Overcast,SCT048 OVC060,32.0,21.2,64.0,24.0,,29.98,0.0,0.0,0.0,0.0,2024-12-15,12,2024,1,KOKV,0.0,0.0,0.0,0.0,12
2024-12-12,12,2024-12-12 02:55,02:55,EST,SW  8,10.0,Overcast,BKN050 OVC060,33.8,21.2,60.0,28.0,,30.01,0.0,0.0,0.0,0.0,2024-12-15,12,2024,2,KOKV,0.0,0.0,0.0,0.0,8
2024-12-12,12,2024-12-12 03:55,03:55,EST,W  8,10.0,Mostly Cloudy,SCT049 BKN060,32.0,23.0,69.0,25.0,,30.03,0.0,0.0,0.0,0.0,2024-12-15,12,2024,3,KOKV,0.0,0.0,0.0,0.0,8
2024-12-12,12,2024-12-12 04:55,04:55,EST,W  12  G 26,10.0,Overcast,SCT048 OVC050,33.8,17.6,51.0,26.0,,30.04,0.0,0.0,0.0,0.0,2024-12-15,12,2024,4,KOKV,0.0,0.0,0.0,0.0,12
2024-12-12,12,2024-12-12 05:55,05:55,EST,SW  6,10.0,Overcast,OVC060,32.0,17.6,55.0,27.0,,30.07,0.0,0.0,0.0,0.0,2024-12-15,12,2024,5,KOKV,0.0,0.0,0.0,0.0,6
2024-12-12,12,2024-12-12 06:55,06:55,EST,SW  6,10.0,Mostly Cloudy,BKN060,32.0,17.6,55.0,27.0,,30.1,0.0,0.0,0.0,0.0,2024-12-15,12,2024,6,KOKV,0.0,0.0,0.0,0.0,6
2024-12-12,12,2024-12-12 07:35,07:35,EST,S  5,10.0,Mostly Cloudy,BKN060,32.0,17.6,55.0,28.0,,30.13,0.0,0.0,0.0,0.0,2024-12-15,12,2024,7,KOKV,0.0,0.0,0.0,0.0,5
2024-12-12,12,2024-12-12 08:55,08:55,EST,W  5,10.0,Fair,CLR,33.8,17.6,51.0,30.0,,30.16,0.0,0.0,0.0,0.0,2024-12-15,12,2024,8,KOKV,0.0,0.0,0.0,0.0,5
2024-12-12,12,2024-12-12 09:55,09:55,EST,SW  10,10.0,Fair,CLR,35.6,15.8,44.0,29.0,,30.19,0.0,0.0,0.0,0.0,2024-12-15,12,2024,9,KOKV,0.0,0.0,0.0,0.0,10
2024-12-12,12,2024-12-12 10:55,10:55,EST,W  17,10.0,Fair,CLR,37.4,8.6,30.0,29.0,,30.21,0.0,0.0,0.0,0.0,2024-12-15,12,2024,10,KOKV,0.0,0.0,0.0,0.0,17
2024-12-12,12,2024-12-12 11:55,11:55,EST,W  14  G 22,10.0,Fair,CLR,37.4,5.0,26.0,30.0,,30.21,0.0,0.0,0.0,0.0,2024-12-15,12,2024,11,KOKV,0.0,0.0,0.0,0.0,14
2024-12-12,12,2024-12-12 12:55,12:55,EST,W  14  G 24,10.0,Fair,CLR,37.4,5.0,26.0,30.0,,30.22,0.0,0.0,0.0,0.0,2024-12-15,12,2024,12,KOKV,0.0,0.0,0.0,0.0,14
2024-12-12,12,2024-12-12 13:55,13:55,EST,W  17  G 23,10.0,Fair,CLR,39.2,6.8,26.0,31.0,,30.23,0.0,0.0,0.0,0.0,2024-12-15,12,2024,13,KOKV,0.0,0.0,0.0,0.0,17
2024-12-12,12,2024-12-12 14:55,14:55,EST,W  12  G 20,10.0,Fair,CLR,37.4,5.0,26.0,30.0,,30.25,0.0,0.0,0.0,0.0,2024-12-15,12,2024,14,KOKV,0.0,0.0,0.0,0.0,12
2024-12-12,12,2024-12-12 15:55,15:55,EST,W  12  G 17,10.0,Fair,CLR,37.4,6.8,28.0,30.0,,30.28,0.0,0.0,0.0,0.0,2024-12-15,12,2024,15,KOKV,0.0,0.0,0.0,0.0,12
2024-12-12,12,2024-12-12 16:55,16:55,EST,NW  8,10.0,Fair,CLR,32.0,10.4,40.0,25.0,,30.31,0.0,0.0,0.0,0.0,2024-12-15,12,2024,16,KOKV,0.0,0.0,0.0,0.0,8
2024-12-12,12,2024-12-12 17:55,17:55,EST,NW  5,10.0,Fair,CLR,32.0,10.4,40.0,28.0,,30.34,0.0,0.0,0.0,0.0,2024-12-15,12,2024,17,KOKV,0.0,0.0,0.0,0.0,5
2024-12-12,12,2024-12-12 18:55,18:55,EST,NW  3,10.0,Fair,CLR,32.0,10.4,40.0,,,30.37,0.0,0.0,0.0,0.0,2024-12-15,12,2024,18,KOKV,0.0,0.0,0.0,0.0,3
2024-12-12,12,2024-12-12 19:55,19:55,EST,NW  6,10.0,Fair,CLR,32.0,8.6,37.0,27.0,,30.38,0.0,0.0,0.0,0.0,2024-12-15,12,2024,19,KOKV,0.0,0.0,0.0,0.0,6
2024-12-12,12,2024-12-12 20:55,20:55,EST,N  5,10.0,Fair,CLR,32.0,8.6,37.0,28.0,,30.39,0.0,0.0,0.0,0.0,2024-12-15,12,2024,20,KOKV,0.0,0.0,0.0,0.0,5
2024-12-12,12,2024-12-12 21:55,21:55,EST,S  5,10.0,Fair,CLR,26.6,12.2,54.0,22.0,,30.4,0.0,0.0,0.0,0.0,2024-12-15,12,2024,21,KOKV,0.0,0.0,0.0,0.0,5
2024-12-12,12,2024-12-12 22:55,22:55,EST,Calm,10.0,Fair,CLR,26.6,14.0,59.0,,,30.42,0.0,0.0,0.0,0.0,2024-12-15,12,2024,22,KOKV,0.0,0.0,0.0,0.0,0
2024-12-12,12,2024-12-12 23:55,23:55,EST,Calm,10.0,Fair,CLR,24.8,14.0,63.0,,,30.43,0.0,0.0,0.0,0.0,2024-12-15,12,2024,23,KOKV,0.0,0.0,0.0,0.0,0
2024-12-13,13,2024-12-13 00:55,00:55,EST,Calm,10.0,Mostly Cloudy,BKN065,26.6,14.0,59.0,,,30.44,0.0,0.0,0.0,0.0,2024-12-16,12,2024,0,KOKV,0.0,0.0,0.0,0.0,0
2024-12-13,13,2024-12-13 01:55,01:55,EST,Calm,10.0,Overcast,OVC065,24.8,14.0,63.0,,,30.45,0.0,0.0,0.0,0.0,2024-12-16,12,2024,1,KOKV,0.0,0.0,0.0,0.0,0
2024-12-13,13,2024-12-13 02:55,02:55,EST,Calm,10.0,Mostly Cloudy,BKN065,23.0,17.6,80.0,,,30.47,0.0,0.0,0.0,0.0,2024-12-16,12,2024,2,KOKV,0.0,0.0,0.0,0.0,0
2024-12-13,13,2024-12-13 03:55,03:55,EST,Calm,10.0,Overcast,OVC065,26.6,21.2,80.0,,,30.48,0.0,0.0,0.0,0.0,2024-12-16,12,2024,3,KOKV,0.0,0.0,0.0,0.0,0
2024-12-13,13,2024-12-13 04:55,04:55,EST,Calm,10.0,Overcast,OVC065,28.4,21.2,74.0,,,30.49,0.0,0.0,0.0,0.0,2024-12-16,12,2024,4,KOKV,0.0,0.0,0.0,0.0,0
2024-12-13,13,2024-12-13 05:55,05:55,EST,Calm,10.0,Overcast,OVC055,28.4,19.4,69.0,,,30.52,0.0,0.0,0.0,0.0,2024-12-16,12,2024,5,KOKV,0.0,0.0,0.0,0.0,0
2024-12-13,13,2024-12-13 06:55,06:55,EST,NE  3,10.0,Overcast,OVC055,28.4,15.8,59.0,,,30.55,0.0,0.0,0.0,0.0,2024-12-16,12,2024,6,KOKV,0.0,0.0,0.0,0.0,3
2024-12-13,13,2024-12-13 07:55,07:55,EST,NE  3,10.0,Overcast,OVC055,28.4,12.2,51.0,,,30.58,0.0,0.0,0.0,0.0,2024-12-16,12,2024,7,KOKV,0.0,0.0,0.0,0.0,3
2024-12-13,13,2024-12-13 08:55,08:55,EST,Calm,10.0,Overcast,OVC055,28.4,12.2,51.0,,,30.61,0.0,0.0,0.0,0.0,2024-12-16,12,2024,8,KOKV,0.0,0.0,0.0,0.0,0
2024-12-13,13,2024-12-13 09:55,09:55,EST,N  3,10.0,Overcast,OVC055,30.2,12.2,47.0,,,30.64,0.0,0.0,0.0,0.0,2024-12-16,12,2024,9,KOKV,0.0,0.0,0.0,0.0,3
2024-12-13,13,2024-12-13 10:55,10:55,EST,NE  5,10.0,Overcast,OVC055,30.2,14.0,51.0,26.0,,30.65,0.0,0.0,0.0,0.0,2024-12-16,12,2024,10,KOKV,0.0,0.0,0.0,0.0,5
2024-12-13,13,2024-12-13 11:35,11:35,EST,NE  3,10.0,Overcast,OVC055,32.0,14.0,47.0,,,30.64,0.0,0.0,0.0,0.0,2024-12-16,12,2024,11,KOKV,0.0,0.0,0.0,0.0,3
2024-12-13,13,2024-12-13 12:55,12:55,EST,NE  5,10.0,Overcast,OVC055,32.0,14.0,47.0,28.0,,30.63,0.0,0.0,0.0,0.0,2024-12-16,12,2024,12,KOKV,0.0,0.0,0.0,0.0,5
2024-12-13,13,2024-12-13 13:55,13:55,EST,NE  3,10.0,Overcast,OVC055,32.0,14.0,47.0,,,30.62,0.0,0.0,0.0,0.0,2024-12-16,12,2024,13,KOKV,0.0,0.0,0.0,0.0,3
2024-12-13,13,2024-12-13 14:55,14:55,EST,NE  3,10.0,Overcast,OVC055,32.0,15.8,51.0,,,30.63,0.0,0.0,0.0,0.0,2024-12-16,12,2024,14,KOKV,0.0,0.0,0.0,0.0,3
2024-12-13,13,2024-12-13 15:55,15:55,EST,Calm,10.0,Overcast,OVC055,32.0,17.6,55.0,,,30.65,0.0,0.0,0.0,0.0,2024-12-16,12,2024,15,KOKV,0.0,0.0,0.0,0.0,0
2024-12-13,13,2024-12-13 16:55,16:55,EST,NE  3,10.0,Partly Cloudy,SCT050,32.0,17.6,55.0,,,30.66,0.0,0.0,0.0,0.0,2024-12-16,12,2024,16,KOKV,0.0,0.0,0.0,0.0,3
2024-12-13,13,2024-12-13 17:55,17:55,EST,Calm,10.0,Fair,CLR,28.4,17.6,64.0,,,30.68,0.0,0.0,0.0,0.0,2024-12-16,12,2024,17,KOKV,0.0,0.0,0.0,0.0,0
2024-12-13,13,2024-12-13 18:55,18:55,EST,Calm,10.0,Fair,CLR,28.4,19.4,69.0,,,30.7,0.0,0.0,0.0,0.0,2024-12-16,12,2024,18,KOKV,0.0,0.0,0.0,0.0,0
2024-12-13,13,2024-12-13 19:55,19:55,EST,Calm,10.0,Fair,CLR,26.6,19.4,74.0,,,30.71,0.0,0.0,0.0,0.0,2024-12-16,12,2024,19,KOKV,0.0,0.0,0.0,0.0,0
2024-12-13,13,2024-12-13 20:55,20:55,EST,Calm,10.0,Fair,CLR,26.6,19.4,74.0,,,30.73,0.0,0.0,0.0,0.0,2024-12-16,12,2024,20,KOKV,0.0,0.0,0.0,0.0,0
2024-12-13,13,2024-12-13 21:55,21:55,EST,Calm,10.0,Fair,CLR,24.8,19.4,80.0,,,30.74,0.0,0.0,0.0,0.0,2024-12-16,12,2024,21,KOKV,0.0,0.0,0.0,0.0,0
2024-12-13,13,2024-12-13 22:55,22:55,EST,Calm,10.0,Fair,CLR,23.0,19.4,86.0,,,30.76,0.0,0.0,0.0,0.0,2024-12-16,12,2024,22,KOKV,0.0,0.0,0.0,0.0,0
2024-12-13,13,2024-12-13 23:55,23:55,EST,Calm,10.0,Fair,CLR,23.0,19.4,86.0,,,30.76,0.0,0.0,0.0,0.0,2024-12-16,12,2024,23,KOKV,0.0,0.0,0.0,0.0,0
2024-12-14,14,2024-12-14 00:55,00:55,EST,Calm,10.0,Fair,CLR,23.0,19.4,86.0,,,30.76,0.0,0.0,0.0,0.0,2024-12-17,12,2024,0,KOKV,0.0,0.0,0.0,0.0,0
2024-12-14,14,2024-12-14 01:55,01:55,EST,Calm,10.0,Fair,CLR,23.0,19.4,86.0,,,30.77,0.0,0.0,0.0,0.0,2024-12-17,12,2024,1,KOKV,0.0,0.0,0.0,0.0,0
2024-12-14,14,2024-12-14 02:55,02:55,EST,Calm,10.0,Fair,CLR,21.2,19.4,93.0,,,30.79,0.0,0.0,0.0,0.0,2024-12-17,12,2024,2,KOKV,0.0,0.0,0.0,0.0,0
2024-12-14,14,2024-12-14 03:55,03:55,EST,Calm,10.0,Fair,CLR,23.0,19.4,86.0,,,30.79,0.0,0.0,0.0,0.0,2024-12-17,12,2024,3,KOKV,0.0,0.0,0.0,0.0,0
2024-12-14,14,2024-12-14 04:55,04:55,EST,Calm,10.0,Fair,CLR,21.2,17.6,86.0,,,30.8,0.0,0.0,0.0,0.0,2024-12-17,12,2024,4,KOKV,0.0,0.0,0.0,0.0,0
2024-12-14,14,2024-12-14 05:55,05:55,EST,Calm,10.0,Fair,CLR,21.2,17.6,86.0,,,30.82,0.0,0.0,0.0,0.0,2024-12-17,12,2024,5,KOKV,0.0,0.0,0.0,0.0,0
2024-12-14,14,2024-12-14 06:55,06:55,EST,Calm,10.0,Fair,CLR,21.2,17.6,86.0,,,30.84,0.0,0.0,0.0,0.0,2024-12-17,12,2024,6,KOKV,0.0,0.0,0.0,0.0,0
2024-12-14,14,2024-12-14 07:55,07:55,EST,Calm,10.0,Fair,CLR,21.2,15.8,80.0,,,30.86,0.0,0.0,0.0,0.0,2024-12-17,12,2024,7,KOKV,0.0,0.0,0.0,0.0,0
2024-12-14,14,2024-12-14 08:55,08:55,EST,NE  3,10.0,Fair,CLR,26.6,17.6,69.0,,,30.87,0.0,0.0,0.0,0.0,2024-12-17,12,2024,8,KOKV,0.0,0.0,0.0,0.0,3
2024-12-14,14,2024-12-14 09:55,09:55,EST,E  5,10.0,Fair,CLR,30.2,17.6,59.0,26.0,,30.88,0.0,0.0,0.0,0.0,2024-12-17,12,2024,9,KOKV,0.0,0.0,0.0,0.0,5
2024-12-14,14,2024-12-14 10:55,10:55,EST,E  5,10.0,Fair,CLR,32.0,17.6,55.0,28.0,,30.87,0.0,0.0,0.0,0.0,2024-12-17,12,2024,10,KOKV,0.0,0.0,0.0,0.0,5
2024-12-14,14,2024-12-14 11:55,11:55,EST,E  3,10.0,Fair,CLR,32.0,14.0,47.0,,,30.84,0.0,0.0,0.0,0.0,2024-12-17,12,2024,11,KOKV,0.0,0.0,0.0,0.0,3
2024-12-14,14,2024-12-14 12:55,12:55,EST,Calm,10.0,Fair,CLR,33.8,14.0,44.0,,,30.82,0.0,0.0,0.0,0.0,2024-12-17,12,2024,12,KOKV,0.0,0.0,0.0,0.0,0
2024-12-14,14,2024-12-14 13:55,13:55,EST,SE  6,10.0,Fair,CLR,35.6,17.6,48.0,31.0,,30.8,0.0,0.0,0.0,0.0,2024-12-17,12,2024,13,KOKV,0.0,0.0,0.0,0.0,6
2024-12-14,14,2024-12-14 14:55,14:55,EST,SE  5,10.0,Fair,CLR,35.6,17.6,48.0,32.0,,30.78,0.0,0.0,0.0,0.0,2024-12-17,12,2024,14,KOKV,0.0,0.0,0.0,0.0,5
2024-12-14,14,2024-12-14 15:55,15:55,EST,SE  6,10.0,Fair,CLR,33.8,17.6,51.0,29.0,,30.77,0.0,0.0,0.0,0.0,2024-12-17,12,2024,15,KOKV,0.0,0.0,0.0,0.0,6
2024-12-14,14,2024-12-14 16:55,16:55,EST,E  3,10.0,Fair,CLR,32.0,17.6,55.0,,,30.77,0.0,0.0,0.0,0.0,2024-12-17,12,2024,16,KOKV,0.0,0.0,0.0,0.0,3
2024-12-14,14,2024-12-14 17:55,17:55,EST,Calm,10.0,Fair,CLR,28.4,19.4,69.0,,,30.78,0.0,0.0,0.0,0.0,2024-12-17,12,2024,17,KOKV,0.0,0.0,0.0,0.0,0
2024-12-14,14,2024-12-14 18:55,18:55,EST,Calm,10.0,Fair,CLR,28.4,17.6,64.0,,,30.78,0.0,0.0,0.0,0.0,2024-12-17,12,2024,18,KOKV,0.0,0.0,0.0,0.0,0
2024-12-14,14,2024-12-14 19:55,19:55,EST,Calm,10.0,Fair,CLR,26.6,17.6,69.0,,,30.78,0.0,0.0,0.0,0.0,2024-12-17,12,2024,19,KOKV,0.0,0.0,0.0,0.0,0
2024-12-14,14,2024-12-14 20:55,20:55,EST,E  3,10.0,Fair,CLR,28.4,17.6,64.0,,,30.78,0.0,0.0,0.0,0.0,2024-12-17,12,2024,20,KOKV,0.0,0.0,0.0,0.0,3
2024-12-14,14,2024-12-14 21:55,21:55,EST,E  5,10.0,Fair,CLR,28.4,19.4,69.0,24.0,,30.78,0.0,0.0,0.0,0.0,2024-12-17,12,2024,21,KOKV,0.0,0.0,0.0,0.0,5
2024-12-14,14,2024-12-14 22:55,22:55,EST,E  3,10.0,Fair,CLR,28.4,19.4,69.0,,,30.77,0.0,0.0,0.0,0.0,2024-12-17,12,2024,22,KOKV,0.0,0.0,0.0,0.0,3
2024-12-14,14,2024-12-14 23:55,23:55,EST,Calm,10.0,Fair,CLR,26.6,19.4,74.0,,,30.77,0.0,0.0,0.0,0.0,2024-12-18,12,2024,23,KOKV,0.0,0.0,0.0,0.0,0
2024-12-15,15,2024-12-15 00:55,00:55,EST,Calm,10.0,Fair,CLR,28.4,21.2,74.0,,,30.76,0.0,0.0,0.0,0.0,2024-12-18,12,2024,0,KOKV,0.0,0.0,0.0,0.0,0
2024-12-15,15,2024-12-15 01:55,01:55,EST,E  5,10.0,Overcast,OVC028,28.4,23.0,80.0,24.0,,30.75,0.0,0.0,0.0,0.0,2024-12-18,12,2024,1,KOKV,0.0,0.0,0.0,0.0,5
2024-12-15,15,2024-12-15 02:55,02:55,EST,Calm,10.0,Overcast,BKN022 OVC028,28.4,23.0,80.0,,,30.75,0.0,0.0,0.0,0.0,2024-12-18,12,2024,2,KOKV,0.0,0.0,0.0,0.0,0
2024-12-15,15,2024-12-15 03:55,03:55,EST,Calm,10.0,Overcast,OVC022,30.2,26.6,86.0,,,30.73,0.0,0.0,0.0,0.0,2024-12-18,12,2024,3,KOKV,0.0,0.0,0.0,0.0,0
2024-12-15,15,2024-12-15 04:55,04:55,EST,Calm,10.0,Overcast,OVC024,30.2,26.6,86.0,,,30.72,0.0,0.0,0.0,0.0,2024-12-18,12,2024,4,KOKV,0.0,0.0,0.0,0.0,0
2024-12-15,15,2024-12-15 05:55,05:55,EST,Calm,10.0,Overcast,OVC026,30.2,26.6,86.0,,,30.71,0.0,0.0,0.0,0.0,2024-12-18,12,2024,5,KOKV,0.0,0.0,0.0,0.0,0
2024-12-15,15,2024-12-15 06:55,06:55,EST,Calm,10.0,Overcast,OVC026,30.2,26.6,86.0,,,30.7,0.0,0.0,0.0,0.0,2024-12-18,12,2024,6,KOKV,0.0,0.0,0.0,0.0,0
2024-12-15,15,2024-12-15 07:55,07:55,EST,Calm,10.0,Overcast,OVC026,32.0,26.6,80.0,,,30.7,0.0,0.0,0.0,0.0,2024-12-18,12,2024,7,KOKV,0.0,0.0,0.0,0.0,0
2024-12-15,15,2024-12-15 08:55,08:55,EST,SE  3,10.0,Overcast,OVC026,32.0,24.8,75.0,,,30.7,0.0,0.0,0.0,0.0,2024-12-18,12,2024,8,KOKV,0.0,0.0,0.0,0.0,3
2024-12-15,15,2024-12-15 09:55,09:55,EST,SE  5,10.0,Overcast,OVC030,32.0,26.6,80.0,28.0,,30.7,0.0,0.0,0.0,0.0,2024-12-18,12,2024,9,KOKV,0.0,0.0,0.0,0.0,5
2024-12-15,15,2024-12-15 10:55,10:55,EST,Calm,7.0,Overcast,OVC026,32.0,26.6,80.0,,,30.68,0.0,0.0,0.0,0.0,2024-12-18,12,2024,10,KOKV,0.0,0.0,0.0,0.0,0
2024-12-15,15,2024-12-15 11:55,11:55,EST,Calm,4.0,Overcast,OVC026,32.0,26.6,80.0,,,30.65,0.0,0.0,0.0,0.0,2024-12-18,12,2024,11,KOKV,0.0,0.0,0.0,0.0,0
2024-12-15,15,2024-12-15 12:55,12:55,EST,Calm,2.5,Overcast,OVC026,32.0,28.4,87.0,,,30.62,0.0,0.0,0.0,0.0,2024-12-18,12,2024,12,KOKV,0.0,0.0,0.0,0.0,0
2024-12-15,15,2024-12-15 13:55,13:55,EST,Calm,4.0,Overcast,SCT019 BKN039 OVC055,32.0,30.2,93.0,,,30.59,0.0,0.0,0.0,0.0,2024-12-18,12,2024,13,KOKV,0.0,0.0,0.0,0.0,0
2024-12-15,15,2024-12-15 14:55,14:55,EST,E  3,1.25,Overcast,SCT007 OVC015,32.0,30.2,93.0,,,30.58,0.0,0.0,0.0,0.0,2024-12-18,12,2024,14,KOKV,0.0,0.0,0.0,0.0,3
2024-12-15,15,2024-12-15 15:55,15:55,EST,Calm,5.0,Overcast,SCT003 OVC012,32.0,30.2,93.0,,,30.56,0.0,0.0,0.0,0.0,2024-12-18,12,2024,15,KOKV,0.0,0.0,0.0,0.0,0
2024-12-15,15,2024-12-15 16:55,16:55,EST,Calm,4.0,Overcast,OVC014,32.0,30.2,93.0,,,30.55,0.0,0.0,0.0,0.0,2024-12-18,12,2024,16,KOKV,0.0,0.0,0.0,0.0,0
2024-12-15,15,2024-12-15 17:55,17:55,EST,Calm,5.0,Overcast,OVC016,32.0,30.2,93.0,,,30.54,0.0,0.0,0.0,0.0,2024-12-18,12,2024,17,KOKV,0.0,0.0,0.0,0.0,0
2024-12-15,15,2024-12-15 18:55,18:55,EST,Calm,4.0,Overcast,OVC016,32.0,32.0,100.0,,,30.54,0.0,0.0,0.0,0.0,2024-12-18,12,2024,18,KOKV,0.0,0.0,0.0,0.0,0
2024-12-15,15,2024-12-15 19:55,19:55,EST,Calm,3.0,Overcast,BKN016 OVC021,32.0,32.0,100.0,,,30.53,0.0,0.0,0.0,0.0,2024-12-18,12,2024,19,KOKV,0.0,0.0,0.0,0.0,0
2024-12-15,15,2024-12-15 20:55,20:55,EST,Calm,2.0,Overcast,OVC017,32.0,32.0,100.0,,,30.5,0.0,0.0,0.0,0.0,2024-12-18,12,2024,20,KOKV,0.0,0.0,0.0,0.0,0
2024-12-15,15,2024-12-15 21:55,21:55,EST,Calm,1.75,Overcast,OVC013,32.0,32.0,100.0,,,30.48,0.0,0.0,0.0,0.0,2024-12-18,12,2024,21,KOKV,0.0,0.0,0.0,0.0,0
2024-12-15,15,2024-12-15 22:55,22:55,EST,Calm,2.0,Overcast,OVC011,32.0,32.0,100.0,,,30.48,0.0,0.0,0.0,0.0,2024-12-18,12,2024,22,KOKV,0.0,0.0,0.0,0.0,0
2024-12-15,15,2024-12-15 23:55,23:55,EST,Calm,1.5,Overcast,OVC003,32.0,32.0,100.0,,,30.46,0.0,0.0,0.0,0.0,2024-12-18,12,2024,23,KOKV,0.0,0.0,0.0,0.0,0
2024-12-16,16,2024-12-16 00:55,00:55,EST,Calm,1.5,Overcast,OVC003,32.0,32.0,100.0,,,30.44,0.0,0.0,0.0,0.0,2024-12-19,12,2024,0,KOKV,0.0,0.0,0.0,0.0,0
2024-12-16,16,2024-12-16 01:55,01:55,EST,Calm,1.5,Overcast,OVC003,32.0,32.0,100.0,,,30.43,0.0,0.0,0.0,0.0,2024-12-19,12,2024,1,KOKV,0.0,0.0,0.0,0.0,0
2024-12-16,16,2024-12-16 02:55,02:55,EST,Calm,1.25,Overcast,OVC003,32.0,32.0,100.0,,,30.42,0.0,0.0,0.0,0.0,2024-12-19,12,2024,2,KOKV,0.0,0.0,0.0,0.0,0
2024-12-16,16,2024-12-16 03:55,03:55,EST,Calm,0.5,Overcast,OVC003,32.0,32.0,100.0,,,30.4,0.0,0.0,0.0,0.0,2024-12-19,12,2024,3,KOKV,0.0,0.0,0.0,0.0,0
2024-12-16,16,2024-12-16 04:55,04:55,EST,Calm,0.25,Overcast,OVC003,32.0,32.0,100.0,,,30.4,0.0,0.0,0.0,0.0,2024-12-19,12,2024,4,KOKV,0.0,0.0,0.0,0.0,0
2024-12-16,16,2024-12-16 05:55,05:55,EST,Calm,0.5,Overcast,OVC003,32.0,32.0,100.0,,,30.38,0.0,0.0,0.0,0.0,2024-12-19,12,2024,5,KOKV,0.0,0.0,0.0,0.0,0
2024-12-16,16,2024-12-16 06:55,06:55,EST,Calm,0.25,Overcast,OVC003,32.0,32.0,100.0,,,30.38,0.0,0.0,0.0,0.0,2024-12-19,12,2024,6,KOKV,0.0,0.0,0.0,0.0,0
2024-12-16,16,2024-12-16 07:55,07:55,EST,Calm,0.25,Overcast,OVC003,32.0,32.0,100.0,,,30.38,0.0,0.0,0.0,0.0,2024-12-19,12,2024,7,KOKV,0.0,0.0,0.0,0.0,0
2024-12-16,16,2024-12-16 08:55,08:55,EST,Calm,0.25,Overcast,OVC003,32.0,32.0,100.0,,,30.37,0.0,0.0,0.0,0.0,2024-12-19,12,2024,8,KOKV,0.0,0.0,0.0,0.0,0
2024-12-16,16,2024-12-16 09:55,09:55,EST,Calm,1.25,Overcast,OVC003,33.8,32.0,93.0,,,30.37,0.0,0.0,0.0,0.0,2024-12-19,12,2024,9,KOKV,0.0,0.0,0.0,0.0,0
2024-12-16,16,2024-12-16 10:55,10:55,EST,Calm,1.0,Overcast,OVC003,33.8,33.8,100.0,,,30.35,0.0,0.0,0.0,0.0,2024-12-19,12,2024,10,KOKV,0.0,0.0,0.0,0.0,0
2024-12-16,16,2024-12-16 11:55,11:55,EST,Calm,1.5,Overcast,OVC003,35.6,35.6,100.0,,,30.32,0.0,0.0,0.0,0.0,2024-12-19,12,2024,11,KOKV,0.0,0.0,0.0,0.0,0
2024-12-16,16,2024-12-16 12:55,12:55,EST,SE  3,4.0,Overcast,OVC003,35.6,35.6,100.0,,,30.27,0.0,0.0,0.0,0.0,2024-12-19,12,2024,12,KOKV,0.0,0.0,0.0,0.0,3
2024-12-16,16,2024-12-16 13:55,13:55,EST,Calm,3.0,Overcast,OVC003,37.4,35.6,93.0,,,30.25,0.0,0.0,0.0,0.0,2024-12-19,12,2024,13,KOKV,0.0,0.0,0.0,0.0,0
2024-12-16,16,2024-12-16 14:55,14:55,EST,Calm,1.5,Overcast,OVC003,37.4,37.4,100.0,,,30.24,0.0,0.0,0.0,0.0,2024-12-19,12,2024,14,KOKV,0.0,0.0,0.0,0.0,0
2024-12-16,16,2024-12-16 15:55,15:55,EST,Calm,0.75,Overcast,OVC003,37.4,37.4,100.0,,,30.2,0.0,0.0,0.0,0.0,2024-12-19,12,2024,15,KOKV,0.0,0.0,0.0,0.0,0
2024-12-16,16,2024-12-16 16:55,16:55,EST,Calm,4.0,Overcast,OVC003,37.4,37.4,100.0,,,30.2,0.0,0.0,0.0,0.0,2024-12-19,12,2024,16,KOKV,0.0,0.0,0.0,0.0,0
2024-12-16,16,2024-12-16 17:55,17:55,EST,Calm,3.0,Overcast,OVC005,37.4,37.4,100.0,,,30.2,0.0,0.0,0.0,0.0,2024-12-19,12,2024,17,KOKV,0.0,0.0,0.0,0.0,0
2024-12-16,16,2024-12-16 18:55,18:55,EST,Calm,3.0,Overcast,OVC007,37.4,37.4,100.0,,,30.19,0.0,0.0,0.0,0.0,2024-12-19,12,2024,18,KOKV,0.0,0.0,0.0,0.0,0
2024-12-16,16,2024-12-16 19:55,19:55,EST,Calm,4.0,Overcast,OVC005,37.4,37.4,100.0,,,30.18,0.0,0.0,0.0,0.0,2024-12-19,12,2024,19,KOKV,0.0,0.0,0.0,0.0,0
2024-12-16,16,2024-12-16 20:55,20:55,EST,Calm,3.0,Overcast,OVC010,37.4,37.4,100.0,,,30.15,0.0,0.0,0.0,0.0,2024-12-19,12,2024,20,KOKV,0.0,0.0,0.0,0.0,0
2024-12-16,16,2024-12-16 21:55,21:55,EST,S  5,4.0,Mostly Cloudy,SCT003 BKN008,37.4,37.4,100.0,34.0,,30.11,0.0,0.0,0.0,0.0,2024-12-19,12,2024,21,KOKV,0.0,0.0,0.0,0.0,5
2024-12-16,16,2024-12-16 22:55,22:55,EST,SW  3,7.0,Partly Cloudy,SCT110,41.0,39.2,93.0,,,30.11,0.0,0.0,0.0,0.0,2024-12-19,12,2024,22,KOKV,0.0,0.0,0.0,0.0,3
2024-12-16,16,2024-12-16 23:55,23:55,EST,S  5,7.0,Fair,CLR,41.0,41.0,100.0,38.0,,30.08,0.0,0.0,0.0,0.0,2024-12-19,12,2024,23,KOKV,0.0,0.0,0.0,0.0,5
2024-12-17,17,2024-12-17 00:55,00:55,EST,SW  6,10.0,Partly Cloudy,SCT060,42.8,42.8,100.0,40.0,,30.07,0.0,0.0,0.0,0.0,2024-12-20,12,2024,0,KOKV,0.0,0.0,0.0,0.0,6
2024-12-17,17,2024-12-17 01:55,01:55,EST,SW  8,10.0,Partly Cloudy,SCT065,44.6,42.8,93.0,41.0,,30.07,0.0,0.0,0.0,0.0,2024-12-20,12,2024,1,KOKV,0.0,0.0,0.0,0.0,8
2024-12-17,17,2024-12-17 02:55,02:55,EST,SW  8,10.0,Overcast,OVC065,44.6,42.8,93.0,41.0,,30.07,0.0,0.0,0.0,0.0,2024-12-20,12,2024,2,KOKV,0.0,0.0,0.0,0.0,8
2024-12-17,17,2024-12-17 03:55,03:55,EST,SW  5,10.0,Fair,CLR,44.6,42.8,93.0,43.0,,30.08,0.0,0.0,0.0,0.0,2024-12-20,12,2024,3,KOKV,0.0,0.0,0.0,0.0,5
2024-12-17,17,2024-12-17 04:55,04:55,EST,SW  7,10.0,Mostly Cloudy,SCT055 BKN070,46.4,44.6,93.0,43.0,,30.08,0.0,0.0,0.0,0.0,2024-12-20,12,2024,4,KOKV,0.0,0.0,0.0,0.0,7
2024-12-17,17,2024-12-17 05:55,05:55,EST,SW  6,10.0,Mostly Cloudy,SCT055 BKN075,46.4,44.6,93.0,44.0,,30.1,0.0,0.0,0.0,0.0,2024-12-20,12,2024,5,KOKV,0.0,0.0,0.0,0.0,6
2024-12-17,17,2024-12-17 06:55,06:55,EST,SW  5,10.0,Overcast,OVC065,48.2,44.6,87.0,47.0,,30.11,0.0,0.0,0.0,0.0,2024-12-20,12,2024,6,KOKV,0.0,0.0,0.0,0.0,5
2024-12-17,17,2024-12-17 07:55,07:55,EST,SW  6,10.0,Mostly Cloudy,BKN065 BKN075,50.0,46.4,88.0,48.0,,30.12,0.0,0.0,0.0,0.0,2024-12-20,12,2024,7,KOKV,0.0,0.0,0.0,0.0,6
2024-12-17,17,2024-12-17 08:55,08:55,EST,SW  5,10.0,Overcast,OVC050,50.0,46.4,88.0,49.0,,30.14,0.0,0.0,0.0,0.0,2024-12-20,12,2024,8,KOKV,0.0,0.0,0.0,0.0,5
2024-12-17,17,2024-12-17 09:55,09:55,EST,Calm,10.0,Overcast,BKN050 OVC060,51.8,46.4,82.0,,,30.17,0.0,0.0,0.0,0.0,2024-12-20,12,2024,9,KOKV,0.0,0.0,0.0,0.0,0
2024-12-17,17,2024-12-17 10:55,10:55,EST,W  3,10.0,Mostly Cloudy,BKN055 BKN065,55.4,50.0,82.0,,,30.17,0.0,0.0,0.0,0.0,2024-12-20,12,2024,10,KOKV,0.0,0.0,0.0,0.0,3
2024-12-17,17,2024-12-17 11:55,11:55,EST,SW  5,10.0,Partly Cloudy,SCT050 SCT060,57.2,48.2,72.0,,,30.16,0.0,0.0,0.0,0.0,2024-12-20,12,2024,11,KOKV,0.0,0.0,0.0,0.0,5
2024-12-17,17,2024-12-17 12:55,12:55,EST,W  9,10.0,Fair,CLR,59.0,44.6,59.0,,,30.15,0.0,0.0,0.0,0.0,2024-12-20,12,2024,12,KOKV,0.0,0.0,0.0,0.0,9
2024-12-17,17,2024-12-17 13:55,13:55,EST,W  10,10.0,Fair,CLR,59.0,41.0,51.0,,,30.14,0.0,0.0,0.0,0.0,2024-12-20,12,2024,13,KOKV,0.0,0.0,0.0,0.0,10
2024-12-17,17,2024-12-17 14:55,14:55,EST,W  16  G 21,10.0,Fair,CLR,59.0,35.6,42.0,,,30.14,0.0,0.0,0.0,0.0,2024-12-20,12,2024,14,KOKV,0.0,0.0,0.0,0.0,16
2024-12-17,17,2024-12-17 15:55,15:55,EST,W  9,10.0,Fair,CLR,57.2,32.0,39.0,,,30.17,0.0,0.0,0.0,0.0,2024-12-20,12,2024,15,KOKV,0.0,0.0,0.0,0.0,9
2024-12-17,17,2024-12-17 16:55,16:55,EST,NW  8,10.0,Fair,CLR,48.2,30.2,50.0,45.0,,30.2,0.0,0.0,0.0,0.0,2024-12-20,12,2024,16,KOKV,0.0,0.0,0.0,0.0,8
2024-12-17,17,2024-12-17 17:55,17:55,EST,NW  7,10.0,Fair,CLR,42.8,28.4,57.0,39.0,,30.22,0.0,0.0,0.0,0.0,2024-12-20,12,2024,17,KOKV,0.0,0.0,0.0,0.0,7
2024-12-17,17,2024-12-17 18:55,18:55,EST,Calm,10.0,Fair,CLR,42.8,28.4,57.0,,,30.25,0.0,0.0,0.0,0.0,2024-12-20,12,2024,18,KOKV,0.0,0.0,0.0,0.0,0
2024-12-17,17,2024-12-17 19:55,19:55,EST,NW  7,10.0,Fair,CLR,44.6,23.0,43.0,41.0,,30.25,0.0,0.0,0.0,0.0,2024-12-20,12,2024,19,KOKV,0.0,0.0,0.0,0.0,7
2024-12-17,17,2024-12-17 20:55,20:55,EST,Calm,10.0,Fair,CLR,39.2,26.6,61.0,,,30.26,0.0,0.0,0.0,0.0,2024-12-20,12,2024,20,KOKV,0.0,0.0,0.0,0.0,0
2024-12-17,17,2024-12-17 21:55,21:55,EST,Calm,10.0,Fair,CLR,37.4,26.6,65.0,,,30.27,0.0,0.0,0.0,0.0,2024-12-20,12,2024,21,KOKV,0.0,0.0,0.0,0.0,0
2024-12-17,17,2024-12-17 22:55,22:55,EST,Calm,10.0,Fair,CLR,32.0,26.6,80.0,,,30.27,0.0,0.0,0.0,0.0,2024-12-20,12,2024,22,KOKV,0.0,0.0,0.0,0.0,0
2024-12-17,17,2024-12-17 23:55,23:55,EST,Calm,10.0,Fair,CLR,33.8,26.6,75.0,,,30.27,0.0,0.0,0.0,0.0,2024-12-20,12,2024,23,KOKV,0.0,0.0,0.0,0.0,0
2024-12-18,18,2024-12-18 00:55,00:55,EST,W  5,10.0,Fair,CLR,32.0,26.6,80.0,28.0,,30.26,0.0,0.0,0.0,0.0,2024-12-21,12,2024,0,KOKV,0.0,0.0,0.0,0.0,5
2024-12-18,18,2024-12-18 01:55,01:55,EST,Calm,10.0,Fair,CLR,32.0,26.6,80.0,,,30.26,0.0,0.0,0.0,0.0,2024-12-21,12,2024,1,KOKV,0.0,0.0,0.0,0.0,0
2024-12-18,18,2024-12-18 02:55,02:55,EST,Calm,10.0,Fair,CLR,30.2,26.6,86.0,,,30.27,0.0,0.0,0.0,0.0,2024-12-21,12,2024,2,KOKV,0.0,0.0,0.0,0.0,0
2024-12-18,18,2024-12-18 03:55,03:55,EST,NW  3,10.0,Fair,CLR,32.0,26.6,80.0,,,30.25,0.0,0.0,0.0,0.0,2024-12-21,12,2024,3,KOKV,0.0,0.0,0.0,0.0,3
2024-12-18,18,2024-12-18 04:55,04:55,EST,Calm,10.0,Fair,CLR,30.2,28.4,93.0,,,30.22,0.0,0.0,0.0,0.0,2024-12-21,12,2024,4,KOKV,0.0,0.0,0.0,0.0,0
2024-12-18,18,2024-12-18 05:55,05:55,EST,Calm,10.0,Fair,CLR,28.4,24.8,86.0,,,30.22,0.0,0.0,0.0,0.0,2024-12-21,12,2024,5,KOKV,0.0,0.0,0.0,0.0,0
2024-12-18,18,2024-12-18 06:55,06:55,EST,Calm,10.0,Fair,CLR,28.4,24.8,86.0,,,30.21,0.0,0.0,0.0,0.0,2024-12-21,12,2024,6,KOKV,0.0,0.0,0.0,0.0,0
2024-12-18,18,2024-12-18 07:55,07:55,EST,Calm,10.0,Fair,CLR,28.4,26.6,93.0,,,30.21,0.0,0.0,0.0,0.0,2024-12-21,12,2024,7,KOKV,0.0,0.0,0.0,0.0,0
2024-12-18,18,2024-12-18 08:55,08:55,EST,Calm,10.0,Partly Cloudy,SCT045,33.8,32.0,93.0,,,30.22,0.0,0.0,0.0,0.0,2024-12-21,12,2024,8,KOKV,0.0,0.0,0.0,0.0,0
2024-12-18,18,2024-12-18 09:55,09:55,EST,SE  3,10.0,Overcast,OVC045,41.0,32.0,70.0,,,30.2,0.0,0.0,0.0,0.0,2024-12-21,12,2024,9,KOKV,0.0,0.0,0.0,0.0,3
2024-12-18,18,2024-12-18 10:55,10:55,EST,S  3,10.0,Overcast,OVC041,42.8,32.0,66.0,,,30.17,0.0,0.0,0.0,0.0,2024-12-21,12,2024,10,KOKV,0.0,0.0,0.0,0.0,3
2024-12-18,18,2024-12-18 11:55,11:55,EST,Calm,10.0,Overcast,OVC039,46.4,32.0,57.0,,,30.1,0.0,0.0,0.0,0.0,2024-12-21,12,2024,11,KOKV,0.0,0.0,0.0,0.0,0
2024-12-18,18,2024-12-18 12:55,12:55,EST,S  3,10.0,Overcast,OVC039,50.0,30.2,47.0,,,30.05,0.0,0.0,0.0,0.0,2024-12-21,12,2024,12,KOKV,0.0,0.0,0.0,0.0,3
2024-12-18,18,2024-12-18 13:55,13:55,EST,S  8,10.0,Overcast,OVC035,50.0,32.0,50.0,47.0,,29.99,0.0,0.0,0.0,0.0,2024-12-21,12,2024,13,KOKV,0.0,0.0,0.0,0.0,8
2024-12-18,18,2024-12-18 14:55,14:55,EST,S  6,10.0,Overcast,OVC035,50.0,32.0,50.0,48.0,,29.97,0.0,0.0,0.0,0.0,2024-12-21,12,2024,14,KOKV,0.0,0.0,0.0,0.0,6
2024-12-18,18,2024-12-18 15:55,15:55,EST,Calm,10.0,Overcast,BKN033 OVC040,46.4,33.8,62.0,,,29.99,0.0,0.0,0.0,0.0,2024-12-21,12,2024,15,KOKV,0.0,0.0,0.0,0.0,0
2024-12-18,18,2024-12-18 16:55,16:55,EST,S  3,10.0,Overcast,OVC100,46.4,33.8,62.0,,,29.96,0.0,0.0,0.0,0.0,2024-12-21,12,2024,16,KOKV,0.0,0.0,0.0,0.0,3
2024-12-18,18,2024-12-18 17:55,17:55,EST,Calm,10.0,Overcast,OVC100,44.6,37.4,76.0,,,29.96,0.0,0.0,0.0,0.0,2024-12-21,12,2024,17,KOKV,0.0,0.0,0.0,0.0,0
2024-12-18,18,2024-12-18 18:55,18:55,EST,Calm,10.0,Overcast,BKN060 BKN070 OVC100,46.4,35.6,66.0,,,29.95,0.0,0.0,0.0,0.0,2024-12-21,12,2024,18,KOKV,0.0,0.0,0.0,0.0,0
2024-12-18,18,2024-12-18 19:55,19:55,EST,NW  10  G 16,10.0,Overcast,BKN029 OVC046,42.8,39.2,87.0,38.0,,30.03,0.0,0.0,0.0,0.0,2024-12-21,12,2024,19,KOKV,0.0,0.0,0.0,0.0,10
2024-12-18,18,2024-12-18 20:55,20:55,EST,NW  8,10.0,Overcast,OVC050,42.8,37.4,81.0,39.0,,30.06,0.0,0.0,0.0,0.0,2024-12-21,12,2024,20,KOKV,0.0,0.0,0.0,0.0,8
2024-12-18,18,2024-12-18 21:55,21:55,EST,NW  5,10.0,Overcast,BKN023 OVC070,42.8,35.6,76.0,41.0,,30.1,0.0,0.0,0.0,0.0,2024-12-21,12,2024,21,KOKV,0.0,0.0,0.0,0.0,5
2024-12-18,18,2024-12-18 22:55,22:55,EST,NW  14,10.0,Overcast,OVC023,41.0,33.8,76.0,34.0,,30.11,0.0,0.0,0.0,0.0,2024-12-21,12,2024,22,KOKV,0.0,0.0,0.0,0.0,14
2024-12-18,18,2024-12-18 23:55,23:55,EST,NW  18  G 23,10.0,Partly Cloudy,SCT027,41.0,33.8,76.0,33.0,,30.11,0.0,0.0,0.0,0.0,2024-12-21,12,2024,23,KOKV,0.0,0.0,0.0,0.0,18
2024-12-19,19,2024-12-19 00:55,00:55,EST,NW  12  G 22,10.0,Overcast,OVC027,41.0,33.8,76.0,35.0,,30.13,0.0,0.0,0.0,0.0,2024-12-22,12,2024,0,KOKV,0.0,0.0,0.0,0.0,12
2024-12-19,19,2024-12-19 01:55,01:55,EST,NW  17  G 21,10.0,Overcast,BKN024 OVC031,37.4,33.8,87.0,29.0,,30.15,0.0,0.0,0.0,0.0,2024-12-22,12,2024,1,KOKV,0.0,0.0,0.0,0.0,17
2024-12-19,19,2024-12-19 02:55,02:55,EST,NW  8,10.0,Mostly Cloudy,SCT027 BKN036,37.4,32.0,81.0,32.0,,30.2,0.0,0.0,0.0,0.0,2024-12-22,12,2024,2,KOKV,0.0,0.0,0.0,0.0,8
2024-12-19,19,2024-12-19 03:55,03:55,EST,NW  7,10.0,Overcast,SCT029 OVC038,37.4,32.0,81.0,33.0,,30.21,0.0,0.0,0.0,0.0,2024-12-22,12,2024,3,KOKV,0.0,0.0,0.0,0.0,7
2024-12-19,19,2024-12-19 04:55,04:55,EST,NW  8  G 16,10.0,Overcast,OVC030,37.4,30.2,75.0,32.0,,30.22,0.0,0.0,0.0,0.0,2024-12-22,12,2024,4,KOKV,0.0,0.0,0.0,0.0,8
2024-12-19,19,2024-12-19 05:55,05:55,EST,NW  13,10.0,Overcast,OVC033,37.4,30.2,75.0,30.0,,30.24,0.0,0.0,0.0,0.0,2024-12-22,12,2024,5,KOKV,0.0,0.0,0.0,0.0,13
2024-12-19,19,2024-12-19 06:55,06:55,EST,NW  8,10.0,Overcast,OVC033,35.6,26.6,70.0,30.0,,30.26,0.0,0.0,0.0,0.0,2024-12-22,12,2024,6,KOKV,0.0,0.0,0.0,0.0,8
2024-12-19,19,2024-12-19 07:55,07:55,EST,N  5,10.0,Overcast,OVC037,35.6,26.6,70.0,32.0,,30.28,0.0,0.0,0.0,0.0,2024-12-22,12,2024,7,KOKV,0.0,0.0,0.0,0.0,5
2024-12-19,19,2024-12-19 08:55,08:55,EST,NW  10,10.0,Mostly Cloudy,BKN037,37.4,26.6,65.0,31.0,,30.3,0.0,0.0,0.0,0.0,2024-12-22,12,2024,8,KOKV,0.0,0.0,0.0,0.0,10
2024-12-19,19,2024-12-19 09:55,09:55,EST,NW  9,10.0,Partly Cloudy,SCT039,37.4,24.8,60.0,31.0,,30.31,0.0,0.0,0.0,0.0,2024-12-22,12,2024,9,KOKV,0.0,0.0,0.0,0.0,9
2024-12-19,19,2024-12-19 10:55,10:55,EST,NW  14,10.0,Partly Cloudy,SCT039,41.0,26.6,57.0,34.0,,30.31,0.0,0.0,0.0,0.0,2024-12-22,12,2024,10,KOKV,0.0,0.0,0.0,0.0,14
2024-12-19,19,2024-12-19 11:55,11:55,EST,NW  9,10.0,Fair,CLR,39.2,26.6,61.0,34.0,,30.29,0.0,0.0,0.0,0.0,2024-12-22,12,2024,11,KOKV,0.0,0.0,0.0,0.0,9
2024-12-19,19,2024-12-19 12:55,12:55,EST,NW  9,10.0,Mostly Cloudy,BKN040,41.0,26.6,57.0,36.0,,30.26,0.0,0.0,0.0,0.0,2024-12-22,12,2024,12,KOKV,0.0,0.0,0.0,0.0,9
2024-12-19,19,2024-12-19 13:55,13:55,EST,NW  7,10.0,Overcast,OVC040,39.2,26.6,61.0,35.0,,30.24,0.0,0.0,0.0,0.0,2024-12-22,12,2024,13,KOKV,0.0,0.0,0.0,0.0,7
2024-12-19,19,2024-12-19 14:55,14:55,EST,NW  9,10.0,Fair,CLR,37.4,26.6,65.0,31.0,,30.24,0.0,0.0,0.0,0.0,2024-12-22,12,2024,14,KOKV,0.0,0.0,0.0,0.0,9
2024-12-19,19,2024-12-19 15:55,15:55,EST,NW  7,10.0,Partly Cloudy,SCT042,37.4,26.6,65.0,33.0,,30.25,0.0,0.0,0.0,0.0,2024-12-22,12,2024,15,KOKV,0.0,0.0,0.0,0.0,7
2024-12-19,19,2024-12-19 16:55,16:55,EST,NW  5,10.0,Partly Cloudy,SCT041,35.6,26.6,70.0,32.0,,30.27,0.0,0.0,0.0,0.0,2024-12-22,12,2024,16,KOKV,0.0,0.0,0.0,0.0,5
2024-12-19,19,2024-12-19 17:55,17:55,EST,Calm,10.0,Fair,CLR,33.8,26.6,75.0,,,30.24,0.0,0.0,0.0,0.0,2024-12-22,12,2024,17,KOKV,0.0,0.0,0.0,0.0,0
2024-12-19,19,2024-12-19 18:55,18:55,EST,Calm,10.0,Fair,CLR,33.8,26.6,75.0,,,30.26,0.0,0.0,0.0,0.0,2024-12-22,12,2024,18,KOKV,0.0,0.0,0.0,0.0,0
2024-12-19,19,2024-12-19 19:55,19:55,EST,Calm,10.0,Fair,CLR,32.0,26.6,80.0,,,30.25,0.0,0.0,0.0,0.0,2024-12-22,12,2024,19,KOKV,0.0,0.0,0.0,0.0,0
2024-12-19,19,2024-12-19 20:55,20:55,EST,Calm,10.0,Fair,CLR,30.2,26.6,86.0,,,30.22,0.0,0.0,0.0,0.0,2024-12-22,12,2024,20,KOKV,0.0,0.0,0.0,0.0,0
2024-12-19,19,2024-12-19 21:55,21:55,EST,Calm,10.0,Overcast,OVC043,32.0,28.4,87.0,,,30.21,0.0,0.0,0.0,0.0,2024-12-22,12,2024,21,KOKV,0.0,0.0,0.0,0.0,0
2024-12-19,19,2024-12-19 22:55,22:55,EST,Calm,10.0,Overcast,OVC043,32.0,28.4,87.0,,,30.2,0.0,0.0,0.0,0.0,2024-12-22,12,2024,22,KOKV,0.0,0.0,0.0,0.0,0
2024-12-19,19,2024-12-19 23:55,23:55,EST,NE  3,10.0,Overcast,OVC043,33.8,28.4,81.0,,,30.16,0.0,0.0,0.0,0.0,2024-12-22,12,2024,23,KOKV,0.0,0.0,0.0,0.0,3
2024-12-20,20,2024-12-20 00:55,00:55,EST,Calm,10.0,Overcast,OVC045,33.8,28.4,81.0,,,30.14,0.0,0.0,0.0,0.0,2024-12-23,12,2024,0,KOKV,0.0,0.0,0.0,0.0,0
2024-12-20,20,2024-12-20 01:55,01:55,EST,Calm,10.0,Overcast,OVC047,33.8,28.4,81.0,,,30.12,0.0,0.0,0.0,0.0,2024-12-23,12,2024,1,KOKV,0.0,0.0,0.0,0.0,0
2024-12-20,20,2024-12-20 02:55,02:55,EST,SE  7,10.0,Overcast,OVC049,33.8,28.4,81.0,28.0,,30.11,0.0,0.0,0.0,0.0,2024-12-23,12,2024,2,KOKV,0.0,0.0,0.0,0.0,7
2024-12-20,20,2024-12-20 03:55,03:55,EST,SE  8,10.0,Overcast,SCT040 SCT048 OVC050,33.8,28.4,81.0,28.0,,30.08,0.0,0.0,0.0,0.0,2024-12-23,12,2024,3,KOKV,0.0,0.0,0.0,0.0,8
2024-12-20,20,2024-12-20 04:55,04:55,EST,Calm,10.0,Overcast,OVC041,33.8,28.4,81.0,,,30.06,0.0,0.0,0.0,0.0,2024-12-23,12,2024,4,KOKV,0.0,0.0,0.0,0.0,0
2024-12-20,20,2024-12-20 05:55,05:55,EST,E  3,10.0,Overcast,OVC039,33.8,28.4,81.0,,,30.05,0.0,0.0,0.0,0.0,2024-12-23,12,2024,5,KOKV,0.0,0.0,0.0,0.0,3
2024-12-20,20,2024-12-20 06:55,06:55,EST,E  3,10.0,Overcast,SCT032 OVC038,33.8,28.4,81.0,,,30.04,0.0,0.0,0.0,0.0,2024-12-23,12,2024,6,KOKV,0.0,0.0,0.0,0.0,3
2024-12-20,20,2024-12-20 07:55,07:55,EST,Calm,10.0,Overcast,SCT029 BKN036 OVC048,33.8,28.4,81.0,,,30.02,0.0,0.0,0.0,0.0,2024-12-23,12,2024,7,KOKV,0.0,0.0,0.0,0.0,0
2024-12-20,20,2024-12-20 08:55,08:55,EST,Calm,10.0,Overcast,OVC029,33.8,28.4,81.0,,,30.01,0.0,0.0,0.0,0.0,2024-12-23,12,2024,8,KOKV,0.0,0.0,0.0,0.0,0
2024-12-20,20,2024-12-20 09:55,09:55,EST,Calm,10.0,Overcast,SCT023 BKN030 OVC038,33.8,28.4,81.0,,,30.01,0.0,0.0,0.0,0.0,2024-12-23,12,2024,9,KOKV,0.0,0.0,0.0,0.0,0
2024-12-20,20,2024-12-20 10:55,10:55,EST,E  3,10.0,Overcast,SCT028 OVC039,33.8,30.2,87.0,,,29.98,0.0,0.0,0.0,0.0,2024-12-23,12,2024,10,KOKV,0.0,0.0,0.0,0.0,3
2024-12-20,20,2024-12-20 11:55,11:55,EST,Calm,10.0,Overcast,SCT033 OVC041,35.6,30.2,81.0,,,29.93,0.0,0.0,0.0,0.0,2024-12-23,12,2024,11,KOKV,0.0,0.0,0.0,0.0,0
2024-12-20,20,2024-12-20 12:55,12:55,EST,Calm,10.0,Overcast,SCT018 SCT036 OVC090,37.4,30.2,75.0,,,29.9,0.0,0.0,0.0,0.0,2024-12-23,12,2024,12,KOKV,0.0,0.0,0.0,0.0,0
2024-12-20,20,2024-12-20 13:55,13:55,EST,N  3,10.0,Overcast,SCT025 BKN044 OVC080,39.2,30.2,70.0,,,29.88,0.0,0.0,0.0,0.0,2024-12-23,12,2024,13,KOKV,0.0,0.0,0.0,0.0,3
2024-12-20,20,2024-12-20 14:55,14:55,EST,N  3,10.0,Mostly Cloudy,BKN027 BKN032,37.4,30.2,75.0,,,29.88,0.0,0.0,0.0,0.0,2024-12-23,12,2024,14,KOKV,0.0,0.0,0.0,0.0,3
2024-12-20,20,2024-12-20 15:55,15:55,EST,N  6,10.0,Overcast,SCT025 SCT048 OVC085,39.2,32.0,75.0,36.0,,29.88,0.0,0.0,0.0,0.0,2024-12-23,12,2024,15,KOKV,0.0,0.0,0.0,0.0,6
2024-12-20,20,2024-12-20 16:55,16:55,EST,NE  5,10.0,Overcast,SCT028 OVC095,35.6,32.0,87.0,32.0,,29.9,0.0,0.0,0.0,0.0,2024-12-23,12,2024,16,KOKV,0.0,0.0,0.0,0.0,5
2024-12-20,20,2024-12-20 17:55,17:55,EST,Calm,10.0,Overcast,SCT080 OVC100,33.8,32.0,93.0,,,29.92,0.0,0.0,0.0,0.0,2024-12-23,12,2024,17,KOKV,0.0,0.0,0.0,0.0,0
2024-12-20,20,2024-12-20 18:55,18:55,EST,Calm,10.0,Overcast,SCT060 SCT075 OVC110,33.8,32.0,93.0,,,29.94,0.0,0.0,0.0,0.0,2024-12-23,12,2024,18,KOKV,0.0,0.0,0.0,0.0,0
2024-12-20,20,2024-12-20 19:55,19:55,EST,Calm,10.0,Overcast,SCT050 BKN060 OVC085,32.0,30.2,93.0,,,29.96,0.0,0.0,0.0,0.0,2024-12-23,12,2024,19,KOKV,0.0,0.0,0.0,0.0,0
2024-12-20,20,2024-12-20 20:55,20:55,EST,Calm,7.0,Overcast,BKN033 OVC040,32.0,32.0,100.0,,,29.95,0.0,0.0,0.0,0.0,2024-12-23,12,2024,20,KOKV,0.0,0.0,0.0,0.0,0
2024-12-20,20,2024-12-20 21:55,21:55,EST,Calm,10.0,Mostly Cloudy,SCT038 BKN044 BKN055,32.0,30.2,93.0,,,29.96,0.0,0.0,0.0,0.0,2024-12-23,12,2024,21,KOKV,0.0,0.0,0.0,0.0,0
2024-12-20,20,2024-12-20 22:55,22:55,EST,Calm,10.0,Overcast,BKN030 OVC037,32.0,32.0,100.0,,,29.96,0.0,0.0,0.0,0.0,2024-12-23,12,2024,22,KOKV,0.0,0.0,0.0,0.0,0
2024-12-20,20,2024-12-20 23:55,23:55,EST,NW  5,10.0,Overcast,OVC034,35.6,30.2,81.0,32.0,,29.96,0.0,0.0,0.0,0.0,2024-12-23,12,2024,23,KOKV,0.0,0.0,0.0,0.0,5
2024-12-21,21,2024-12-21 00:55,00:55,EST,NW  3,10.0,Overcast,OVC037,33.8,26.6,75.0,,,29.96,0.0,0.0,0.0,0.0,2024-12-24,12,2024,0,KOKV,0.0,0.0,0.0,0.0,3
2024-12-21,21,2024-12-21 01:55,01:55,EST,NW  10,10.0,Overcast,BKN039 OVC100,33.8,26.6,75.0,26.0,,29.97,0.0,0.0,0.0,0.0,2024-12-24,12,2024,1,KOKV,0.0,0.0,0.0,0.0,10
2024-12-21,21,2024-12-21 02:55,02:55,EST,NW  16  G 22,10.0,Overcast,OVC041,33.8,24.8,70.0,24.0,,29.99,0.0,0.0,0.0,0.0,2024-12-24,12,2024,2,KOKV,0.0,0.0,0.0,0.0,16
2024-12-21,21,2024-12-21 03:55,03:55,EST,NW  9,10.0,Overcast,BKN043 OVC090,33.8,23.0,65.0,27.0,,30.03,0.0,0.0,0.0,0.0,2024-12-24,12,2024,3,KOKV,0.0,0.0,0.0,0.0,9
2024-12-21,21,2024-12-21 04:55,04:55,EST,NW  8,10.0,Overcast,SCT037 BKN050 OVC090,33.8,23.0,65.0,28.0,,30.06,0.0,0.0,0.0,0.0,2024-12-24,12,2024,4,KOKV,0.0,0.0,0.0,0.0,8
2024-12-21,21,2024-12-21 05:55,05:55,EST,NW  10,10.0,Overcast,OVC100,32.0,19.4,60.0,24.0,,30.09,0.0,0.0,0.0,0.0,2024-12-24,12,2024,5,KOKV,0.0,0.0,0.0,0.0,10
2024-12-21,21,2024-12-21 06:55,06:55,EST,NW  16  G 23,10.0,Overcast,SCT040 BKN049 OVC055,32.0,19.4,60.0,22.0,,30.11,0.0,0.0,0.0,0.0,2024-12-24,12,2024,6,KOKV,0.0,0.0,0.0,0.0,16
2024-12-21,21,2024-12-21 07:55,07:55,EST,NW  15  G 23,10.0,Fair,CLR,32.0,14.0,47.0,22.0,,30.15,0.0,0.0,0.0,0.0,2024-12-24,12,2024,7,KOKV,0.0,0.0,0.0,0.0,15
2024-12-21,21,2024-12-21 08:55,08:55,EST,N  7  G 21,10.0,Overcast,OVC047,32.0,14.0,47.0,26.0,,30.18,0.0,0.0,0.0,0.0,2024-12-24,12,2024,8,KOKV,0.0,0.0,0.0,0.0,7
2024-12-21,21,2024-12-21 09:55,09:55,EST,NW  12  G 17,10.0,Overcast,SCT042 OVC050,32.0,17.6,55.0,24.0,,30.21,0.0,0.0,0.0,0.0,2024-12-24,12,2024,9,KOKV,0.0,0.0,0.0,0.0,12
2024-12-21,21,2024-12-21 10:55,10:55,EST,NW  15  G 26,10.0,Overcast,BKN048 OVC060,32.0,14.0,47.0,22.0,,30.22,0.0,0.0,0.0,0.0,2024-12-24,12,2024,10,KOKV,0.0,0.0,0.0,0.0,15
2024-12-21,21,2024-12-21 11:55,11:55,EST,NW  14  G 18,10.0,Overcast,OVC048,32.0,15.8,51.0,23.0,,30.19,0.0,0.0,0.0,0.0,2024-12-24,12,2024,11,KOKV,0.0,0.0,0.0,0.0,14
2024-12-21,21,2024-12-21 12:55,12:55,EST,NW  9,10.0,Overcast,BKN050 OVC060,32.0,14.0,47.0,25.0,,30.19,0.0,0.0,0.0,0.0,2024-12-24,12,2024,12,KOKV,0.0,0.0,0.0,0.0,9
2024-12-21,21,2024-12-21 13:55,13:55,EST,NW  14  G 21,10.0,Overcast,SCT050 SCT055 OVC065,32.0,14.0,47.0,23.0,,30.18,0.0,0.0,0.0,0.0,2024-12-24,12,2024,13,KOKV,0.0,0.0,0.0,0.0,14
2024-12-21,21,2024-12-21 14:55,14:55,EST,NW  13  G 18,10.0,Overcast,SCT047 OVC060,32.0,17.6,55.0,23.0,,30.21,0.0,0.0,0.0,0.0,2024-12-24,12,2024,14,KOKV,0.0,0.0,0.0,0.0,13
2024-12-21,21,2024-12-21 15:55,15:55,EST,NW  9  G 22,10.0,Overcast,SCT040 SCT049 OVC065,32.0,17.6,55.0,25.0,,30.22,0.0,0.0,0.0,0.0,2024-12-24,12,2024,15,KOKV,0.0,0.0,0.0,0.0,9
2024-12-21,21,2024-12-21 16:55,16:55,EST,NW  13  G 21,10.0,Overcast,OVC055,30.2,14.0,51.0,21.0,,30.22,0.0,0.0,0.0,0.0,2024-12-24,12,2024,16,KOKV,0.0,0.0,0.0,0.0,13
2024-12-21,21,2024-12-21 17:55,17:55,EST,NW  14  G 22,10.0,Overcast,SCT043 OVC055,30.2,14.0,51.0,21.0,,30.24,0.0,0.0,0.0,0.0,2024-12-24,12,2024,17,KOKV,0.0,0.0,0.0,0.0,14
2024-12-21,21,2024-12-21 18:55,18:55,EST,NW  12  G 21,7.0,Overcast,SCT025 BKN045 OVC050,28.4,17.6,64.0,19.0,,30.26,0.0,0.0,0.0,0.0,2024-12-24,12,2024,18,KOKV,0.0,0.0,0.0,0.0,12
2024-12-21,21,2024-12-21 19:55,19:55,EST,NW  16  G 25,10.0,Partly Cloudy,SCT050,28.4,14.0,55.0,17.0,,30.27,0.0,0.0,0.0,0.0,2024-12-24,12,2024,19,KOKV,0.0,0.0,0.0,0.0,16
2024-12-21,21,2024-12-21 20:55,20:55,EST,Calm,10.0,Fair,CLR,26.6,12.2,54.0,,,30.3,0.0,0.0,0.0,0.0,2024-12-24,12,2024,20,KOKV,0.0,0.0,0.0,0.0,0
2024-12-21,21,2024-12-21 21:55,21:55,EST,NW  10,10.0,Partly Cloudy,SCT055,26.6,12.2,54.0,18.0,,30.32,0.0,0.0,0.0,0.0,2024-12-24,12,2024,21,KOKV,0.0,0.0,0.0,0.0,10
2024-12-21,21,2024-12-21 22:55,22:55,EST,NW  14,10.0,Fair,CLR,26.6,12.2,54.0,16.0,,30.33,0.0,0.0,0.0,0.0,2024-12-24,12,2024,22,KOKV,0.0,0.0,0.0,0.0,14
2024-12-21,21,2024-12-21 23:55,23:55,EST,N  9,10.0,Overcast,SCT042 OVC048,26.6,10.4,50.0,18.0,,30.32,0.0,0.0,0.0,0.0,2024-12-24,12,2024,23,KOKV,0.0,0.0,0.0,0.0,9
2024-12-22,22,2024-12-22 00:55,00:55,EST,NW  9,10.0,Overcast,OVC044,26.6,12.2,54.0,18.0,,30.33,0.0,0.0,0.0,0.0,2024-12-25,12,2024,0,KOKV,0.0,0.0,0.0,0.0,9
2024-12-22,22,2024-12-22 01:55,01:55,EST,NW  7,10.0,Partly Cloudy,SCT043,24.8,10.4,54.0,18.0,,30.34,0.0,0.0,0.0,0.0,2024-12-25,12,2024,1,KOKV,0.0,0.0,0.0,0.0,7
2024-12-22,22,2024-12-22 02:55,02:55,EST,W  13,10.0,Overcast,OVC049,24.8,10.4,54.0,14.0,,30.36,0.0,0.0,0.0,0.0,2024-12-25,12,2024,2,KOKV,0.0,0.0,0.0,0.0,13
2024-12-22,22,2024-12-22 03:55,03:55,EST,NW  12,10.0,Overcast,OVC045,24.8,10.4,54.0,15.0,,30.35,0.0,0.0,0.0,0.0,2024-12-25,12,2024,3,KOKV,0.0,0.0,0.0,0.0,12
2024-12-22,22,2024-12-22 04:55,04:55,EST,NW  12  G 16,10.0,Overcast,OVC043,23.0,8.6,54.0,13.0,,30.37,0.0,0.0,0.0,0.0,2024-12-25,12,2024,4,KOKV,0.0,0.0,0.0,0.0,12
2024-12-22,22,2024-12-22 05:55,05:55,EST,NW  7,10.0,Partly Cloudy,SCT042,21.2,8.6,58.0,13.0,,30.4,0.0,0.0,0.0,0.0,2024-12-25,12,2024,5,KOKV,0.0,0.0,0.0,0.0,7
2024-12-22,22,2024-12-22 06:55,06:55,EST,NW  10,10.0,Fair,CLR,21.2,10.4,63.0,11.0,,30.41,0.0,0.0,0.0,0.0,2024-12-25,12,2024,6,KOKV,0.0,0.0,0.0,0.0,10
2024-12-22,22,2024-12-22 07:55,07:55,EST,NW  7,10.0,Mostly Cloudy,BKN040,21.2,10.4,63.0,13.0,,30.44,0.0,0.0,0.0,0.0,2024-12-25,12,2024,7,KOKV,0.0,0.0,0.0,0.0,7
2024-12-22,22,2024-12-22 08:55,08:55,EST,NW  6,10.0,Mostly Cloudy,SCT029 BKN036,24.8,10.4,54.0,19.0,,30.46,0.0,0.0,0.0,0.0,2024-12-25,12,2024,8,KOKV,0.0,0.0,0.0,0.0,6
2024-12-22,22,2024-12-22 09:55,09:55,EST,NW  9  G 16,10.0,Overcast,OVC036,26.6,10.4,50.0,18.0,,30.48,0.0,0.0,0.0,0.0,2024-12-25,12,2024,9,KOKV,0.0,0.0,0.0,0.0,9
2024-12-22,22,2024-12-22 10:55,10:55,EST,NW  9  G 16,10.0,Fair,CLR,26.6,10.4,50.0,18.0,,30.48,0.0,0.0,0.0,0.0,2024-12-25,12,2024,10,KOKV,0.0,0.0,0.0,0.0,9
2024-12-22,22,2024-12-22 11:55,11:55,EST,W  12,10.0,Fair,CLR,28.4,10.4,47.0,19.0,,30.45,0.0,0.0,0.0,0.0,2024-12-25,12,2024,11,KOKV,0.0,0.0,0.0,0.0,12
2024-12-22,22,2024-12-22 12:55,12:55,EST,W  6,10.0,Fair,CLR,28.4,10.4,47.0,23.0,,30.42,0.0,0.0,0.0,0.0,2024-12-25,12,2024,12,KOKV,0.0,0.0,0.0,0.0,6
2024-12-22,22,2024-12-22 13:55,13:55,EST,NW  6,10.0,Fair,CLR,30.2,10.4,43.0,25.0,,30.43,0.0,0.0,0.0,0.0,2024-12-25,12,2024,13,KOKV,0.0,0.0,0.0,0.0,6
2024-12-22,22,2024-12-22 14:55,14:55,EST,N  6,10.0,Fair,CLR,30.2,8.6,40.0,25.0,,30.42,0.0,0.0,0.0,0.0,2024-12-25,12,2024,14,KOKV,0.0,0.0,0.0,0.0,6
2024-12-22,22,2024-12-22 15:55,15:55,EST,NW  3,10.0,Fair,CLR,30.2,8.6,40.0,,,30.45,0.0,0.0,0.0,0.0,2024-12-25,12,2024,15,KOKV,0.0,0.0,0.0,0.0,3
2024-12-22,22,2024-12-22 16:55,16:55,EST,N  3,10.0,Fair,CLR,28.4,8.6,43.0,,,30.46,0.0,0.0,0.0,0.0,2024-12-25,12,2024,16,KOKV,0.0,0.0,0.0,0.0,3
2024-12-22,22,2024-12-22 17:55,17:55,EST,Calm,10.0,Fair,CLR,26.6,8.6,46.0,,,30.47,0.0,0.0,0.0,0.0,2024-12-25,12,2024,17,KOKV,0.0,0.0,0.0,0.0,0
2024-12-22,22,2024-12-22 18:55,18:55,EST,Calm,10.0,Fair,CLR,24.8,8.6,50.0,,,30.49,0.0,0.0,0.0,0.0,2024-12-25,12,2024,18,KOKV,0.0,0.0,0.0,0.0,0
2024-12-22,22,2024-12-22 19:55,19:55,EST,Calm,10.0,Fair,CLR,21.2,10.4,63.0,,,30.5,0.0,0.0,0.0,0.0,2024-12-25,12,2024,19,KOKV,0.0,0.0,0.0,0.0,0
2024-12-22,22,2024-12-22 20:55,20:55,EST,Calm,10.0,Fair,CLR,21.2,8.6,58.0,,,30.52,0.0,0.0,0.0,0.0,2024-12-25,12,2024,20,KOKV,0.0,0.0,0.0,0.0,0
2024-12-22,22,2024-12-22 21:55,21:55,EST,Calm,10.0,Fair,CLR,17.6,10.4,73.0,,,30.53,0.0,0.0,0.0,0.0,2024-12-25,12,2024,21,KOKV,0.0,0.0,0.0,0.0,0
2024-12-22,22,2024-12-22 22:55,22:55,EST,Calm,10.0,Fair,CLR,17.6,10.4,73.0,,,30.54,0.0,0.0,0.0,0.0,2024-12-25,12,2024,22,KOKV,0.0,0.0,0.0,0.0,0
2024-12-22,22,2024-12-22 23:55,23:55,EST,Calm,10.0,Fair,CLR,17.6,10.4,73.0,,,30.53,0.0,0.0,0.0,0.0,2024-12-25,12,2024,23,KOKV,0.0,0.0,0.0,0.0,0
2024-12-23,23,2024-12-23 00:55,00:55,EST,Calm,10.0,Fair,CLR,17.6,10.4,73.0,,,30.52,0.0,0.0,0.0,0.0,2024-12-26,12,2024,0,KOKV,0.0,0.0,0.0,0.0,0
2024-12-23,23,2024-12-23 01:55,01:55,EST,Calm,10.0,Fair,CLR,15.8,10.4,79.0,,,30.52,0.0,0.0,0.0,0.0,2024-12-26,12,2024,1,KOKV,0.0,0.0,0.0,0.0,0
2024-12-23,23,2024-12-23 02:55,02:55,EST,Calm,10.0,Fair,CLR,14.0,8.6,79.0,,,30.54,0.0,0.0,0.0,0.0,2024-12-26,12,2024,2,KOKV,0.0,0.0,0.0,0.0,0
2024-12-23,23,2024-12-23 03:55,03:55,EST,Calm,10.0,Fair,CLR,14.0,8.6,79.0,,,30.53,0.0,0.0,0.0,0.0,2024-12-26,12,2024,3,KOKV,0.0,0.0,0.0,0.0,0
2024-12-23,23,2024-12-23 04:55,04:55,EST,Calm,10.0,Fair,CLR,14.0,8.6,79.0,,,30.53,0.0,0.0,0.0,0.0,2024-12-26,12,2024,4,KOKV,0.0,0.0,0.0,0.0,0
2024-12-23,23,2024-12-23 05:55,05:55,EST,Calm,10.0,Fair,CLR,14.0,8.6,79.0,,,30.54,0.0,0.0,0.0,0.0,2024-12-26,12,2024,5,KOKV,0.0,0.0,0.0,0.0,0
2024-12-23,23,2024-12-23 06:55,06:55,EST,N  3,10.0,Fair,CLR,14.0,8.6,79.0,,,30.56,0.0,0.0,0.0,0.0,2024-12-26,12,2024,6,KOKV,0.0,0.0,0.0,0.0,3
2024-12-23,23,2024-12-23 07:55,07:55,EST,Calm,10.0,Fair,CLR,14.0,8.6,79.0,,,30.56,0.0,0.0,0.0,0.0,2024-12-26,12,2024,7,KOKV,0.0,0.0,0.0,0.0,0
2024-12-23,23,2024-12-23 08:55,08:55,EST,Calm,10.0,Fair,CLR,17.6,12.2,79.0,,,30.57,0.0,0.0,0.0,0.0,2024-12-26,12,2024,8,KOKV,0.0,0.0,0.0,0.0,0
2024-12-23,23,2024-12-23 09:55,09:55,EST,S  5,10.0,Fair,CLR,23.0,14.0,68.0,18.0,,30.57,0.0,0.0,0.0,0.0,2024-12-26,12,2024,9,KOKV,0.0,0.0,0.0,0.0,5
2024-12-23,23,2024-12-23 10:55,10:55,EST,SE  9,10.0,Fair,CLR,28.4,15.8,59.0,20.0,,30.54,0.0,0.0,0.0,0.0,2024-12-26,12,2024,10,KOKV,0.0,0.0,0.0,0.0,9
2024-12-23,23,2024-12-23 11:55,11:55,EST,SE  6,10.0,Fair,CLR,30.2,15.8,55.0,25.0,,30.51,0.0,0.0,0.0,0.0,2024-12-26,12,2024,11,KOKV,0.0,0.0,0.0,0.0,6
2024-12-23,23,2024-12-23 12:55,12:55,EST,SE  5,10.0,Fair,CLR,32.0,15.8,51.0,28.0,,30.47,0.0,0.0,0.0,0.0,2024-12-26,12,2024,12,KOKV,0.0,0.0,0.0,0.0,5
2024-12-23,23,2024-12-23 13:55,13:55,EST,SE  8,10.0,Fair,CLR,32.0,15.8,51.0,25.0,,30.46,0.0,0.0,0.0,0.0,2024-12-26,12,2024,13,KOKV,0.0,0.0,0.0,0.0,8
2024-12-23,23,2024-12-23 14:55,14:55,EST,S  6,10.0,Fair,CLR,32.0,15.8,51.0,27.0,,30.45,0.0,0.0,0.0,0.0,2024-12-26,12,2024,14,KOKV,0.0,0.0,0.0,0.0,6
2024-12-23,23,2024-12-23 15:55,15:55,EST,E  5,10.0,Fair,CLR,32.0,15.8,51.0,28.0,,30.45,0.0,0.0,0.0,0.0,2024-12-26,12,2024,15,KOKV,0.0,0.0,0.0,0.0,5
2024-12-23,23,2024-12-23 16:55,16:55,EST,SE  5,10.0,Fair,CLR,30.2,15.8,55.0,26.0,,30.43,0.0,0.0,0.0,0.0,2024-12-26,12,2024,16,KOKV,0.0,0.0,0.0,0.0,5
2024-12-23,23,2024-12-23 17:55,17:55,EST,SE  5,10.0,Fair,CLR,28.4,15.8,59.0,24.0,,30.42,0.0,0.0,0.0,0.0,2024-12-26,12,2024,17,KOKV,0.0,0.0,0.0,0.0,5
2024-12-23,23,2024-12-23 18:55,18:55,EST,SE  3,10.0,Fair,CLR,26.6,15.8,64.0,,,30.42,0.0,0.0,0.0,0.0,2024-12-26,12,2024,18,KOKV,0.0,0.0,0.0,0.0,3
2024-12-23,23,2024-12-23 19:55,19:55,EST,S  5,10.0,Fair,CLR,28.4,15.8,59.0,24.0,,30.41,0.0,0.0,0.0,0.0,2024-12-26,12,2024,19,KOKV,0.0,0.0,0.0,0.0,5
2024-12-23,23,2024-12-23 20:55,20:55,EST,S  9,10.0,Fair,CLR,28.4,17.6,64.0,20.0,,30.39,0.0,0.0,0.0,0.0,2024-12-26,12,2024,20,KOKV,0.0,0.0,0.0,0.0,9
2024-12-23,23,2024-12-23 21:55,21:55,EST,S  7,10.0,Fair,CLR,28.4,17.6,64.0,22.0,,30.37,0.0,0.0,0.0,0.0,2024-12-26,12,2024,21,KOKV,0.0,0.0,0.0,0.0,7
2024-12-23,23,2024-12-23 22:55,22:55,EST,S  8,10.0,Fair,CLR,28.4,17.6,64.0,21.0,,30.34,0.0,0.0,0.0,0.0,2024-12-26,12,2024,22,KOKV,0.0,0.0,0.0,0.0,8
2024-12-23,23,2024-12-23 23:55,23:55,EST,Calm,10.0,Fair,CLR,28.4,17.6,64.0,,,30.31,0.0,0.0,0.0,0.0,2024-12-26,12,2024,23,KOKV,0.0,0.0,0.0,0.0,0
2024-12-24,24,2024-12-24 00:55,00:55,EST,Calm,10.0,Fair,CLR,26.6,17.6,69.0,,,30.28,0.0,0.0,0.0,0.0,2024-12-27,12,2024,0,KOKV,0.0,0.0,0.0,0.0,0
2024-12-24,24,2024-12-24 01:55,01:55,EST,Calm,10.0,Mostly Cloudy,BKN090,26.6,17.6,69.0,,,30.27,0.0,0.0,0.0,0.0,2024-12-27,12,2024,1,KOKV,0.0,0.0,0.0,0.0,0
2024-12-24,24,2024-12-24 02:55,02:55,EST,SW  5,10.0,Mostly Cloudy,SCT055 SCT080 BKN110,30.2,19.4,64.0,26.0,,30.27,0.0,0.0,0.0,0.0,2024-12-27,12,2024,2,KOKV,0.0,0.0,0.0,0.0,5
2024-12-24,24,2024-12-24 03:55,03:55,EST,Calm,10.0,Partly Cloudy,SCT075 SCT110,26.6,19.4,74.0,,,30.26,0.0,0.0,0.0,0.0,2024-12-27,12,2024,3,KOKV,0.0,0.0,0.0,0.0,0
2024-12-24,24,2024-12-24 04:55,04:55,EST,Calm,10.0,Overcast,OVC090,30.2,19.4,64.0,,,30.25,0.0,0.0,0.0,0.0,2024-12-27,12,2024,4,KOKV,0.0,0.0,0.0,0.0,0
2024-12-24,24,2024-12-24 05:55,05:55,EST,SW  6,10.0,Overcast,OVC100,32.0,19.4,60.0,27.0,,30.26,0.0,0.0,0.0,0.0,2024-12-27,12,2024,5,KOKV,0.0,0.0,0.0,0.0,6
2024-12-24,24,2024-12-24 06:55,06:55,EST,SW  3,10.0,Fair,CLR,32.0,19.4,60.0,,,30.26,0.0,0.0,0.0,0.0,2024-12-27,12,2024,6,KOKV,0.0,0.0,0.0,0.0,3
2024-12-24,24,2024-12-24 07:55,07:55,EST,Calm,10.0,Fair,CLR,32.0,19.4,60.0,,,30.26,0.0,0.0,0.0,0.0,2024-12-27,12,2024,7,KOKV,0.0,0.0,0.0,0.0,0
2024-12-24,24,2024-12-24 08:55,08:55,EST,Calm,10.0,Mostly Cloudy,BKN120,32.0,21.2,64.0,,,30.27,0.0,0.0,0.0,0.0,2024-12-27,12,2024,8,KOKV,0.0,0.0,0.0,0.0,0
2024-12-24,24,2024-12-24 09:55,09:55,EST,S  5,10.0,Partly Cloudy,SCT070 SCT110,32.0,21.2,64.0,28.0,,30.28,0.0,0.0,0.0,0.0,2024-12-27,12,2024,9,KOKV,0.0,0.0,0.0,0.0,5
2024-12-24,24,2024-12-24 10:55,10:55,EST,Calm,10.0,Overcast,OVC070,35.6,21.2,56.0,,,30.29,0.0,0.0,0.0,0.0,2024-12-27,12,2024,10,KOKV,0.0,0.0,0.0,0.0,0
2024-12-24,24,2024-12-24 11:55,11:55,EST,Calm,10.0,Overcast,OVC046,37.4,23.0,56.0,,,30.27,0.0,0.0,0.0,0.0,2024-12-27,12,2024,11,KOKV,0.0,0.0,0.0,0.0,0
2024-12-24,24,2024-12-24 12:55,12:55,EST,S  3,10.0,Overcast,OVC044,41.0,26.6,57.0,,,30.25,0.0,0.0,0.0,0.0,2024-12-27,12,2024,12,KOKV,0.0,0.0,0.0,0.0,3
2024-12-24,24,2024-12-24 13:55,13:55,EST,S  3,10.0,Overcast,OVC048,42.8,26.6,53.0,,,30.23,0.0,0.0,0.0,0.0,2024-12-27,12,2024,13,KOKV,0.0,0.0,0.0,0.0,3
2024-12-24,24,2024-12-24 14:55,14:55,EST,Calm,10.0,Overcast,OVC048,42.8,28.4,57.0,,,30.23,0.0,0.0,0.0,0.0,2024-12-27,12,2024,14,KOKV,0.0,0.0,0.0,0.0,0
2024-12-24,24,2024-12-24 15:55,15:55,EST,Calm,10.0,Overcast,OVC044,42.8,28.4,57.0,,,30.24,0.0,0.0,0.0,0.0,2024-12-27,12,2024,15,KOKV,0.0,0.0,0.0,0.0,0
2024-12-24,24,2024-12-24 16:55,16:55,EST,Calm,10.0,Overcast,OVC042,41.0,28.4,61.0,,,30.25,0.0,0.0,0.0,0.0,2024-12-27,12,2024,16,KOKV,0.0,0.0,0.0,0.0,0
2024-12-24,24,2024-12-24 17:55,17:55,EST,Calm,10.0,Overcast,BKN034 OVC044,41.0,32.0,70.0,,,30.26,0.0,0.0,0.0,0.0,2024-12-27,12,2024,17,KOKV,0.0,0.0,0.0,0.0,0
2024-12-24,24,2024-12-24 18:55,18:55,EST,N  3,10.0,Overcast,OVC042,41.0,32.0,70.0,,,30.27,0.0,0.0,0.0,0.0,2024-12-27,12,2024,18,KOKV,0.0,0.0,0.0,0.0,3
2024-12-24,24,2024-12-24 19:55,19:55,EST,NW  5,10.0,Overcast,OVC042,41.0,32.0,70.0,38.0,,30.29,0.0,0.0,0.0,0.0,2024-12-27,12,2024,19,KOKV,0.0,0.0,0.0,0.0,5
2024-12-24,24,2024-12-24 20:55,20:55,EST,NW  5,10.0,Overcast,OVC042,37.4,32.0,81.0,34.0,,30.29,0.0,0.0,0.0,0.0,2024-12-27,12,2024,20,KOKV,0.0,0.0,0.0,0.0,5
2024-12-24,24,2024-12-24 21:55,21:55,EST,Calm,10.0,Overcast,OVC040,39.2,32.0,75.0,,,30.29,0.0,0.0,0.0,0.0,2024-12-27,12,2024,21,KOKV,0.0,0.0,0.0,0.0,0
2024-12-24,24,2024-12-24 22:55,22:55,EST,Calm,10.0,Overcast,OVC040,37.4,32.0,81.0,,,30.3,0.0,0.0,0.0,0.0,2024-12-27,12,2024,22,KOKV,0.0,0.0,0.0,0.0,0
2024-12-24,24,2024-12-24 23:55,23:55,EST,Calm,10.0,Overcast,OVC042,37.4,32.0,81.0,,,30.3,0.0,0.0,0.0,0.0,2024-12-27,12,2024,23,KOKV,0.0,0.0,0.0,0.0,0
2024-12-25,25,2024-12-25 00:55,00:55,EST,Calm,10.0,Overcast,OVC044,35.6,32.0,87.0,,,30.29,0.0,0.0,0.0,0.0,2024-12-28,12,2024,0,KOKV,0.0,0.0,0.0,0.0,0
2024-12-25,25,2024-12-25 01:55,01:55,EST,Calm,10.0,Overcast,OVC044,37.4,32.0,81.0,,,30.3,0.0,0.0,0.0,0.0,2024-12-28,12,2024,1,KOKV,0.0,0.0,0.0,0.0,0
2024-12-25,25,2024-12-25 02:55,02:55,EST,Calm,10.0,Overcast,OVC042,35.6,32.0,87.0,,,30.31,0.0,0.0,0.0,0.0,2024-12-28,12,2024,2,KOKV,0.0,0.0,0.0,0.0,0
2024-12-25,25,2024-12-25 03:55,03:55,EST,Calm,10.0,Overcast,OVC044,35.6,32.0,87.0,,,30.31,0.0,0.0,0.0,0.0,2024-12-28,12,2024,3,KOKV,0.0,0.0,0.0,0.0,0
2024-12-25,25,2024-12-25 04:55,04:55,EST,Calm,10.0,Overcast,OVC044,33.8,32.0,93.0,,,30.3,0.0,0.0,0.0,0.0,2024-12-28,12,2024,4,KOKV,0.0,0.0,0.0,0.0,0
2024-12-25,25,2024-12-25 05:55,05:55,EST,Calm,10.0,Overcast,OVC044,33.8,32.0,93.0,,,30.31,0.0,0.0,0.0,0.0,2024-12-28,12,2024,5,KOKV,0.0,0.0,0.0,0.0,0
2024-12-25,25,2024-12-25 06:55,06:55,EST,Calm,7.0,Overcast,BKN022 OVC042,33.8,32.0,93.0,,,30.33,0.0,0.0,0.0,0.0,2024-12-28,12,2024,6,KOKV,0.0,0.0,0.0,0.0,0
2024-12-25,25,2024-12-25 07:55,07:55,EST,Calm,7.0,Overcast,OVC042,33.8,32.0,93.0,,,30.34,0.0,0.0,0.0,0.0,2024-12-28,12,2024,7,KOKV,0.0,0.0,0.0,0.0,0
2024-12-25,25,2024-12-25 08:55,08:55,EST,Calm,7.0,Overcast,OVC042,35.6,33.8,93.0,,,30.37,0.0,0.0,0.0,0.0,2024-12-28,12,2024,8,KOKV,0.0,0.0,0.0,0.0,0
2024-12-25,25,2024-12-25 09:55,09:55,EST,Calm,10.0,Overcast,OVC038,37.4,32.0,81.0,,,30.37,0.0,0.0,0.0,0.0,2024-12-28,12,2024,9,KOKV,0.0,0.0,0.0,0.0,0
2024-12-25,25,2024-12-25 10:55,10:55,EST,NE  3,10.0,Overcast,SCT022 OVC040,37.4,30.2,75.0,,,30.37,0.0,0.0,0.0,0.0,2024-12-28,12,2024,10,KOKV,0.0,0.0,0.0,0.0,3
2024-12-25,25,2024-12-25 11:55,11:55,EST,Calm,10.0,Overcast,SCT022 OVC040,39.2,28.4,65.0,,,30.35,0.0,0.0,0.0,0.0,2024-12-28,12,2024,11,KOKV,0.0,0.0,0.0,0.0,0
2024-12-25,25,2024-12-25 12:55,12:55,EST,Calm,10.0,Overcast,SCT030 OVC040,41.0,30.2,66.0,,,30.33,0.0,0.0,0.0,0.0,2024-12-28,12,2024,12,KOKV,0.0,0.0,0.0,0.0,0
2024-12-25,25,2024-12-25 13:55,13:55,EST,Calm,10.0,Overcast,OVC028,41.0,30.2,66.0,,,30.33,0.0,0.0,0.0,0.0,2024-12-28,12,2024,13,KOKV,0.0,0.0,0.0,0.0,0
2024-12-25,25,2024-12-25 14:55,14:55,EST,Calm,10.0,Overcast,OVC035,41.0,30.2,66.0,,,30.32,0.0,0.0,0.0,0.0,2024-12-28,12,2024,14,KOKV,0.0,0.0,0.0,0.0,0
2024-12-25,25,2024-12-25 15:55,15:55,EST,SE  5,10.0,Overcast,OVC039,41.0,30.2,66.0,38.0,,30.32,0.0,0.0,0.0,0.0,2024-12-28,12,2024,15,KOKV,0.0,0.0,0.0,0.0,5
2024-12-25,25,2024-12-25 16:55,16:55,EST,Calm,10.0,Partly Cloudy,SCT041,39.2,28.4,65.0,,,30.33,0.0,0.0,0.0,0.0,2024-12-28,12,2024,16,KOKV,0.0,0.0,0.0,0.0,0
2024-12-25,25,2024-12-25 17:55,17:55,EST,Calm,10.0,Fair,CLR,35.6,28.4,75.0,,,30.32,0.0,0.0,0.0,0.0,2024-12-28,12,2024,17,KOKV,0.0,0.0,0.0,0.0,0
2024-12-25,25,2024-12-25 18:55,18:55,EST,Calm,10.0,Fair,CLR,33.8,28.4,81.0,,,30.34,0.0,0.0,0.0,0.0,2024-12-28,12,2024,18,KOKV,0.0,0.0,0.0,0.0,0
2024-12-25,25,2024-12-25 19:55,19:55,EST,Calm,10.0,Partly Cloudy,SCT120,32.0,28.4,87.0,,,30.34,0.0,0.0,0.0,0.0,2024-12-28,12,2024,19,KOKV,0.0,0.0,0.0,0.0,0
2024-12-25,25,2024-12-25 20:55,20:55,EST,Calm,10.0,Fair,CLR,30.2,26.6,86.0,,,30.35,0.0,0.0,0.0,0.0,2024-12-28,12,2024,20,KOKV,0.0,0.0,0.0,0.0,0
2024-12-25,25,2024-12-25 21:55,21:55,EST,Calm,10.0,Fair,CLR,28.4,24.8,86.0,,,30.36,0.0,0.0,0.0,0.0,2024-12-28,12,2024,21,KOKV,0.0,0.0,0.0,0.0,0
2024-12-25,25,2024-12-25 22:55,22:55,EST,Calm,10.0,Fair,CLR,30.2,26.6,86.0,,,30.36,0.0,0.0,0.0,0.0,2024-12-28,12,2024,22,KOKV,0.0,0.0,0.0,0.0,0
2024-12-25,25,2024-12-25 23:55,23:55,EST,Calm,10.0,Fair,CLR,30.2,28.4,93.0,,,30.36,0.0,0.0,0.0,0.0,2024-12-29,12,2024,23,KOKV,0.0,0.0,0.0,0.0,0
2024-12-26,26,2024-12-26 00:55,00:55,EST,Calm,10.0,Fair,CLR,28.4,24.8,86.0,,,30.35,0.0,0.0,0.0,0.0,2024-12-29,12,2024,0,KOKV,0.0,0.0,0.0,0.0,0
2024-12-26,26,2024-12-26 01:55,01:55,EST,Calm,10.0,Fair,CLR,30.2,24.8,80.0,,,30.35,0.0,0.0,0.0,0.0,2024-12-29,12,2024,1,KOKV,0.0,0.0,0.0,0.0,0
2024-12-26,26,2024-12-26 02:55,02:55,EST,Calm,10.0,Fair,CLR,30.2,26.6,86.0,,,30.35,0.0,0.0,0.0,0.0,2024-12-29,12,2024,2,KOKV,0.0,0.0,0.0,0.0,0
2024-12-26,26,2024-12-26 03:55,03:55,EST,Calm,7.0,Fair,CLR,26.6,24.8,93.0,,,30.36,0.0,0.0,0.0,0.0,2024-12-29,12,2024,3,KOKV,0.0,0.0,0.0,0.0,0
2024-12-26,26,2024-12-26 04:55,04:55,EST,Calm,7.0,Fair,CLR,26.6,23.0,86.0,,,30.37,0.0,0.0,0.0,0.0,2024-12-29,12,2024,4,KOKV,0.0,0.0,0.0,0.0,0
2024-12-26,26,2024-12-26 05:55,05:55,EST,Calm,7.0,Partly Cloudy,SCT029,26.6,24.8,93.0,,,30.39,0.0,0.0,0.0,0.0,2024-12-29,12,2024,5,KOKV,0.0,0.0,0.0,0.0,0
2024-12-26,26,2024-12-26 06:55,06:55,EST,Calm,7.0,Overcast,OVC027,26.6,24.8,93.0,,,30.4,0.0,0.0,0.0,0.0,2024-12-29,12,2024,6,KOKV,0.0,0.0,0.0,0.0,0
2024-12-26,26,2024-12-26 07:55,07:55,EST,Calm,7.0,Overcast,OVC021,30.2,26.6,86.0,,,30.42,0.0,0.0,0.0,0.0,2024-12-29,12,2024,7,KOKV,0.0,0.0,0.0,0.0,0
2024-12-26,26,2024-12-26 08:55,08:55,EST,NE  3,7.0,Overcast,OVC021,30.2,28.4,93.0,,,30.42,0.0,0.0,0.0,0.0,2024-12-29,12,2024,8,KOKV,0.0,0.0,0.0,0.0,3
2024-12-26,26,2024-12-26 09:55,09:55,EST,Calm,7.0,Overcast,OVC019,32.0,28.4,87.0,,,30.43,0.0,0.0,0.0,0.0,2024-12-29,12,2024,9,KOKV,0.0,0.0,0.0,0.0,0
2024-12-26,26,2024-12-26 10:55,10:55,EST,Calm,7.0,Overcast,OVC019,32.0,30.2,93.0,,,30.43,0.0,0.0,0.0,0.0,2024-12-29,12,2024,10,KOKV,0.0,0.0,0.0,0.0,0
2024-12-26,26,2024-12-26 11:55,11:55,EST,Calm,7.0,Overcast,OVC019,33.8,30.2,87.0,,,30.41,0.0,0.0,0.0,0.0,2024-12-29,12,2024,11,KOKV,0.0,0.0,0.0,0.0,0
2024-12-26,26,2024-12-26 12:55,12:55,EST,Calm,7.0,Overcast,OVC019,33.8,30.2,87.0,,,30.39,0.0,0.0,0.0,0.0,2024-12-29,12,2024,12,KOKV,0.0,0.0,0.0,0.0,0
2024-12-26,26,2024-12-26 13:55,13:55,EST,Calm,7.0,Overcast,OVC019,35.6,30.2,81.0,,,30.37,0.0,0.0,0.0,0.0,2024-12-29,12,2024,13,KOKV,0.0,0.0,0.0,0.0,0
2024-12-26,26,2024-12-26 14:55,14:55,EST,E  5,7.0,Overcast,OVC019,35.6,30.2,81.0,32.0,,30.37,0.0,0.0,0.0,0.0,2024-12-29,12,2024,14,KOKV,0.0,0.0,0.0,0.0,5
2024-12-26,26,2024-12-26 15:55,15:55,EST,E  5,10.0,Overcast,OVC019,35.6,30.2,81.0,32.0,,30.37,0.0,0.0,0.0,0.0,2024-12-29,12,2024,15,KOKV,0.0,0.0,0.0,0.0,5
2024-12-26,26,2024-12-26 16:55,16:55,EST,Calm,10.0,Overcast,OVC019,35.6,30.2,81.0,,,30.37,0.0,0.0,0.0,0.0,2024-12-29,12,2024,16,KOKV,0.0,0.0,0.0,0.0,0
2024-12-26,26,2024-12-26 17:55,17:55,EST,Calm,10.0,Overcast,OVC019,35.6,30.2,81.0,,,30.38,0.0,0.0,0.0,0.0,2024-12-29,12,2024,17,KOKV,0.0,0.0,0.0,0.0,0
2024-12-26,26,2024-12-26 18:55,18:55,EST,Calm,10.0,Mostly Cloudy,BKN019,33.8,30.2,87.0,,,30.39,0.0,0.0,0.0,0.0,2024-12-29,12,2024,18,KOKV,0.0,0.0,0.0,0.0,0
2024-12-26,26,2024-12-26 19:55,19:55,EST,Calm,7.0,Fair,CLR,32.0,28.4,87.0,,,30.4,0.0,0.0,0.0,0.0,2024-12-29,12,2024,19,KOKV,0.0,0.0,0.0,0.0,0
2024-12-26,26,2024-12-26 20:55,20:55,EST,Calm,7.0,Fair,CLR,30.2,28.4,93.0,,,30.39,0.0,0.0,0.0,0.0,2024-12-29,12,2024,20,KOKV,0.0,0.0,0.0,0.0,0
2024-12-26,26,2024-12-26 21:55,21:55,EST,Calm,5.0,Fair,CLR,30.2,28.4,93.0,,,30.39,0.0,0.0,0.0,0.0,2024-12-29,12,2024,21,KOKV,0.0,0.0,0.0,0.0,0
2024-12-26,26,2024-12-26 22:55,22:55,EST,Calm,5.0,Fair,CLR,26.6,24.8,93.0,,,30.39,0.0,0.0,0.0,0.0,2024-12-29,12,2024,22,KOKV,0.0,0.0,0.0,0.0,0
2024-12-26,26,2024-12-26 23:55,23:55,EST,Calm,4.0,Fair,CLR,28.4,26.6,93.0,,,30.39,0.0,0.0,0.0,0.0,2024-12-29,12,2024,23,KOKV,0.0,0.0,0.0,0.0,0
2024-12-27,27,2024-12-27 00:55,00:55,EST,Calm,4.0,Fair,CLR,26.6,24.8,93.0,,,30.37,0.0,0.0,0.0,0.0,2024-12-30,12,2024,0,KOKV,0.0,0.0,0.0,0.0,0
2024-12-27,27,2024-12-27 01:55,01:55,EST,Calm,4.0,Fair,CLR,26.6,26.6,100.0,,,30.39,0.0,0.0,0.0,0.0,2024-12-30,12,2024,1,KOKV,0.0,0.0,0.0,0.0,0
2024-12-27,27,2024-12-27 02:55,02:55,EST,Calm,3.0,Fair,CLR,24.8,23.0,93.0,,,30.4,0.0,0.0,0.0,0.0,2024-12-30,12,2024,2,KOKV,0.0,0.0,0.0,0.0,0
2024-12-27,27,2024-12-27 03:55,03:55,EST,Calm,4.0,Fair,CLR,26.6,24.8,93.0,,,30.4,0.0,0.0,0.0,0.0,2024-12-30,12,2024,3,KOKV,0.0,0.0,0.0,0.0,0
2024-12-27,27,2024-12-27 04:55,04:55,EST,Calm,5.0,Overcast,OVC020,28.4,26.6,93.0,,,30.39,0.0,0.0,0.0,0.0,2024-12-30,12,2024,4,KOKV,0.0,0.0,0.0,0.0,0
2024-12-27,27,2024-12-27 05:55,05:55,EST,Calm,5.0,Overcast,OVC018,28.4,26.6,93.0,,,30.38,0.0,0.0,0.0,0.0,2024-12-30,12,2024,5,KOKV,0.0,0.0,0.0,0.0,0
2024-12-27,27,2024-12-27 06:55,06:55,EST,Calm,5.0,Partly Cloudy,SCT018,26.6,26.6,100.0,,,30.39,0.0,0.0,0.0,0.0,2024-12-30,12,2024,6,KOKV,0.0,0.0,0.0,0.0,0
2024-12-27,27,2024-12-27 07:55,07:55,EST,Calm,2.0,Partly Cloudy,SCT019,26.6,24.8,93.0,,,30.41,0.0,0.0,0.0,0.0,2024-12-30,12,2024,7,KOKV,0.0,0.0,0.0,0.0,0
2024-12-27,27,2024-12-27 08:55,08:55,EST,Calm,4.0,Fair,CLR,30.2,28.4,93.0,,,30.4,0.0,0.0,0.0,0.0,2024-12-30,12,2024,8,KOKV,0.0,0.0,0.0,0.0,0
2024-12-27,27,2024-12-27 09:55,09:55,EST,S  5,7.0,Partly Cloudy,SCT016,32.0,30.2,93.0,28.0,,30.4,0.0,0.0,0.0,0.0,2024-12-30,12,2024,9,KOKV,0.0,0.0,0.0,0.0,5
2024-12-27,27,2024-12-27 10:55,10:55,EST,S  6,7.0,Overcast,OVC012,35.6,32.0,87.0,31.0,,30.39,0.0,0.0,0.0,0.0,2024-12-30,12,2024,10,KOKV,0.0,0.0,0.0,0.0,6
2024-12-27,27,2024-12-27 11:55,11:55,EST,S  5,7.0,Overcast,OVC016,37.4,32.0,81.0,34.0,,30.36,0.0,0.0,0.0,0.0,2024-12-30,12,2024,11,KOKV,0.0,0.0,0.0,0.0,5
2024-12-27,27,2024-12-27 12:55,12:55,EST,SE  5,10.0,Fair,CLR,39.2,32.0,75.0,36.0,,30.32,0.0,0.0,0.0,0.0,2024-12-30,12,2024,12,KOKV,0.0,0.0,0.0,0.0,5
2024-12-27,27,2024-12-27 13:55,13:55,EST,SE  5,10.0,Fair,CLR,41.0,32.0,70.0,38.0,,30.29,0.0,0.0,0.0,0.0,2024-12-30,12,2024,13,KOKV,0.0,0.0,0.0,0.0,5
2024-12-27,27,2024-12-27 14:55,14:55,EST,SE  6,10.0,Partly Cloudy,SCT038,42.8,32.0,66.0,40.0,,30.28,0.0,0.0,0.0,0.0,2024-12-30,12,2024,14,KOKV,0.0,0.0,0.0,0.0,6
2024-12-27,27,2024-12-27 15:55,15:55,EST,SE  8,10.0,Overcast,OVC032,42.8,32.0,66.0,39.0,,30.29,0.0,0.0,0.0,0.0,2024-12-30,12,2024,15,KOKV,0.0,0.0,0.0,0.0,8
2024-12-27,27,2024-12-27 16:55,16:55,EST,SE  7,10.0,Overcast,OVC032,41.0,32.0,70.0,37.0,,30.29,0.0,0.0,0.0,0.0,2024-12-30,12,2024,16,KOKV,0.0,0.0,0.0,0.0,7
2024-12-27,27,2024-12-27 17:55,17:55,EST,SE  5,10.0,Overcast,BKN032 OVC060,41.0,32.0,70.0,38.0,,30.29,0.0,0.0,0.0,0.0,2024-12-30,12,2024,17,KOKV,0.0,0.0,0.0,0.0,5
2024-12-27,27,2024-12-27 18:55,18:55,EST,S  6,10.0,Overcast,BKN028 BKN043 OVC049,41.0,32.0,70.0,38.0,,30.28,0.0,0.0,0.0,0.0,2024-12-30,12,2024,18,KOKV,0.0,0.0,0.0,0.0,6
2024-12-27,27,2024-12-27 19:55,19:55,EST,S  12,10.0,Overcast,BKN026 BKN031 OVC043,41.0,32.0,70.0,35.0,,30.28,0.0,0.0,0.0,0.0,2024-12-30,12,2024,19,KOKV,0.0,0.0,0.0,0.0,12
2024-12-27,27,2024-12-27 20:55,20:55,EST,SE  10,10.0,Overcast,SCT029 OVC049,41.0,32.0,70.0,35.0,,30.28,0.0,0.0,0.0,0.0,2024-12-30,12,2024,20,KOKV,0.0,0.0,0.0,0.0,10
2024-12-27,27,2024-12-27 21:55,21:55,EST,S  10,10.0,Overcast,SCT026 OVC033,41.0,33.8,76.0,35.0,,30.25,0.0,0.0,0.0,0.0,2024-12-30,12,2024,21,KOKV,0.0,0.0,0.0,0.0,10
2024-12-27,27,2024-12-27 22:55,22:55,EST,S  9,10.0,Overcast,SCT024 OVC033,39.2,35.6,87.0,34.0,,30.24,0.0,0.0,0.0,0.0,2024-12-30,12,2024,22,KOKV,0.0,0.0,0.0,0.0,9
2024-12-27,27,2024-12-27 23:55,23:55,EST,Calm,10.0,Overcast,OVC020,39.2,37.4,93.0,,,30.23,0.0,0.0,0.0,0.0,2024-12-30,12,2024,23,KOKV,0.0,0.0,0.0,0.0,0
2024-12-28,28,2024-12-28 00:55,00:55,EST,Calm,5.0,Overcast,OVC018,39.2,37.4,93.0,,,30.22,0.0,0.0,0.0,0.0,2024-12-31,12,2024,0,KOKV,0.0,0.0,0.0,0.0,0
2024-12-28,28,2024-12-28 01:55,01:55,EST,Calm,4.0,Overcast,BKN016 OVC023,37.4,37.4,100.0,,,30.21,0.0,0.0,0.0,0.0,2024-12-31,12,2024,1,KOKV,0.0,0.0,0.0,0.0,0
2024-12-28,28,2024-12-28 02:55,02:55,EST,Calm,3.0,Overcast,BKN014 OVC020,39.2,37.4,93.0,,,30.21,0.0,0.0,0.0,0.0,2024-12-31,12,2024,2,KOKV,0.0,0.0,0.0,0.0,0
2024-12-28,28,2024-12-28 03:55,03:55,EST,Calm,3.0,Overcast,OVC020,39.2,37.4,93.0,,,30.19,0.0,0.0,0.0,0.0,2024-12-31,12,2024,3,KOKV,0.0,0.0,0.0,0.0,0
2024-12-28,28,2024-12-28 04:55,04:55,EST,W  3,5.0,Overcast,SCT018 BKN090 OVC110,41.0,39.2,93.0,,,30.18,0.0,0.0,0.0,0.0,2024-12-31,12,2024,4,KOKV,0.0,0.0,0.0,0.0,3
2024-12-28,28,2024-12-28 05:55,05:55,EST,S  3,7.0,Overcast,SCT022 BKN039 OVC065,41.0,39.2,93.0,,,30.19,0.0,0.0,0.0,0.0,2024-12-31,12,2024,5,KOKV,0.0,0.0,0.0,0.0,3
2024-12-28,28,2024-12-28 06:55,06:55,EST,S  3,10.0,Overcast,OVC029,41.0,41.0,100.0,,,30.19,0.0,0.0,0.0,0.0,2024-12-31,12,2024,6,KOKV,0.0,0.0,0.0,0.0,3
2024-12-28,28,2024-12-28 07:55,07:55,EST,S  5,7.0,Overcast,BKN027 BKN048 OVC060,42.8,41.0,93.0,41.0,,30.21,0.0,0.0,0.0,0.0,2024-12-31,12,2024,7,KOKV,0.0,0.0,0.0,0.0,5
2024-12-28,28,2024-12-28 08:55,08:55,EST,S  6,10.0,Overcast,BKN025 BKN036 OVC050,44.6,42.8,93.0,42.0,,30.21,0.0,0.0,0.0,0.0,2024-12-31,12,2024,8,KOKV,0.0,0.0,0.0,0.0,6
2024-12-28,28,2024-12-28 09:55,09:55,EST,S  6,10.0,Overcast,BKN060 OVC070,44.6,42.8,93.0,42.0,,30.22,0.0,0.0,0.0,0.0,2024-12-31,12,2024,9,KOKV,0.0,0.0,0.0,0.0,6
2024-12-28,28,2024-12-28 10:55,10:55,EST,S  5,10.0,Overcast,SCT060 BKN080 OVC090,46.4,44.6,93.0,45.0,,30.21,0.0,0.0,0.0,0.0,2024-12-31,12,2024,10,KOKV,0.0,0.0,0.0,0.0,5
2024-12-28,28,2024-12-28 11:55,11:55,EST,SW  7,3.0,Overcast,OVC006,48.2,46.4,94.0,46.0,,30.18,0.0,0.0,0.0,0.0,2024-12-31,12,2024,11,KOKV,0.0,0.0,0.0,0.0,7
2024-12-28,28,2024-12-28 12:55,12:55,EST,SW  5,10.0,Overcast,OVC006,51.8,50.0,94.0,,,30.15,0.0,0.0,0.0,0.0,2024-12-31,12,2024,12,KOKV,0.0,0.0,0.0,0.0,5
2024-12-28,28,2024-12-28 13:55,13:55,EST,S  5,10.0,Overcast,OVC008,53.6,50.0,88.0,,,30.13,0.0,0.0,0.0,0.0,2024-12-31,12,2024,13,KOKV,0.0,0.0,0.0,0.0,5
2024-12-28,28,2024-12-28 14:55,14:55,EST,SW  5,10.0,Partly Cloudy,SCT010,55.4,50.0,82.0,,,30.13,0.0,0.0,0.0,0.0,2024-12-31,12,2024,14,KOKV,0.0,0.0,0.0,0.0,5
2024-12-28,28,2024-12-28 15:55,15:55,EST,Calm,10.0,Partly Cloudy,SCT012,53.6,50.0,88.0,,,30.14,0.0,0.0,0.0,0.0,2024-12-31,12,2024,15,KOKV,0.0,0.0,0.0,0.0,0
2024-12-28,28,2024-12-28 16:55,16:55,EST,Calm,10.0,Partly Cloudy,SCT013,51.8,50.0,94.0,,,30.15,0.0,0.0,0.0,0.0,2024-12-31,12,2024,16,KOKV,0.0,0.0,0.0,0.0,0
2024-12-28,28,2024-12-28 17:55,17:55,EST,Calm,3.0,Fair,CLR,46.4,46.4,100.0,,,30.15,0.0,0.0,0.0,0.0,2024-12-31,12,2024,17,KOKV,0.0,0.0,0.0,0.0,0
2024-12-28,28,2024-12-28 18:55,18:55,EST,Calm,0.25,Overcast,OVC002,44.6,42.8,93.0,,,30.16,0.0,0.0,0.0,0.0,2024-12-31,12,2024,18,KOKV,0.0,0.0,0.0,0.0,0
2024-12-28,28,2024-12-28 19:55,19:55,EST,Calm,0.5,Overcast,OVC002,42.8,42.8,100.0,,,30.17,0.0,0.0,0.0,0.0,2024-12-31,12,2024,19,KOKV,0.0,0.0,0.0,0.0,0
2024-12-28,28,2024-12-28 20:55,20:55,EST,Calm,0.25,Overcast,OVC002,44.6,44.6,100.0,,,30.17,0.0,0.0,0.0,0.0,2024-12-31,12,2024,20,KOKV,0.0,0.0,0.0,0.0,0
2024-12-28,28,2024-12-28 21:55,21:55,EST,Calm,0.25,Overcast,OVC002,44.6,42.8,93.0,,,30.16,0.0,0.0,0.0,0.0,2024-12-31,12,2024,21,KOKV,0.0,0.0,0.0,0.0,0
2024-12-28,28,2024-12-28 22:55,22:55,EST,Calm,0.25,Overcast,OVC002,44.6,44.6,100.0,,,30.16,0.0,0.0,0.0,0.0,2024-12-31,12,2024,22,KOKV,0.0,0.0,0.0,0.0,0
2024-12-28,28,2024-12-28 23:35,23:35,EST,Calm,0.25,Overcast,OVC002,44.6,44.6,100.0,,,30.14,0.0,0.0,0.0,0.0,2024-12-31,12,2024,23,KOKV,0.0,0.0,0.0,0.0,0
2024-12-29,29,2024-12-29 00:55,00:55,EST,Calm,1.0,Overcast,OVC002,44.6,44.6,100.0,,,30.12,0.0,0.0,0.0,0.0,2025-01-01,12,2024,0,KOKV,0.0,0.0,0.0,0.0,0
2024-12-29,29,2024-12-29 01:55,01:55,EST,Calm,4.0,Overcast,SCT002 BKN007 OVC030,44.6,44.6,100.0,,,30.1,0.0,0.0,0.0,0.0,2025-01-01,12,2024,1,KOKV,0.0,0.0,0.0,0.0,0
2024-12-29,29,2024-12-29 02:55,02:55,EST,Calm,3.0,Overcast,OVC002,44.6,44.6,100.0,,,30.1,0.0,0.0,0.0,0.0,2025-01-01,12,2024,2,KOKV,0.0,0.0,0.0,0.0,0
2024-12-29,29,2024-12-29 03:55,03:55,EST,Calm,0.75,Overcast,OVC002,44.6,44.6,100.0,,,30.07,0.0,0.0,0.0,0.0,2025-01-01,12,2024,3,KOKV,0.0,0.0,0.0,0.0,0
2024-12-29,29,2024-12-29 04:55,04:55,EST,Calm,0.5,Overcast,OVC002,44.6,44.6,100.0,,,30.04,0.0,0.0,0.0,0.0,2025-01-01,12,2024,4,KOKV,0.0,0.0,0.0,0.0,0
2024-12-29,29,2024-12-29 05:55,05:55,EST,Calm,1.0,Overcast,OVC002,44.6,44.6,100.0,,,30.01,0.0,0.0,0.0,0.0,2025-01-01,12,2024,5,KOKV,0.0,0.0,0.0,0.0,0
2024-12-29,29,2024-12-29 06:55,06:55,EST,Calm,0.5,Overcast,OVC002,44.6,44.6,100.0,,,29.99,0.0,0.0,0.0,0.0,2025-01-01,12,2024,6,KOKV,0.0,0.0,0.0,0.0,0
2024-12-29,29,2024-12-29 07:55,07:55,EST,NW  3,0.25,Overcast,OVC002,42.8,42.8,100.0,,,29.97,0.0,0.0,0.0,0.0,2025-01-01,12,2024,7,KOKV,0.0,0.0,0.0,0.0,3
2024-12-29,29,2024-12-29 08:55,08:55,EST,SE  15  G 22,10.0,Partly Cloudy,SCT060,53.6,53.6,100.0,,,29.96,0.0,0.0,0.0,0.0,2025-01-01,12,2024,8,KOKV,0.0,0.0,0.0,0.0,15
2024-12-29,29,2024-12-29 09:55,09:55,EST,S  17  G 25,10.0,Partly Cloudy,SCT031,55.4,55.4,100.0,,,29.95,0.0,0.0,0.0,0.0,2025-01-01,12,2024,9,KOKV,0.0,0.0,0.0,0.0,17
2024-12-29,29,2024-12-29 10:55,10:55,EST,S  10  G 23,10.0,Overcast,BKN014 BKN022 OVC028,57.2,53.6,88.0,,,29.91,0.0,0.0,0.0,0.0,2025-01-01,12,2024,10,KOKV,0.0,0.0,0.0,0.0,10
2024-12-29,29,2024-12-29 11:55,11:55,EST,S  16  G 25,10.0,Overcast,OVC020,60.8,53.6,77.0,,,29.85,0.0,0.0,0.0,0.0,2025-01-01,12,2024,11,KOKV,0.0,0.0,0.0,0.0,16
2024-12-29,29,2024-12-29 12:55,12:55,EST,S  17  G 29,10.0,Mostly Cloudy,SCT028 BKN035 BKN041,62.6,53.6,73.0,,,29.79,0.0,0.0,0.0,0.0,2025-01-01,12,2024,12,KOKV,0.0,0.0,0.0,0.0,17
2024-12-29,29,2024-12-29 13:55,13:55,EST,S  21  G 28,10.0,Overcast and Breezy,BKN030 OVC038,64.4,53.6,68.0,,,29.75,0.0,0.0,0.0,0.0,2025-01-01,12,2024,13,KOKV,0.0,0.0,0.0,0.0,21
2024-12-29,29,2024-12-29 14:55,14:55,EST,SE  13  G 22,10.0,Overcast,BKN030 OVC040,62.6,53.6,73.0,,,29.73,0.0,0.0,0.0,0.0,2025-01-01,12,2024,14,KOKV,0.0,0.0,0.0,0.0,13
2024-12-29,29,2024-12-29 15:55,15:55,EST,SE  15  G 24,10.0,Overcast,BKN026 BKN034 OVC100,60.8,53.6,77.0,,,29.68,0.0,0.0,0.0,0.0,2025-01-01,12,2024,15,KOKV,0.0,0.0,0.0,0.0,15
2024-12-29,29,2024-12-29 16:55,16:55,EST,SE  24  G 31,10.0,Overcast and Breezy,OVC095,62.6,53.6,73.0,,,29.65,0.0,0.0,0.0,0.0,2025-01-01,12,2024,16,KOKV,0.0,0.0,0.0,0.0,24
2024-12-29,29,2024-12-29 17:55,17:55,EST,SE  18  G 32,10.0,Overcast,SCT050 BKN065 OVC095,60.8,53.6,77.0,,,29.63,0.0,0.0,0.0,0.0,2025-01-01,12,2024,17,KOKV,0.0,0.0,0.0,0.0,18
2024-12-29,29,2024-12-29 18:55,18:55,EST,SE  16  G 25,10.0,Overcast,SCT026 BKN035 OVC047,59.0,53.6,82.0,,,29.63,0.0,0.0,0.0,0.0,2025-01-01,12,2024,18,KOKV,0.0,0.0,0.0,0.0,16
2024-12-29,29,2024-12-29 19:55,19:55,EST,S  17  G 24,10.0,Overcast,SCT041 BKN048 OVC070,59.0,51.8,77.0,,,29.62,0.0,0.0,0.0,0.0,2025-01-01,12,2024,19,KOKV,0.0,0.0,0.0,0.0,17
2024-12-29,29,2024-12-29 20:55,20:55,EST,S  7,10.0,Overcast,BKN038 BKN044 OVC060,57.2,51.8,82.0,,,29.62,0.0,0.0,0.0,0.0,2025-01-01,12,2024,20,KOKV,0.0,0.0,0.0,0.0,7
2024-12-29,29,2024-12-29 21:55,21:55,EST,S  9,10.0,Overcast,BKN038 OVC046,55.4,51.8,88.0,,,29.61,0.0,0.0,0.0,0.0,2025-01-01,12,2024,21,KOKV,0.0,0.0,0.0,0.0,9
2024-12-29,29,2024-12-29 22:55,22:55,EST,SW  8  G 17,10.0,Overcast,SCT050 OVC090,57.2,50.0,77.0,,,29.63,0.0,0.0,0.0,0.0,2025-01-01,12,2024,22,KOKV,0.0,0.0,0.0,0.0,8
2024-12-29,29,2024-12-29 23:55,23:55,EST,SW  7,10.0,Mostly Cloudy,BKN110,55.4,48.2,77.0,,,29.62,0.0,0.0,0.0,0.0,2025-01-01,12,2024,23,KOKV,0.0,0.0,0.0,0.0,7
2024-12-30,30,2024-12-30 00:55,00:55,EST,SW  7,10.0,Fair,CLR,51.8,46.4,82.0,,,29.61,0.0,0.0,0.0,0.0,2025-01-02,12,2024,0,KOKV,0.0,0.0,0.0,0.0,7
2024-12-30,30,2024-12-30 01:55,01:55,EST,SW  8,10.0,Fair,CLR,51.8,44.6,77.0,,,29.62,0.0,0.0,0.0,0.0,2025-01-02,12,2024,1,KOKV,0.0,0.0,0.0,0.0,8
2024-12-30,30,2024-12-30 02:55,02:55,EST,SW  5,10.0,Fair,CLR,50.0,42.8,76.0,49.0,,29.63,0.0,0.0,0.0,0.0,2025-01-02,12,2024,2,KOKV,0.0,0.0,0.0,0.0,5
2024-12-30,30,2024-12-30 03:55,03:55,EST,SW  6,10.0,Fair,CLR,50.0,41.0,71.0,48.0,,29.63,0.0,0.0,0.0,0.0,2025-01-02,12,2024,3,KOKV,0.0,0.0,0.0,0.0,6
2024-12-30,30,2024-12-30 04:55,04:55,EST,SW  5,10.0,Fair,CLR,44.6,37.4,76.0,43.0,,29.63,0.0,0.0,0.0,0.0,2025-01-02,12,2024,4,KOKV,0.0,0.0,0.0,0.0,5
2024-12-30,30,2024-12-30 05:55,05:55,EST,SW  3,10.0,Fair,CLR,42.8,37.4,81.0,,,29.66,0.0,0.0,0.0,0.0,2025-01-02,12,2024,5,KOKV,0.0,0.0,0.0,0.0,3
2024-12-30,30,2024-12-30 06:55,06:55,EST,W  13  G 20,10.0,Fair,CLR,46.4,32.0,57.0,41.0,,29.69,0.0,0.0,0.0,0.0,2025-01-02,12,2024,6,KOKV,0.0,0.0,0.0,0.0,13
2024-12-30,30,2024-12-30 07:55,07:55,EST,W  8,10.0,Fair,CLR,46.4,32.0,57.0,43.0,,29.7,0.0,0.0,0.0,0.0,2025-01-02,12,2024,7,KOKV,0.0,0.0,0.0,0.0,8
2024-12-30,30,2024-12-30 08:55,08:55,EST,W  8,10.0,Fair,CLR,48.2,32.0,54.0,45.0,,29.73,0.0,0.0,0.0,0.0,2025-01-02,12,2024,8,KOKV,0.0,0.0,0.0,0.0,8
2024-12-30,30,2024-12-30 09:55,09:55,EST,W  13  G 24,10.0,Fair,CLR,50.0,32.0,50.0,46.0,,29.76,0.0,0.0,0.0,0.0,2025-01-02,12,2024,9,KOKV,0.0,0.0,0.0,0.0,13
2024-12-30,30,2024-12-30 10:55,10:55,EST,W  13  G 20,10.0,Partly Cloudy,SCT055,51.8,32.0,47.0,,,29.76,0.0,0.0,0.0,0.0,2025-01-02,12,2024,10,KOKV,0.0,0.0,0.0,0.0,13
2024-12-30,30,2024-12-30 11:55,11:55,EST,W  16  G 20,10.0,Mostly Cloudy,BKN055,53.6,32.0,44.0,,,29.74,0.0,0.0,0.0,0.0,2025-01-02,12,2024,11,KOKV,0.0,0.0,0.0,0.0,16
2024-12-30,30,2024-12-30 12:55,12:55,EST,SW  17  G 25,10.0,Partly Cloudy,SCT065,53.6,30.2,41.0,,,29.73,0.0,0.0,0.0,0.0,2025-01-02,12,2024,12,KOKV,0.0,0.0,0.0,0.0,17
2024-12-30,30,2024-12-30 13:55,13:55,EST,W  17  G 23,10.0,Partly Cloudy,SCT065,55.4,30.2,38.0,,,29.73,0.0,0.0,0.0,0.0,2025-01-02,12,2024,13,KOKV,0.0,0.0,0.0,0.0,17
2024-12-30,30,2024-12-30 14:55,14:55,EST,W  20  G 25,10.0,Fair,CLR,53.6,28.4,38.0,,,29.74,0.0,0.0,0.0,0.0,2025-01-02,12,2024,14,KOKV,0.0,0.0,0.0,0.0,20
2024-12-30,30,2024-12-30 15:55,15:55,EST,W  20  G 24,10.0,Fair,CLR,53.6,26.6,35.0,,,29.76,0.0,0.0,0.0,0.0,2025-01-02,12,2024,15,KOKV,0.0,0.0,0.0,0.0,20
2024-12-30,30,2024-12-30 16:55,16:55,EST,W  3,10.0,Fair,CLR,51.8,26.6,38.0,,,29.79,0.0,0.0,0.0,0.0,2025-01-02,12,2024,16,KOKV,0.0,0.0,0.0,0.0,3
2024-12-30,30,2024-12-30 17:55,17:55,EST,SW  3,10.0,Fair,CLR,46.4,26.6,46.0,,,29.82,0.0,0.0,0.0,0.0,2025-01-02,12,2024,17,KOKV,0.0,0.0,0.0,0.0,3
2024-12-30,30,2024-12-30 18:55,18:55,EST,SW  8,10.0,Fair,CLR,48.2,26.6,43.0,45.0,,29.84,0.0,0.0,0.0,0.0,2025-01-02,12,2024,18,KOKV,0.0,0.0,0.0,0.0,8
2024-12-30,30,2024-12-30 19:55,19:55,EST,W  6,10.0,Fair,CLR,44.6,26.6,49.0,42.0,,29.86,0.0,0.0,0.0,0.0,2025-01-02,12,2024,19,KOKV,0.0,0.0,0.0,0.0,6
2024-12-30,30,2024-12-30 20:55,20:55,EST,S  5,10.0,Fair,CLR,42.8,28.4,57.0,41.0,,29.87,0.0,0.0,0.0,0.0,2025-01-02,12,2024,20,KOKV,0.0,0.0,0.0,0.0,5
2024-12-30,30,2024-12-30 21:55,21:55,EST,Calm,10.0,Fair,CLR,42.8,26.6,53.0,,,29.87,0.0,0.0,0.0,0.0,2025-01-02,12,2024,21,KOKV,0.0,0.0,0.0,0.0,0
2024-12-30,30,2024-12-30 22:55,22:55,EST,Calm,10.0,Fair,CLR,37.4,28.4,70.0,,,29.88,0.0,0.0,0.0,0.0,2025-01-02,12,2024,22,KOKV,0.0,0.0,0.0,0.0,0
2024-12-30,30,2024-12-30 23:55,23:55,EST,W  7,10.0,Fair,CLR,42.8,28.4,57.0,39.0,,29.88,0.0,0.0,0.0,0.0,2025-01-02,12,2024,23,KOKV,0.0,0.0,0.0,0.0,7
2024-12-31,31,2024-12-31 00:55,00:55,EST,S  3,10.0,Fair,CLR,37.4,28.4,70.0,,,29.87,0.0,0.0,0.0,0.0,2025-01-03,12,2024,0,KOKV,0.0,0.0,0.0,0.0,3
2024-12-31,31,2024-12-31 01:55,01:55,EST,S  5,10.0,Fair,CLR,37.4,30.2,75.0,34.0,,29.87,0.0,0.0,0.0,0.0,2025-01-03,12,2024,1,KOKV,0.0,0.0,0.0,0.0,5
2024-12-31,31,2024-12-31 02:55,02:55,EST,Calm,10.0,Fair,CLR,37.4,30.2,75.0,,,29.88,0.0,0.0,0.0,0.0,2025-01-03,12,2024,2,KOKV,0.0,0.0,0.0,0.0,0
2024-12-31,31,2024-12-31 03:55,03:55,EST,Calm,10.0,Fair,CLR,35.6,30.2,81.0,,,29.87,0.0,0.0,0.0,0.0,2025-01-03,12,2024,3,KOKV,0.0,0.0,0.0,0.0,0
2024-12-31,31,2024-12-31 04:55,04:55,EST,Calm,10.0,Partly Cloudy,SCT120,33.8,30.2,87.0,,,29.84,0.0,0.0,0.0,0.0,2025-01-03,12,2024,4,KOKV,0.0,0.0,0.0,0.0,0
2024-12-31,31,2024-12-31 05:55,05:55,EST,Calm,10.0,Mostly Cloudy,BKN110,35.6,32.0,87.0,,,29.84,0.0,0.0,0.0,0.0,2025-01-03,12,2024,5,KOKV,0.0,0.0,0.0,0.0,0
2024-12-31,31,2024-12-31 06:55,06:55,EST,Calm,10.0,Fair,CLR,33.8,30.2,87.0,,,29.83,0.0,0.0,0.0,0.0,2025-01-03,12,2024,6,KOKV,0.0,0.0,0.0,0.0,0
2024-12-31,31,2024-12-31 07:55,07:55,EST,Calm,10.0,Fair,CLR,32.0,28.4,87.0,,,29.81,0.0,0.0,0.0,0.0,2025-01-03,12,2024,7,KOKV,0.0,0.0,0.0,0.0,0
2024-12-31,31,2024-12-31 08:55,08:55,EST,SE  8,10.0,Fair,CLR,42.8,32.0,66.0,39.0,,29.79,0.0,0.0,0.0,0.0,2025-01-03,12,2024,8,KOKV,0.0,0.0,0.0,0.0,8
2024-12-31,31,2024-12-31 09:55,09:55,EST,SE  8,10.0,Fair,CLR,48.2,33.8,58.0,45.0,,29.78,0.0,0.0,0.0,0.0,2025-01-03,12,2024,9,KOKV,0.0,0.0,0.0,0.0,8
2024-12-31,31,2024-12-31 10:55,10:55,EST,S  16  G 20,10.0,Fair,CLR,51.8,37.4,58.0,,,29.74,0.0,0.0,0.0,0.0,2025-01-03,12,2024,10,KOKV,0.0,0.0,0.0,0.0,16
2024-12-31,31,2024-12-31 11:55,11:55,EST,SE  12  G 20,10.0,Mostly Cloudy,BKN027 BKN032 BKN040,51.8,41.0,67.0,,,29.68,0.0,0.0,0.0,0.0,2025-01-03,12,2024,11,KOKV,0.0,0.0,0.0,0.0,12
2024-12-31,31,2024-12-31 12:55,12:55,EST,S  13  G 18,10.0,Overcast,OVC025,50.0,41.0,71.0,46.0,,29.65,0.0,0.0,0.0,0.0,2025-01-03,12,2024,12,KOKV,0.0,0.0,0.0,0.0,13
2024-12-31,31,2024-12-31 13:55,13:55,EST,SE  10  G 16,10.0,Overcast,SCT029 SCT035 OVC070,48.2,39.2,71.0,44.0,,29.59,0.0,0.0,0.0,0.0,2025-01-03,12,2024,13,KOKV,0.0,0.0,0.0,0.0,10
2024-12-31,31,2024-12-31 14:55,14:55,EST,Calm,10.0,Thunderstorm,SCT033 OVC039,48.2,39.2,71.0,,,29.57,0.0,0.0,0.0,0.0,2025-01-03,12,2024,14,KOKV,0.0,0.0,0.0,0.0,0
2024-12-31,31,2024-12-31 15:55,15:55,EST,SE  5,10.0,Overcast,SCT031 BKN040 OVC060,50.0,42.8,76.0,49.0,,29.55,0.0,0.0,0.0,0.0,2025-01-03,12,2024,15,KOKV,0.0,0.0,0.0,0.0,5
2024-12-31,31,2024-12-31 16:55,16:55,EST,Calm,5.0,Overcast,SCT009 BKN019 OVC049,46.4,44.6,93.0,,,29.56,0.0,0.0,0.0,0.0,2025-01-03,12,2024,16,KOKV,0.0,0.0,0.0,0.0,0
2024-12-31,31,2024-12-31 17:55,17:55,EST,NW  3,10.0,Overcast,SCT027 BKN055 OVC100,46.4,44.6,93.0,,,29.54,0.0,0.0,0.0,0.0,2025-01-03,12,2024,17,KOKV,0.0,0.0,0.0,0.0,3
2024-12-31,31,2024-12-31 18:55,18:55,EST,NW  17  G 26,2.5,Overcast,SCT011 BKN024 OVC046,46.4,44.6,93.0,40.0,,29.58,0.0,0.0,0.0,0.0,2025-01-03,12,2024,18,KOKV,0.0,0.0,0.0,0.0,17
2024-12-31,31,2024-12-31 19:55,19:55,EST,Calm,10.0,Mostly Cloudy,SCT065 BKN085 BKN100,44.6,42.8,93.0,,,29.55,0.0,0.0,0.0,0.0,2025-01-03,12,2024,19,KOKV,0.0,0.0,0.0,0.0,0
2024-12-31,31,2024-12-31 20:55,20:55,EST,Calm,1.25,Partly Cloudy,SCT001,42.8,42.8,100.0,,,29.55,0.0,0.0,0.0,0.0,2025-01-03,12,2024,20,KOKV,0.0,0.0,0.0,0.0,0
2024-12-31,31,2024-12-31 21:55,21:55,EST,W  3,10.0,Overcast,BKN050 OVC085,42.8,42.8,100.0,,,29.55,0.0,0.0,0.0,0.0,2025-01-03,12,2024,21,KOKV,0.0,0.0,0.0,0.0,3
2024-12-31,31,2024-12-31 22:55,22:55,EST,Calm,5.0,Partly Cloudy,SCT055 SCT070 SCT085,41.0,39.2,93.0,,,29.55,0.0,0.0,0.0,0.0,2025-01-03,12,2024,22,KOKV,0.0,0.0,0.0,0.0,0
2024-12-31,31,2024-12-31 23:55,23:55,EST,S  3,3.0,Mostly Cloudy,BKN075,39.2,37.4,93.0,,,29.53,0.0,0.0,0.0,0.0,2025-01-03,12,2024,23,KOKV,0.0,0.0,0.0,0.0,3
2025-01-01,1,2025-01-01 00:55,00:55,EST,W  6,10.0,Mostly Cloudy,SCT041 SCT046 BKN080,41.0,41.0,100.0,38.0,,29.53,0.0,0.0,0.0,0.0,2025-01-04,1,2025,0,KOKV,0.0,0.0,0.0,0.0,6
2025-01-01,1,2025-01-01 01:55,01:55,EST,W  10,10.0,Overcast,SCT048 BKN060 OVC080,44.6,39.2,81.0,40.0,,29.55,0.0,0.0,0.0,0.0,2025-01-04,1,2025,1,KOKV,0.0,0.0,0.0,0.0,10
2025-01-01,1,2025-01-01 02:55,02:55,EST,W  14  G 23,10.0,Mostly Cloudy,SCT070 BKN080,44.6,35.6,71.0,39.0,,29.58,0.0,0.0,0.0,0.0,2025-01-04,1,2025,2,KOKV,0.0,0.0,0.0,0.0,14
2025-01-01,1,2025-01-01 03:55,03:55,EST,W  17  G 26,10.0,Overcast,OVC048,44.6,32.0,61.0,38.0,,29.6,0.0,0.0,0.0,0.0,2025-01-04,1,2025,3,KOKV,0.0,0.0,0.0,0.0,17
2025-01-01,1,2025-01-01 04:55,04:55,EST,W  16,10.0,Mostly Cloudy,BKN044 BKN065 BKN120,42.8,32.0,66.0,36.0,,29.62,0.0,0.0,0.0,0.0,2025-01-04,1,2025,4,KOKV,0.0,0.0,0.0,0.0,16
2025-01-01,1,2025-01-01 05:55,05:55,EST,W  25  G 32,10.0,Overcast and Breezy,OVC042,42.8,30.2,61.0,34.0,,29.66,0.0,0.0,0.0,0.0,2025-01-04,1,2025,5,KOKV,0.0,0.0,0.0,0.0,25
2025-01-01,1,2025-01-01 06:55,06:55,EST,W  12  G 23,10.0,Mostly Cloudy,BKN042,41.0,28.4,61.0,35.0,,29.69,0.0,0.0,0.0,0.0,2025-01-04,1,2025,6,KOKV,0.0,0.0,0.0,0.0,12
2025-01-01,1,2025-01-01 07:55,07:55,EST,W  23  G 36,10.0,Partly Cloudy and Breezy,SCT038 SCT044,41.0,28.4,61.0,32.0,,29.72,0.0,0.0,0.0,0.0,2025-01-04,1,2025,7,KOKV,0.0,0.0,0.0,0.0,23
2025-01-01,1,2025-01-01 08:55,08:55,EST,W  25  G 35,10.0,Partly Cloudy and Breezy,SCT036,41.0,30.2,66.0,31.0,,29.76,0.0,0.0,0.0,0.0,2025-01-04,1,2025,8,KOKV,0.0,0.0,0.0,0.0,25
2025-01-01,1,2025-01-01 09:55,09:55,EST,W  21  G 28,10.0,Overcast and Breezy,OVC038,41.0,30.2,66.0,32.0,,29.81,0.0,0.0,0.0,0.0,2025-01-04,1,2025,9,KOKV,0.0,0.0,0.0,0.0,21
2025-01-01,1,2025-01-01 10:55,10:55,EST,W  13  G 24,10.0,Overcast,OVC038,41.0,28.4,61.0,34.0,,29.83,0.0,0.0,0.0,0.0,2025-01-04,1,2025,10,KOKV,0.0,0.0,0.0,0.0,13
2025-01-01,1,2025-01-01 11:55,11:55,EST,W  17  G 24,10.0,Overcast,OVC040,41.0,28.4,61.0,33.0,,29.83,0.0,0.0,0.0,0.0,2025-01-04,1,2025,11,KOKV,0.0,0.0,0.0,0.0,17
2025-01-01,1,2025-01-01 12:55,12:55,EST,NW  12  G 23,10.0,Overcast,OVC040,41.0,28.4,61.0,35.0,,29.84,0.0,0.0,0.0,0.0,2025-01-04,1,2025,12,KOKV,0.0,0.0,0.0,0.0,12
2025-01-01,1,2025-01-01 13:55,13:55,EST,W  22  G 31,10.0,Overcast and Breezy,OVC040,41.0,28.4,61.0,32.0,,29.86,0.0,0.0,0.0,0.0,2025-01-04,1,2025,13,KOKV,0.0,0.0,0.0,0.0,22
2025-01-01,1,2025-01-01 14:55,14:55,EST,W  16  G 25,10.0,Overcast,BKN043 OVC049,39.2,26.6,61.0,31.0,,29.9,0.0,0.0,0.0,0.0,2025-01-04,1,2025,14,KOKV,0.0,0.0,0.0,0.0,16
2025-01-01,1,2025-01-01 15:55,15:55,EST,W  17  G 26,10.0,Overcast,BKN047 OVC060,39.2,24.8,56.0,31.0,,29.91,0.0,0.0,0.0,0.0,2025-01-04,1,2025,15,KOKV,0.0,0.0,0.0,0.0,17
2025-01-01,1,2025-01-01 16:55,16:55,EST,W  16  G 22,10.0,Partly Cloudy,SCT047 SCT060,37.4,24.8,60.0,29.0,,29.9,0.0,0.0,0.0,0.0,2025-01-04,1,2025,16,KOKV,0.0,0.0,0.0,0.0,16
2025-01-01,1,2025-01-01 17:55,17:55,EST,W  9  G 21,10.0,Partly Cloudy,SCT060,37.4,23.0,56.0,31.0,,29.92,0.0,0.0,0.0,0.0,2025-01-04,1,2025,17,KOKV,0.0,0.0,0.0,0.0,9
2025-01-01,1,2025-01-01 18:55,18:55,EST,W  6,10.0,Partly Cloudy,SCT048 SCT060,35.6,24.8,65.0,31.0,,29.94,0.0,0.0,0.0,0.0,2025-01-04,1,2025,18,KOKV,0.0,0.0,0.0,0.0,6
2025-01-01,1,2025-01-01 19:55,19:55,EST,W  10  G 22,10.0,Mostly Cloudy,BKN048 BKN060,37.4,24.8,60.0,31.0,,29.95,0.0,0.0,0.0,0.0,2025-01-04,1,2025,19,KOKV,0.0,0.0,0.0,0.0,10
2025-01-01,1,2025-01-01 20:55,20:55,EST,W  10  G 21,10.0,Overcast,BKN046 OVC050,37.4,23.0,56.0,31.0,,29.95,0.0,0.0,0.0,0.0,2025-01-04,1,2025,20,KOKV,0.0,0.0,0.0,0.0,10
2025-01-01,1,2025-01-01 21:55,21:55,EST,W  14  G 24,10.0,Overcast,OVC048,35.6,21.2,56.0,27.0,,29.97,0.0,0.0,0.0,0.0,2025-01-04,1,2025,21,KOKV,0.0,0.0,0.0,0.0,14
2025-01-01,1,2025-01-01 22:55,22:55,EST,W  17  G 24,10.0,Overcast,OVC050,33.8,19.4,56.0,24.0,,30.01,0.0,0.0,0.0,0.0,2025-01-04,1,2025,22,KOKV,0.0,0.0,0.0,0.0,17
2025-01-01,1,2025-01-01 23:55,23:55,EST,W  13  G 18,10.0,Overcast,BKN047 OVC050,33.8,19.4,56.0,25.0,,30.03,0.0,0.0,0.0,0.0,2025-01-04,1,2025,23,KOKV,0.0,0.0,0.0,0.0,13
2025-01-02,2,2025-01-02 00:55,00:55,EST,W  12  G 24,10.0,Overcast,SCT049 OVC060,32.0,19.4,60.0,24.0,,30.03,0.0,0.0,0.0,0.0,2025-01-05,1,2025,0,KOKV,0.0,0.0,0.0,0.0,12
2025-01-02,2,2025-01-02 01:55,01:55,EST,NW  21  G 33,10.0,Overcast and Breezy,OVC050,32.0,15.8,51.0,21.0,,30.04,0.0,0.0,0.0,0.0,2025-01-05,1,2025,1,KOKV,0.0,0.0,0.0,0.0,21
2025-01-02,2,2025-01-02 02:55,02:55,EST,W  20  G 30,10.0,Overcast,OVC060,32.0,14.0,47.0,21.0,,30.06,0.0,0.0,0.0,0.0,2025-01-05,1,2025,2,KOKV,0.0,0.0,0.0,0.0,20
2025-01-02,2,2025-01-02 03:55,03:55,EST,W  15,10.0,Overcast,OVC060,32.0,15.8,51.0,22.0,,30.06,0.0,0.0,0.0,0.0,2025-01-05,1,2025,3,KOKV,0.0,0.0,0.0,0.0,15
2025-01-02,2,2025-01-02 04:55,04:55,EST,NW  17  G 26,10.0,Overcast,OVC050,32.0,17.6,55.0,22.0,,30.06,0.0,0.0,0.0,0.0,2025-01-05,1,2025,4,KOKV,0.0,0.0,0.0,0.0,17
2025-01-02,2,2025-01-02 05:55,05:55,EST,W  14  G 18,10.0,Overcast,OVC049,32.0,19.4,60.0,23.0,,30.08,0.0,0.0,0.0,0.0,2025-01-05,1,2025,5,KOKV,0.0,0.0,0.0,0.0,14
2025-01-02,2,2025-01-02 06:55,06:55,EST,W  21  G 31,10.0,Overcast and Breezy,OVC048,32.0,17.6,55.0,21.0,,30.09,0.0,0.0,0.0,0.0,2025-01-05,1,2025,6,KOKV,0.0,0.0,0.0,0.0,21
2025-01-02,2,2025-01-02 07:55,07:55,EST,W  13  G 23,10.0,Overcast,OVC048,32.0,15.8,51.0,23.0,,30.14,0.0,0.0,0.0,0.0,2025-01-05,1,2025,7,KOKV,0.0,0.0,0.0,0.0,13
2025-01-02,2,2025-01-02 08:55,08:55,EST,W  8  G 21,10.0,Overcast,OVC048,32.0,15.8,51.0,25.0,,30.17,0.0,0.0,0.0,0.0,2025-01-05,1,2025,8,KOKV,0.0,0.0,0.0,0.0,8
2025-01-02,2,2025-01-02 09:55,09:55,EST,W  9  G 21,10.0,Overcast,OVC046,32.0,17.6,55.0,25.0,,30.18,0.0,0.0,0.0,0.0,2025-01-05,1,2025,9,KOKV,0.0,0.0,0.0,0.0,9
2025-01-02,2,2025-01-02 10:55,10:55,EST,W  17  G 23,10.0,Overcast,OVC048,33.8,17.6,51.0,24.0,,30.17,0.0,0.0,0.0,0.0,2025-01-05,1,2025,10,KOKV,0.0,0.0,0.0,0.0,17
2025-01-02,2,2025-01-02 11:55,11:55,EST,W  14  G 24,10.0,Overcast,OVC048,33.8,17.6,51.0,25.0,,30.15,0.0,0.0,0.0,0.0,2025-01-05,1,2025,11,KOKV,0.0,0.0,0.0,0.0,14
2025-01-02,2,2025-01-02 12:55,12:55,EST,W  14  G 20,10.0,Overcast,OVC050,35.6,19.4,52.0,27.0,,30.12,0.0,0.0,0.0,0.0,2025-01-05,1,2025,12,KOKV,0.0,0.0,0.0,0.0,14
2025-01-02,2,2025-01-02 13:55,13:55,EST,W  15  G 21,10.0,Overcast,OVC048,35.6,17.6,48.0,27.0,,30.1,0.0,0.0,0.0,0.0,2025-01-05,1,2025,13,KOKV,0.0,0.0,0.0,0.0,15
2025-01-02,2,2025-01-02 14:55,14:55,EST,W  14  G 23,10.0,Overcast,OVC050,35.6,19.4,52.0,27.0,,30.09,0.0,0.0,0.0,0.0,2025-01-05,1,2025,14,KOKV,0.0,0.0,0.0,0.0,14
2025-01-02,2,2025-01-02 15:55,15:55,EST,W  12  G 18,10.0,Mostly Cloudy,BKN050,37.4,17.6,45.0,30.0,,30.1,0.0,0.0,0.0,0.0,2025-01-05,1,2025,15,KOKV,0.0,0.0,0.0,0.0,12
2025-01-02,2,2025-01-02 16:55,16:55,EST,NW  7,10.0,Partly Cloudy,SCT050,33.8,17.6,51.0,28.0,,30.11,0.0,0.0,0.0,0.0,2025-01-05,1,2025,16,KOKV,0.0,0.0,0.0,0.0,7
2025-01-02,2,2025-01-02 17:55,17:55,EST,W  7,10.0,Fair,CLR,33.8,17.6,51.0,28.0,,30.12,0.0,0.0,0.0,0.0,2025-01-05,1,2025,17,KOKV,0.0,0.0,0.0,0.0,7
2025-01-02,2,2025-01-02 18:55,18:55,EST,SW  3,10.0,Partly Cloudy,SCT050,30.2,19.4,64.0,,,30.12,0.0,0.0,0.0,0.0,2025-01-05,1,2025,18,KOKV,0.0,0.0,0.0,0.0,3
2025-01-02,2,2025-01-02 19:55,19:55,EST,S  3,10.0,Mostly Cloudy,BKN050,30.2,19.4,64.0,,,30.11,0.0,0.0,0.0,0.0,2025-01-05,1,2025,19,KOKV,0.0,0.0,0.0,0.0,3
2025-01-02,2,2025-01-02 20:55,20:55,EST,W  13  G 16,10.0,Partly Cloudy,SCT050,33.8,19.4,56.0,25.0,,30.1,0.0,0.0,0.0,0.0,2025-01-05,1,2025,20,KOKV,0.0,0.0,0.0,0.0,13
2025-01-02,2,2025-01-02 21:55,21:55,EST,W  15  G 23,10.0,Partly Cloudy,SCT050,33.8,19.4,56.0,25.0,,30.1,0.0,0.0,0.0,0.0,2025-01-05,1,2025,21,KOKV,0.0,0.0,0.0,0.0,15
2025-01-02,2,2025-01-02 22:55,22:55,EST,NW  25  G 33,10.0,Partly Cloudy and Breezy,SCT049,33.8,19.4,56.0,22.0,,30.11,0.0,0.0,0.0,0.0,2025-01-05,1,2025,22,KOKV,0.0,0.0,0.0,0.0,25
2025-01-02,2,2025-01-02 23:55,23:55,EST,NW  21  G 25,10.0,Partly Cloudy and Breezy,SCT047,32.0,19.4,60.0,21.0,,30.11,0.0,0.0,0.0,0.0,2025-01-05,1,2025,23,KOKV,0.0,0.0,0.0,0.0,21
2025-01-03,3,2025-01-03 00:55,00:55,EST,W  12  G 24,10.0,Fair,CLR,32.0,19.4,60.0,24.0,,30.1,0.0,0.0,0.0,0.0,2025-01-06,1,2025,0,KOKV,0.0,0.0,0.0,0.0,12
2025-01-03,3,2025-01-03 01:55,01:55,EST,Calm,10.0,Partly Cloudy,SCT043,32.0,19.4,60.0,,,30.1,0.0,0.0,0.0,0.0,2025-01-06,1,2025,1,KOKV,0.0,0.0,0.0,0.0,0
2025-01-03,3,2025-01-03 02:55,02:55,EST,Calm,10.0,Overcast,OVC043,30.2,19.4,64.0,,,30.11,0.0,0.0,0.0,0.0,2025-01-06,1,2025,2,KOKV,0.0,0.0,0.0,0.0,0
2025-01-03,3,2025-01-03 03:55,03:55,EST,Calm,10.0,Mostly Cloudy,BKN043,30.2,19.4,64.0,,,30.09,0.0,0.0,0.0,0.0,2025-01-06,1,2025,3,KOKV,0.0,0.0,0.0,0.0,0
2025-01-03,3,2025-01-03 04:55,04:55,EST,Calm,10.0,Overcast,OVC045,32.0,21.2,64.0,,,30.07,0.0,0.0,0.0,0.0,2025-01-06,1,2025,4,KOKV,0.0,0.0,0.0,0.0,0
2025-01-03,3,2025-01-03 05:55,05:55,EST,E  3,10.0,Partly Cloudy,SCT043,28.4,19.4,69.0,,,30.05,0.0,0.0,0.0,0.0,2025-01-06,1,2025,5,KOKV,0.0,0.0,0.0,0.0,3
2025-01-03,3,2025-01-03 06:55,06:55,EST,Calm,10.0,Mostly Cloudy,BKN050,26.6,19.4,74.0,,,30.04,0.0,0.0,0.0,0.0,2025-01-06,1,2025,6,KOKV,0.0,0.0,0.0,0.0,0
2025-01-03,3,2025-01-03 07:55,07:55,EST,Calm,10.0,Overcast,BKN050 OVC060,26.6,21.2,80.0,,,30.01,0.0,0.0,0.0,0.0,2025-01-06,1,2025,7,KOKV,0.0,0.0,0.0,0.0,0
2025-01-03,3,2025-01-03 08:55,08:55,EST,Calm,10.0,Mostly Cloudy,BKN090,28.4,21.2,74.0,,,29.98,0.0,0.0,0.0,0.0,2025-01-06,1,2025,8,KOKV,0.0,0.0,0.0,0.0,0
2025-01-03,3,2025-01-03 09:55,09:55,EST,S  5,10.0,Overcast,BKN055 OVC065,32.0,23.0,69.0,28.0,,29.95,0.0,0.0,0.0,0.0,2025-01-06,1,2025,9,KOKV,0.0,0.0,0.0,0.0,5
2025-01-03,3,2025-01-03 10:55,10:55,EST,SW  8,10.0,Overcast,OVC050,35.6,23.0,60.0,30.0,,29.9,0.0,0.0,0.0,0.0,2025-01-06,1,2025,10,KOKV,0.0,0.0,0.0,0.0,8
2025-01-03,3,2025-01-03 11:55,11:55,EST,SW  9,10.0,Overcast,SCT044 OVC050,37.4,24.8,60.0,31.0,,29.86,0.0,0.0,0.0,0.0,2025-01-06,1,2025,11,KOKV,0.0,0.0,0.0,0.0,9
2025-01-03,3,2025-01-03 12:55,12:55,EST,SW  8,10.0,Overcast,SCT026 BKN031 OVC046,35.6,28.4,75.0,30.0,,29.83,0.0,0.0,0.0,0.0,2025-01-06,1,2025,12,KOKV,0.0,0.0,0.0,0.0,8
2025-01-03,3,2025-01-03 13:55,13:55,EST,SW  8,1.0,Overcast,OVC006,32.0,32.0,100.0,25.0,,29.82,0.0,0.0,0.0,0.0,2025-01-06,1,2025,13,KOKV,0.0,0.0,0.0,0.0,8
2025-01-03,3,2025-01-03 14:55,14:55,EST,W  9,10.0,Overcast,SCT041 SCT050 OVC090,32.0,28.4,87.0,25.0,,29.82,0.0,0.0,0.0,0.0,2025-01-06,1,2025,14,KOKV,0.0,0.0,0.0,0.0,9
2025-01-03,3,2025-01-03 15:55,15:55,EST,NW  15  G 21,10.0,Overcast,SCT009 BKN039 OVC070,32.0,28.4,87.0,22.0,,29.87,0.0,0.0,0.0,0.0,2025-01-06,1,2025,15,KOKV,0.0,0.0,0.0,0.0,15
2025-01-03,3,2025-01-03 16:55,16:55,EST,W  16  G 21,10.0,Partly Cloudy,SCT035 SCT050,30.2,21.2,69.0,20.0,,29.9,0.0,0.0,0.0,0.0,2025-01-06,1,2025,16,KOKV,0.0,0.0,0.0,0.0,16
2025-01-03,3,2025-01-03 17:55,17:55,EST,W  12  G 23,10.0,Mostly Cloudy,SCT043 BKN085,28.4,17.6,64.0,19.0,,29.93,0.0,0.0,0.0,0.0,2025-01-06,1,2025,17,KOKV,0.0,0.0,0.0,0.0,12
2025-01-03,3,2025-01-03 18:55,18:55,EST,W  15  G 31,10.0,Mostly Cloudy,BKN045 BKN060 BKN100,28.4,15.8,59.0,18.0,,29.95,0.0,0.0,0.0,0.0,2025-01-06,1,2025,18,KOKV,0.0,0.0,0.0,0.0,15
2025-01-03,3,2025-01-03 19:55,19:55,EST,W  18  G 35,10.0,Partly Cloudy,SCT043 SCT048,26.6,14.0,59.0,14.0,,29.96,0.0,0.0,0.0,0.0,2025-01-06,1,2025,19,KOKV,0.0,0.0,0.0,0.0,18
2025-01-03,3,2025-01-03 20:55,20:55,EST,W  15  G 24,10.0,Mostly Cloudy,SCT037 BKN047,26.6,14.0,59.0,16.0,,29.97,0.0,0.0,0.0,0.0,2025-01-06,1,2025,20,KOKV,0.0,0.0,0.0,0.0,15
2025-01-03,3,2025-01-03 21:55,21:55,EST,W  16  G 24,10.0,Overcast,BKN040 OVC050,26.6,14.0,59.0,15.0,,29.98,0.0,0.0,0.0,0.0,2025-01-06,1,2025,21,KOKV,0.0,0.0,0.0,0.0,16
2025-01-03,3,2025-01-03 22:55,22:55,EST,W  17  G 35,10.0,Partly Cloudy,SCT039,26.6,14.0,59.0,15.0,,29.98,0.0,0.0,0.0,0.0,2025-01-06,1,2025,22,KOKV,0.0,0.0,0.0,0.0,17
2025-01-03,3,2025-01-03 23:55,23:55,EST,W  10  G 23,10.0,Partly Cloudy,SCT041,26.6,14.0,59.0,18.0,,29.98,0.0,0.0,0.0,0.0,2025-01-06,1,2025,23,KOKV,0.0,0.0,0.0,0.0,10
2025-01-04,4,2025-01-04 00:55,00:55,EST,NW  18  G 25,10.0,Fair,CLR,26.6,12.2,54.0,14.0,,29.97,0.0,0.0,0.0,0.0,2025-01-07,1,2025,0,KOKV,0.0,0.0,0.0,0.0,18
2025-01-04,4,2025-01-04 01:55,01:55,EST,W  16  G 22,10.0,Partly Cloudy,SCT041,26.6,14.0,59.0,15.0,,29.99,0.0,0.0,0.0,0.0,2025-01-07,1,2025,1,KOKV,0.0,0.0,0.0,0.0,16
2025-01-04,4,2025-01-04 02:55,02:55,EST,W  23  G 30,10.0,Overcast and Breezy,SCT026 BKN034 OVC060,26.6,15.8,64.0,13.0,,30.0,0.0,0.0,0.0,0.0,2025-01-07,1,2025,2,KOKV,0.0,0.0,0.0,0.0,23
2025-01-04,4,2025-01-04 03:55,03:55,EST,NW  6,10.0,Overcast,SCT033 BKN040 OVC055,26.6,15.8,64.0,21.0,,30.02,0.0,0.0,0.0,0.0,2025-01-07,1,2025,3,KOKV,0.0,0.0,0.0,0.0,6
2025-01-04,4,2025-01-04 04:55,04:55,EST,NW  21  G 28,10.0,Overcast and Breezy,SCT043 OVC050,24.8,12.2,59.0,11.0,,30.02,0.0,0.0,0.0,0.0,2025-01-07,1,2025,4,KOKV,0.0,0.0,0.0,0.0,21
2025-01-04,4,2025-01-04 05:55,05:55,EST,W  25  G 32,10.0,Overcast and Breezy,OVC048,24.8,10.4,54.0,10.0,,30.05,0.0,0.0,0.0,0.0,2025-01-07,1,2025,5,KOKV,0.0,0.0,0.0,0.0,25
2025-01-04,4,2025-01-04 06:55,06:55,EST,W  20  G 28,10.0,Overcast,OVC046,23.0,10.4,58.0,9.0,,30.08,0.0,0.0,0.0,0.0,2025-01-07,1,2025,6,KOKV,0.0,0.0,0.0,0.0,20
2025-01-04,4,2025-01-04 07:55,07:55,EST,W  23  G 32,10.0,Overcast and Breezy,OVC046,23.0,10.4,58.0,8.0,,30.09,0.0,0.0,0.0,0.0,2025-01-07,1,2025,7,KOKV,0.0,0.0,0.0,0.0,23
2025-01-04,4,2025-01-04 08:55,08:55,EST,W  16  G 29,10.0,Overcast,OVC046,23.0,10.4,58.0,11.0,,30.1,0.0,0.0,0.0,0.0,2025-01-07,1,2025,8,KOKV,0.0,0.0,0.0,0.0,16
2025-01-04,4,2025-01-04 09:55,09:55,EST,W  17  G 23,10.0,Overcast,BKN045 OVC049,24.8,10.4,54.0,12.0,,30.12,0.0,0.0,0.0,0.0,2025-01-07,1,2025,9,KOKV,0.0,0.0,0.0,0.0,17
2025-01-04,4,2025-01-04 10:55,10:55,EST,W  22  G 33,10.0,Overcast and Breezy,OVC045,26.6,10.4,50.0,13.0,,30.11,0.0,0.0,0.0,0.0,2025-01-07,1,2025,10,KOKV,0.0,0.0,0.0,0.0,22
2025-01-04,4,2025-01-04 11:55,11:55,EST,W  20  G 31,10.0,Overcast,OVC049,26.6,8.6,46.0,14.0,,30.1,0.0,0.0,0.0,0.0,2025-01-07,1,2025,11,KOKV,0.0,0.0,0.0,0.0,20
2025-01-04,4,2025-01-04 12:55,12:55,EST,W  21  G 26,10.0,Overcast and Breezy,OVC049,26.6,8.6,46.0,14.0,,30.08,0.0,0.0,0.0,0.0,2025-01-07,1,2025,12,KOKV,0.0,0.0,0.0,0.0,21
2025-01-04,4,2025-01-04 13:55,13:55,EST,W  14  G 24,10.0,Mostly Cloudy,SCT030 SCT043 BKN049,26.6,10.4,50.0,16.0,,30.08,0.0,0.0,0.0,0.0,2025-01-07,1,2025,13,KOKV,0.0,0.0,0.0,0.0,14
2025-01-04,4,2025-01-04 14:55,14:55,EST,NW  24  G 35,10.0,Mostly Cloudy and Breezy,BKN048 BKN055,28.4,8.6,43.0,15.0,,30.08,0.0,0.0,0.0,0.0,2025-01-07,1,2025,14,KOKV,0.0,0.0,0.0,0.0,24
2025-01-04,4,2025-01-04 15:55,15:55,EST,W  20  G 31,10.0,Partly Cloudy,SCT050,26.6,8.6,46.0,14.0,,30.09,0.0,0.0,0.0,0.0,2025-01-07,1,2025,15,KOKV,0.0,0.0,0.0,0.0,20
2025-01-04,4,2025-01-04 16:55,16:55,EST,W  13  G 24,10.0,Mostly Cloudy,BKN047,24.8,8.6,50.0,14.0,,30.11,0.0,0.0,0.0,0.0,2025-01-07,1,2025,16,KOKV,0.0,0.0,0.0,0.0,13
2025-01-04,4,2025-01-04 17:55,17:55,EST,W  8,10.0,Mostly Cloudy,BKN045,23.0,8.6,54.0,15.0,,30.13,0.0,0.0,0.0,0.0,2025-01-07,1,2025,17,KOKV,0.0,0.0,0.0,0.0,8
2025-01-04,4,2025-01-04 18:55,18:55,EST,W  15  G 23,10.0,Fair,CLR,23.0,8.6,54.0,11.0,,30.13,0.0,0.0,0.0,0.0,2025-01-07,1,2025,18,KOKV,0.0,0.0,0.0,0.0,15
2025-01-04,4,2025-01-04 19:55,19:55,EST,W  14  G 20,10.0,Mostly Cloudy,BKN042,23.0,8.6,54.0,11.0,,30.14,0.0,0.0,0.0,0.0,2025-01-07,1,2025,19,KOKV,0.0,0.0,0.0,0.0,14
2025-01-04,4,2025-01-04 20:55,20:55,EST,W  8  G 14,10.0,Overcast,OVC042,23.0,8.6,54.0,15.0,,30.14,0.0,0.0,0.0,0.0,2025-01-07,1,2025,20,KOKV,0.0,0.0,0.0,0.0,8
2025-01-04,4,2025-01-04 21:55,21:55,EST,NW  10  G 22,10.0,Overcast,OVC042,23.0,8.6,54.0,13.0,,30.15,0.0,0.0,0.0,0.0,2025-01-07,1,2025,21,KOKV,0.0,0.0,0.0,0.0,10
2025-01-04,4,2025-01-04 22:55,22:55,EST,W  6,10.0,Mostly Cloudy,BKN042,21.2,8.6,58.0,14.0,,30.15,0.0,0.0,0.0,0.0,2025-01-07,1,2025,22,KOKV,0.0,0.0,0.0,0.0,6
2025-01-04,4,2025-01-04 23:55,23:55,EST,W  10  G 17,10.0,Partly Cloudy,SCT042,23.0,8.6,54.0,13.0,,30.14,0.0,0.0,0.0,0.0,2025-01-07,1,2025,23,KOKV,0.0,0.0,0.0,0.0,10
2025-01-05,5,2025-01-05 00:55,00:55,EST,W  6,10.0,Partly Cloudy,SCT046,21.2,8.6,58.0,14.0,,30.14,0.0,0.0,0.0,0.0,2025-01-08,1,2025,0,KOKV,0.0,0.0,0.0,0.0,6
2025-01-05,5,2025-01-05 01:55,01:55,EST,Calm,10.0,Fair,CLR,19.4,8.6,63.0,,,30.14,0.0,0.0,0.0,0.0,2025-01-08,1,2025,1,KOKV,0.0,0.0,0.0,0.0,0
2025-01-05,5,2025-01-05 02:55,02:55,EST,Calm,10.0,Fair,CLR,15.8,8.6,73.0,,,30.14,0.0,0.0,0.0,0.0,2025-01-08,1,2025,2,KOKV,0.0,0.0,0.0,0.0,0
2025-01-05,5,2025-01-05 03:55,03:55,EST,W  5,10.0,Fair,CLR,19.4,6.8,58.0,14.0,,30.14,0.0,0.0,0.0,0.0,2025-01-08,1,2025,3,KOKV,0.0,0.0,0.0,0.0,5
2025-01-05,5,2025-01-05 04:55,04:55,EST,W  3,10.0,Fair,CLR,19.4,6.8,58.0,,,30.14,0.0,0.0,0.0,0.0,2025-01-08,1,2025,4,KOKV,0.0,0.0,0.0,0.0,3
2025-01-05,5,2025-01-05 05:55,05:55,EST,W  5,10.0,Fair,CLR,19.4,6.8,58.0,14.0,,30.16,0.0,0.0,0.0,0.0,2025-01-08,1,2025,5,KOKV,0.0,0.0,0.0,0.0,5
2025-01-05,5,2025-01-05 06:55,06:55,EST,Calm,10.0,Fair,CLR,15.8,6.8,67.0,,,30.17,0.0,0.0,0.0,0.0,2025-01-08,1,2025,6,KOKV,0.0,0.0,0.0,0.0,0
2025-01-05,5,2025-01-05 07:55,07:55,EST,Calm,10.0,Fair,CLR,14.0,8.6,79.0,,,30.18,0.0,0.0,0.0,0.0,2025-01-08,1,2025,7,KOKV,0.0,0.0,0.0,0.0,0
2025-01-05,5,2025-01-05 08:55,08:55,EST,W  12,10.0,Fair,CLR,23.0,5.0,46.0,13.0,,30.19,0.0,0.0,0.0,0.0,2025-01-08,1,2025,8,KOKV,0.0,0.0,0.0,0.0,12
2025-01-05,5,2025-01-05 09:55,09:55,EST,W  9,10.0,Fair,CLR,26.6,5.0,39.0,18.0,,30.19,0.0,0.0,0.0,0.0,2025-01-08,1,2025,9,KOKV,0.0,0.0,0.0,0.0,9
2025-01-05,5,2025-01-05 10:55,10:55,EST,W  13,10.0,Fair,CLR,28.4,5.0,37.0,19.0,,30.19,0.0,0.0,0.0,0.0,2025-01-08,1,2025,10,KOKV,0.0,0.0,0.0,0.0,13
2025-01-05,5,2025-01-05 11:55,11:55,EST,W  13  G 18,10.0,Fair,CLR,30.2,5.0,34.0,21.0,,30.17,0.0,0.0,0.0,0.0,2025-01-08,1,2025,11,KOKV,0.0,0.0,0.0,0.0,13
2025-01-05,5,2025-01-05 12:35,12:35,EST,W  8,10.0,Fair,CLR,32.0,5.0,32.0,25.0,,30.15,0.0,0.0,0.0,0.0,2025-01-08,1,2025,12,KOKV,0.0,0.0,0.0,0.0,8
2025-01-05,5,2025-01-05 13:55,13:55,EST,NW  15,10.0,Fair,CLR,32.0,5.0,32.0,22.0,,30.11,0.0,0.0,0.0,0.0,2025-01-08,1,2025,13,KOKV,0.0,0.0,0.0,0.0,15
2025-01-05,5,2025-01-05 14:55,14:55,EST,NW  9,10.0,Fair,CLR,32.0,5.0,32.0,25.0,,30.1,0.0,0.0,0.0,0.0,2025-01-08,1,2025,14,KOKV,0.0,0.0,0.0,0.0,9
2025-01-05,5,2025-01-05 15:55,15:55,EST,NW  5,10.0,Fair,CLR,32.0,3.2,29.0,28.0,,30.1,0.0,0.0,0.0,0.0,2025-01-08,1,2025,15,KOKV,0.0,0.0,0.0,0.0,5
2025-01-05,5,2025-01-05 16:55,16:55,EST,Calm,10.0,Mostly Cloudy,BKN100 BKN120,32.0,3.2,29.0,,,30.1,0.0,0.0,0.0,0.0,2025-01-08,1,2025,16,KOKV,0.0,0.0,0.0,0.0,0
2025-01-05,5,2025-01-05 17:55,17:55,EST,NW  5,10.0,Overcast,BKN090 OVC110,32.0,5.0,32.0,28.0,,30.1,0.0,0.0,0.0,0.0,2025-01-08,1,2025,17,KOKV,0.0,0.0,0.0,0.0,5
2025-01-05,5,2025-01-05 18:55,18:55,EST,Calm,10.0,Overcast,OVC100,32.0,5.0,32.0,,,30.09,0.0,0.0,0.0,0.0,2025-01-08,1,2025,18,KOKV,0.0,0.0,0.0,0.0,0
2025-01-05,5,2025-01-05 19:55,19:55,EST,Calm,10.0,Mostly Cloudy,BKN110,30.2,8.6,40.0,,,30.1,0.0,0.0,0.0,0.0,2025-01-08,1,2025,19,KOKV,0.0,0.0,0.0,0.0,0
2025-01-05,5,2025-01-05 20:55,20:55,EST,Calm,10.0,Overcast,OVC090,30.2,6.8,37.0,,,30.09,0.0,0.0,0.0,0.0,2025-01-08,1,2025,20,KOKV,0.0,0.0,0.0,0.0,0
2025-01-05,5,2025-01-05 21:55,21:55,EST,E  3,10.0,Overcast,BKN060 OVC070,30.2,8.6,40.0,,,30.08,0.0,0.0,0.0,0.0,2025-01-08,1,2025,21,KOKV,0.0,0.0,0.0,0.0,3
2025-01-05,5,2025-01-05 22:55,22:55,EST,Calm,10.0,Overcast,BKN055 OVC065,30.2,10.4,43.0,,,30.1,0.0,0.0,0.0,0.0,2025-01-08,1,2025,22,KOKV,0.0,0.0,0.0,0.0,0
2025-01-05,5,2025-01-05 23:55,23:55,EST,SW  6,10.0,Overcast,SCT033 SCT039 OVC047,28.4,14.0,55.0,23.0,,30.06,0.0,0.0,0.0,0.0,2025-01-08,1,2025,23,KOKV,0.0,0.0,0.0,0.0,6
2025-01-06,6,2025-01-06 00:55,00:55,EST,Calm,1.25,Overcast,OVC014,24.8,23.0,93.0,,,30.06,0.0,0.0,0.0,0.0,2025-01-09,1,2025,0,KOKV,0.0,0.0,0.0,0.0,0
2025-01-06,6,2025-01-06 01:55,01:55,EST,NE  3,1.0,Overcast,OVC010,23.0,21.2,93.0,,,30.01,0.0,0.0,0.0,0.0,2025-01-09,1,2025,1,KOKV,0.0,0.0,0.0,0.0,3
2025-01-06,6,2025-01-06 02:55,02:55,EST,E  3,1.5,Overcast,OVC015,23.0,21.2,93.0,,,29.99,0.0,0.0,0.0,0.0,2025-01-09,1,2025,2,KOKV,0.0,0.0,0.0,0.0,3
2025-01-06,6,2025-01-06 03:55,03:55,EST,NE  3,0.75,Overcast,OVC009,23.0,21.2,93.0,,,29.94,0.0,0.0,0.0,0.0,2025-01-09,1,2025,3,KOKV,0.0,0.0,0.0,0.0,3
2025-01-06,6,2025-01-06 04:55,04:55,EST,NE  5,1.25,Overcast,OVC011,23.0,21.2,93.0,18.0,,29.9,0.0,0.0,0.0,0.0,2025-01-09,1,2025,4,KOKV,0.0,0.0,0.0,0.0,5
2025-01-06,6,2025-01-06 05:55,05:55,EST,NE  3,2.0,Overcast,OVC021,23.0,21.2,93.0,,,29.87,0.0,0.0,0.0,0.0,2025-01-09,1,2025,5,KOKV,0.0,0.0,0.0,0.0,3
2025-01-06,6,2025-01-06 06:55,06:55,EST,E  3,1.25,Overcast,OVC017,23.0,21.2,93.0,,,29.83,0.0,0.0,0.0,0.0,2025-01-09,1,2025,6,KOKV,0.0,0.0,0.0,0.0,3
2025-01-06,6,2025-01-06 07:55,07:55,EST,NE  5,1.75,Overcast,BKN017 BKN028 OVC038,23.0,21.2,93.0,18.0,,29.82,0.0,0.0,0.0,0.0,2025-01-09,1,2025,7,KOKV,0.0,0.0,0.0,0.0,5
2025-01-06,6,2025-01-06 08:55,08:55,EST,NE  5,1.75,Overcast,SCT010 OVC016,23.0,21.2,93.0,18.0,,29.81,0.0,0.0,0.0,0.0,2025-01-09,1,2025,8,KOKV,0.0,0.0,0.0,0.0,5
2025-01-06,6,2025-01-06 09:55,09:55,EST,NE  5,4.0,Overcast,OVC018,23.0,21.2,93.0,18.0,,29.8,0.0,0.0,0.0,0.0,2025-01-09,1,2025,9,KOKV,0.0,0.0,0.0,0.0,5
2025-01-06,6,2025-01-06 10:55,10:55,EST,NE  3,1.0,Overcast,OVC007,23.0,21.2,93.0,,,29.79,0.0,0.0,0.0,0.0,2025-01-09,1,2025,10,KOKV,0.0,0.0,0.0,0.0,3
2025-01-06,6,2025-01-06 11:55,11:55,EST,NE  6,0.75,Overcast,BKN007 OVC013,23.0,21.2,93.0,17.0,,29.73,0.0,0.0,0.0,0.0,2025-01-09,1,2025,11,KOKV,0.0,0.0,0.0,0.0,6
2025-01-06,6,2025-01-06 12:55,12:55,EST,NE  6,1.0,Overcast,BKN007 BKN013 OVC026,24.8,21.2,86.0,19.0,,29.69,0.0,0.0,0.0,0.0,2025-01-09,1,2025,12,KOKV,0.0,0.0,0.0,0.0,6
2025-01-06,6,2025-01-06 13:55,13:55,EST,NE  5,2.5,Overcast,BKN009 BKN014 OVC037,24.8,21.2,86.0,20.0,,29.65,0.0,0.0,0.0,0.0,2025-01-09,1,2025,13,KOKV,0.0,0.0,0.0,0.0,5
2025-01-06,6,2025-01-06 14:55,14:55,EST,N  6,5.0,Overcast,OVC013,24.8,21.2,86.0,19.0,,29.65,0.0,0.0,0.0,0.0,2025-01-09,1,2025,14,KOKV,0.0,0.0,0.0,0.0,6
2025-01-06,6,2025-01-06 15:55,15:55,EST,N  6,1.5,Overcast,SCT011 SCT024 OVC033,24.8,21.2,86.0,19.0,,29.66,0.0,0.0,0.0,0.0,2025-01-09,1,2025,15,KOKV,0.0,0.0,0.0,0.0,6
2025-01-06,6,2025-01-06 16:55,16:55,EST,NW  6,1.25,Overcast,SCT009 BKN026 OVC036,24.8,21.2,86.0,19.0,,29.7,0.0,0.0,0.0,0.0,2025-01-09,1,2025,16,KOKV,0.0,0.0,0.0,0.0,6
2025-01-06,6,2025-01-06 17:55,17:55,EST,NW  7,5.0,Overcast,BKN017 BKN025 OVC039,24.8,21.2,86.0,18.0,,29.72,0.0,0.0,0.0,0.0,2025-01-09,1,2025,17,KOKV,0.0,0.0,0.0,0.0,7
2025-01-06,6,2025-01-06 18:55,18:55,EST,NW  12,2.5,Overcast,BKN026 BKN031 OVC049,26.6,21.2,80.0,17.0,,29.75,0.0,0.0,0.0,0.0,2025-01-09,1,2025,18,KOKV,0.0,0.0,0.0,0.0,12
2025-01-06,6,2025-01-06 19:55,19:55,EST,NW  12,1.75,Overcast,BKN019 OVC024,26.6,23.0,86.0,17.0,,29.78,0.0,0.0,0.0,0.0,2025-01-09,1,2025,19,KOKV,0.0,0.0,0.0,0.0,12
2025-01-06,6,2025-01-06 20:55,20:55,EST,NW  13,7.0,Overcast,SCT050 OVC060,26.6,23.0,86.0,16.0,,29.78,0.0,0.0,0.0,0.0,2025-01-09,1,2025,20,KOKV,0.0,0.0,0.0,0.0,13
2025-01-06,6,2025-01-06 21:55,21:55,EST,NW  5,10.0,Overcast,BKN027 OVC070,26.6,21.2,80.0,22.0,,29.82,0.0,0.0,0.0,0.0,2025-01-09,1,2025,21,KOKV,0.0,0.0,0.0,0.0,5
2025-01-06,6,2025-01-06 22:55,22:55,EST,NW  14  G 21,10.0,Overcast,OVC025,28.4,21.2,74.0,18.0,,29.83,0.0,0.0,0.0,0.0,2025-01-09,1,2025,22,KOKV,0.0,0.0,0.0,0.0,14
2025-01-06,6,2025-01-06 23:55,23:55,EST,N  12  G 20,10.0,Overcast,OVC029,26.6,19.4,74.0,17.0,,29.87,0.0,0.0,0.0,0.0,2025-01-09,1,2025,23,KOKV,0.0,0.0,0.0,0.0,12
2025-01-07,7,2025-01-07 00:55,00:55,EST,NW  20  G 26,10.0,Overcast,OVC031,26.6,15.8,64.0,14.0,,29.9,0.0,0.0,0.0,0.0,2025-01-10,1,2025,0,KOKV,0.0,0.0,0.0,0.0,20
2025-01-07,7,2025-01-07 01:55,01:55,EST,NW  13  G 18,10.0,Overcast,OVC031,23.0,12.2,63.0,12.0,,29.94,0.0,0.0,0.0,0.0,2025-01-10,1,2025,1,KOKV,0.0,0.0,0.0,0.0,13
2025-01-07,7,2025-01-07 02:55,02:55,EST,NW  7  G 17,10.0,Overcast,OVC036,23.0,10.4,58.0,16.0,,29.97,0.0,0.0,0.0,0.0,2025-01-10,1,2025,2,KOKV,0.0,0.0,0.0,0.0,7
2025-01-07,7,2025-01-07 03:55,03:55,EST,NW  8,10.0,Overcast,OVC030,23.0,12.2,63.0,15.0,,29.97,0.0,0.0,0.0,0.0,2025-01-10,1,2025,3,KOKV,0.0,0.0,0.0,0.0,8
2025-01-07,7,2025-01-07 04:55,04:55,EST,NW  28  G 32,10.0,Mostly Cloudy and Windy,BKN026 BKN032,21.2,12.2,68.0,5.0,,29.97,0.0,0.0,0.0,0.0,2025-01-10,1,2025,4,KOKV,0.0,0.0,0.0,0.0,28
2025-01-07,7,2025-01-07 05:55,05:55,EST,NW  14  G 25,10.0,Mostly Cloudy,BKN033,21.2,10.4,63.0,9.0,,30.03,0.0,0.0,0.0,0.0,2025-01-10,1,2025,5,KOKV,0.0,0.0,0.0,0.0,14
2025-01-07,7,2025-01-07 06:55,06:55,EST,NW  14  G 24,10.0,Overcast,OVC033,21.2,8.6,58.0,9.0,,30.05,0.0,0.0,0.0,0.0,2025-01-10,1,2025,6,KOKV,0.0,0.0,0.0,0.0,14
2025-01-07,7,2025-01-07 07:55,07:55,EST,NW  20,10.0,Overcast,OVC039,23.0,10.4,58.0,9.0,,30.04,0.0,0.0,0.0,0.0,2025-01-10,1,2025,7,KOKV,0.0,0.0,0.0,0.0,20
2025-01-07,7,2025-01-07 08:55,08:55,EST,NW  18  G 28,10.0,Overcast,OVC037,24.8,12.2,59.0,12.0,,30.06,0.0,0.0,0.0,0.0,2025-01-10,1,2025,8,KOKV,0.0,0.0,0.0,0.0,18
2025-01-07,7,2025-01-07 09:55,09:55,EST,W  22  G 31,10.0,Overcast and Breezy,OVC033,26.6,14.0,59.0,13.0,,30.08,0.0,0.0,0.0,0.0,2025-01-10,1,2025,9,KOKV,0.0,0.0,0.0,0.0,22
2025-01-07,7,2025-01-07 10:55,10:55,EST,NW  23  G 32,10.0,Overcast and Breezy,OVC035,28.4,17.6,64.0,15.0,,30.09,0.0,0.0,0.0,0.0,2025-01-10,1,2025,10,KOKV,0.0,0.0,0.0,0.0,23
2025-01-07,7,2025-01-07 11:55,11:55,EST,NW  20  G 24,10.0,Mostly Cloudy,BKN037,30.2,17.6,59.0,19.0,,30.08,0.0,0.0,0.0,0.0,2025-01-10,1,2025,11,KOKV,0.0,0.0,0.0,0.0,20
2025-01-07,7,2025-01-07 12:55,12:55,EST,NW  23  G 39,7.0,Partly Cloudy and Breezy,SCT033 SCT039,30.2,17.6,59.0,18.0,,30.05,0.0,0.0,0.0,0.0,2025-01-10,1,2025,12,KOKV,0.0,0.0,0.0,0.0,23
2025-01-07,7,2025-01-07 13:55,13:55,EST,W  18  G 24,10.0,Overcast,OVC041,30.2,15.8,55.0,19.0,,30.07,0.0,0.0,0.0,0.0,2025-01-10,1,2025,13,KOKV,0.0,0.0,0.0,0.0,18
2025-01-07,7,2025-01-07 14:55,14:55,EST,NW  22  G 26,10.0,Overcast and Breezy,OVC039,30.2,15.8,55.0,18.0,,30.1,0.0,0.0,0.0,0.0,2025-01-10,1,2025,14,KOKV,0.0,0.0,0.0,0.0,22
2025-01-07,7,2025-01-07 15:55,15:55,EST,W  14  G 23,10.0,Overcast,OVC039,28.4,15.8,59.0,18.0,,30.13,0.0,0.0,0.0,0.0,2025-01-10,1,2025,15,KOKV,0.0,0.0,0.0,0.0,14
2025-01-07,7,2025-01-07 16:55,16:55,EST,NW  16  G 23,10.0,Overcast,OVC041,28.4,14.0,55.0,17.0,,30.15,0.0,0.0,0.0,0.0,2025-01-10,1,2025,16,KOKV,0.0,0.0,0.0,0.0,16
2025-01-07,7,2025-01-07 17:55,17:55,EST,W  21  G 28,10.0,Overcast and Breezy,OVC041,26.6,14.0,59.0,14.0,,30.16,0.0,0.0,0.0,0.0,2025-01-10,1,2025,17,KOKV,0.0,0.0,0.0,0.0,21
2025-01-07,7,2025-01-07 18:55,18:55,EST,W  13,10.0,Overcast,OVC041,26.6,12.2,54.0,16.0,,30.18,0.0,0.0,0.0,0.0,2025-01-10,1,2025,18,KOKV,0.0,0.0,0.0,0.0,13
2025-01-07,7,2025-01-07 19:55,19:55,EST,W  14  G 22,10.0,Overcast,OVC039,26.6,12.2,54.0,16.0,,30.18,0.0,0.0,0.0,0.0,2025-01-10,1,2025,19,KOKV,0.0,0.0,0.0,0.0,14
2025-01-07,7,2025-01-07 20:55,20:55,EST,NW  12  G 23,10.0,Overcast,OVC039,24.8,10.4,54.0,15.0,,30.19,0.0,0.0,0.0,0.0,2025-01-10,1,2025,20,KOKV,0.0,0.0,0.0,0.0,12
2025-01-07,7,2025-01-07 21:55,21:55,EST,NW  18  G 28,10.0,Overcast,OVC039,24.8,12.2,59.0,12.0,,30.18,0.0,0.0,0.0,0.0,2025-01-10,1,2025,21,KOKV,0.0,0.0,0.0,0.0,18
2025-01-07,7,2025-01-07 22:55,22:55,EST,NW  21  G 37,7.0,Overcast and Breezy,OVC035,23.0,12.2,63.0,9.0,,30.17,0.0,0.0,0.0,0.0,2025-01-10,1,2025,22,KOKV,0.0,0.0,0.0,0.0,21
2025-01-07,7,2025-01-07 23:55,23:55,EST,NW  21  G 31,10.0,Overcast and Breezy,OVC037,23.0,10.4,58.0,9.0,,30.2,0.0,0.0,0.0,0.0,2025-01-10,1,2025,23,KOKV,0.0,0.0,0.0,0.0,21
2025-01-08,8,2025-01-08 00:55,00:55,EST,NW  17  G 28,10.0,Overcast,OVC040,23.0,10.4,58.0,10.0,,30.18,0.0,0.0,0.0,0.0,2025-01-11,1,2025,0,KOKV,0.0,0.0,0.0,0.0,17
2025-01-08,8,2025-01-08 01:55,01:55,EST,NW  18  G 25,10.0,Overcast,OVC042,23.0,10.4,58.0,10.0,,30.18,0.0,0.0,0.0,0.0,2025-01-11,1,2025,1,KOKV,0.0,0.0,0.0,0.0,18
2025-01-08,8,2025-01-08 02:55,02:55,EST,W  12  G 21,10.0,Overcast,OVC042,23.0,10.4,58.0,13.0,,30.18,0.0,0.0,0.0,0.0,2025-01-11,1,2025,2,KOKV,0.0,0.0,0.0,0.0,12
2025-01-08,8,2025-01-08 03:55,03:55,EST,W  13  G 16,10.0,Overcast,OVC042,23.0,10.4,58.0,12.0,,30.17,0.0,0.0,0.0,0.0,2025-01-11,1,2025,3,KOKV,0.0,0.0,0.0,0.0,13
2025-01-08,8,2025-01-08 04:55,04:55,EST,W  7,10.0,Overcast,BKN042 OVC050,23.0,10.4,58.0,16.0,,30.16,0.0,0.0,0.0,0.0,2025-01-11,1,2025,4,KOKV,0.0,0.0,0.0,0.0,7
2025-01-08,8,2025-01-08 05:55,05:55,EST,W  6,10.0,Overcast,SCT043 OVC049,23.0,10.4,58.0,17.0,,30.15,0.0,0.0,0.0,0.0,2025-01-11,1,2025,5,KOKV,0.0,0.0,0.0,0.0,6
2025-01-08,8,2025-01-08 06:55,06:55,EST,W  7,10.0,Overcast,SCT043 OVC049,23.0,10.4,58.0,16.0,,30.16,0.0,0.0,0.0,0.0,2025-01-11,1,2025,6,KOKV,0.0,0.0,0.0,0.0,7
2025-01-08,8,2025-01-08 07:55,07:55,EST,W  7,10.0,Overcast,OVC049,23.0,10.4,58.0,16.0,,30.15,0.0,0.0,0.0,0.0,2025-01-11,1,2025,7,KOKV,0.0,0.0,0.0,0.0,7
2025-01-08,8,2025-01-08 08:35,08:35,EST,W  6  G 10,10.0,Overcast,OVC049,24.8,10.4,54.0,19.0,,30.14,0.0,0.0,0.0,0.0,2025-01-11,1,2025,8,KOKV,0.0,0.0,0.0,0.0,6
2025-01-08,8,2025-01-08 10:55,10:55,EST,W  13  G 22,10.0,Mostly Cloudy,BKN047 BKN055,28.4,12.2,51.0,19.0,,30.12,0.0,0.0,0.0,0.0,2025-01-11,1,2025,10,KOKV,0.0,0.0,0.0,0.0,13
2025-01-08,8,2025-01-08 11:55,11:55,EST,W  13  G 17,10.0,Overcast,OVC047,28.4,12.2,51.0,19.0,,30.09,0.0,0.0,0.0,0.0,2025-01-11,1,2025,11,KOKV,0.0,0.0,0.0,0.0,13
2025-01-08,8,2025-01-08 12:55,12:55,EST,W  13,10.0,Overcast,OVC047,28.4,12.2,51.0,19.0,,30.05,0.0,0.0,0.0,0.0,2025-01-11,1,2025,12,KOKV,0.0,0.0,0.0,0.0,13
2025-01-08,8,2025-01-08 13:55,13:55,EST,W  17  G 24,10.0,Overcast,OVC049,28.4,12.2,51.0,17.0,,30.02,0.0,0.0,0.0,0.0,2025-01-11,1,2025,13,KOKV,0.0,0.0,0.0,0.0,17
2025-01-08,8,2025-01-08 14:55,14:55,EST,W  21  G 28,10.0,Overcast and Breezy,OVC048,28.4,12.2,51.0,16.0,,30.01,0.0,0.0,0.0,0.0,2025-01-11,1,2025,14,KOKV,0.0,0.0,0.0,0.0,21
2025-01-08,8,2025-01-08 15:55,15:55,EST,W  15,10.0,Overcast,SCT039 BKN047 OVC050,26.6,14.0,59.0,16.0,,30.01,0.0,0.0,0.0,0.0,2025-01-11,1,2025,15,KOKV,0.0,0.0,0.0,0.0,15
2025-01-08,8,2025-01-08 16:55,16:55,EST,NW  18  G 23,10.0,Overcast,SCT039 BKN048 OVC060,26.6,14.0,59.0,14.0,,30.01,0.0,0.0,0.0,0.0,2025-01-11,1,2025,16,KOKV,0.0,0.0,0.0,0.0,18
2025-01-08,8,2025-01-08 17:55,17:55,EST,W  12  G 18,10.0,Overcast,SCT032 OVC060,26.6,15.8,64.0,17.0,,30.01,0.0,0.0,0.0,0.0,2025-01-11,1,2025,17,KOKV,0.0,0.0,0.0,0.0,12
2025-01-08,8,2025-01-08 18:55,18:55,EST,N  8,10.0,Overcast,SCT039 OVC046,24.8,12.2,59.0,17.0,,30.03,0.0,0.0,0.0,0.0,2025-01-11,1,2025,18,KOKV,0.0,0.0,0.0,0.0,8
2025-01-08,8,2025-01-08 19:55,19:55,EST,NW  8,10.0,Overcast,BKN046 OVC050,23.0,10.4,58.0,15.0,,30.04,0.0,0.0,0.0,0.0,2025-01-11,1,2025,19,KOKV,0.0,0.0,0.0,0.0,8
2025-01-08,8,2025-01-08 20:55,20:55,EST,NW  8,10.0,Overcast,OVC043,23.0,10.4,58.0,15.0,,30.03,0.0,0.0,0.0,0.0,2025-01-11,1,2025,20,KOKV,0.0,0.0,0.0,0.0,8
2025-01-08,8,2025-01-08 21:55,21:55,EST,NW  8,10.0,Overcast,BKN039 OVC047,23.0,10.4,58.0,15.0,,30.03,0.0,0.0,0.0,0.0,2025-01-11,1,2025,21,KOKV,0.0,0.0,0.0,0.0,8
2025-01-08,8,2025-01-08 22:55,22:55,EST,NW  14  G 23,10.0,Mostly Cloudy,BKN049,21.2,10.4,63.0,9.0,,30.03,0.0,0.0,0.0,0.0,2025-01-11,1,2025,22,KOKV,0.0,0.0,0.0,0.0,14
2025-01-08,8,2025-01-08 23:55,23:55,EST,NW  9,10.0,Fair,CLR,21.2,5.0,49.0,12.0,,30.01,0.0,0.0,0.0,0.0,2025-01-11,1,2025,23,KOKV,0.0,0.0,0.0,0.0,9
2025-01-09,9,2025-01-09 00:55,00:55,EST,NW  14  G 18,10.0,Fair,CLR,21.2,6.8,54.0,9.0,,30.0,0.0,0.0,0.0,0.0,2025-01-12,1,2025,0,KOKV,0.0,0.0,0.0,0.0,14
2025-01-09,9,2025-01-09 01:55,01:55,EST,NW  10  G 17,10.0,Partly Cloudy,SCT032,21.2,8.6,58.0,11.0,,30.0,0.0,0.0,0.0,0.0,2025-01-12,1,2025,1,KOKV,0.0,0.0,0.0,0.0,10
2025-01-09,9,2025-01-09 02:55,02:55,EST,W  13  G 25,10.0,Fair,CLR,21.2,8.6,58.0,10.0,,30.0,0.0,0.0,0.0,0.0,2025-01-12,1,2025,2,KOKV,0.0,0.0,0.0,0.0,13
2025-01-09,9,2025-01-09 03:55,03:55,EST,NW  15  G 22,10.0,Partly Cloudy,SCT045,21.2,8.6,58.0,9.0,,30.01,0.0,0.0,0.0,0.0,2025-01-12,1,2025,3,KOKV,0.0,0.0,0.0,0.0,15
2025-01-09,9,2025-01-09 04:55,04:55,EST,NW  15,10.0,Overcast,BKN037 OVC042,21.2,8.6,58.0,9.0,,30.01,0.0,0.0,0.0,0.0,2025-01-12,1,2025,4,KOKV,0.0,0.0,0.0,0.0,15
2025-01-09,9,2025-01-09 05:55,05:55,EST,NW  14  G 24,10.0,Overcast,BKN037 OVC043,21.2,8.6,58.0,9.0,,30.02,0.0,0.0,0.0,0.0,2025-01-12,1,2025,5,KOKV,0.0,0.0,0.0,0.0,14
2025-01-09,9,2025-01-09 06:55,06:55,EST,NW  18  G 32,10.0,Partly Cloudy,SCT039,21.2,8.6,58.0,7.0,,30.03,0.0,0.0,0.0,0.0,2025-01-12,1,2025,6,KOKV,0.0,0.0,0.0,0.0,18
2025-01-09,9,2025-01-09 07:55,07:55,EST,NW  15  G 28,10.0,Fair,CLR,21.2,8.6,58.0,9.0,,30.05,0.0,0.0,0.0,0.0,2025-01-12,1,2025,7,KOKV,0.0,0.0,0.0,0.0,15
2025-01-09,9,2025-01-09 08:55,08:55,EST,NW  20  G 25,10.0,Fair,CLR,23.0,8.6,54.0,9.0,,30.07,0.0,0.0,0.0,0.0,2025-01-12,1,2025,8,KOKV,0.0,0.0,0.0,0.0,20
2025-01-09,9,2025-01-09 09:55,09:55,EST,NW  23  G 35,10.0,Fair and Breezy,CLR,23.0,8.6,54.0,8.0,,30.07,0.0,0.0,0.0,0.0,2025-01-12,1,2025,9,KOKV,0.0,0.0,0.0,0.0,23
2025-01-09,9,2025-01-09 10:55,10:55,EST,NW  24  G 35,10.0,Fair and Breezy,CLR,24.8,8.6,50.0,10.0,,30.08,0.0,0.0,0.0,0.0,2025-01-12,1,2025,10,KOKV,0.0,0.0,0.0,0.0,24
2025-01-09,9,2025-01-09 11:55,11:55,EST,NW  18  G 23,10.0,Fair,CLR,26.6,8.6,46.0,14.0,,30.08,0.0,0.0,0.0,0.0,2025-01-12,1,2025,11,KOKV,0.0,0.0,0.0,0.0,18
2025-01-09,9,2025-01-09 12:55,12:55,EST,NW  20  G 23,10.0,Fair,CLR,26.6,8.6,46.0,14.0,,30.07,0.0,0.0,0.0,0.0,2025-01-12,1,2025,12,KOKV,0.0,0.0,0.0,0.0,20
2025-01-09,9,2025-01-09 13:55,13:55,EST,W  16  G 29,10.0,Fair,CLR,28.4,8.6,43.0,17.0,,30.06,0.0,0.0,0.0,0.0,2025-01-12,1,2025,13,KOKV,0.0,0.0,0.0,0.0,16
2025-01-09,9,2025-01-09 14:55,14:55,EST,NW  14  G 20,10.0,Fair,CLR,28.4,8.6,43.0,18.0,,30.07,0.0,0.0,0.0,0.0,2025-01-12,1,2025,14,KOKV,0.0,0.0,0.0,0.0,14
2025-01-09,9,2025-01-09 15:55,15:55,EST,W  17  G 24,10.0,Fair,CLR,28.4,8.6,43.0,17.0,,30.08,0.0,0.0,0.0,0.0,2025-01-12,1,2025,15,KOKV,0.0,0.0,0.0,0.0,17
2025-01-09,9,2025-01-09 16:55,16:55,EST,NW  15  G 24,10.0,Fair,CLR,26.6,8.6,46.0,16.0,,30.09,0.0,0.0,0.0,0.0,2025-01-12,1,2025,16,KOKV,0.0,0.0,0.0,0.0,15
2025-01-09,9,2025-01-09 17:55,17:55,EST,NW  10  G 16,10.0,Fair,CLR,26.6,8.6,46.0,18.0,,30.1,0.0,0.0,0.0,0.0,2025-01-12,1,2025,17,KOKV,0.0,0.0,0.0,0.0,10
2025-01-09,9,2025-01-09 18:55,18:55,EST,NW  15  G 22,10.0,Fair,CLR,24.8,8.6,50.0,13.0,,30.12,0.0,0.0,0.0,0.0,2025-01-12,1,2025,18,KOKV,0.0,0.0,0.0,0.0,15
2025-01-09,9,2025-01-09 19:55,19:55,EST,W  14  G 20,10.0,Fair,CLR,24.8,8.6,50.0,14.0,,30.15,0.0,0.0,0.0,0.0,2025-01-12,1,2025,19,KOKV,0.0,0.0,0.0,0.0,14
2025-01-09,9,2025-01-09 20:55,20:55,EST,NW  8  G 16,10.0,Fair,CLR,23.0,8.6,54.0,15.0,,30.15,0.0,0.0,0.0,0.0,2025-01-12,1,2025,20,KOKV,0.0,0.0,0.0,0.0,8
2025-01-09,9,2025-01-09 21:55,21:55,EST,NW  16  G 23,10.0,Fair,CLR,23.0,8.6,54.0,11.0,,30.15,0.0,0.0,0.0,0.0,2025-01-12,1,2025,21,KOKV,0.0,0.0,0.0,0.0,16
2025-01-09,9,2025-01-09 22:55,22:55,EST,W  12  G 20,10.0,Fair,CLR,23.0,8.6,54.0,13.0,,30.14,0.0,0.0,0.0,0.0,2025-01-12,1,2025,22,KOKV,0.0,0.0,0.0,0.0,12
2025-01-09,9,2025-01-09 23:55,23:55,EST,NW  7  G 10,10.0,Fair,CLR,21.2,8.6,58.0,13.0,,30.12,0.0,0.0,0.0,0.0,2025-01-12,1,2025,23,KOKV,0.0,0.0,0.0,0.0,7
2025-01-10,10,2025-01-10 00:55,00:55,EST,W  5,10.0,Fair,CLR,21.2,8.6,58.0,16.0,,30.12,0.0,0.0,0.0,0.0,2025-01-13,1,2025,0,KOKV,0.0,0.0,0.0,0.0,5
2025-01-10,10,2025-01-10 01:55,01:55,EST,NW  7,10.0,Fair,CLR,21.2,8.6,58.0,13.0,,30.13,0.0,0.0,0.0,0.0,2025-01-13,1,2025,1,KOKV,0.0,0.0,0.0,0.0,7
2025-01-10,10,2025-01-10 02:55,02:55,EST,W  5,10.0,Fair,CLR,19.4,6.8,58.0,14.0,,30.14,0.0,0.0,0.0,0.0,2025-01-13,1,2025,2,KOKV,0.0,0.0,0.0,0.0,5
2025-01-10,10,2025-01-10 03:55,03:55,EST,W  3,10.0,Fair,CLR,17.6,5.0,58.0,,,30.16,0.0,0.0,0.0,0.0,2025-01-13,1,2025,3,KOKV,0.0,0.0,0.0,0.0,3
2025-01-10,10,2025-01-10 04:55,04:55,EST,W  8,10.0,Fair,CLR,14.0,5.0,67.0,4.0,,30.15,0.0,0.0,0.0,0.0,2025-01-13,1,2025,4,KOKV,0.0,0.0,0.0,0.0,8
2025-01-10,10,2025-01-10 05:55,05:55,EST,SE  8,10.0,Fair,CLR,8.6,-0.4,66.0,-3.0,,30.15,0.0,0.0,0.0,0.0,2025-01-13,1,2025,5,KOKV,0.0,0.0,0.0,0.0,8
2025-01-10,10,2025-01-10 06:55,06:55,EST,Calm,10.0,Fair,CLR,10.4,3.2,72.0,,,30.15,0.0,0.0,0.0,0.0,2025-01-13,1,2025,6,KOKV,0.0,0.0,0.0,0.0,0
2025-01-10,10,2025-01-10 07:55,07:55,EST,NW  3,10.0,Fair,CLR,12.2,3.2,67.0,,,30.14,0.0,0.0,0.0,0.0,2025-01-13,1,2025,7,KOKV,0.0,0.0,0.0,0.0,3
2025-01-10,10,2025-01-10 08:55,08:55,EST,Calm,10.0,Fair,CLR,14.0,3.2,62.0,,,30.15,0.0,0.0,0.0,0.0,2025-01-13,1,2025,8,KOKV,0.0,0.0,0.0,0.0,0
2025-01-10,10,2025-01-10 09:55,09:55,EST,Calm,10.0,Fair,CLR,21.2,5.0,49.0,,,30.12,0.0,0.0,0.0,0.0,2025-01-13,1,2025,9,KOKV,0.0,0.0,0.0,0.0,0
2025-01-10,10,2025-01-10 10:55,10:55,EST,W  5,10.0,Fair,CLR,23.0,8.6,54.0,18.0,,30.12,0.0,0.0,0.0,0.0,2025-01-13,1,2025,10,KOKV,0.0,0.0,0.0,0.0,5
2025-01-10,10,2025-01-10 11:55,11:55,EST,Calm,10.0,Fair,CLR,26.6,6.8,43.0,,,30.08,0.0,0.0,0.0,0.0,2025-01-13,1,2025,11,KOKV,0.0,0.0,0.0,0.0,0
2025-01-10,10,2025-01-10 12:55,12:55,EST,Calm,10.0,Fair,CLR,28.4,8.6,43.0,,,30.05,0.0,0.0,0.0,0.0,2025-01-13,1,2025,12,KOKV,0.0,0.0,0.0,0.0,0
2025-01-10,10,2025-01-10 13:35,13:35,EST,Calm,10.0,Fair,CLR,28.4,6.8,40.0,,,30.02,0.0,0.0,0.0,0.0,2025-01-13,1,2025,13,KOKV,0.0,0.0,0.0,0.0,0
2025-01-10,10,2025-01-10 14:55,14:55,EST,Calm,10.0,Fair,CLR,28.4,6.8,40.0,,,29.94,0.0,0.0,0.0,0.0,2025-01-13,1,2025,14,KOKV,0.0,0.0,0.0,0.0,0
2025-01-10,10,2025-01-10 15:55,15:55,EST,Calm,10.0,Mostly Cloudy,BKN120,30.2,8.6,40.0,,,29.94,0.0,0.0,0.0,0.0,2025-01-13,1,2025,15,KOKV,0.0,0.0,0.0,0.0,0
2025-01-10,10,2025-01-10 16:55,16:55,EST,SE  3,10.0,Overcast,OVC100,28.4,12.2,51.0,,,29.9,0.0,0.0,0.0,0.0,2025-01-13,1,2025,16,KOKV,0.0,0.0,0.0,0.0,3
2025-01-10,10,2025-01-10 17:55,17:55,EST,Calm,10.0,Overcast,OVC100,28.4,10.4,47.0,,,29.88,0.0,0.0,0.0,0.0,2025-01-13,1,2025,17,KOKV,0.0,0.0,0.0,0.0,0
2025-01-10,10,2025-01-10 18:55,18:55,EST,Calm,10.0,Overcast,OVC100,28.4,10.4,47.0,,,29.86,0.0,0.0,0.0,0.0,2025-01-13,1,2025,18,KOKV,0.0,0.0,0.0,0.0,0
2025-01-10,10,2025-01-10 19:55,19:55,EST,Calm,10.0,Overcast,OVC080,26.6,12.2,54.0,,,29.81,0.0,0.0,0.0,0.0,2025-01-13,1,2025,19,KOKV,0.0,0.0,0.0,0.0,0
2025-01-10,10,2025-01-10 20:55,20:55,EST,Calm,10.0,Overcast,SCT055 OVC070,26.6,10.4,50.0,,,29.77,0.0,0.0,0.0,0.0,2025-01-13,1,2025,20,KOKV,0.0,0.0,0.0,0.0,0
2025-01-10,10,2025-01-10 21:55,21:55,EST,Calm,10.0,Overcast,SCT050 BKN060 OVC070,26.6,12.2,54.0,,,29.76,0.0,0.0,0.0,0.0,2025-01-13,1,2025,21,KOKV,0.0,0.0,0.0,0.0,0
2025-01-10,10,2025-01-10 22:55,22:55,EST,SE  5,2.5,Overcast,SCT022 BKN026 OVC048,24.8,19.4,80.0,20.0,,29.73,0.0,0.0,0.0,0.0,2025-01-13,1,2025,22,KOKV,0.0,0.0,0.0,0.0,5
2025-01-10,10,2025-01-10 23:55,23:55,EST,S  5,1.5,Overcast,BKN014 BKN018 OVC022,23.0,19.4,86.0,18.0,,29.7,0.0,0.0,0.0,0.0,2025-01-13,1,2025,23,KOKV,0.0,0.0,0.0,0.0,5
2025-01-11,11,2025-01-11 00:55,00:55,EST,Calm,3.0,Overcast,SCT022 BKN029 OVC050,23.0,21.2,93.0,,,29.66,0.0,0.0,0.0,0.0,2025-01-14,1,2025,0,KOKV,0.0,0.0,0.0,0.0,0
2025-01-11,11,2025-01-11 01:55,01:55,EST,Calm,7.0,Overcast,SCT029 BKN041 OVC110,23.0,21.2,93.0,,,29.62,0.0,0.0,0.0,0.0,2025-01-14,1,2025,1,KOKV,0.0,0.0,0.0,0.0,0
2025-01-11,11,2025-01-11 02:55,02:55,EST,Calm,7.0,Mostly Cloudy,SCT017 BKN100 BKN120,19.4,17.6,93.0,,,29.59,0.0,0.0,0.0,0.0,2025-01-14,1,2025,2,KOKV,0.0,0.0,0.0,0.0,0
2025-01-11,11,2025-01-11 03:55,03:55,EST,Calm,7.0,Overcast,OVC017,21.2,19.4,93.0,,,29.57,0.0,0.0,0.0,0.0,2025-01-14,1,2025,3,KOKV,0.0,0.0,0.0,0.0,0
2025-01-11,11,2025-01-11 04:55,04:55,EST,Calm,7.0,Overcast,OVC013,21.2,19.4,93.0,,,29.56,0.0,0.0,0.0,0.0,2025-01-14,1,2025,4,KOKV,0.0,0.0,0.0,0.0,0
2025-01-11,11,2025-01-11 05:55,05:55,EST,Calm,4.0,Partly Cloudy,SCT031 SCT120,17.6,17.6,100.0,,,29.56,0.0,0.0,0.0,0.0,2025-01-14,1,2025,5,KOKV,0.0,0.0,0.0,0.0,0
2025-01-11,11,2025-01-11 06:55,06:55,EST,NE  3,10.0,Overcast,OVC031,21.2,17.6,86.0,,,29.55,0.0,0.0,0.0,0.0,2025-01-14,1,2025,6,KOKV,0.0,0.0,0.0,0.0,3
2025-01-11,11,2025-01-11 07:55,07:55,EST,Calm,7.0,Fair,CLR,17.6,15.8,93.0,,,29.58,0.0,0.0,0.0,0.0,2025-01-14,1,2025,7,KOKV,0.0,0.0,0.0,0.0,0
2025-01-11,11,2025-01-11 08:55,08:55,EST,Calm,10.0,Fair,CLR,21.2,17.6,86.0,,,29.59,0.0,0.0,0.0,0.0,2025-01-14,1,2025,8,KOKV,0.0,0.0,0.0,0.0,0
2025-01-11,11,2025-01-11 09:55,09:55,EST,NW  17,10.0,Fair,CLR,28.4,17.6,64.0,17.0,,29.6,0.0,0.0,0.0,0.0,2025-01-14,1,2025,9,KOKV,0.0,0.0,0.0,0.0,17
2025-01-11,11,2025-01-11 10:55,10:55,EST,NW  15  G 21,10.0,Fair,CLR,30.2,17.6,59.0,20.0,,29.62,0.0,0.0,0.0,0.0,2025-01-14,1,2025,10,KOKV,0.0,0.0,0.0,0.0,15
2025-01-11,11,2025-01-11 11:55,11:55,EST,NW  22  G 31,7.0,Fair and Breezy,CLR,32.0,17.6,55.0,20.0,,29.62,0.0,0.0,0.0,0.0,2025-01-14,1,2025,11,KOKV,0.0,0.0,0.0,0.0,22
2025-01-11,11,2025-01-11 12:55,12:55,EST,NW  14  G 23,10.0,Overcast,OVC041,32.0,19.4,60.0,23.0,,29.63,0.0,0.0,0.0,0.0,2025-01-14,1,2025,12,KOKV,0.0,0.0,0.0,0.0,14
2025-01-11,11,2025-01-11 13:55,13:55,EST,NW  21  G 24,10.0,Overcast and Breezy,BKN043 OVC110,32.0,17.6,55.0,21.0,,29.65,0.0,0.0,0.0,0.0,2025-01-14,1,2025,13,KOKV,0.0,0.0,0.0,0.0,21
2025-01-11,11,2025-01-11 14:55,14:55,EST,NW  25  G 30,10.0,Fair and Breezy,CLR,32.0,17.6,55.0,19.0,,29.68,0.0,0.0,0.0,0.0,2025-01-14,1,2025,14,KOKV,0.0,0.0,0.0,0.0,25
2025-01-11,11,2025-01-11 15:55,15:55,EST,NW  20  G 25,10.0,Mostly Cloudy,BKN040,30.2,17.6,59.0,19.0,,29.74,0.0,0.0,0.0,0.0,2025-01-14,1,2025,15,KOKV,0.0,0.0,0.0,0.0,20
2025-01-11,11,2025-01-11 16:55,16:55,EST,W  9,10.0,Overcast,OVC040,32.0,17.6,55.0,25.0,,29.79,0.0,0.0,0.0,0.0,2025-01-14,1,2025,16,KOKV,0.0,0.0,0.0,0.0,9
2025-01-11,11,2025-01-11 17:55,17:55,EST,NW  18  G 28,10.0,Mostly Cloudy,BKN036,30.2,19.4,64.0,19.0,,29.81,0.0,0.0,0.0,0.0,2025-01-14,1,2025,17,KOKV,0.0,0.0,0.0,0.0,18
2025-01-11,11,2025-01-11 18:55,18:55,EST,NW  18  G 24,10.0,Mostly Cloudy,BKN036,30.2,19.4,64.0,19.0,,29.83,0.0,0.0,0.0,0.0,2025-01-14,1,2025,18,KOKV,0.0,0.0,0.0,0.0,18
2025-01-11,11,2025-01-11 19:55,19:55,EST,NW  14  G 24,10.0,Mostly Cloudy,BKN036,30.2,19.4,64.0,21.0,,29.87,0.0,0.0,0.0,0.0,2025-01-14,1,2025,19,KOKV,0.0,0.0,0.0,0.0,14
2025-01-11,11,2025-01-11 20:55,20:55,EST,NW  10,10.0,Overcast,SCT036 OVC041,30.2,19.4,64.0,22.0,,29.89,0.0,0.0,0.0,0.0,2025-01-14,1,2025,20,KOKV,0.0,0.0,0.0,0.0,10
2025-01-11,11,2025-01-11 21:55,21:55,EST,NW  10,10.0,Fair,CLR,28.4,19.4,69.0,20.0,,29.9,0.0,0.0,0.0,0.0,2025-01-14,1,2025,21,KOKV,0.0,0.0,0.0,0.0,10
2025-01-11,11,2025-01-11 22:55,22:55,EST,NW  8,10.0,Mostly Cloudy,BKN044,28.4,19.4,69.0,21.0,,29.93,0.0,0.0,0.0,0.0,2025-01-15,1,2025,22,KOKV,0.0,0.0,0.0,0.0,8
2025-01-11,11,2025-01-11 23:55,23:55,EST,Calm,10.0,Partly Cloudy,SCT050,24.8,17.6,74.0,,,29.94,0.0,0.0,0.0,0.0,2025-01-15,1,2025,23,KOKV,0.0,0.0,0.0,0.0,0
2025-01-12,12,2025-01-12 00:55,00:55,EST,Calm,10.0,Overcast,OVC045,26.6,17.6,69.0,,,29.95,0.0,0.0,0.0,0.0,2025-01-15,1,2025,0,KOKV,0.0,0.0,0.0,0.0,0
2025-01-12,12,2025-01-12 01:55,01:55,EST,S  3,10.0,Overcast,OVC041,32.0,19.4,60.0,,,29.97,0.0,0.0,0.0,0.0,2025-01-15,1,2025,1,KOKV,0.0,0.0,0.0,0.0,3
2025-01-12,12,2025-01-12 02:55,02:55,EST,NW  10,10.0,Overcast,OVC039,32.0,19.4,60.0,24.0,,29.97,0.0,0.0,0.0,0.0,2025-01-15,1,2025,2,KOKV,0.0,0.0,0.0,0.0,10
2025-01-12,12,2025-01-12 03:55,03:55,EST,NW  8,10.0,Partly Cloudy,SCT042,30.2,19.4,64.0,23.0,,29.98,0.0,0.0,0.0,0.0,2025-01-15,1,2025,3,KOKV,0.0,0.0,0.0,0.0,8
2025-01-12,12,2025-01-12 04:55,04:55,EST,NW  5,10.0,Mostly Cloudy,BKN045,30.2,19.4,64.0,26.0,,29.99,0.0,0.0,0.0,0.0,2025-01-15,1,2025,4,KOKV,0.0,0.0,0.0,0.0,5
2025-01-12,12,2025-01-12 05:55,05:55,EST,NW  10,10.0,Fair,CLR,30.2,19.4,64.0,22.0,,29.99,0.0,0.0,0.0,0.0,2025-01-15,1,2025,5,KOKV,0.0,0.0,0.0,0.0,10
2025-01-12,12,2025-01-12 06:55,06:55,EST,W  7,10.0,Fair,CLR,28.4,19.4,69.0,22.0,,30.02,0.0,0.0,0.0,0.0,2025-01-15,1,2025,6,KOKV,0.0,0.0,0.0,0.0,7
2025-01-12,12,2025-01-12 07:55,07:55,EST,W  6,10.0,Fair,CLR,28.4,19.4,69.0,23.0,,30.04,0.0,0.0,0.0,0.0,2025-01-15,1,2025,7,KOKV,0.0,0.0,0.0,0.0,6
2025-01-12,12,2025-01-12 08:55,08:55,EST,W  7,10.0,Fair,CLR,30.2,19.4,64.0,24.0,,30.07,0.0,0.0,0.0,0.0,2025-01-15,1,2025,8,KOKV,0.0,0.0,0.0,0.0,7
2025-01-12,12,2025-01-12 09:55,09:55,EST,W  5,10.0,Fair,CLR,32.0,19.4,60.0,28.0,,30.09,0.0,0.0,0.0,0.0,2025-01-15,1,2025,9,KOKV,0.0,0.0,0.0,0.0,5
2025-01-12,12,2025-01-12 10:55,10:55,EST,W  7,10.0,Fair,CLR,32.0,21.2,64.0,26.0,,30.12,0.0,0.0,0.0,0.0,2025-01-15,1,2025,10,KOKV,0.0,0.0,0.0,0.0,7
2025-01-12,12,2025-01-12 11:55,11:55,EST,SW  8,10.0,Fair,CLR,33.8,19.4,56.0,28.0,,30.1,0.0,0.0,0.0,0.0,2025-01-15,1,2025,11,KOKV,0.0,0.0,0.0,0.0,8
2025-01-12,12,2025-01-12 12:55,12:55,EST,SW  6,10.0,Fair,CLR,33.8,19.4,56.0,29.0,,30.05,0.0,0.0,0.0,0.0,2025-01-15,1,2025,12,KOKV,0.0,0.0,0.0,0.0,6
2025-01-12,12,2025-01-12 13:15,13:15,EST,SW  3,10.0,Fair,CLR,33.8,19.4,56.0,,,30.04,0.0,0.0,0.0,0.0,2025-01-15,1,2025,13,KOKV,0.0,0.0,0.0,0.0,3
2025-01-12,12,2025-01-12 14:55,14:55,EST,Calm,10.0,Fair,CLR,35.6,19.4,52.0,,,30.03,0.0,0.0,0.0,0.0,2025-01-13,1,2025,14,KOKV,0.0,0.0,0.0,0.0,0
2025-01-12,12,2025-01-12 15:55,15:55,EST,S  3,10.0,Fair,CLR,35.6,19.4,52.0,,,30.03,0.0,0.0,0.0,0.0,2025-01-13,1,2025,15,KOKV,0.0,0.0,0.0,0.0,3
2025-01-12,12,2025-01-12 16:55,16:55,EST,Calm,10.0,Fair,CLR,33.8,19.4,56.0,,,30.01,0.0,0.0,0.0,0.0,2025-01-13,1,2025,16,KOKV,0.0,0.0,0.0,0.0,0
2025-01-12,12,2025-01-12 17:55,17:55,EST,Calm,10.0,Fair,CLR,30.2,19.4,64.0,,,30.03,0.0,0.0,0.0,0.0,2025-01-15,1,2025,17,KOKV,0.0,0.0,0.0,0.0,0
2025-01-12,12,2025-01-12 18:55,18:55,EST,Calm,10.0,Fair,CLR,30.2,17.6,59.0,,,30.04,0.0,0.0,0.0,0.0,2025-01-15,1,2025,18,KOKV,0.0,0.0,0.0,0.0,0
2025-01-12,12,2025-01-12 19:55,19:55,EST,Calm,10.0,Fair,CLR,28.4,17.6,64.0,,,30.04,0.0,0.0,0.0,0.0,2025-01-15,1,2025,19,KOKV,0.0,0.0,0.0,0.0,0
2025-01-12,12,2025-01-12 20:55,20:55,EST,Calm,10.0,Fair,CLR,26.6,17.6,69.0,,,30.04,0.0,0.0,0.0,0.0,2025-01-15,1,2025,20,KOKV,0.0,0.0,0.0,0.0,0
2025-01-12,12,2025-01-12 21:55,21:55,EST,S  5,10.0,Fair,CLR,28.4,17.6,64.0,24.0,,30.02,0.0,0.0,0.0,0.0,2025-01-15,1,2025,21,KOKV,0.0,0.0,0.0,0.0,5
2025-01-12,12,2025-01-12 22:55,22:55,EST,S  5,10.0,Fair,CLR,28.4,19.4,69.0,24.0,,30.01,0.0,0.0,0.0,0.0,2025-01-15,1,2025,22,KOKV,0.0,0.0,0.0,0.0,5
2025-01-12,12,2025-01-12 23:55,23:55,EST,SW  5,10.0,Fair,CLR,30.2,17.6,59.0,26.0,,30.0,0.0,0.0,0.0,0.0,2025-01-15,1,2025,23,KOKV,0.0,0.0,0.0,0.0,5
2025-01-13,13,2025-01-13 00:55,00:55,EST,SW  5,10.0,Fair,CLR,28.4,17.6,64.0,24.0,,30.0,0.0,0.0,0.0,0.0,2025-01-16,1,2025,0,KOKV,0.0,0.0,0.0,0.0,5
2025-01-13,13,2025-01-13 01:55,01:55,EST,SW  3,10.0,Fair,CLR,28.4,17.6,64.0,,,30.0,0.0,0.0,0.0,0.0,2025-01-16,1,2025,1,KOKV,0.0,0.0,0.0,0.0,3
2025-01-13,13,2025-01-13 02:55,02:55,EST,SW  6,10.0,Fair,CLR,30.2,17.6,59.0,25.0,,29.99,0.0,0.0,0.0,0.0,2025-01-16,1,2025,2,KOKV,0.0,0.0,0.0,0.0,6
2025-01-13,13,2025-01-13 03:55,03:55,EST,SW  8,10.0,Fair,CLR,30.2,17.6,59.0,23.0,,30.0,0.0,0.0,0.0,0.0,2025-01-16,1,2025,3,KOKV,0.0,0.0,0.0,0.0,8
2025-01-13,13,2025-01-13 04:55,04:55,EST,SW  6,10.0,Overcast,OVC060,30.2,19.4,64.0,25.0,,30.0,0.0,0.0,0.0,0.0,2025-01-16,1,2025,4,KOKV,0.0,0.0,0.0,0.0,6
2025-01-13,13,2025-01-13 05:55,05:55,EST,SW  6,10.0,Overcast,SCT042 OVC050,30.2,19.4,64.0,25.0,,30.0,0.0,0.0,0.0,0.0,2025-01-16,1,2025,5,KOKV,0.0,0.0,0.0,0.0,6
2025-01-13,13,2025-01-13 06:55,06:55,EST,SW  6,10.0,Overcast,OVC042,30.2,19.4,64.0,25.0,,29.99,0.0,0.0,0.0,0.0,2025-01-16,1,2025,6,KOKV,0.0,0.0,0.0,0.0,6
2025-01-13,13,2025-01-13 07:55,07:55,EST,SW  7,10.0,Overcast,OVC040,32.0,19.4,60.0,26.0,,30.0,0.0,0.0,0.0,0.0,2025-01-16,1,2025,7,KOKV,0.0,0.0,0.0,0.0,7
2025-01-13,13,2025-01-13 08:55,08:55,EST,SW  9,10.0,Overcast,SCT036 OVC048,32.0,21.2,64.0,25.0,,30.02,0.0,0.0,0.0,0.0,2025-01-16,1,2025,8,KOKV,0.0,0.0,0.0,0.0,9
2025-01-13,13,2025-01-13 09:55,09:55,EST,SW  5,10.0,Overcast,OVC060,33.8,23.0,65.0,30.0,,30.04,0.0,0.0,0.0,0.0,2025-01-16,1,2025,9,KOKV,0.0,0.0,0.0,0.0,5
2025-01-13,13,2025-01-13 10:55,10:55,EST,SW  9,10.0,Overcast,OVC060,37.4,24.8,60.0,31.0,,30.02,0.0,0.0,0.0,0.0,2025-01-16,1,2025,10,KOKV,0.0,0.0,0.0,0.0,9
2025-01-13,13,2025-01-13 11:55,11:55,EST,SW  8,10.0,Overcast,OVC050,39.2,26.6,61.0,34.0,,29.98,0.0,0.0,0.0,0.0,2025-01-16,1,2025,11,KOKV,0.0,0.0,0.0,0.0,8
2025-01-13,13,2025-01-13 12:55,12:55,EST,W  24  G 30,10.0,Overcast and Breezy,OVC050,41.0,23.0,49.0,32.0,,29.95,0.0,0.0,0.0,0.0,2025-01-16,1,2025,12,KOKV,0.0,0.0,0.0,0.0,24
2025-01-13,13,2025-01-13 13:55,13:55,EST,W  15  G 24,10.0,Overcast,OVC050,42.8,23.0,46.0,36.0,,29.94,0.0,0.0,0.0,0.0,2025-01-16,1,2025,13,KOKV,0.0,0.0,0.0,0.0,15
2025-01-13,13,2025-01-13 14:55,14:55,EST,W  22  G 26,10.0,Overcast and Breezy,OVC055,41.0,23.0,49.0,32.0,,29.95,0.0,0.0,0.0,0.0,2025-01-16,1,2025,14,KOKV,0.0,0.0,0.0,0.0,22
2025-01-13,13,2025-01-13 15:55,15:55,EST,W  18  G 24,10.0,Partly Cloudy,SCT055,41.0,23.0,49.0,33.0,,29.97,0.0,0.0,0.0,0.0,2025-01-17,1,2025,15,KOKV,0.0,0.0,0.0,0.0,18
2025-01-13,13,2025-01-13 16:55,16:55,EST,W  10  G 22,10.0,Partly Cloudy,SCT055,39.2,21.2,48.0,33.0,,29.99,0.0,0.0,0.0,0.0,2025-01-17,1,2025,16,KOKV,0.0,0.0,0.0,0.0,10
2025-01-13,13,2025-01-13 17:55,17:55,EST,SW  3,10.0,Fair,CLR,37.4,21.2,52.0,,,30.0,0.0,0.0,0.0,0.0,2025-01-17,1,2025,17,KOKV,0.0,0.0,0.0,0.0,3
2025-01-13,13,2025-01-13 18:55,18:55,EST,SW  5,10.0,Fair,CLR,35.6,21.2,56.0,32.0,,30.0,0.0,0.0,0.0,0.0,2025-01-17,1,2025,18,KOKV,0.0,0.0,0.0,0.0,5
2025-01-13,13,2025-01-13 19:55,19:55,EST,W  5,10.0,Fair,CLR,35.6,19.4,52.0,32.0,,30.01,0.0,0.0,0.0,0.0,2025-01-17,1,2025,19,KOKV,0.0,0.0,0.0,0.0,5
2025-01-13,13,2025-01-13 20:55,20:55,EST,W  12,10.0,Fair,CLR,33.8,19.4,56.0,26.0,,30.0,0.0,0.0,0.0,0.0,2025-01-17,1,2025,20,KOKV,0.0,0.0,0.0,0.0,12
2025-01-13,13,2025-01-13 21:55,21:55,EST,W  8,10.0,Fair,CLR,33.8,19.4,56.0,28.0,,30.01,0.0,0.0,0.0,0.0,2025-01-17,1,2025,21,KOKV,0.0,0.0,0.0,0.0,8
2025-01-13,13,2025-01-13 22:55,22:55,EST,NW  13,10.0,Fair,CLR,32.0,19.4,60.0,23.0,,30.0,0.0,0.0,0.0,0.0,2025-01-17,1,2025,22,KOKV,0.0,0.0,0.0,0.0,13
2025-01-13,13,2025-01-13 23:55,23:55,EST,W  20,10.0,Fair,CLR,32.0,15.8,51.0,21.0,,30.02,0.0,0.0,0.0,0.0,2025-01-17,1,2025,23,KOKV,0.0,0.0,0.0,0.0,20
2025-01-14,14,2025-01-14 00:55,00:55,EST,NW  12  G 25,10.0,Fair,CLR,30.2,15.8,55.0,21.0,,30.04,0.0,0.0,0.0,0.0,2025-01-17,1,2025,0,KOKV,0.0,0.0,0.0,0.0,12
2025-01-14,14,2025-01-14 01:55,01:55,EST,W  18  G 25,10.0,Fair,CLR,30.2,12.2,47.0,19.0,,30.05,0.0,0.0,0.0,0.0,2025-01-17,1,2025,1,KOKV,0.0,0.0,0.0,0.0,18
2025-01-14,14,2025-01-14 02:55,02:55,EST,NW  15  G 20,10.0,Fair,CLR,28.4,10.4,47.0,18.0,,30.07,0.0,0.0,0.0,0.0,2025-01-17,1,2025,2,KOKV,0.0,0.0,0.0,0.0,15
2025-01-14,14,2025-01-14 03:55,03:55,EST,NW  16  G 21,10.0,Fair,CLR,26.6,10.4,50.0,15.0,,30.09,0.0,0.0,0.0,0.0,2025-01-17,1,2025,3,KOKV,0.0,0.0,0.0,0.0,16
2025-01-14,14,2025-01-14 04:55,04:55,EST,NW  12  G 23,10.0,Fair,CLR,24.8,8.6,50.0,15.0,,30.12,0.0,0.0,0.0,0.0,2025-01-17,1,2025,4,KOKV,0.0,0.0,0.0,0.0,12
2025-01-14,14,2025-01-14 05:55,05:55,EST,W  18,10.0,Fair,CLR,23.0,6.8,50.0,10.0,,30.13,0.0,0.0,0.0,0.0,2025-01-17,1,2025,5,KOKV,0.0,0.0,0.0,0.0,18
2025-01-14,14,2025-01-14 06:55,06:55,EST,NW  18  G 22,10.0,Fair,CLR,21.2,5.0,49.0,7.0,,30.16,0.0,0.0,0.0,0.0,2025-01-17,1,2025,6,KOKV,0.0,0.0,0.0,0.0,18
2025-01-14,14,2025-01-14 07:55,07:55,EST,NW  14  G 17,10.0,Fair,CLR,21.2,3.2,45.0,9.0,,30.18,0.0,0.0,0.0,0.0,2025-01-17,1,2025,7,KOKV,0.0,0.0,0.0,0.0,14
2025-01-14,14,2025-01-14 08:55,08:55,EST,NW  8,10.0,Fair,CLR,23.0,3.2,42.0,15.0,,30.19,0.0,0.0,0.0,0.0,2025-01-17,1,2025,8,KOKV,0.0,0.0,0.0,0.0,8
2025-01-14,14,2025-01-14 09:35,09:35,EST,NW  9,10.0,Fair,CLR,23.0,5.0,46.0,14.0,,30.18,0.0,0.0,0.0,0.0,2025-01-17,1,2025,9,KOKV,0.0,0.0,0.0,0.0,9
2025-01-14,14,2025-01-14 10:35,10:35,EST,N  6,10.0,Fair,CLR,26.6,5.0,39.0,21.0,,30.17,0.0,0.0,0.0,0.0,2025-01-17,1,2025,10,KOKV,0.0,0.0,0.0,0.0,6
2025-01-15,15,2025-01-15 12:55,12:55,EST,NW  15  G 23,10.0,Fair,CLR,26.6,10.4,50.0,16.0,,30.3,0.0,0.0,0.0,0.0,2025-01-18,1,2025,12,KOKV,0.0,0.0,0.0,0.0,15
2025-01-15,15,2025-01-15 13:55,13:55,EST,NW  17  G 24,10.0,Fair,CLR,28.4,10.4,47.0,17.0,,30.28,0.0,0.0,0.0,0.0,2025-01-18,1,2025,13,KOKV,0.0,0.0,0.0,0.0,17
2025-01-15,15,2025-01-15 14:55,14:55,EST,W  12  G 17,10.0,Fair,CLR,28.4,10.4,47.0,19.0,,30.28,0.0,0.0,0.0,0.0,2025-01-18,1,2025,14,KOKV,0.0,0.0,0.0,0.0,12
2025-01-15,15,2025-01-15 15:55,15:55,EST,NW  12,10.0,Fair,CLR,26.6,8.6,46.0,17.0,,30.28,0.0,0.0,0.0,0.0,2025-01-18,1,2025,15,KOKV,0.0,0.0,0.0,0.0,12
2025-01-15,15,2025-01-15 16:55,16:55,EST,NW  9  G 21,10.0,Fair,CLR,24.8,8.6,50.0,16.0,,30.29,0.0,0.0,0.0,0.0,2025-01-18,1,2025,16,KOKV,0.0,0.0,0.0,0.0,9
2025-01-15,15,2025-01-15 17:55,17:55,EST,NW  7,10.0,Fair,CLR,23.0,8.6,54.0,16.0,,30.28,0.0,0.0,0.0,0.0,2025-01-18,1,2025,17,KOKV,0.0,0.0,0.0,0.0,7
2025-01-15,15,2025-01-15 18:55,18:55,EST,W  8,10.0,Fair,CLR,21.2,6.8,54.0,12.0,,30.29,0.0,0.0,0.0,0.0,2025-01-18,1,2025,18,KOKV,0.0,0.0,0.0,0.0,8
2025-01-15,15,2025-01-15 19:55,19:55,EST,NW  3,10.0,Fair,CLR,21.2,6.8,54.0,,,30.28,0.0,0.0,0.0,0.0,2025-01-18,1,2025,19,KOKV,0.0,0.0,0.0,0.0,3
2025-01-15,15,2025-01-15 20:55,20:55,EST,NW  12,10.0,Fair,CLR,21.2,8.6,58.0,10.0,,30.27,0.0,0.0,0.0,0.0,2025-01-18,1,2025,20,KOKV,0.0,0.0,0.0,0.0,12
2025-01-15,15,2025-01-15 21:55,21:55,EST,W  6,10.0,Fair,CLR,19.4,8.6,63.0,12.0,,30.25,0.0,0.0,0.0,0.0,2025-01-18,1,2025,21,KOKV,0.0,0.0,0.0,0.0,6
2025-01-15,15,2025-01-15 22:55,22:55,EST,Calm,10.0,Fair,CLR,14.0,6.8,73.0,,,30.24,0.0,0.0,0.0,0.0,2025-01-18,1,2025,22,KOKV,0.0,0.0,0.0,0.0,0
2025-01-15,15,2025-01-15 23:55,23:55,EST,W  5,10.0,Fair,CLR,14.0,6.8,73.0,7.0,,30.22,0.0,0.0,0.0,0.0,2025-01-18,1,2025,23,KOKV,0.0,0.0,0.0,0.0,5
2025-01-16,16,2025-01-16 00:55,00:55,EST,Calm,10.0,Fair,CLR,14.0,5.0,67.0,,,30.19,0.0,0.0,0.0,0.0,2025-01-19,1,2025,0,KOKV,0.0,0.0,0.0,0.0,0
2025-01-16,16,2025-01-16 01:15,01:15,EST,Calm,10.0,Fair,CLR,14.0,5.0,67.0,,,30.18,0.0,0.0,0.0,0.0,2025-01-19,1,2025,1,KOKV,0.0,0.0,0.0,0.0,0
2025-01-16,16,2025-01-16 03:55,03:55,EST,Calm,10.0,Mostly Cloudy,BKN085,12.2,5.0,73.0,,,30.12,0.0,0.0,0.0,0.0,2025-01-19,1,2025,3,KOKV,0.0,0.0,0.0,0.0,0
2025-01-16,16,2025-01-16 04:55,04:55,EST,W  3,10.0,Overcast,OVC085,17.6,10.4,73.0,,,30.1,0.0,0.0,0.0,0.0,2025-01-19,1,2025,4,KOKV,0.0,0.0,0.0,0.0,3
2025-01-16,16,2025-01-16 05:55,05:55,EST,S  3,10.0,Overcast,OVC085,19.4,8.6,63.0,,,30.06,0.0,0.0,0.0,0.0,2025-01-19,1,2025,5,KOKV,0.0,0.0,0.0,0.0,3
2025-01-16,16,2025-01-16 06:55,06:55,EST,S  3,10.0,Overcast,OVC085,19.4,8.6,63.0,,,30.05,0.0,0.0,0.0,0.0,2025-01-19,1,2025,6,KOKV,0.0,0.0,0.0,0.0,3
2025-01-16,16,2025-01-16 07:55,07:55,EST,S  3,10.0,Overcast,BKN065 OVC075,21.2,8.6,58.0,,,30.03,0.0,0.0,0.0,0.0,2025-01-19,1,2025,7,KOKV,0.0,0.0,0.0,0.0,3
2025-01-16,16,2025-01-16 08:55,08:55,EST,S  5,10.0,Overcast,BKN080 OVC090,21.2,8.6,58.0,16.0,,30.0,0.0,0.0,0.0,0.0,2025-01-19,1,2025,8,KOKV,0.0,0.0,0.0,0.0,5
2025-01-16,16,2025-01-16 09:55,09:55,EST,S  3,10.0,Overcast,OVC090,23.0,10.4,58.0,,,29.96,0.0,0.0,0.0,0.0,2025-01-19,1,2025,9,KOKV,0.0,0.0,0.0,0.0,3
2025-01-16,16,2025-01-16 10:55,10:55,EST,SW  7,10.0,Overcast,BKN100 OVC120,26.6,10.4,50.0,20.0,,29.92,0.0,0.0,0.0,0.0,2025-01-19,1,2025,10,KOKV,0.0,0.0,0.0,0.0,7
2025-01-16,16,2025-01-16 11:55,11:55,EST,SW  6,10.0,Overcast,SCT060 OVC080,28.4,10.4,47.0,23.0,,29.86,0.0,0.0,0.0,0.0,2025-01-19,1,2025,11,KOKV,0.0,0.0,0.0,0.0,6
2025-01-16,16,2025-01-16 12:55,12:55,EST,S  6,10.0,Mostly Cloudy,SCT046 BKN060 BKN110,30.2,12.2,47.0,25.0,,29.8,0.0,0.0,0.0,0.0,2025-01-19,1,2025,12,KOKV,0.0,0.0,0.0,0.0,6
2025-01-16,16,2025-01-16 13:55,13:55,EST,SW  10,10.0,Overcast,SCT070 BKN080 OVC100,33.8,17.6,51.0,26.0,,29.76,0.0,0.0,0.0,0.0,2025-01-19,1,2025,13,KOKV,0.0,0.0,0.0,0.0,10
2025-01-16,16,2025-01-16 14:15,14:15,EST,SW  7,10.0,Overcast,SCT043 OVC070,33.8,17.6,51.0,28.0,,29.75,0.0,0.0,0.0,0.0,2025-01-19,1,2025,14,KOKV,0.0,0.0,0.0,0.0,7
2025-01-17,17,2025-01-17 09:55,09:55,EST,W  6,10.0,Overcast,OVC045,33.8,23.0,65.0,29.0,,30.15,0.0,0.0,0.0,0.0,2025-01-20,1,2025,9,KOKV,0.0,0.0,0.0,0.0,6
2025-01-17,17,2025-01-17 10:55,10:55,EST,SW  8,10.0,Overcast,OVC045,35.6,23.0,60.0,30.0,,30.15,0.0,0.0,0.0,0.0,2025-01-20,1,2025,10,KOKV,0.0,0.0,0.0,0.0,8
2025-01-17,17,2025-01-17 11:55,11:55,EST,SW  6,10.0,Overcast,OVC047,35.6,23.0,60.0,31.0,,30.12,0.0,0.0,0.0,0.0,2025-01-20,1,2025,11,KOKV,0.0,0.0,0.0,0.0,6
2025-01-17,17,2025-01-17 12:35,12:35,EST,SW  6,10.0,Overcast,OVC042,35.6,23.0,60.0,31.0,,30.1,0.0,0.0,0.0,0.0,2025-01-20,1,2025,12,KOKV,0.0,0.0,0.0,0.0,6
2025-01-17,17,2025-01-17 13:55,13:55,EST,W  5,10.0,Partly Cloudy,SCT042,37.4,23.0,56.0,34.0,,30.06,0.0,0.0,0.0,0.0,2025-01-20,1,2025,13,KOKV,0.0,0.0,0.0,0.0,5
2025-01-17,17,2025-01-17 14:55,14:55,EST,SW  5,10.0,Fair,CLR,39.2,21.2,48.0,36.0,,30.04,0.0,0.0,0.0,0.0,2025-01-20,1,2025,14,KOKV,0.0,0.0,0.0,0.0,5
2025-01-17,17,2025-01-17 15:55,15:55,EST,S  5,10.0,Fair,CLR,41.0,23.0,49.0,38.0,,30.04,0.0,0.0,0.0,0.0,2025-01-20,1,2025,15,KOKV,0.0,0.0,0.0,0.0,5
2025-01-17,17,2025-01-17 16:55,16:55,EST,S  5,10.0,Fair,CLR,37.4,23.0,56.0,34.0,,30.05,0.0,0.0,0.0,0.0,2025-01-20,1,2025,16,KOKV,0.0,0.0,0.0,0.0,5
2025-01-17,17,2025-01-17 17:55,17:55,EST,SE  7,10.0,Fair,CLR,35.6,21.2,56.0,31.0,,30.05,0.0,0.0,0.0,0.0,2025-01-20,1,2025,17,KOKV,0.0,0.0,0.0,0.0,7
2025-01-17,17,2025-01-17 18:55,18:55,EST,S  3,10.0,Fair,CLR,32.0,21.2,64.0,,,30.04,0.0,0.0,0.0,0.0,2025-01-20,1,2025,18,KOKV,0.0,0.0,0.0,0.0,3
2025-01-17,17,2025-01-17 19:55,19:55,EST,S  5,10.0,Fair,CLR,32.0,21.2,64.0,28.0,,30.03,0.0,0.0,0.0,0.0,2025-01-20,1,2025,19,KOKV,0.0,0.0,0.0,0.0,5
2025-01-17,17,2025-01-17 20:55,20:55,EST,S  7,10.0,Fair,CLR,32.0,21.2,64.0,26.0,,30.03,0.0,0.0,0.0,0.0,2025-01-20,1,2025,20,KOKV,0.0,0.0,0.0,0.0,7
2025-01-17,17,2025-01-17 21:55,21:55,EST,S  6,10.0,Fair,CLR,33.8,21.2,60.0,29.0,,30.02,0.0,0.0,0.0,0.0,2025-01-20,1,2025,21,KOKV,0.0,0.0,0.0,0.0,6
2025-01-17,17,2025-01-17 22:55,22:55,EST,S  5,10.0,Fair,CLR,32.0,21.2,64.0,28.0,,30.0,0.0,0.0,0.0,0.0,2025-01-20,1,2025,22,KOKV,0.0,0.0,0.0,0.0,5
2025-01-17,17,2025-01-17 23:55,23:55,EST,Calm,10.0,Fair,CLR,30.2,21.2,69.0,,,29.98,0.0,0.0,0.0,0.0,2025-01-21,1,2025,23,KOKV,0.0,0.0,0.0,0.0,0
2025-01-18,18,2025-01-18 00:55,00:55,EST,S  3,10.0,Fair,CLR,30.2,21.2,69.0,,,29.97,0.0,0.0,0.0,0.0,2025-01-21,1,2025,0,KOKV,0.0,0.0,0.0,0.0,3
2025-01-18,18,2025-01-18 01:55,01:55,EST,S  6,10.0,Fair,CLR,32.0,21.2,64.0,27.0,,29.95,0.0,0.0,0.0,0.0,2025-01-21,1,2025,1,KOKV,0.0,0.0,0.0,0.0,6
2025-01-18,18,2025-01-18 02:55,02:55,EST,S  3,10.0,Fair,CLR,32.0,21.2,64.0,,,29.93,0.0,0.0,0.0,0.0,2025-01-21,1,2025,2,KOKV,0.0,0.0,0.0,0.0,3
2025-01-18,18,2025-01-18 03:35,03:35,EST,S  5,10.0,Fair,CLR,32.0,23.0,69.0,28.0,,29.91,0.0,0.0,0.0,0.0,2025-01-21,1,2025,3,KOKV,0.0,0.0,0.0,0.0,5
2025-01-18,18,2025-01-18 04:55,04:55,EST,SW  5,10.0,Fair,CLR,32.0,23.0,69.0,28.0,,29.89,0.0,0.0,0.0,0.0,2025-01-21,1,2025,4,KOKV,0.0,0.0,0.0,0.0,5
2025-01-18,18,2025-01-18 05:55,05:55,EST,S  7,10.0,Partly Cloudy,SCT120,32.0,23.0,69.0,26.0,,29.89,0.0,0.0,0.0,0.0,2025-01-21,1,2025,5,KOKV,0.0,0.0,0.0,0.0,7
2025-01-18,18,2025-01-18 06:55,06:55,EST,Calm,10.0,Overcast,OVC100,32.0,23.0,69.0,,,29.87,0.0,0.0,0.0,0.0,2025-01-21,1,2025,6,KOKV,0.0,0.0,0.0,0.0,0
2025-01-18,18,2025-01-18 07:55,07:55,EST,S  5,10.0,Overcast,SCT050 BKN065 OVC090,32.0,24.8,75.0,28.0,,29.87,0.0,0.0,0.0,0.0,2025-01-21,1,2025,7,KOKV,0.0,0.0,0.0,0.0,5
2025-01-18,18,2025-01-18 08:55,08:55,EST,Calm,7.0,Overcast,OVC047,32.0,30.2,93.0,,,29.85,0.0,0.0,0.0,0.0,2025-01-21,1,2025,8,KOKV,0.0,0.0,0.0,0.0,0
2025-01-18,18,2025-01-18 09:55,09:55,EST,S  5,10.0,Overcast,SCT039 BKN060 OVC075,33.8,32.0,93.0,30.0,,29.82,0.0,0.0,0.0,0.0,2025-01-21,1,2025,9,KOKV,0.0,0.0,0.0,0.0,5
2025-01-18,18,2025-01-18 10:55,10:55,EST,SW  3,10.0,Overcast,OVC060,35.6,33.8,93.0,,,29.83,0.0,0.0,0.0,0.0,2025-01-21,1,2025,10,KOKV,0.0,0.0,0.0,0.0,3
2025-01-18,18,2025-01-18 11:55,11:55,EST,S  6,10.0,Overcast,SCT070 OVC100,37.4,33.8,87.0,33.0,,29.78,0.0,0.0,0.0,0.0,2025-01-21,1,2025,11,KOKV,0.0,0.0,0.0,0.0,6
2025-01-18,18,2025-01-18 12:55,12:55,EST,S  5,10.0,Overcast,BKN060 OVC070,41.0,33.8,76.0,38.0,,29.74,0.0,0.0,0.0,0.0,2025-01-21,1,2025,12,KOKV,0.0,0.0,0.0,0.0,5
2025-01-18,18,2025-01-18 13:55,13:55,EST,S  7,10.0,Overcast,BKN090 OVC100,44.6,35.6,71.0,41.0,,29.7,0.0,0.0,0.0,0.0,2025-01-21,1,2025,13,KOKV,0.0,0.0,0.0,0.0,7
2025-01-18,18,2025-01-18 14:55,14:55,EST,SW  6,10.0,Partly Cloudy,SCT080,46.4,35.6,66.0,44.0,,29.68,0.0,0.0,0.0,0.0,2025-01-21,1,2025,14,KOKV,0.0,0.0,0.0,0.0,6
2025-01-18,18,2025-01-18 15:55,15:55,EST,SW  7,10.0,Mostly Cloudy,BKN049,46.4,33.8,62.0,43.0,,29.69,0.0,0.0,0.0,0.0,2025-01-21,1,2025,15,KOKV,0.0,0.0,0.0,0.0,7
2025-01-18,18,2025-01-18 16:55,16:55,EST,SW  5,10.0,Overcast,BKN049 BKN060 OVC090,44.6,33.8,66.0,43.0,,29.72,0.0,0.0,0.0,0.0,2025-01-21,1,2025,16,KOKV,0.0,0.0,0.0,0.0,5
2025-01-18,18,2025-01-18 17:55,17:55,EST,Calm,10.0,Mostly Cloudy,SCT045 BKN090,42.8,33.8,71.0,,,29.73,0.0,0.0,0.0,0.0,2025-01-21,1,2025,17,KOKV,0.0,0.0,0.0,0.0,0
2025-01-18,18,2025-01-18 18:55,18:55,EST,Calm,10.0,Overcast,OVC090,41.0,33.8,76.0,,,29.76,0.0,0.0,0.0,0.0,2025-01-21,1,2025,18,KOKV,0.0,0.0,0.0,0.0,0
2025-01-18,18,2025-01-18 19:55,19:55,EST,Calm,10.0,Overcast,OVC043,37.4,32.0,81.0,,,29.77,0.0,0.0,0.0,0.0,2025-01-21,1,2025,19,KOKV,0.0,0.0,0.0,0.0,0
2025-01-18,18,2025-01-18 20:35,20:35,EST,Calm,10.0,Overcast,OVC043,37.4,32.0,81.0,,,29.78,0.0,0.0,0.0,0.0,2025-01-21,1,2025,20,KOKV,0.0,0.0,0.0,0.0,0
2025-01-18,18,2025-01-18 21:55,21:55,EST,Calm,10.0,Overcast,SCT040 BKN060 OVC095,35.6,32.0,87.0,,,29.8,0.0,0.0,0.0,0.0,2025-01-21,1,2025,21,KOKV,0.0,0.0,0.0,0.0,0
2025-01-18,18,2025-01-18 22:55,22:55,EST,N  3,10.0,Overcast,OVC095,35.6,32.0,87.0,,,29.81,0.0,0.0,0.0,0.0,2025-01-21,1,2025,22,KOKV,0.0,0.0,0.0,0.0,3
2025-01-18,18,2025-01-18 23:55,23:55,EST,Calm,10.0,Overcast,BKN038 OVC095,33.8,32.0,93.0,,,29.81,0.0,0.0,0.0,0.0,2025-01-21,1,2025,23,KOKV,0.0,0.0,0.0,0.0,0
2025-01-19,19,2025-01-19 00:55,00:55,EST,Calm,10.0,Overcast,SCT040 OVC095,35.6,32.0,87.0,,,29.79,0.0,0.0,0.0,0.0,2025-01-22,1,2025,0,KOKV,0.0,0.0,0.0,0.0,0
2025-01-19,19,2025-01-19 01:55,01:55,EST,E  3,10.0,Overcast,SCT031 OVC095,33.8,32.0,93.0,,,29.79,0.0,0.0,0.0,0.0,2025-01-22,1,2025,1,KOKV,0.0,0.0,0.0,0.0,3
2025-01-19,19,2025-01-19 02:55,02:55,EST,Calm,10.0,Overcast,SCT027 SCT034 OVC095,37.4,32.0,81.0,,,29.81,0.0,0.0,0.0,0.0,2025-01-22,1,2025,2,KOKV,0.0,0.0,0.0,0.0,0
2025-01-19,19,2025-01-19 03:55,03:55,EST,Calm,10.0,Overcast,SCT029 OVC095,35.6,32.0,87.0,,,29.8,0.0,0.0,0.0,0.0,2025-01-22,1,2025,3,KOKV,0.0,0.0,0.0,0.0,0
2025-01-19,19,2025-01-19 04:55,04:55,EST,Calm,7.0,Overcast,SCT024 BKN029 OVC050,33.8,32.0,93.0,,,29.8,0.0,0.0,0.0,0.0,2025-01-22,1,2025,4,KOKV,0.0,0.0,0.0,0.0,0
2025-01-19,19,2025-01-19 05:55,05:55,EST,NW  3,10.0,Overcast,BKN024 OVC041,33.8,32.0,93.0,,,29.81,0.0,0.0,0.0,0.0,2025-01-22,1,2025,5,KOKV,0.0,0.0,0.0,0.0,3
2025-01-19,19,2025-01-19 06:55,06:55,EST,N  3,10.0,Overcast,OVC026,35.6,32.0,87.0,,,29.82,0.0,0.0,0.0,0.0,2025-01-22,1,2025,6,KOKV,0.0,0.0,0.0,0.0,3
2025-01-19,19,2025-01-19 07:55,07:55,EST,Calm,10.0,Overcast,SCT022 OVC026,35.6,32.0,87.0,,,29.81,0.0,0.0,0.0,0.0,2025-01-22,1,2025,7,KOKV,0.0,0.0,0.0,0.0,0
2025-01-19,19,2025-01-19 08:55,08:55,EST,E  5,3.0,Overcast,OVC022,33.8,32.0,93.0,30.0,,29.81,0.0,0.0,0.0,0.0,2025-01-22,1,2025,8,KOKV,0.0,0.0,0.0,0.0,5
2025-01-19,19,2025-01-19 09:55,09:55,EST,Calm,1.0,Overcast,BKN003 OVC020,32.0,32.0,100.0,,,29.82,0.0,0.0,0.0,0.0,2025-01-22,1,2025,9,KOKV,0.0,0.0,0.0,0.0,0
2025-01-19,19,2025-01-19 10:55,10:55,EST,Calm,2.0,Overcast,OVC003,32.0,32.0,100.0,,,29.78,0.0,0.0,0.0,0.0,2025-01-22,1,2025,10,KOKV,0.0,0.0,0.0,0.0,0
2025-01-19,19,2025-01-19 11:55,11:55,EST,NE  3,2.0,Overcast,OVC005,32.0,32.0,100.0,,,29.74,0.0,0.0,0.0,0.0,2025-01-22,1,2025,11,KOKV,0.0,0.0,0.0,0.0,3
2025-01-19,19,2025-01-19 12:55,12:55,EST,Calm,0.5,Overcast,OVC003,32.0,32.0,100.0,,,29.69,0.0,0.0,0.0,0.0,2025-01-22,1,2025,12,KOKV,0.0,0.0,0.0,0.0,0
2025-01-19,19,2025-01-19 13:55,13:55,EST,NW  8,0.25,Overcast,OVC003,32.0,32.0,100.0,25.0,,29.7,0.0,0.0,0.0,0.0,2025-01-22,1,2025,13,KOKV,0.0,0.0,0.0,0.0,8
2025-01-19,19,2025-01-19 14:55,14:55,EST,N  8,0.5,Overcast,OVC007,30.2,28.4,93.0,23.0,,29.71,0.0,0.0,0.0,0.0,2025-01-22,1,2025,14,KOKV,0.0,0.0,0.0,0.0,8
2025-01-19,19,2025-01-19 15:55,15:55,EST,N  9,0.75,Overcast,BKN006 OVC012,30.2,28.4,93.0,23.0,,29.75,0.0,0.0,0.0,0.0,2025-01-22,1,2025,15,KOKV,0.0,0.0,0.0,0.0,9
2025-01-19,19,2025-01-19 16:55,16:55,EST,NW  7,3.0,Overcast,SCT009 SCT016 OVC034,28.4,26.6,93.0,22.0,,29.77,0.0,0.0,0.0,0.0,2025-01-22,1,2025,16,KOKV,0.0,0.0,0.0,0.0,7
2025-01-19,19,2025-01-19 17:55,17:55,EST,NW  12  G 24,5.0,Overcast,SCT012 BKN021 OVC055,28.4,23.0,80.0,19.0,,29.81,0.0,0.0,0.0,0.0,2025-01-22,1,2025,17,KOKV,0.0,0.0,0.0,0.0,12
2025-01-19,19,2025-01-19 18:55,18:55,EST,NW  8,10.0,Overcast,SCT015 BKN020 OVC085,26.6,21.2,80.0,19.0,,29.87,0.0,0.0,0.0,0.0,2025-01-22,1,2025,18,KOKV,0.0,0.0,0.0,0.0,8
2025-01-19,19,2025-01-19 19:55,19:55,EST,NW  12,10.0,Overcast,SCT020 BKN025 OVC095,24.8,19.4,80.0,15.0,,29.9,0.0,0.0,0.0,0.0,2025-01-22,1,2025,19,KOKV,0.0,0.0,0.0,0.0,12
2025-01-19,19,2025-01-19 20:55,20:55,EST,NW  14,10.0,Overcast,BKN033 OVC038,23.0,15.8,74.0,11.0,,29.93,0.0,0.0,0.0,0.0,2025-01-22,1,2025,20,KOKV,0.0,0.0,0.0,0.0,14
2025-01-19,19,2025-01-19 21:35,21:35,EST,W  7,10.0,Partly Cloudy,SCT032 SCT038,23.0,14.0,68.0,16.0,,29.95,0.0,0.0,0.0,0.0,2025-01-22,1,2025,21,KOKV,0.0,0.0,0.0,0.0,7
2025-01-19,19,2025-01-19 22:55,22:55,EST,NW  16  G 22,10.0,Fair,CLR,21.2,14.0,74.0,8.0,,29.97,0.0,0.0,0.0,0.0,2025-01-22,1,2025,22,KOKV,0.0,0.0,0.0,0.0,16
2025-01-19,19,2025-01-19 23:55,23:55,EST,NW  9,10.0,Overcast,BKN030 OVC035,19.4,14.0,79.0,10.0,,30.01,0.0,0.0,0.0,0.0,2025-01-22,1,2025,23,KOKV,0.0,0.0,0.0,0.0,9
2025-01-20,20,2025-01-20 00:55,00:55,EST,W  12,10.0,Partly Cloudy,SCT030 SCT039,21.2,14.0,74.0,10.0,,30.03,0.0,0.0,0.0,0.0,2025-01-23,1,2025,0,KOKV,0.0,0.0,0.0,0.0,12
2025-01-20,20,2025-01-20 01:55,01:55,EST,W  8,10.0,Fair,CLR,21.2,12.2,68.0,12.0,,30.05,0.0,0.0,0.0,0.0,2025-01-23,1,2025,1,KOKV,0.0,0.0,0.0,0.0,8
2025-01-20,20,2025-01-20 02:55,02:55,EST,W  12  G 20,10.0,Partly Cloudy,SCT042 SCT055,21.2,10.4,63.0,10.0,,30.09,0.0,0.0,0.0,0.0,2025-01-23,1,2025,2,KOKV,0.0,0.0,0.0,0.0,12
2025-01-20,20,2025-01-20 03:55,03:55,EST,W  9  G 20,10.0,Fair,CLR,21.2,10.4,63.0,12.0,,30.11,0.0,0.0,0.0,0.0,2025-01-23,1,2025,3,KOKV,0.0,0.0,0.0,0.0,9
2025-01-20,20,2025-01-20 04:55,04:55,EST,W  7,10.0,Fair,CLR,19.4,10.4,68.0,11.0,,30.14,0.0,0.0,0.0,0.0,2025-01-23,1,2025,4,KOKV,0.0,0.0,0.0,0.0,7
2025-01-20,20,2025-01-20 05:55,05:55,EST,NW  7,10.0,Fair,CLR,19.4,8.6,63.0,11.0,,30.15,0.0,0.0,0.0,0.0,2025-01-23,1,2025,5,KOKV,0.0,0.0,0.0,0.0,7
2025-01-20,20,2025-01-20 06:55,06:55,EST,W  9,10.0,Mostly Cloudy,BKN065,19.4,10.4,68.0,10.0,,30.21,0.0,0.0,0.0,0.0,2025-01-23,1,2025,6,KOKV,0.0,0.0,0.0,0.0,9
2025-01-20,20,2025-01-20 07:55,07:55,EST,W  5,10.0,Overcast,SCT022 BKN036 OVC046,19.4,10.4,68.0,14.0,,30.24,0.0,0.0,0.0,0.0,2025-01-23,1,2025,7,KOKV,0.0,0.0,0.0,0.0,5
2025-01-20,20,2025-01-20 08:55,08:55,EST,W  17  G 23,1.0,Overcast,SCT010 OVC017,19.4,12.2,73.0,5.0,,30.28,0.0,0.0,0.0,0.0,2025-01-23,1,2025,8,KOKV,0.0,0.0,0.0,0.0,17
2025-01-20,20,2025-01-20 09:55,09:55,EST,NW  18  G 24,5.0,Partly Cloudy,SCT031,17.6,5.0,58.0,3.0,,30.32,0.0,0.0,0.0,0.0,2025-01-23,1,2025,9,KOKV,0.0,0.0,0.0,0.0,18
2025-01-20,20,2025-01-20 10:55,10:55,EST,W  13,10.0,Partly Cloudy,SCT048,19.4,5.0,53.0,8.0,,30.37,0.0,0.0,0.0,0.0,2025-01-23,1,2025,10,KOKV,0.0,0.0,0.0,0.0,13
2025-01-20,20,2025-01-20 11:55,11:55,EST,W  17  G 21,10.0,Partly Cloudy,SCT044,17.6,1.4,49.0,3.0,,30.37,0.0,0.0,0.0,0.0,2025-01-23,1,2025,11,KOKV,0.0,0.0,0.0,0.0,17
2025-01-20,20,2025-01-20 12:55,12:55,EST,W  16  G 22,7.0,Fair,CLR,17.6,-0.4,45.0,4.0,,30.37,0.0,0.0,0.0,0.0,2025-01-23,1,2025,12,KOKV,0.0,0.0,0.0,0.0,16
2025-01-20,20,2025-01-20 13:55,13:55,EST,NW  17,10.0,Fair,CLR,17.6,-0.4,45.0,3.0,,30.37,0.0,0.0,0.0,0.0,2025-01-23,1,2025,13,KOKV,0.0,0.0,0.0,0.0,17
2025-01-20,20,2025-01-20 14:55,14:55,EST,NW  15,10.0,Fair,CLR,17.6,1.4,49.0,4.0,,30.39,0.0,0.0,0.0,0.0,2025-01-23,1,2025,14,KOKV,0.0,0.0,0.0,0.0,15
2025-01-20,20,2025-01-20 15:55,15:55,EST,NW  15  G 20,10.0,Fair,CLR,17.6,-2.2,41.0,4.0,,30.4,0.0,0.0,0.0,0.0,2025-01-23,1,2025,15,KOKV,0.0,0.0,0.0,0.0,15
2025-01-20,20,2025-01-20 16:55,16:55,EST,NW  12,10.0,Fair,CLR,14.0,-2.2,48.0,1.0,,30.41,0.0,0.0,0.0,0.0,2025-01-23,1,2025,16,KOKV,0.0,0.0,0.0,0.0,12
2025-01-20,20,2025-01-20 17:55,17:55,EST,Calm,10.0,Fair,CLR,12.2,-2.2,52.0,,,30.44,0.0,0.0,0.0,0.0,2025-01-23,1,2025,17,KOKV,0.0,0.0,0.0,0.0,0
2025-01-20,20,2025-01-20 18:55,18:55,EST,Calm,10.0,Fair,CLR,8.6,-4.0,56.0,,,30.48,0.0,0.0,0.0,0.0,2025-01-23,1,2025,18,KOKV,0.0,0.0,0.0,0.0,0
2025-01-20,20,2025-01-20 19:55,19:55,EST,Calm,10.0,Fair,CLR,8.6,-4.0,56.0,,,30.5,0.0,0.0,0.0,0.0,2025-01-23,1,2025,19,KOKV,0.0,0.0,0.0,0.0,0
2025-01-20,20,2025-01-20 20:55,20:55,EST,NW  10,10.0,Fair,CLR,8.6,-4.0,56.0,-5.0,,30.5,0.0,0.0,0.0,0.0,2025-01-23,1,2025,20,KOKV,0.0,0.0,0.0,0.0,10
2025-01-20,20,2025-01-20 21:55,21:55,EST,Calm,10.0,Fair,CLR,5.0,-4.0,66.0,,,30.51,0.0,0.0,0.0,0.0,2025-01-23,1,2025,21,KOKV,0.0,0.0,0.0,0.0,0
2025-01-20,20,2025-01-20 22:55,22:55,EST,W  5,10.0,Fair,CLR,10.4,-4.0,52.0,3.0,,30.53,0.0,0.0,0.0,0.0,2025-01-23,1,2025,22,KOKV,0.0,0.0,0.0,0.0,5
2025-01-20,20,2025-01-20 23:55,23:55,EST,Calm,10.0,Fair,CLR,5.0,-4.0,66.0,,,30.53,0.0,0.0,0.0,0.0,2025-01-23,1,2025,23,KOKV,0.0,0.0,0.0,0.0,0
2025-01-21,21,2025-01-21 00:55,00:55,EST,Calm,10.0,Fair,CLR,8.6,-2.2,61.0,,,30.53,0.0,0.0,0.0,0.0,2025-01-24,1,2025,0,KOKV,0.0,0.0,0.0,0.0,0
2025-01-21,21,2025-01-21 01:55,01:55,EST,Calm,10.0,Fair,CLR,5.0,-0.4,78.0,,,30.52,0.0,0.0,0.0,0.0,2025-01-24,1,2025,1,KOKV,0.0,0.0,0.0,0.0,0
2025-01-21,21,2025-01-21 02:55,02:55,EST,Calm,10.0,Fair,CLR,1.4,-4.0,78.0,,,30.53,0.0,0.0,0.0,0.0,2025-01-24,1,2025,2,KOKV,0.0,0.0,0.0,0.0,0
2025-01-21,21,2025-01-21 03:55,03:55,EST,Calm,10.0,Fair,CLR,8.6,-2.2,61.0,,,30.55,0.0,0.0,0.0,0.0,2025-01-24,1,2025,3,KOKV,0.0,0.0,0.0,0.0,0
2025-01-21,21,2025-01-21 04:55,04:55,EST,Calm,10.0,Fair,CLR,3.2,-2.2,78.0,,,30.56,0.0,0.0,0.0,0.0,2025-01-24,1,2025,4,KOKV,0.0,0.0,0.0,0.0,0
2025-01-21,21,2025-01-21 05:55,05:55,EST,Calm,10.0,Fair,CLR,3.2,-0.4,85.0,,,30.55,0.0,0.0,0.0,0.0,2025-01-24,1,2025,5,KOKV,0.0,0.0,0.0,0.0,0
2025-01-21,21,2025-01-21 06:55,06:55,EST,NW  7,10.0,Partly Cloudy,SCT120,8.6,-2.2,61.0,-2.0,,30.55,0.0,0.0,0.0,0.0,2025-01-24,1,2025,6,KOKV,0.0,0.0,0.0,0.0,7
2025-01-21,21,2025-01-21 07:55,07:55,EST,Calm,10.0,Overcast,OVC110,6.8,1.4,78.0,,,30.55,0.0,0.0,0.0,0.0,2025-01-24,1,2025,7,KOKV,0.0,0.0,0.0,0.0,0
2025-01-21,21,2025-01-21 08:55,08:55,EST,Calm,10.0,Overcast,BKN100 OVC110,10.4,-4.0,52.0,,,30.56,0.0,0.0,0.0,0.0,2025-01-24,1,2025,8,KOKV,0.0,0.0,0.0,0.0,0
2025-01-21,21,2025-01-21 09:55,09:55,EST,NW  3,10.0,Overcast,OVC090,12.2,-4.0,48.0,,,30.57,0.0,0.0,0.0,0.0,2025-01-24,1,2025,9,KOKV,0.0,0.0,0.0,0.0,3
2025-01-21,21,2025-01-21 10:55,10:55,EST,Calm,10.0,Overcast,OVC080,14.0,-4.0,44.0,,,30.55,0.0,0.0,0.0,0.0,2025-01-24,1,2025,10,KOKV,0.0,0.0,0.0,0.0,0
2025-01-21,21,2025-01-21 11:55,11:55,EST,Calm,10.0,Overcast,OVC120,14.0,-2.2,48.0,,,30.52,0.0,0.0,0.0,0.0,2025-01-24,1,2025,11,KOKV,0.0,0.0,0.0,0.0,0
2025-01-21,21,2025-01-21 12:55,12:55,EST,Calm,10.0,Overcast,OVC110,15.8,-4.0,41.0,,,30.45,0.0,0.0,0.0,0.0,2025-01-24,1,2025,12,KOKV,0.0,0.0,0.0,0.0,0
2025-01-21,21,2025-01-21 13:55,13:55,EST,Calm,10.0,Overcast,BKN045 BKN049 OVC100,17.6,-0.4,45.0,,,30.43,0.0,0.0,0.0,0.0,2025-01-24,1,2025,13,KOKV,0.0,0.0,0.0,0.0,0
2025-01-21,21,2025-01-21 14:55,14:55,EST,Calm,10.0,Overcast,SCT035 SCT041 OVC050,17.6,-0.4,45.0,,,30.42,0.0,0.0,0.0,0.0,2025-01-24,1,2025,14,KOKV,0.0,0.0,0.0,0.0,0
2025-01-21,21,2025-01-21 15:55,15:55,EST,SE  3,10.0,Overcast,SCT037 SCT046 OVC050,17.6,1.4,49.0,,,30.41,0.0,0.0,0.0,0.0,2025-01-24,1,2025,15,KOKV,0.0,0.0,0.0,0.0,3
2025-01-21,21,2025-01-21 16:55,16:55,EST,SE  5,10.0,Overcast,SCT049 BKN065 OVC110,15.8,3.2,57.0,9.0,,30.4,0.0,0.0,0.0,0.0,2025-01-24,1,2025,16,KOKV,0.0,0.0,0.0,0.0,5
2025-01-21,21,2025-01-21 17:55,17:55,EST,Calm,10.0,Mostly Cloudy,BKN100,15.8,3.2,57.0,,,30.42,0.0,0.0,0.0,0.0,2025-01-24,1,2025,17,KOKV,0.0,0.0,0.0,0.0,0
2025-01-21,21,2025-01-21 18:55,18:55,EST,Calm,10.0,Partly Cloudy,SCT046 SCT055 SCT070,14.0,3.2,62.0,,,30.43,0.0,0.0,0.0,0.0,2025-01-24,1,2025,18,KOKV,0.0,0.0,0.0,0.0,0
2025-01-21,21,2025-01-21 19:55,19:55,EST,Calm,10.0,Partly Cloudy,SCT065,14.0,5.0,67.0,,,30.45,0.0,0.0,0.0,0.0,2025-01-24,1,2025,19,KOKV,0.0,0.0,0.0,0.0,0
2025-01-21,21,2025-01-21 20:55,20:55,EST,Calm,10.0,Mostly Cloudy,BKN045,12.2,5.0,73.0,,,30.43,0.0,0.0,0.0,0.0,2025-01-24,1,2025,20,KOKV,0.0,0.0,0.0,0.0,0
2025-01-21,21,2025-01-21 21:55,21:55,EST,Calm,10.0,Fair,CLR,10.4,3.2,72.0,,,30.44,0.0,0.0,0.0,0.0,2025-01-24,1,2025,21,KOKV,0.0,0.0,0.0,0.0,0
2025-01-21,21,2025-01-21 22:55,22:55,EST,Calm,10.0,Fair,CLR,8.6,1.4,72.0,,,30.45,0.0,0.0,0.0,0.0,2025-01-24,1,2025,22,KOKV,0.0,0.0,0.0,0.0,0
2025-01-21,21,2025-01-21 23:55,23:55,EST,NW  7,10.0,Partly Cloudy,SCT040 SCT048,8.6,1.4,72.0,-2.0,,30.44,0.0,0.0,0.0,0.0,2025-01-24,1,2025,23,KOKV,0.0,0.0,0.0,0.0,7
2025-01-22,22,2025-01-22 00:35,00:35,EST,NW  10,10.0,Mostly Cloudy,SCT028 BKN042 BKN050,12.2,-0.4,57.0,0.0,,30.45,0.0,0.0,0.0,0.0,2025-01-25,1,2025,0,KOKV,0.0,0.0,0.0,0.0,10
2025-01-22,22,2025-01-22 01:35,01:35,EST,NW  12,10.0,Overcast,SCT029 BKN039 OVC047,12.2,3.2,67.0,-1.0,,30.45,0.0,0.0,0.0,0.0,2025-01-25,1,2025,1,KOKV,0.0,0.0,0.0,0.0,12
2025-01-22,22,2025-01-22 06:35,06:35,EST,Calm,10.0,Fair,CLR,5.0,-4.0,66.0,,,30.49,0.0,0.0,0.0,0.0,2025-01-25,1,2025,6,KOKV,0.0,0.0,0.0,0.0,0
2025-01-22,22,2025-01-22 07:55,07:55,EST,Calm,10.0,Fair,CLR,3.2,-5.8,66.0,,,30.49,0.0,0.0,0.0,0.0,2025-01-25,1,2025,7,KOKV,0.0,0.0,0.0,0.0,0
2025-01-22,22,2025-01-22 08:55,08:55,EST,NW  6,10.0,Fair,CLR,5.0,-5.8,60.0,-5.0,,30.5,0.0,0.0,0.0,0.0,2025-01-25,1,2025,8,KOKV,0.0,0.0,0.0,0.0,6
2025-01-22,22,2025-01-22 09:55,09:55,EST,NW  10,10.0,Fair,CLR,8.6,-5.8,51.0,-5.0,,30.5,0.0,0.0,0.0,0.0,2025-01-25,1,2025,9,KOKV,0.0,0.0,0.0,0.0,10
2025-01-22,22,2025-01-22 10:55,10:55,EST,NW  9,10.0,Fair,CLR,10.4,-4.0,52.0,-1.0,,30.51,0.0,0.0,0.0,0.0,2025-01-25,1,2025,10,KOKV,0.0,0.0,0.0,0.0,9
2025-01-22,22,2025-01-22 11:55,11:55,EST,NW  3,10.0,Fair,CLR,12.2,-5.8,44.0,,,30.51,0.0,0.0,0.0,0.0,2025-01-25,1,2025,11,KOKV,0.0,0.0,0.0,0.0,3
2025-01-22,22,2025-01-22 12:35,12:35,EST,Calm,10.0,Fair,CLR,12.2,-5.8,44.0,,,30.48,0.0,0.0,0.0,0.0,2025-01-25,1,2025,12,KOKV,0.0,0.0,0.0,0.0,0
2025-01-22,22,2025-01-22 13:55,13:55,EST,SE  5,10.0,Fair,CLR,14.0,-4.0,44.0,7.0,,30.46,0.0,0.0,0.0,0.0,2025-01-25,1,2025,13,KOKV,0.0,0.0,0.0,0.0,5
2025-01-22,22,2025-01-22 14:55,14:55,EST,Calm,10.0,Fair,CLR,15.8,-4.0,41.0,,,30.44,0.0,0.0,0.0,0.0,2025-01-25,1,2025,14,KOKV,0.0,0.0,0.0,0.0,0
2025-01-22,22,2025-01-22 15:55,15:55,EST,Calm,10.0,Fair,CLR,15.8,-4.0,41.0,,,30.42,0.0,0.0,0.0,0.0,2025-01-25,1,2025,15,KOKV,0.0,0.0,0.0,0.0,0
2025-01-22,22,2025-01-22 16:55,16:55,EST,E  5,10.0,Fair,CLR,15.8,-0.4,48.0,9.0,,30.41,0.0,0.0,0.0,0.0,2025-01-25,1,2025,16,KOKV,0.0,0.0,0.0,0.0,5
2025-01-22,22,2025-01-22 17:55,17:55,EST,E  5,10.0,Fair,CLR,14.0,-2.2,48.0,7.0,,30.42,0.0,0.0,0.0,0.0,2025-01-25,1,2025,17,KOKV,0.0,0.0,0.0,0.0,5
2025-01-22,22,2025-01-22 18:55,18:55,EST,Calm,10.0,Fair,CLR,10.4,-0.4,61.0,,,30.41,0.0,0.0,0.0,0.0,2025-01-25,1,2025,18,KOKV,0.0,0.0,0.0,0.0,0
2025-01-22,22,2025-01-22 19:35,19:35,EST,Calm,10.0,Fair,CLR,8.6,-2.2,61.0,,,30.42,0.0,0.0,0.0,0.0,2025-01-25,1,2025,19,KOKV,0.0,0.0,0.0,0.0,0
2025-01-22,22,2025-01-22 20:55,20:55,EST,Calm,10.0,Fair,CLR,5.0,-0.4,78.0,,,30.4,0.0,0.0,0.0,0.0,2025-01-25,1,2025,20,KOKV,0.0,0.0,0.0,0.0,0
2025-01-22,22,2025-01-22 21:55,21:55,EST,Calm,10.0,Fair,CLR,5.0,-2.2,72.0,,,30.37,0.0,0.0,0.0,0.0,2025-01-25,1,2025,21,KOKV,0.0,0.0,0.0,0.0,0
2025-01-22,22,2025-01-22 22:55,22:55,EST,Calm,10.0,Fair,CLR,6.8,-0.4,72.0,,,30.37,0.0,0.0,0.0,0.0,2025-01-25,1,2025,22,KOKV,0.0,0.0,0.0,0.0,0
2025-01-22,22,2025-01-22 23:55,23:55,EST,Calm,10.0,Fair,CLR,6.8,-2.2,66.0,,,30.36,0.0,0.0,0.0,0.0,2025-01-25,1,2025,23,KOKV,0.0,0.0,0.0,0.0,0
2025-01-23,23,2025-01-23 00:55,00:55,EST,Calm,10.0,Partly Cloudy,SCT120,5.0,-2.2,72.0,,,30.35,0.0,0.0,0.0,0.0,2025-01-26,1,2025,0,KOKV,0.0,0.0,0.0,0.0,0
2025-01-23,23,2025-01-23 01:55,01:55,EST,Calm,10.0,Fair,CLR,8.6,-0.4,66.0,,,30.33,0.0,0.0,0.0,0.0,2025-01-26,1,2025,1,KOKV,0.0,0.0,0.0,0.0,0
2025-01-23,23,2025-01-23 02:55,02:55,EST,Calm,10.0,Fair,CLR,5.0,-0.4,78.0,,,30.3,0.0,0.0,0.0,0.0,2025-01-26,1,2025,2,KOKV,0.0,0.0,0.0,0.0,0
2025-01-23,23,2025-01-23 03:55,03:55,EST,Calm,10.0,Fair,CLR,1.4,-2.2,85.0,,,30.28,0.0,0.0,0.0,0.0,2025-01-26,1,2025,3,KOKV,0.0,0.0,0.0,0.0,0
2025-01-23,23,2025-01-23 04:55,04:55,EST,Calm,10.0,Fair,CLR,3.2,-0.4,85.0,,,30.27,0.0,0.0,0.0,0.0,2025-01-26,1,2025,4,KOKV,0.0,0.0,0.0,0.0,0
2025-01-23,23,2025-01-23 05:55,05:55,EST,Calm,10.0,Fair,CLR,-0.4,-5.8,78.0,,,30.26,0.0,0.0,0.0,0.0,2025-01-26,1,2025,5,KOKV,0.0,0.0,0.0,0.0,0
2025-01-23,23,2025-01-23 06:55,06:55,EST,Calm,10.0,Fair,CLR,1.4,-2.2,85.0,,,30.27,0.0,0.0,0.0,0.0,2025-01-26,1,2025,6,KOKV,0.0,0.0,0.0,0.0,0
2025-01-23,23,2025-01-23 07:55,07:55,EST,Calm,7.0,Fair,CLR,1.4,-2.2,85.0,,,30.26,0.0,0.0,0.0,0.0,2025-01-26,1,2025,7,KOKV,0.0,0.0,0.0,0.0,0
2025-01-23,23,2025-01-23 08:55,08:55,EST,Calm,10.0,Fair,CLR,5.0,1.4,85.0,,,30.26,0.0,0.0,0.0,0.0,2025-01-26,1,2025,8,KOKV,0.0,0.0,0.0,0.0,0
2025-01-23,23,2025-01-23 09:55,09:55,EST,Calm,10.0,Fair,CLR,12.2,1.4,62.0,,,30.25,0.0,0.0,0.0,0.0,2025-01-26,1,2025,9,KOKV,0.0,0.0,0.0,0.0,0
2025-01-23,23,2025-01-23 10:55,10:55,EST,S  5,10.0,Fair,CLR,19.4,5.0,53.0,14.0,,30.22,0.0,0.0,0.0,0.0,2025-01-26,1,2025,10,KOKV,0.0,0.0,0.0,0.0,5
2025-01-23,23,2025-01-23 11:55,11:55,EST,SW  3,10.0,Fair,CLR,23.0,5.0,46.0,,,30.2,0.0,0.0,0.0,0.0,2025-01-26,1,2025,11,KOKV,0.0,0.0,0.0,0.0,3
2025-01-23,23,2025-01-23 12:55,12:55,EST,SW  3,10.0,Fair,CLR,26.6,8.6,46.0,,,30.16,0.0,0.0,0.0,0.0,2025-01-26,1,2025,12,KOKV,0.0,0.0,0.0,0.0,3
2025-01-23,23,2025-01-23 13:55,13:55,EST,SW  6,10.0,Fair,CLR,28.4,8.6,43.0,23.0,,30.13,0.0,0.0,0.0,0.0,2025-01-26,1,2025,13,KOKV,0.0,0.0,0.0,0.0,6
2025-01-23,23,2025-01-23 14:55,14:55,EST,SW  3,10.0,Fair,CLR,30.2,10.4,43.0,,,30.11,0.0,0.0,0.0,0.0,2025-01-26,1,2025,14,KOKV,0.0,0.0,0.0,0.0,3
2025-01-23,23,2025-01-23 15:55,15:55,EST,Calm,10.0,Fair,CLR,30.2,8.6,40.0,,,30.11,0.0,0.0,0.0,0.0,2025-01-26,1,2025,15,KOKV,0.0,0.0,0.0,0.0,0
2025-01-23,23,2025-01-23 16:55,16:55,EST,SW  3,10.0,Mostly Cloudy,BKN060,30.2,10.4,43.0,,,30.11,0.0,0.0,0.0,0.0,2025-01-26,1,2025,16,KOKV,0.0,0.0,0.0,0.0,3
2025-01-23,23,2025-01-23 17:55,17:55,EST,SW  5,10.0,Overcast,SCT060 OVC070,30.2,12.2,47.0,26.0,,30.12,0.0,0.0,0.0,0.0,2025-01-26,1,2025,17,KOKV,0.0,0.0,0.0,0.0,5
2025-01-23,23,2025-01-23 18:55,18:55,EST,W  7,10.0,Partly Cloudy,SCT080,30.2,12.2,47.0,24.0,,30.14,0.0,0.0,0.0,0.0,2025-01-26,1,2025,18,KOKV,0.0,0.0,0.0,0.0,7
2025-01-23,23,2025-01-23 19:55,19:55,EST,W  6,10.0,Overcast,OVC080,30.2,17.6,59.0,25.0,,30.15,0.0,0.0,0.0,0.0,2025-01-26,1,2025,19,KOKV,0.0,0.0,0.0,0.0,6
2025-01-23,23,2025-01-23 20:55,20:55,EST,W  3,10.0,Mostly Cloudy,BKN080,28.4,15.8,59.0,,,30.16,0.0,0.0,0.0,0.0,2025-01-26,1,2025,20,KOKV,0.0,0.0,0.0,0.0,3
2025-01-23,23,2025-01-23 21:55,21:55,EST,Calm,10.0,Fair,CLR,23.0,14.0,68.0,,,30.17,0.0,0.0,0.0,0.0,2025-01-26,1,2025,21,KOKV,0.0,0.0,0.0,0.0,0
2025-01-23,23,2025-01-23 22:55,22:55,EST,Calm,10.0,Mostly Cloudy,BKN040,23.0,15.8,74.0,,,30.16,0.0,0.0,0.0,0.0,2025-01-27,1,2025,22,KOKV,0.0,0.0,0.0,0.0,0
2025-01-23,23,2025-01-23 23:55,23:55,EST,Calm,10.0,Overcast,OVC042,24.8,15.8,69.0,,,30.16,0.0,0.0,0.0,0.0,2025-01-27,1,2025,23,KOKV,0.0,0.0,0.0,0.0,0
2025-01-24,24,2025-01-24 00:55,00:55,EST,Calm,10.0,Overcast,OVC042,26.6,17.6,69.0,,,30.16,0.0,0.0,0.0,0.0,2025-01-27,1,2025,0,KOKV,0.0,0.0,0.0,0.0,0
2025-01-24,24,2025-01-24 01:55,01:55,EST,Calm,10.0,Overcast,OVC042,28.4,17.6,64.0,,,30.16,0.0,0.0,0.0,0.0,2025-01-27,1,2025,1,KOKV,0.0,0.0,0.0,0.0,0
2025-01-24,24,2025-01-24 02:55,02:55,EST,W  3,10.0,Overcast,BKN046 OVC055,28.4,17.6,64.0,,,30.16,0.0,0.0,0.0,0.0,2025-01-27,1,2025,2,KOKV,0.0,0.0,0.0,0.0,3
2025-01-24,24,2025-01-24 03:55,03:55,EST,W  3,10.0,Overcast,BKN047 OVC050,30.2,17.6,59.0,,,30.15,0.0,0.0,0.0,0.0,2025-01-27,1,2025,3,KOKV,0.0,0.0,0.0,0.0,3
2025-01-24,24,2025-01-24 04:55,04:55,EST,W  8,10.0,Overcast,OVC048,30.2,17.6,59.0,23.0,,30.16,0.0,0.0,0.0,0.0,2025-01-27,1,2025,4,KOKV,0.0,0.0,0.0,0.0,8
2025-01-24,24,2025-01-24 05:55,05:55,EST,NW  10,10.0,Overcast,OVC048,30.2,15.8,55.0,22.0,,30.17,0.0,0.0,0.0,0.0,2025-01-27,1,2025,5,KOKV,0.0,0.0,0.0,0.0,10
2025-01-24,24,2025-01-24 06:55,06:55,EST,NW  7,10.0,Overcast,OVC050,28.4,15.8,59.0,22.0,,30.18,0.0,0.0,0.0,0.0,2025-01-27,1,2025,6,KOKV,0.0,0.0,0.0,0.0,7
2025-01-24,24,2025-01-24 07:55,07:55,EST,NW  14  G 17,10.0,Overcast,OVC048,28.4,14.0,55.0,18.0,,30.2,0.0,0.0,0.0,0.0,2025-01-27,1,2025,7,KOKV,0.0,0.0,0.0,0.0,14
2025-01-24,24,2025-01-24 08:55,08:55,EST,W  7,10.0,Overcast,OVC050,30.2,14.0,51.0,24.0,,30.21,0.0,0.0,0.0,0.0,2025-01-27,1,2025,8,KOKV,0.0,0.0,0.0,0.0,7
2025-01-24,24,2025-01-24 09:55,09:55,EST,W  7,10.0,Overcast,BKN048 OVC050,30.2,14.0,51.0,24.0,,30.23,0.0,0.0,0.0,0.0,2025-01-27,1,2025,9,KOKV,0.0,0.0,0.0,0.0,7
2025-01-24,24,2025-01-24 10:55,10:55,EST,NW  9,10.0,Mostly Cloudy,BKN047 BKN060,32.0,15.8,51.0,25.0,,30.22,0.0,0.0,0.0,0.0,2025-01-27,1,2025,10,KOKV,0.0,0.0,0.0,0.0,9
2025-01-24,24,2025-01-24 11:55,11:55,EST,NW  10,10.0,Overcast,OVC049,32.0,15.8,51.0,24.0,,30.21,0.0,0.0,0.0,0.0,2025-01-27,1,2025,11,KOKV,0.0,0.0,0.0,0.0,10
2025-01-24,24,2025-01-24 12:55,12:55,EST,W  5  G 9,10.0,Mostly Cloudy,BKN049,32.0,14.0,47.0,28.0,,30.17,0.0,0.0,0.0,0.0,2025-01-27,1,2025,12,KOKV,0.0,0.0,0.0,0.0,5
2025-01-24,24,2025-01-24 13:55,13:55,EST,NW  3,10.0,Mostly Cloudy,BKN049,32.0,12.2,44.0,,,30.15,0.0,0.0,0.0,0.0,2025-01-27,1,2025,13,KOKV,0.0,0.0,0.0,0.0,3
2025-01-24,24,2025-01-24 14:55,14:55,EST,Calm,10.0,Overcast,OVC055,32.0,12.2,44.0,,,30.15,0.0,0.0,0.0,0.0,2025-01-27,1,2025,14,KOKV,0.0,0.0,0.0,0.0,0
2025-01-24,24,2025-01-24 15:55,15:55,EST,SE  5,10.0,Overcast,BKN055 OVC065,32.0,14.0,47.0,28.0,,30.16,0.0,0.0,0.0,0.0,2025-01-27,1,2025,15,KOKV,0.0,0.0,0.0,0.0,5
2025-01-24,24,2025-01-24 16:55,16:55,EST,Calm,10.0,Overcast,BKN055 OVC065,32.0,15.8,51.0,,,30.18,0.0,0.0,0.0,0.0,2025-01-27,1,2025,16,KOKV,0.0,0.0,0.0,0.0,0
2025-01-24,24,2025-01-24 17:55,17:55,EST,Calm,10.0,Overcast,SCT055 OVC065,30.2,14.0,51.0,,,30.19,0.0,0.0,0.0,0.0,2025-01-27,1,2025,17,KOKV,0.0,0.0,0.0,0.0,0
2025-01-24,24,2025-01-24 18:55,18:55,EST,Calm,10.0,Mostly Cloudy,BKN050,26.6,17.6,69.0,,,30.21,0.0,0.0,0.0,0.0,2025-01-27,1,2025,18,KOKV,0.0,0.0,0.0,0.0,0
2025-01-24,24,2025-01-24 19:55,19:55,EST,Calm,10.0,Overcast,OVC065,28.4,15.8,59.0,,,30.24,0.0,0.0,0.0,0.0,2025-01-27,1,2025,19,KOKV,0.0,0.0,0.0,0.0,0
2025-01-24,24,2025-01-24 20:55,20:55,EST,N  3,10.0,Fair,CLR,28.4,14.0,55.0,,,30.25,0.0,0.0,0.0,0.0,2025-01-27,1,2025,20,KOKV,0.0,0.0,0.0,0.0,3
2025-01-24,24,2025-01-24 21:55,21:55,EST,Calm,10.0,Fair,CLR,24.8,14.0,63.0,,,30.27,0.0,0.0,0.0,0.0,2025-01-27,1,2025,21,KOKV,0.0,0.0,0.0,0.0,0
2025-01-24,24,2025-01-24 22:55,22:55,EST,Calm,10.0,Fair,CLR,23.0,12.2,63.0,,,30.28,0.0,0.0,0.0,0.0,2025-01-27,1,2025,22,KOKV,0.0,0.0,0.0,0.0,0
2025-01-24,24,2025-01-24 23:55,23:55,EST,Calm,10.0,Fair,CLR,19.4,12.2,73.0,,,30.28,0.0,0.0,0.0,0.0,2025-01-27,1,2025,23,KOKV,0.0,0.0,0.0,0.0,0
2025-01-25,25,2025-01-25 00:55,00:55,EST,NW  6,10.0,Fair,CLR,23.0,12.2,63.0,17.0,,30.29,0.0,0.0,0.0,0.0,2025-01-28,1,2025,0,KOKV,0.0,0.0,0.0,0.0,6
2025-01-25,25,2025-01-25 01:55,01:55,EST,Calm,10.0,Fair,CLR,19.4,12.2,73.0,,,30.3,0.0,0.0,0.0,0.0,2025-01-28,1,2025,1,KOKV,0.0,0.0,0.0,0.0,0
2025-01-25,25,2025-01-25 02:55,02:55,EST,Calm,10.0,Fair,CLR,15.8,10.4,79.0,,,30.3,0.0,0.0,0.0,0.0,2025-01-28,1,2025,2,KOKV,0.0,0.0,0.0,0.0,0
2025-01-25,25,2025-01-25 03:55,03:55,EST,Calm,10.0,Fair,CLR,12.2,8.6,85.0,,,30.31,0.0,0.0,0.0,0.0,2025-01-28,1,2025,3,KOKV,0.0,0.0,0.0,0.0,0
2025-01-25,25,2025-01-25 04:55,04:55,EST,Calm,10.0,Fair,CLR,12.2,8.6,85.0,,,30.33,0.0,0.0,0.0,0.0,2025-01-28,1,2025,4,KOKV,0.0,0.0,0.0,0.0,0
2025-01-25,25,2025-01-25 05:55,05:55,EST,Calm,10.0,Fair,CLR,12.2,8.6,85.0,,,30.33,0.0,0.0,0.0,0.0,2025-01-28,1,2025,5,KOKV,0.0,0.0,0.0,0.0,0
2025-01-25,25,2025-01-25 06:55,06:55,EST,Calm,10.0,Fair,CLR,10.4,6.8,85.0,,,30.35,0.0,0.0,0.0,0.0,2025-01-28,1,2025,6,KOKV,0.0,0.0,0.0,0.0,0
2025-01-25,25,2025-01-25 07:55,07:55,EST,Calm,10.0,Fair,CLR,8.6,5.0,85.0,,,30.37,0.0,0.0,0.0,0.0,2025-01-28,1,2025,7,KOKV,0.0,0.0,0.0,0.0,0
2025-01-25,25,2025-01-25 08:55,08:55,EST,SW  5,10.0,Fair,CLR,17.6,10.4,73.0,11.0,,30.36,0.0,0.0,0.0,0.0,2025-01-28,1,2025,8,KOKV,0.0,0.0,0.0,0.0,5
2025-01-25,25,2025-01-25 09:55,09:55,EST,SW  7,10.0,Fair,CLR,24.8,12.2,59.0,18.0,,30.36,0.0,0.0,0.0,0.0,2025-01-28,1,2025,9,KOKV,0.0,0.0,0.0,0.0,7
2025-01-25,25,2025-01-25 10:55,10:55,EST,S  9,10.0,Fair,CLR,28.4,12.2,51.0,20.0,,30.35,0.0,0.0,0.0,0.0,2025-01-28,1,2025,10,KOKV,0.0,0.0,0.0,0.0,9
2025-01-25,25,2025-01-25 11:55,11:55,EST,SW  8,10.0,Fair,CLR,32.0,15.8,51.0,25.0,,30.33,0.0,0.0,0.0,0.0,2025-01-28,1,2025,11,KOKV,0.0,0.0,0.0,0.0,8
2025-01-25,25,2025-01-25 12:55,12:55,EST,SW  7,10.0,Fair,CLR,32.0,15.8,51.0,26.0,,30.29,0.0,0.0,0.0,0.0,2025-01-28,1,2025,12,KOKV,0.0,0.0,0.0,0.0,7
2025-01-25,25,2025-01-25 13:55,13:55,EST,SW  6,10.0,Fair,CLR,32.0,17.6,55.0,27.0,,30.26,0.0,0.0,0.0,0.0,2025-01-28,1,2025,13,KOKV,0.0,0.0,0.0,0.0,6
2025-01-25,25,2025-01-25 14:55,14:55,EST,SW  7,10.0,Fair,CLR,33.8,17.6,51.0,28.0,,30.24,0.0,0.0,0.0,0.0,2025-01-28,1,2025,14,KOKV,0.0,0.0,0.0,0.0,7
2025-01-25,25,2025-01-25 15:55,15:55,EST,SW  6,10.0,Fair,CLR,35.6,17.6,48.0,31.0,,30.24,0.0,0.0,0.0,0.0,2025-01-28,1,2025,15,KOKV,0.0,0.0,0.0,0.0,6
2025-01-25,25,2025-01-25 16:55,16:55,EST,S  5,10.0,Fair,CLR,33.8,17.6,51.0,30.0,,30.22,0.0,0.0,0.0,0.0,2025-01-28,1,2025,16,KOKV,0.0,0.0,0.0,0.0,5
2025-01-25,25,2025-01-25 17:55,17:55,EST,S  5,10.0,Fair,CLR,32.0,15.8,51.0,28.0,,30.22,0.0,0.0,0.0,0.0,2025-01-28,1,2025,17,KOKV,0.0,0.0,0.0,0.0,5
2025-01-25,25,2025-01-25 18:55,18:55,EST,S  5,10.0,Fair,CLR,32.0,14.0,47.0,28.0,,30.21,0.0,0.0,0.0,0.0,2025-01-28,1,2025,18,KOKV,0.0,0.0,0.0,0.0,5
2025-01-25,25,2025-01-25 19:55,19:55,EST,S  3,10.0,Fair,CLR,30.2,14.0,51.0,,,30.21,0.0,0.0,0.0,0.0,2025-01-28,1,2025,19,KOKV,0.0,0.0,0.0,0.0,3
2025-01-25,25,2025-01-25 20:55,20:55,EST,SW  5,10.0,Fair,CLR,32.0,14.0,47.0,28.0,,30.2,0.0,0.0,0.0,0.0,2025-01-28,1,2025,20,KOKV,0.0,0.0,0.0,0.0,5
2025-01-25,25,2025-01-25 21:55,21:55,EST,SW  5,10.0,Fair,CLR,32.0,15.8,51.0,28.0,,30.2,0.0,0.0,0.0,0.0,2025-01-28,1,2025,21,KOKV,0.0,0.0,0.0,0.0,5
2025-01-25,25,2025-01-25 22:55,22:55,EST,SW  7,10.0,Fair,CLR,32.0,15.8,51.0,26.0,,30.19,0.0,0.0,0.0,0.0,2025-01-28,1,2025,22,KOKV,0.0,0.0,0.0,0.0,7
2025-01-25,25,2025-01-25 23:55,23:55,EST,SW  7,10.0,Fair,CLR,32.0,15.8,51.0,26.0,,30.19,0.0,0.0,0.0,0.0,2025-01-28,1,2025,23,KOKV,0.0,0.0,0.0,0.0,7
2025-01-26,26,2025-01-26 00:55,00:55,EST,SW  9,10.0,Fair,CLR,33.8,17.6,51.0,27.0,,30.18,0.0,0.0,0.0,0.0,2025-01-29,1,2025,0,KOKV,0.0,0.0,0.0,0.0,9
2025-01-26,26,2025-01-26 01:55,01:55,EST,SW  12,10.0,Fair,CLR,33.8,17.6,51.0,26.0,,30.17,0.0,0.0,0.0,0.0,2025-01-29,1,2025,1,KOKV,0.0,0.0,0.0,0.0,12
2025-01-26,26,2025-01-26 02:55,02:55,EST,SW  9,10.0,Fair,CLR,33.8,17.6,51.0,27.0,,30.17,0.0,0.0,0.0,0.0,2025-01-29,1,2025,2,KOKV,0.0,0.0,0.0,0.0,9
2025-01-26,26,2025-01-26 03:55,03:55,EST,SW  6,10.0,Fair,CLR,32.0,17.6,55.0,27.0,,30.15,0.0,0.0,0.0,0.0,2025-01-29,1,2025,3,KOKV,0.0,0.0,0.0,0.0,6
2025-01-26,26,2025-01-26 04:55,04:55,EST,SW  6,10.0,Fair,CLR,32.0,17.6,55.0,27.0,,30.15,0.0,0.0,0.0,0.0,2025-01-29,1,2025,4,KOKV,0.0,0.0,0.0,0.0,6
2025-01-26,26,2025-01-26 05:55,05:55,EST,SW  6,10.0,Fair,CLR,32.0,17.6,55.0,27.0,,30.16,0.0,0.0,0.0,0.0,2025-01-29,1,2025,5,KOKV,0.0,0.0,0.0,0.0,6
2025-01-26,26,2025-01-26 06:55,06:55,EST,SW  5,10.0,Fair,CLR,30.2,17.6,59.0,26.0,,30.17,0.0,0.0,0.0,0.0,2025-01-29,1,2025,6,KOKV,0.0,0.0,0.0,0.0,5
2025-01-26,26,2025-01-26 07:55,07:55,EST,SW  5,10.0,Fair,CLR,24.8,17.6,74.0,20.0,,30.19,0.0,0.0,0.0,0.0,2025-01-29,1,2025,7,KOKV,0.0,0.0,0.0,0.0,5
2025-01-26,26,2025-01-26 08:55,08:55,EST,S  5,10.0,Fair,CLR,32.0,21.2,64.0,28.0,,30.2,0.0,0.0,0.0,0.0,2025-01-29,1,2025,8,KOKV,0.0,0.0,0.0,0.0,5
2025-01-26,26,2025-01-26 09:55,09:55,EST,W  9  G 17,10.0,Fair,CLR,41.0,23.0,49.0,36.0,,30.19,0.0,0.0,0.0,0.0,2025-01-29,1,2025,9,KOKV,0.0,0.0,0.0,0.0,9
2025-01-26,26,2025-01-26 10:55,10:55,EST,NW  8,10.0,Partly Cloudy,SCT055,41.0,21.2,45.0,36.0,,30.2,0.0,0.0,0.0,0.0,2025-01-29,1,2025,10,KOKV,0.0,0.0,0.0,0.0,8
2025-01-26,26,2025-01-26 11:55,11:55,EST,NW  10,10.0,Partly Cloudy,SCT065,41.0,21.2,45.0,35.0,,30.2,0.0,0.0,0.0,0.0,2025-01-29,1,2025,11,KOKV,0.0,0.0,0.0,0.0,10
2025-01-26,26,2025-01-26 12:55,12:55,EST,W  10  G 20,10.0,Fair,CLR,42.8,21.2,42.0,38.0,,30.17,0.0,0.0,0.0,0.0,2025-01-29,1,2025,12,KOKV,0.0,0.0,0.0,0.0,10
2025-01-26,26,2025-01-26 13:55,13:55,EST,W  15  G 18,10.0,Fair,CLR,42.8,19.4,39.0,36.0,,30.16,0.0,0.0,0.0,0.0,2025-01-29,1,2025,13,KOKV,0.0,0.0,0.0,0.0,15
2025-01-26,26,2025-01-26 14:55,14:55,EST,W  12  G 16,10.0,Fair,CLR,42.8,19.4,39.0,37.0,,30.16,0.0,0.0,0.0,0.0,2025-01-29,1,2025,14,KOKV,0.0,0.0,0.0,0.0,12
2025-01-26,26,2025-01-26 15:55,15:55,EST,NW  12,10.0,Fair,CLR,42.8,17.6,36.0,37.0,,30.16,0.0,0.0,0.0,0.0,2025-01-29,1,2025,15,KOKV,0.0,0.0,0.0,0.0,12
2025-01-26,26,2025-01-26 16:55,16:55,EST,NW  8,10.0,Fair,CLR,39.2,17.6,42.0,34.0,,30.17,0.0,0.0,0.0,0.0,2025-01-29,1,2025,16,KOKV,0.0,0.0,0.0,0.0,8
2025-01-26,26,2025-01-26 17:55,17:55,EST,W  6,10.0,Fair,CLR,33.8,17.6,51.0,29.0,,30.17,0.0,0.0,0.0,0.0,2025-01-29,1,2025,17,KOKV,0.0,0.0,0.0,0.0,6
2025-01-26,26,2025-01-26 18:55,18:55,EST,NW  3,10.0,Fair,CLR,32.0,14.0,47.0,,,30.17,0.0,0.0,0.0,0.0,2025-01-29,1,2025,18,KOKV,0.0,0.0,0.0,0.0,3
2025-01-26,26,2025-01-26 19:55,19:55,EST,NW  6,10.0,Fair,CLR,32.0,14.0,47.0,27.0,,30.16,0.0,0.0,0.0,0.0,2025-01-29,1,2025,19,KOKV,0.0,0.0,0.0,0.0,6
2025-01-26,26,2025-01-26 20:55,20:55,EST,Calm,10.0,Fair,CLR,28.4,15.8,59.0,,,30.15,0.0,0.0,0.0,0.0,2025-01-29,1,2025,20,KOKV,0.0,0.0,0.0,0.0,0
2025-01-26,26,2025-01-26 21:35,21:35,EST,Calm,0.0,,,28.4,15.8,59.0,,,0.0,0.0,0.0,0.0,0.0,2025-01-29,1,2025,21,KOKV,0.0,0.0,0.0,0.0,0
2025-01-27,27,2025-01-27 07:55,07:55,EST,Calm,10.0,Fair,CLR,21.2,15.8,80.0,,,30.09,0.0,0.0,0.0,0.0,2025-01-30,1,2025,7,KOKV,0.0,0.0,0.0,0.0,0
2025-01-27,27,2025-01-27 08:55,08:55,EST,Calm,10.0,Fair,CLR,28.4,21.2,74.0,,,30.09,0.0,0.0,0.0,0.0,2025-01-30,1,2025,8,KOKV,0.0,0.0,0.0,0.0,0
2025-01-27,27,2025-01-27 09:55,09:55,EST,Calm,10.0,Fair,CLR,32.0,17.6,55.0,,,30.09,0.0,0.0,0.0,0.0,2025-01-30,1,2025,9,KOKV,0.0,0.0,0.0,0.0,0
2025-01-27,27,2025-01-27 10:55,10:55,EST,Calm,10.0,Fair,CLR,35.6,15.8,44.0,,,30.07,0.0,0.0,0.0,0.0,2025-01-30,1,2025,10,KOKV,0.0,0.0,0.0,0.0,0
2025-01-27,27,2025-01-27 11:55,11:55,EST,SE  6,10.0,Fair,CLR,37.4,17.6,45.0,33.0,,30.02,0.0,0.0,0.0,0.0,2025-01-30,1,2025,11,KOKV,0.0,0.0,0.0,0.0,6
2025-01-27,27,2025-01-27 12:55,12:55,EST,SW  13,10.0,Fair,CLR,42.8,15.8,34.0,37.0,,29.97,0.0,0.0,0.0,0.0,2025-01-30,1,2025,12,KOKV,0.0,0.0,0.0,0.0,13
2025-01-27,27,2025-01-27 13:55,13:55,EST,SW  12,10.0,Fair,CLR,44.6,17.6,34.0,39.0,,29.93,0.0,0.0,0.0,0.0,2025-01-30,1,2025,13,KOKV,0.0,0.0,0.0,0.0,12
2025-01-27,27,2025-01-27 14:55,14:55,EST,SW  12,10.0,Fair,CLR,44.6,17.6,34.0,39.0,,29.89,0.0,0.0,0.0,0.0,2025-01-30,1,2025,14,KOKV,0.0,0.0,0.0,0.0,12
2025-01-27,27,2025-01-27 15:55,15:55,EST,SW  9,10.0,Fair,CLR,44.6,17.6,34.0,40.0,,29.87,0.0,0.0,0.0,0.0,2025-01-30,1,2025,15,KOKV,0.0,0.0,0.0,0.0,9
2025-01-27,27,2025-01-27 16:55,16:55,EST,SW  7,10.0,Fair,CLR,44.6,17.6,34.0,41.0,,29.84,0.0,0.0,0.0,0.0,2025-01-30,1,2025,16,KOKV,0.0,0.0,0.0,0.0,7
2025-01-27,27,2025-01-27 17:55,17:55,EST,Calm,10.0,Fair,CLR,39.2,17.6,42.0,,,29.82,0.0,0.0,0.0,0.0,2025-01-30,1,2025,17,KOKV,0.0,0.0,0.0,0.0,0
2025-01-27,27,2025-01-27 18:55,18:55,EST,Calm,10.0,Fair,CLR,33.8,19.4,56.0,,,29.82,0.0,0.0,0.0,0.0,2025-01-30,1,2025,18,KOKV,0.0,0.0,0.0,0.0,0
2025-01-27,27,2025-01-27 19:55,19:55,EST,W  6,10.0,Fair,CLR,33.8,17.6,51.0,29.0,,29.8,0.0,0.0,0.0,0.0,2025-01-30,1,2025,19,KOKV,0.0,0.0,0.0,0.0,6
2025-01-27,27,2025-01-27 20:55,20:55,EST,SW  6,10.0,Fair,CLR,37.4,14.0,38.0,33.0,,29.78,0.0,0.0,0.0,0.0,2025-01-30,1,2025,20,KOKV,0.0,0.0,0.0,0.0,6
2025-01-27,27,2025-01-27 21:55,21:55,EST,SW  3,10.0,Fair,CLR,35.6,14.0,41.0,,,29.76,0.0,0.0,0.0,0.0,2025-01-30,1,2025,21,KOKV,0.0,0.0,0.0,0.0,3
2025-01-27,27,2025-01-27 22:55,22:55,EST,W  15  G 20,10.0,Fair,CLR,37.4,12.2,35.0,29.0,,29.74,0.0,0.0,0.0,0.0,2025-01-30,1,2025,22,KOKV,0.0,0.0,0.0,0.0,15
2025-01-27,27,2025-01-27 23:55,23:55,EST,SW  8,10.0,Fair,CLR,37.4,12.2,35.0,32.0,,29.7,0.0,0.0,0.0,0.0,2025-01-30,1,2025,23,KOKV,0.0,0.0,0.0,0.0,8
2025-01-28,28,2025-01-28 00:55,00:55,EST,SW  6,10.0,Fair,CLR,35.6,10.4,35.0,31.0,,29.7,0.0,0.0,0.0,0.0,2025-01-31,1,2025,0,KOKV,0.0,0.0,0.0,0.0,6
2025-01-28,28,2025-01-28 01:55,01:55,EST,SW  6,10.0,Fair,CLR,33.8,12.2,41.0,29.0,,29.67,0.0,0.0,0.0,0.0,2025-01-31,1,2025,1,KOKV,0.0,0.0,0.0,0.0,6
2025-01-28,28,2025-01-28 02:55,02:55,EST,W  20  G 28,10.0,Fair,CLR,37.4,5.0,26.0,28.0,,29.67,0.0,0.0,0.0,0.0,2025-01-31,1,2025,2,KOKV,0.0,0.0,0.0,0.0,20
2025-01-28,28,2025-01-28 03:55,03:55,EST,W  25  G 31,10.0,Fair and Breezy,CLR,37.4,12.2,35.0,27.0,,29.66,0.0,0.0,0.0,0.0,2025-01-31,1,2025,3,KOKV,0.0,0.0,0.0,0.0,25
2025-01-28,28,2025-01-28 04:55,04:55,EST,W  16  G 28,10.0,Fair,CLR,35.6,14.0,41.0,27.0,,29.66,0.0,0.0,0.0,0.0,2025-01-31,1,2025,4,KOKV,0.0,0.0,0.0,0.0,16
2025-01-28,28,2025-01-28 05:55,05:55,EST,W  13,10.0,Fair,CLR,33.8,17.6,51.0,25.0,,29.66,0.0,0.0,0.0,0.0,2025-01-31,1,2025,5,KOKV,0.0,0.0,0.0,0.0,13
2025-01-28,28,2025-01-28 06:55,06:55,EST,W  9,10.0,Fair,CLR,33.8,19.4,56.0,27.0,,29.68,0.0,0.0,0.0,0.0,2025-01-31,1,2025,6,KOKV,0.0,0.0,0.0,0.0,9
2025-01-28,28,2025-01-28 07:55,07:55,EST,W  5,10.0,Fair,CLR,33.8,19.4,56.0,30.0,,29.69,0.0,0.0,0.0,0.0,2025-01-31,1,2025,7,KOKV,0.0,0.0,0.0,0.0,5
2025-01-28,28,2025-01-28 08:55,08:55,EST,NW  15  G 21,10.0,Fair,CLR,39.2,21.2,48.0,31.0,,29.72,0.0,0.0,0.0,0.0,2025-01-31,1,2025,8,KOKV,0.0,0.0,0.0,0.0,15
2025-01-28,28,2025-01-28 09:55,09:55,EST,W  22  G 29,10.0,Fair and Breezy,CLR,41.0,23.0,49.0,32.0,,29.72,0.0,0.0,0.0,0.0,2025-01-31,1,2025,9,KOKV,0.0,0.0,0.0,0.0,22
2025-01-28,28,2025-01-28 10:55,10:55,EST,NW  22  G 31,10.0,Fair and Breezy,CLR,42.8,23.0,46.0,34.0,,29.75,0.0,0.0,0.0,0.0,2025-01-31,1,2025,10,KOKV,0.0,0.0,0.0,0.0,22
2025-01-28,28,2025-01-28 11:55,11:55,EST,NW  18  G 28,10.0,Fair,CLR,42.8,23.0,46.0,35.0,,29.75,0.0,0.0,0.0,0.0,2025-01-31,1,2025,11,KOKV,0.0,0.0,0.0,0.0,18
2025-01-28,28,2025-01-28 12:55,12:55,EST,W  16  G 21,10.0,Fair,CLR,44.6,23.0,43.0,38.0,,29.74,0.0,0.0,0.0,0.0,2025-01-31,1,2025,12,KOKV,0.0,0.0,0.0,0.0,16
2025-01-28,28,2025-01-28 13:55,13:55,EST,W  12,10.0,Fair,CLR,46.4,23.0,40.0,42.0,,29.72,0.0,0.0,0.0,0.0,2025-01-31,1,2025,13,KOKV,0.0,0.0,0.0,0.0,12
2025-01-28,28,2025-01-28 14:55,14:55,EST,W  12,10.0,Fair,CLR,46.4,23.0,40.0,42.0,,29.69,0.0,0.0,0.0,0.0,2025-01-31,1,2025,14,KOKV,0.0,0.0,0.0,0.0,12
2025-01-28,28,2025-01-28 15:55,15:55,EST,W  10,10.0,Fair,CLR,48.2,21.2,34.0,44.0,,29.68,0.0,0.0,0.0,0.0,2025-01-31,1,2025,15,KOKV,0.0,0.0,0.0,0.0,10
2025-01-28,28,2025-01-28 16:55,16:55,EST,W  6,10.0,Fair,CLR,46.4,21.2,37.0,44.0,,29.67,0.0,0.0,0.0,0.0,2025-01-31,1,2025,16,KOKV,0.0,0.0,0.0,0.0,6
2025-01-28,28,2025-01-28 17:55,17:55,EST,Calm,10.0,Fair,CLR,44.6,21.2,39.0,,,29.68,0.0,0.0,0.0,0.0,2025-01-31,1,2025,17,KOKV,0.0,0.0,0.0,0.0,0
2025-01-28,28,2025-01-28 18:55,18:55,EST,Calm,10.0,Fair,CLR,35.6,21.2,56.0,,,29.68,0.0,0.0,0.0,0.0,2025-01-31,1,2025,18,KOKV,0.0,0.0,0.0,0.0,0
2025-01-28,28,2025-01-28 19:55,19:55,EST,Calm,10.0,Fair,CLR,33.8,23.0,65.0,,,29.67,0.0,0.0,0.0,0.0,2025-01-31,1,2025,19,KOKV,0.0,0.0,0.0,0.0,0
2025-01-28,28,2025-01-28 20:55,20:55,EST,SW  3,10.0,Fair,CLR,39.2,21.2,48.0,,,29.66,0.0,0.0,0.0,0.0,2025-01-31,1,2025,20,KOKV,0.0,0.0,0.0,0.0,3
2025-01-28,28,2025-01-28 21:55,21:55,EST,SW  7,10.0,Fair,CLR,39.2,23.0,52.0,35.0,,29.62,0.0,0.0,0.0,0.0,2025-01-31,1,2025,21,KOKV,0.0,0.0,0.0,0.0,7
2025-01-28,28,2025-01-28 22:55,22:55,EST,SW  5,10.0,Fair,CLR,35.6,23.0,60.0,32.0,,29.61,0.0,0.0,0.0,0.0,2025-01-31,1,2025,22,KOKV,0.0,0.0,0.0,0.0,5
2025-01-28,28,2025-01-28 23:55,23:55,EST,Calm,10.0,Fair,CLR,35.6,23.0,60.0,,,29.58,0.0,0.0,0.0,0.0,2025-01-31,1,2025,23,KOKV,0.0,0.0,0.0,0.0,0
2025-01-29,29,2025-01-29 00:55,00:55,EST,S  6,10.0,Fair,CLR,35.6,23.0,60.0,31.0,,29.56,0.0,0.0,0.0,0.0,2025-02-01,1,2025,0,KOKV,0.0,0.0,0.0,0.0,6
2025-01-29,29,2025-01-29 01:55,01:55,EST,Calm,10.0,Fair,CLR,35.6,23.0,60.0,,,29.55,0.0,0.0,0.0,0.0,2025-02-01,1,2025,1,KOKV,0.0,0.0,0.0,0.0,0
2025-01-29,29,2025-01-29 02:55,02:55,EST,W  16  G 25,10.0,Fair,CLR,46.4,24.8,43.0,40.0,,29.54,0.0,0.0,0.0,0.0,2025-02-01,1,2025,2,KOKV,0.0,0.0,0.0,0.0,16
2025-01-29,29,2025-01-29 03:55,03:55,EST,W  16  G 23,10.0,Fair,CLR,44.6,24.8,46.0,38.0,,29.54,0.0,0.0,0.0,0.0,2025-02-01,1,2025,3,KOKV,0.0,0.0,0.0,0.0,16
2025-01-29,29,2025-01-29 04:55,04:55,EST,W  14  G 22,10.0,Fair,CLR,44.6,24.8,46.0,39.0,,29.53,0.0,0.0,0.0,0.0,2025-02-01,1,2025,4,KOKV,0.0,0.0,0.0,0.0,14
2025-01-29,29,2025-01-29 05:55,05:55,EST,W  7,10.0,Fair,CLR,44.6,24.8,46.0,41.0,,29.53,0.0,0.0,0.0,0.0,2025-02-01,1,2025,5,KOKV,0.0,0.0,0.0,0.0,7
2025-01-29,29,2025-01-29 06:55,06:55,EST,W  14  G 22,10.0,Fair,CLR,44.6,24.8,46.0,39.0,,29.54,0.0,0.0,0.0,0.0,2025-02-01,1,2025,6,KOKV,0.0,0.0,0.0,0.0,14
2025-01-29,29,2025-01-29 07:55,07:55,EST,W  13  G 18,10.0,Fair,CLR,44.6,24.8,46.0,39.0,,29.55,0.0,0.0,0.0,0.0,2025-02-01,1,2025,7,KOKV,0.0,0.0,0.0,0.0,13
2025-01-29,29,2025-01-29 08:55,08:55,EST,W  14  G 22,10.0,Fair,CLR,48.2,23.0,37.0,43.0,,29.57,0.0,0.0,0.0,0.0,2025-02-01,1,2025,8,KOKV,0.0,0.0,0.0,0.0,14
2025-01-29,29,2025-01-29 09:55,09:55,EST,W  17  G 35,10.0,Fair,CLR,50.0,23.0,35.0,45.0,,29.58,0.0,0.0,0.0,0.0,2025-02-01,1,2025,9,KOKV,0.0,0.0,0.0,0.0,17
2025-01-29,29,2025-01-29 10:55,10:55,EST,W  20  G 28,10.0,Fair,CLR,51.8,23.0,32.0,,,29.59,0.0,0.0,0.0,0.0,2025-02-01,1,2025,10,KOKV,0.0,0.0,0.0,0.0,20
2025-01-29,29,2025-01-29 11:55,11:55,EST,W  17  G 25,10.0,Fair,CLR,51.8,23.0,32.0,,,29.59,0.0,0.0,0.0,0.0,2025-02-01,1,2025,11,KOKV,0.0,0.0,0.0,0.0,17
2025-01-29,29,2025-01-29 12:55,12:55,EST,NW  18  G 25,10.0,Fair,CLR,51.8,26.6,38.0,,,29.6,0.0,0.0,0.0,0.0,2025-02-01,1,2025,12,KOKV,0.0,0.0,0.0,0.0,18
2025-01-29,29,2025-01-29 13:55,13:55,EST,NW  28  G 35,10.0,Fair and Windy,CLR,51.8,24.8,35.0,,,29.63,0.0,0.0,0.0,0.0,2025-02-01,1,2025,13,KOKV,0.0,0.0,0.0,0.0,28
2025-01-29,29,2025-01-29 14:55,14:55,EST,W  28  G 40,10.0,Fair and Windy,CLR,50.0,23.0,35.0,43.0,,29.66,0.0,0.0,0.0,0.0,2025-02-01,1,2025,14,KOKV,0.0,0.0,0.0,0.0,28
2025-01-29,29,2025-01-29 15:55,15:55,EST,Calm,0.0,Fair,CLR,48.2,23.0,37.0,,,0.0,0.0,0.0,0.0,0.0,2025-02-01,1,2025,15,KOKV,0.0,0.0,0.0,0.0,0
2025-01-29,29,2025-01-29 16:15,16:15,EST,Calm,0.0,,,48.2,23.0,37.0,,,0.0,0.0,0.0,0.0,0.0,2025-02-01,1,2025,16,KOKV,0.0,0.0,0.0,0.0,0
2025-01-29,29,2025-01-29 17:55,17:55,EST,W  15,0.0,,,44.6,21.2,39.0,38.0,,29.78,0.0,0.0,0.0,0.0,2025-02-01,1,2025,17,KOKV,0.0,0.0,0.0,0.0,15
2025-01-29,29,2025-01-29 18:55,18:55,EST,W  15  G 28,10.0,Fair,CLR,44.6,21.2,39.0,38.0,,29.83,0.0,0.0,0.0,0.0,2025-02-01,1,2025,18,KOKV,0.0,0.0,0.0,0.0,15
2025-01-29,29,2025-01-29 19:55,19:55,EST,NW  15  G 25,10.0,Fair,CLR,42.8,21.2,42.0,36.0,,29.87,0.0,0.0,0.0,0.0,2025-02-01,1,2025,19,KOKV,0.0,0.0,0.0,0.0,15
2025-01-29,29,2025-01-29 20:55,20:55,EST,W  13  G 26,10.0,Fair,CLR,41.0,21.2,45.0,34.0,,29.91,0.0,0.0,0.0,0.0,2025-02-01,1,2025,20,KOKV,0.0,0.0,0.0,0.0,13
2025-01-29,29,2025-01-29 21:55,21:55,EST,W  12  G 25,10.0,Partly Cloudy,SCT060,41.0,21.2,45.0,35.0,,29.93,0.0,0.0,0.0,0.0,2025-02-01,1,2025,21,KOKV,0.0,0.0,0.0,0.0,12
2025-01-29,29,2025-01-29 22:55,22:55,EST,W  15  G 23,10.0,Partly Cloudy,SCT060,41.0,21.2,45.0,34.0,,29.96,0.0,0.0,0.0,0.0,2025-02-01,1,2025,22,KOKV,0.0,0.0,0.0,0.0,15
2025-01-29,29,2025-01-29 23:55,23:55,EST,W  13  G 26,10.0,Partly Cloudy,SCT060,39.2,23.0,52.0,32.0,,29.99,0.0,0.0,0.0,0.0,2025-02-01,1,2025,23,KOKV,0.0,0.0,0.0,0.0,13
2025-01-30,30,2025-01-30 00:55,00:55,EST,W  10  G 18,10.0,Fair,CLR,39.2,23.0,52.0,33.0,,30.01,0.0,0.0,0.0,0.0,2025-02-02,1,2025,0,KOKV,0.0,0.0,0.0,0.0,10
2025-01-30,30,2025-01-30 01:55,01:55,EST,W  14,10.0,Fair,CLR,37.4,23.0,56.0,30.0,,30.02,0.0,0.0,0.0,0.0,2025-02-02,1,2025,1,KOKV,0.0,0.0,0.0,0.0,14
2025-01-30,30,2025-01-30 02:55,02:55,EST,W  12  G 26,10.0,Fair,CLR,37.4,23.0,56.0,30.0,,30.06,0.0,0.0,0.0,0.0,2025-02-02,1,2025,2,KOKV,0.0,0.0,0.0,0.0,12
2025-01-30,30,2025-01-30 03:55,03:55,EST,W  10,10.0,Fair,CLR,35.6,23.0,60.0,29.0,,30.07,0.0,0.0,0.0,0.0,2025-02-02,1,2025,3,KOKV,0.0,0.0,0.0,0.0,10
2025-01-30,30,2025-01-30 04:55,04:55,EST,W  5,10.0,Fair,CLR,33.8,21.2,60.0,30.0,,30.09,0.0,0.0,0.0,0.0,2025-02-02,1,2025,4,KOKV,0.0,0.0,0.0,0.0,5
2025-01-30,30,2025-01-30 05:55,05:55,EST,Calm,10.0,Fair,CLR,32.0,19.4,60.0,,,30.12,0.0,0.0,0.0,0.0,2025-02-02,1,2025,5,KOKV,0.0,0.0,0.0,0.0,0
2025-01-30,30,2025-01-30 06:55,06:55,EST,Calm,10.0,Fair,CLR,28.4,19.4,69.0,,,30.16,0.0,0.0,0.0,0.0,2025-02-02,1,2025,6,KOKV,0.0,0.0,0.0,0.0,0
2025-01-30,30,2025-01-30 11:55,11:55,EST,S  10,10.0,Fair,CLR,46.4,23.0,40.0,42.0,,30.2,0.0,0.0,0.0,0.0,2025-02-02,1,2025,11,KOKV,0.0,0.0,0.0,0.0,10
2025-01-30,30,2025-01-30 12:55,12:55,EST,S  9,10.0,Fair,CLR,48.2,23.0,37.0,45.0,,30.17,0.0,0.0,0.0,0.0,2025-02-02,1,2025,12,KOKV,0.0,0.0,0.0,0.0,9
2025-01-30,30,2025-01-30 13:55,13:55,EST,S  12  G 16,10.0,Fair,CLR,48.2,23.0,37.0,44.0,,30.14,0.0,0.0,0.0,0.0,2025-02-02,1,2025,13,KOKV,0.0,0.0,0.0,0.0,12
2025-01-30,30,2025-01-30 14:55,14:55,EST,S  9,10.0,Fair,CLR,50.0,21.2,32.0,47.0,,30.12,0.0,0.0,0.0,0.0,2025-02-02,1,2025,14,KOKV,0.0,0.0,0.0,0.0,9
2025-01-30,30,2025-01-30 15:55,15:55,EST,SW  6,10.0,Fair,CLR,50.0,21.2,32.0,48.0,,30.13,0.0,0.0,0.0,0.0,2025-02-02,1,2025,15,KOKV,0.0,0.0,0.0,0.0,6
2025-01-30,30,2025-01-30 16:55,16:55,EST,Calm,10.0,Fair,CLR,46.4,21.2,37.0,,,30.13,0.0,0.0,0.0,0.0,2025-02-02,1,2025,16,KOKV,0.0,0.0,0.0,0.0,0
2025-01-30,30,2025-01-30 17:55,17:55,EST,Calm,10.0,Fair,CLR,44.6,21.2,39.0,,,30.12,0.0,0.0,0.0,0.0,2025-02-02,1,2025,17,KOKV,0.0,0.0,0.0,0.0,0
2025-01-30,30,2025-01-30 18:55,18:55,EST,Calm,10.0,Overcast,OVC120,42.8,21.2,42.0,,,30.14,0.0,0.0,0.0,0.0,2025-02-02,1,2025,18,KOKV,0.0,0.0,0.0,0.0,0
2025-01-30,30,2025-01-30 19:55,19:55,EST,S  7,10.0,Mostly Cloudy,BKN120,44.6,23.0,43.0,41.0,,30.13,0.0,0.0,0.0,0.0,2025-02-02,1,2025,19,KOKV,0.0,0.0,0.0,0.0,7
2025-01-30,30,2025-01-30 20:55,20:55,EST,S  5,10.0,Fair,CLR,44.6,23.0,43.0,43.0,,30.11,0.0,0.0,0.0,0.0,2025-02-02,1,2025,20,KOKV,0.0,0.0,0.0,0.0,5
2025-01-30,30,2025-01-30 21:55,21:55,EST,S  5,10.0,Overcast,OVC120,44.6,23.0,43.0,43.0,,30.1,0.0,0.0,0.0,0.0,2025-02-02,1,2025,21,KOKV,0.0,0.0,0.0,0.0,5
2025-01-30,30,2025-01-30 22:55,22:55,EST,Calm,10.0,Overcast,BKN090 OVC120,44.6,23.0,43.0,,,30.08,0.0,0.0,0.0,0.0,2025-02-02,1,2025,22,KOKV,0.0,0.0,0.0,0.0,0
2025-01-30,30,2025-01-30 23:55,23:55,EST,SW  6,10.0,Drizzle,BKN070 BKN075 OVC090,44.6,28.4,53.0,42.0,,30.07,0.0,0.0,0.0,0.0,2025-02-02,1,2025,23,KOKV,0.0,0.0,0.0,0.0,6
2025-01-31,31,2025-01-31 00:55,00:55,EST,SW  5,10.0,Drizzle,BKN070 OVC100,41.0,37.4,87.0,38.0,,30.04,0.0,0.0,0.0,0.0,2025-02-03,1,2025,0,KOKV,0.0,0.0,0.0,0.0,5
2025-01-31,31,2025-01-31 01:55,01:55,EST,Calm,10.0,Drizzle,OVC070,41.0,37.4,87.0,,,30.03,0.0,0.0,0.0,0.0,2025-02-03,1,2025,1,KOKV,0.0,0.0,0.0,0.0,0
2025-01-31,31,2025-01-31 02:55,02:55,EST,S  3,10.0,Drizzle,OVC055,41.0,39.2,93.0,,,30.0,0.0,0.0,0.0,0.0,2025-02-03,1,2025,2,KOKV,0.0,0.0,0.0,0.0,3
2025-01-31,31,2025-01-31 03:55,03:55,EST,S  3,10.0,Overcast,SCT070 OVC090,42.8,39.2,87.0,,,29.97,0.0,0.0,0.0,0.0,2025-02-03,1,2025,3,KOKV,0.0,0.0,0.0,0.0,3
2025-01-31,31,2025-01-31 04:55,04:55,EST,Calm,10.0,Overcast,BKN050 OVC090,41.0,39.2,93.0,,,29.96,0.0,0.0,0.0,0.0,2025-02-03,1,2025,4,KOKV,0.0,0.0,0.0,0.0,0
2025-01-31,31,2025-01-31 05:55,05:55,EST,S  3,10.0,Overcast,OVC046,41.0,39.2,93.0,,,29.92,0.0,0.0,0.0,0.0,2025-02-03,1,2025,5,KOKV,0.0,0.0,0.0,0.0,3
2025-01-31,31,2025-01-31 06:55,06:55,EST,Calm,10.0,Mostly Cloudy,BKN046 BKN065,41.0,39.2,93.0,,,29.9,0.0,0.0,0.0,0.0,2025-02-03,1,2025,6,KOKV,0.0,0.0,0.0,0.0,0
2025-01-31,31,2025-01-31 07:55,07:55,EST,SW  6,10.0,Overcast,OVC040,42.8,39.2,87.0,40.0,,29.89,0.0,0.0,0.0,0.0,2025-02-03,1,2025,7,KOKV,0.0,0.0,0.0,0.0,6
2025-01-31,31,2025-01-31 08:55,08:55,EST,NW  10,10.0,Light Rain,OVC038,44.6,41.0,87.0,40.0,,29.92,0.0,0.0,0.0,0.0,2025-02-03,1,2025,8,KOKV,0.0,0.0,0.0,0.0,10
2025-01-31,31,2025-01-31 09:55,09:55,EST,W  6,10.0,Rain,BKN021 BKN031 OVC110,44.6,41.0,87.0,42.0,,29.88,0.0,0.0,0.0,0.0,2025-02-03,1,2025,9,KOKV,0.0,0.0,0.0,0.0,6
2025-01-31,31,2025-01-31 10:55,10:55,EST,W  6,7.0,Rain,OVC010,44.6,42.8,93.0,42.0,,29.86,0.0,0.0,0.0,0.0,2025-02-03,1,2025,10,KOKV,0.0,0.0,0.0,0.0,6
2025-01-31,31,2025-01-31 11:55,11:55,EST,SW  5,5.0,Light Rain,SCT010 SCT031 OVC085,44.6,44.6,100.0,43.0,,29.82,0.0,0.0,0.0,0.0,2025-02-03,1,2025,11,KOKV,0.0,0.0,0.0,0.0,5
2025-01-31,31,2025-01-31 12:55,12:55,EST,SW  6,7.0,Rain,OVC006,46.4,44.6,93.0,44.0,,29.78,0.0,0.0,0.0,0.0,2025-02-03,1,2025,12,KOKV,0.0,0.0,0.0,0.0,6
2025-01-31,31,2025-01-31 13:55,13:55,EST,SW  10,10.0,Light Drizzle,BKN006 OVC100,46.4,44.6,93.0,42.0,,29.72,0.0,0.0,0.0,0.0,2025-02-03,1,2025,13,KOKV,0.0,0.0,0.0,0.0,10
2025-01-31,31,2025-01-31 14:55,14:55,EST,SW  13  G 18,10.0,Drizzle,OVC090,48.2,46.4,94.0,43.0,,29.73,0.0,0.0,0.0,0.0,2025-02-03,1,2025,14,KOKV,0.0,0.0,0.0,0.0,13
2025-01-31,31,2025-01-31 15:55,15:55,EST,SW  9,10.0,Rain,SCT070 OVC090,50.0,46.4,88.0,47.0,,29.74,0.0,0.0,0.0,0.0,2025-02-03,1,2025,15,KOKV,0.0,0.0,0.0,0.0,9
2025-01-31,31,2025-01-31 16:55,16:55,EST,SW  9,7.0,Light Rain,OVC090,48.2,46.4,94.0,45.0,,29.73,0.0,0.0,0.0,0.0,2025-02-03,1,2025,16,KOKV,0.0,0.0,0.0,0.0,9
2025-01-31,31,2025-01-31 17:55,17:55,EST,SW  7,7.0,Light Rain,SCT065 OVC080,48.2,46.4,94.0,46.0,,29.72,0.0,0.0,0.0,0.0,2025-02-03,1,2025,17,KOKV,0.0,0.0,0.0,0.0,7
2025-01-31,31,2025-01-31 18:55,18:55,EST,SW  8,10.0,Mostly Cloudy,SCT055 SCT090 BKN120,48.2,46.4,94.0,45.0,,29.68,0.0,0.0,0.0,0.0,2025-02-03,1,2025,18,KOKV,0.0,0.0,0.0,0.0,8
2025-01-31,31,2025-01-31 19:55,19:55,EST,SW  8,10.0,Overcast,SCT006 BKN070 OVC110,48.2,46.4,94.0,45.0,,29.68,0.0,0.0,0.0,0.0,2025-02-03,1,2025,19,KOKV,0.0,0.0,0.0,0.0,8
2025-01-31,31,2025-01-31 20:55,20:55,EST,SW  10,10.0,Partly Cloudy,SCT006 SCT049,50.0,46.4,88.0,46.0,,29.7,0.0,0.0,0.0,0.0,2025-02-03,1,2025,20,KOKV,0.0,0.0,0.0,0.0,10
2025-01-31,31,2025-01-31 21:55,21:55,EST,SW  3,10.0,Overcast,BKN036 OVC045,50.0,46.4,88.0,,,29.7,0.0,0.0,0.0,0.0,2025-02-03,1,2025,21,KOKV,0.0,0.0,0.0,0.0,3
2025-01-31,31,2025-01-31 22:55,22:55,EST,SW  3,10.0,Partly Cloudy,SCT045 SCT049,51.8,44.6,77.0,,,29.66,0.0,0.0,0.0,0.0,2025-02-03,1,2025,22,KOKV,0.0,0.0,0.0,0.0,3
2025-01-31,31,2025-01-31 23:55,23:55,EST,Calm,10.0,Fair,CLR,44.6,42.8,93.0,,,29.67,0.0,0.0,0.0,0.0,2025-02-03,1,2025,23,KOKV,0.0,0.0,0.0,0.0,0
2025-02-01,1,2025-02-01 00:55,00:55,EST,W  14  G 18,10.0,Mostly Cloudy,SCT050 BKN060 BKN070,51.8,41.0,67.0,,,29.68,0.0,0.0,0.0,0.0,2025-02-04,2,2025,0,KOKV,0.0,0.0,0.0,0.0,14
2025-02-01,1,2025-02-01 01:55,01:55,EST,W  15  G 23,10.0,Partly Cloudy,SCT042,50.0,39.2,67.0,45.0,,29.68,0.0,0.0,0.0,0.0,2025-02-04,2,2025,1,KOKV,0.0,0.0,0.0,0.0,15
2025-02-01,1,2025-02-01 02:55,02:55,EST,W  14,10.0,Mostly Cloudy,BKN041 BKN048 BKN055,50.0,37.4,62.0,45.0,,29.71,0.0,0.0,0.0,0.0,2025-02-04,2,2025,2,KOKV,0.0,0.0,0.0,0.0,14
2025-02-01,1,2025-02-01 03:55,03:55,EST,W  13  G 22,10.0,Mostly Cloudy,BKN035 BKN060 BKN070,48.2,37.4,66.0,43.0,,29.72,0.0,0.0,0.0,0.0,2025-02-04,2,2025,3,KOKV,0.0,0.0,0.0,0.0,13
2025-02-01,1,2025-02-01 04:55,04:55,EST,NW  13  G 18,10.0,Overcast,BKN031 OVC037,46.4,39.2,76.0,41.0,,29.77,0.0,0.0,0.0,0.0,2025-02-04,2,2025,4,KOKV,0.0,0.0,0.0,0.0,13
2025-02-01,1,2025-02-01 05:55,05:55,EST,NW  17  G 22,10.0,Mostly Cloudy,SCT030 BKN070,42.8,33.8,71.0,35.0,,29.86,0.0,0.0,0.0,0.0,2025-02-04,2,2025,5,KOKV,0.0,0.0,0.0,0.0,17
2025-02-01,1,2025-02-01 06:55,06:55,EST,NW  17  G 23,10.0,Overcast,SCT031 OVC070,41.0,32.0,70.0,33.0,,29.93,0.0,0.0,0.0,0.0,2025-02-04,2,2025,6,KOKV,0.0,0.0,0.0,0.0,17
2025-02-01,1,2025-02-01 07:55,07:55,EST,NW  22  G 29,10.0,Partly Cloudy and Breezy,SCT031,37.4,30.2,75.0,27.0,,30.0,0.0,0.0,0.0,0.0,2025-02-04,2,2025,7,KOKV,0.0,0.0,0.0,0.0,22
2025-02-01,1,2025-02-01 08:55,08:55,EST,NW  13  G 23,10.0,Mostly Cloudy,BKN032,37.4,28.4,70.0,30.0,,30.06,0.0,0.0,0.0,0.0,2025-02-04,2,2025,8,KOKV,0.0,0.0,0.0,0.0,13
2025-02-01,1,2025-02-01 09:55,09:55,EST,NW  20  G 26,10.0,Mostly Cloudy,BKN036,37.4,24.8,60.0,28.0,,30.11,0.0,0.0,0.0,0.0,2025-02-04,2,2025,9,KOKV,0.0,0.0,0.0,0.0,20
2025-02-01,1,2025-02-01 10:55,10:55,EST,NW  16  G 23,10.0,Overcast,OVC038,37.4,26.6,65.0,29.0,,30.16,0.0,0.0,0.0,0.0,2025-02-04,2,2025,10,KOKV,0.0,0.0,0.0,0.0,16
2025-02-01,1,2025-02-01 11:55,11:55,EST,NW  21  G 25,10.0,Fair and Breezy,CLR,39.2,21.2,48.0,30.0,,30.18,0.0,0.0,0.0,0.0,2025-02-04,2,2025,11,KOKV,0.0,0.0,0.0,0.0,21
2025-02-01,1,2025-02-01 12:55,12:55,EST,NW  14,10.0,Fair,CLR,41.0,19.4,42.0,34.0,,30.21,0.0,0.0,0.0,0.0,2025-02-04,2,2025,12,KOKV,0.0,0.0,0.0,0.0,14
2025-02-01,1,2025-02-01 13:55,13:55,EST,W  9,10.0,Fair,CLR,41.0,17.6,39.0,36.0,,30.22,0.0,0.0,0.0,0.0,2025-02-04,2,2025,13,KOKV,0.0,0.0,0.0,0.0,9
2025-02-01,1,2025-02-01 14:55,14:55,EST,NW  12  G 20,10.0,Fair,CLR,41.0,14.0,33.0,35.0,,30.25,0.0,0.0,0.0,0.0,2025-02-04,2,2025,14,KOKV,0.0,0.0,0.0,0.0,12
2025-02-01,1,2025-02-01 15:55,15:55,EST,NW  12  G 20,10.0,Fair,CLR,39.2,12.2,33.0,33.0,,30.29,0.0,0.0,0.0,0.0,2025-02-04,2,2025,15,KOKV,0.0,0.0,0.0,0.0,12
2025-02-01,1,2025-02-01 16:55,16:55,EST,NW  12  G 17,10.0,Fair,CLR,35.6,8.6,32.0,28.0,,30.31,0.0,0.0,0.0,0.0,2025-02-04,2,2025,16,KOKV,0.0,0.0,0.0,0.0,12
2025-02-01,1,2025-02-01 17:55,17:55,EST,NW  7,10.0,Fair,CLR,33.8,8.6,35.0,28.0,,30.32,0.0,0.0,0.0,0.0,2025-02-04,2,2025,17,KOKV,0.0,0.0,0.0,0.0,7
2025-02-01,1,2025-02-01 18:55,18:55,EST,N  3,10.0,Fair,CLR,32.0,5.0,32.0,,,30.35,0.0,0.0,0.0,0.0,2025-02-04,2,2025,18,KOKV,0.0,0.0,0.0,0.0,3
2025-02-01,1,2025-02-01 19:55,19:55,EST,Calm,10.0,Fair,CLR,30.2,10.4,43.0,,,30.37,0.0,0.0,0.0,0.0,2025-02-04,2,2025,19,KOKV,0.0,0.0,0.0,0.0,0
2025-02-01,1,2025-02-01 20:55,20:55,EST,Calm,10.0,Fair,CLR,30.2,8.6,40.0,,,30.4,0.0,0.0,0.0,0.0,2025-02-04,2,2025,20,KOKV,0.0,0.0,0.0,0.0,0
2025-02-01,1,2025-02-01 21:55,21:55,EST,Calm,10.0,Fair,CLR,28.4,8.6,43.0,,,30.41,0.0,0.0,0.0,0.0,2025-02-04,2,2025,21,KOKV,0.0,0.0,0.0,0.0,0
2025-02-01,1,2025-02-01 22:55,22:55,EST,Calm,10.0,Fair,CLR,24.8,12.2,59.0,,,30.42,0.0,0.0,0.0,0.0,2025-02-04,2,2025,22,KOKV,0.0,0.0,0.0,0.0,0
2025-02-01,1,2025-02-01 23:55,23:55,EST,NE  3,10.0,Fair,CLR,24.8,12.2,59.0,,,30.42,0.0,0.0,0.0,0.0,2025-02-04,2,2025,23,KOKV,0.0,0.0,0.0,0.0,3
2025-02-02,2,2025-02-02 00:55,00:55,EST,Calm,10.0,Fair,CLR,23.0,12.2,63.0,,,30.43,0.0,0.0,0.0,0.0,2025-02-05,2,2025,0,KOKV,0.0,0.0,0.0,0.0,0
2025-02-02,2,2025-02-02 01:55,01:55,EST,E  3,10.0,Fair,CLR,24.8,10.4,54.0,,,30.43,0.0,0.0,0.0,0.0,2025-02-05,2,2025,1,KOKV,0.0,0.0,0.0,0.0,3
2025-02-02,2,2025-02-02 02:55,02:55,EST,Calm,10.0,Fair,CLR,21.2,10.4,63.0,,,30.44,0.0,0.0,0.0,0.0,2025-02-05,2,2025,2,KOKV,0.0,0.0,0.0,0.0,0
2025-02-02,2,2025-02-02 03:55,03:55,EST,Calm,10.0,Fair,CLR,19.4,14.0,79.0,,,30.45,0.0,0.0,0.0,0.0,2025-02-05,2,2025,3,KOKV,0.0,0.0,0.0,0.0,0
2025-02-02,2,2025-02-02 04:55,04:55,EST,Calm,10.0,Fair,CLR,19.4,12.2,73.0,,,30.45,0.0,0.0,0.0,0.0,2025-02-05,2,2025,4,KOKV,0.0,0.0,0.0,0.0,0
2025-02-02,2,2025-02-02 05:55,05:55,EST,Calm,10.0,Fair,CLR,21.2,10.4,63.0,,,30.45,0.0,0.0,0.0,0.0,2025-02-05,2,2025,5,KOKV,0.0,0.0,0.0,0.0,0
2025-02-02,2,2025-02-02 06:55,06:55,EST,E  3,10.0,Mostly Cloudy,BKN042,21.2,10.4,63.0,,,30.45,0.0,0.0,0.0,0.0,2025-02-05,2,2025,6,KOKV,0.0,0.0,0.0,0.0,3
2025-02-02,2,2025-02-02 07:55,07:55,EST,E  5,10.0,Fair,CLR,23.0,12.2,63.0,18.0,,30.46,0.0,0.0,0.0,0.0,2025-02-05,2,2025,7,KOKV,0.0,0.0,0.0,0.0,5
2025-02-02,2,2025-02-02 08:55,08:55,EST,SE  7,10.0,Overcast,OVC041,26.6,14.0,59.0,20.0,,30.43,0.0,0.0,0.0,0.0,2025-02-05,2,2025,8,KOKV,0.0,0.0,0.0,0.0,7
2025-02-02,2,2025-02-02 09:55,09:55,EST,SE  9,10.0,Overcast,OVC041,28.4,14.0,55.0,20.0,,30.42,0.0,0.0,0.0,0.0,2025-02-05,2,2025,9,KOKV,0.0,0.0,0.0,0.0,9
2025-02-02,2,2025-02-02 10:55,10:55,EST,S  8,10.0,Overcast,OVC039,30.2,14.0,51.0,23.0,,30.4,0.0,0.0,0.0,0.0,2025-02-05,2,2025,10,KOKV,0.0,0.0,0.0,0.0,8
2025-02-02,2,2025-02-02 11:55,11:55,EST,SE  10,10.0,Overcast,SCT039 OVC065,32.0,14.0,47.0,24.0,,30.36,0.0,0.0,0.0,0.0,2025-02-05,2,2025,11,KOKV,0.0,0.0,0.0,0.0,10
2025-02-02,2,2025-02-02 12:55,12:55,EST,S  10,10.0,Overcast,OVC037,32.0,14.0,47.0,24.0,,30.3,0.0,0.0,0.0,0.0,2025-02-05,2,2025,12,KOKV,0.0,0.0,0.0,0.0,10
2025-02-02,2,2025-02-02 13:35,13:35,EST,S  13,10.0,Overcast,OVC037,33.8,17.6,51.0,25.0,,30.28,0.0,0.0,0.0,0.0,2025-02-05,2,2025,13,KOKV,0.0,0.0,0.0,0.0,13
2025-02-02,2,2025-02-02 14:55,14:55,EST,SE  9  G 17,10.0,Overcast,SCT037 OVC065,33.8,19.4,56.0,27.0,,30.22,0.0,0.0,0.0,0.0,2025-02-05,2,2025,14,KOKV,0.0,0.0,0.0,0.0,9
2025-02-02,2,2025-02-02 15:55,15:55,EST,S  8  G 12,10.0,Overcast,SCT055 OVC075,33.8,19.4,56.0,28.0,,30.21,0.0,0.0,0.0,0.0,2025-02-05,2,2025,15,KOKV,0.0,0.0,0.0,0.0,8
2025-02-02,2,2025-02-02 16:55,16:55,EST,SE  9,10.0,Overcast,BKN065 OVC075,33.8,21.2,60.0,27.0,,30.2,0.0,0.0,0.0,0.0,2025-02-05,2,2025,16,KOKV,0.0,0.0,0.0,0.0,9
2025-02-02,2,2025-02-02 17:55,17:55,EST,S  8,10.0,Overcast,OVC070,33.8,21.2,60.0,28.0,,30.19,0.0,0.0,0.0,0.0,2025-02-05,2,2025,17,KOKV,0.0,0.0,0.0,0.0,8
2025-02-02,2,2025-02-02 18:55,18:55,EST,S  8,10.0,Overcast,OVC060,35.6,23.0,60.0,30.0,,30.2,0.0,0.0,0.0,0.0,2025-02-05,2,2025,18,KOKV,0.0,0.0,0.0,0.0,8
2025-02-02,2,2025-02-02 19:55,19:55,EST,S  7,10.0,Overcast,OVC060,33.8,23.0,65.0,28.0,,30.19,0.0,0.0,0.0,0.0,2025-02-05,2,2025,19,KOKV,0.0,0.0,0.0,0.0,7
2025-02-02,2,2025-02-02 20:55,20:55,EST,S  7,10.0,Fair,CLR,33.8,24.8,70.0,28.0,,30.16,0.0,0.0,0.0,0.0,2025-02-05,2,2025,20,KOKV,0.0,0.0,0.0,0.0,7
2025-02-02,2,2025-02-02 21:55,21:55,EST,Calm,10.0,Fair,CLR,32.0,23.0,69.0,,,30.16,0.0,0.0,0.0,0.0,2025-02-05,2,2025,21,KOKV,0.0,0.0,0.0,0.0,0
2025-02-02,2,2025-02-02 22:55,22:55,EST,S  3,10.0,Partly Cloudy,SCT070,32.0,24.8,75.0,,,30.15,0.0,0.0,0.0,0.0,2025-02-05,2,2025,22,KOKV,0.0,0.0,0.0,0.0,3
2025-02-02,2,2025-02-02 23:55,23:55,EST,SW  7,10.0,Fair,CLR,35.6,26.6,70.0,31.0,,30.13,0.0,0.0,0.0,0.0,2025-02-05,2,2025,23,KOKV,0.0,0.0,0.0,0.0,7
2025-02-03,3,2025-02-03 00:55,00:55,EST,SW  3,10.0,Fair,CLR,35.6,26.6,70.0,,,30.14,0.0,0.0,0.0,0.0,2025-02-06,2,2025,0,KOKV,0.0,0.0,0.0,0.0,3
2025-02-03,3,2025-02-03 01:55,01:55,EST,SW  7,10.0,Fair,CLR,35.6,26.6,70.0,31.0,,30.13,0.0,0.0,0.0,0.0,2025-02-06,2,2025,1,KOKV,0.0,0.0,0.0,0.0,7
2025-02-03,3,2025-02-03 02:55,02:55,EST,W  7,10.0,Fair,CLR,33.8,26.6,75.0,28.0,,30.13,0.0,0.0,0.0,0.0,2025-02-06,2,2025,2,KOKV,0.0,0.0,0.0,0.0,7
2025-02-03,3,2025-02-03 03:55,03:55,EST,Calm,10.0,Fair,CLR,30.2,24.8,80.0,,,30.13,0.0,0.0,0.0,0.0,2025-02-06,2,2025,3,KOKV,0.0,0.0,0.0,0.0,0
2025-02-03,3,2025-02-03 04:55,04:55,EST,Calm,10.0,Fair,CLR,28.4,24.8,86.0,,,30.11,0.0,0.0,0.0,0.0,2025-02-06,2,2025,4,KOKV,0.0,0.0,0.0,0.0,0
2025-02-03,3,2025-02-03 05:55,05:55,EST,Calm,10.0,Fair,CLR,28.4,24.8,86.0,,,30.13,0.0,0.0,0.0,0.0,2025-02-06,2,2025,5,KOKV,0.0,0.0,0.0,0.0,0
2025-02-03,3,2025-02-03 06:55,06:55,EST,Calm,10.0,Fair,CLR,28.4,23.0,80.0,,,30.14,0.0,0.0,0.0,0.0,2025-02-06,2,2025,6,KOKV,0.0,0.0,0.0,0.0,0
2025-02-03,3,2025-02-03 07:35,07:35,EST,Calm,10.0,Fair,CLR,28.4,23.0,80.0,,,30.15,0.0,0.0,0.0,0.0,2025-02-06,2,2025,7,KOKV,0.0,0.0,0.0,0.0,0
2025-02-03,3,2025-02-03 08:35,08:35,EST,Calm,10.0,Fair,CLR,32.0,26.6,80.0,,,30.13,0.0,0.0,0.0,0.0,2025-02-06,2,2025,8,KOKV,0.0,0.0,0.0,0.0,0
2025-02-03,3,2025-02-03 09:55,09:55,EST,Calm,10.0,Fair,CLR,33.8,28.4,81.0,,,30.11,0.0,0.0,0.0,0.0,2025-02-06,2,2025,9,KOKV,0.0,0.0,0.0,0.0,0
2025-02-03,3,2025-02-03 10:55,10:55,EST,Calm,10.0,Fair,CLR,37.4,30.2,75.0,,,30.11,0.0,0.0,0.0,0.0,2025-02-06,2,2025,10,KOKV,0.0,0.0,0.0,0.0,0
2025-02-03,3,2025-02-03 11:55,11:55,EST,Calm,10.0,Fair,CLR,41.0,32.0,70.0,,,30.08,0.0,0.0,0.0,0.0,2025-02-06,2,2025,11,KOKV,0.0,0.0,0.0,0.0,0
2025-02-03,3,2025-02-03 12:55,12:55,EST,SW  9,10.0,Fair,CLR,46.4,35.6,66.0,42.0,,30.03,0.0,0.0,0.0,0.0,2025-02-06,2,2025,12,KOKV,0.0,0.0,0.0,0.0,9
2025-02-03,3,2025-02-03 13:55,13:55,EST,SW  9,10.0,Fair,CLR,51.8,37.4,58.0,,,29.98,0.0,0.0,0.0,0.0,2025-02-06,2,2025,13,KOKV,0.0,0.0,0.0,0.0,9
2025-02-03,3,2025-02-03 14:55,14:55,EST,SW  9,10.0,Fair,CLR,51.8,37.4,58.0,,,29.94,0.0,0.0,0.0,0.0,2025-02-06,2,2025,14,KOKV,0.0,0.0,0.0,0.0,9
2025-02-03,3,2025-02-03 15:55,15:55,EST,SW  3,10.0,Fair,CLR,51.8,37.4,58.0,,,29.92,0.0,0.0,0.0,0.0,2025-02-06,2,2025,15,KOKV,0.0,0.0,0.0,0.0,3
2025-02-03,3,2025-02-03 16:55,16:55,EST,SW  5,10.0,Fair,CLR,53.6,41.0,63.0,,,29.9,0.0,0.0,0.0,0.0,2025-02-06,2,2025,16,KOKV,0.0,0.0,0.0,0.0,5
2025-02-03,3,2025-02-03 17:55,17:55,EST,S  3,10.0,Fair,CLR,48.2,37.4,66.0,,,29.89,0.0,0.0,0.0,0.0,2025-02-06,2,2025,17,KOKV,0.0,0.0,0.0,0.0,3
2025-02-03,3,2025-02-03 18:55,18:55,EST,Calm,10.0,Fair,CLR,46.4,37.4,71.0,,,29.88,0.0,0.0,0.0,0.0,2025-02-06,2,2025,18,KOKV,0.0,0.0,0.0,0.0,0
2025-02-03,3,2025-02-03 19:55,19:55,EST,SW  6,10.0,Fair,CLR,50.0,37.4,62.0,48.0,,29.87,0.0,0.0,0.0,0.0,2025-02-06,2,2025,19,KOKV,0.0,0.0,0.0,0.0,6
2025-02-03,3,2025-02-03 20:55,20:55,EST,SW  6,10.0,Fair,CLR,51.8,37.4,58.0,,,29.85,0.0,0.0,0.0,0.0,2025-02-06,2,2025,20,KOKV,0.0,0.0,0.0,0.0,6
2025-02-03,3,2025-02-03 21:55,21:55,EST,SW  7,10.0,Fair,CLR,50.0,37.4,62.0,48.0,,29.84,0.0,0.0,0.0,0.0,2025-02-06,2,2025,21,KOKV,0.0,0.0,0.0,0.0,7
2025-02-03,3,2025-02-03 22:55,22:55,EST,SW  7,10.0,Fair,CLR,51.8,35.6,54.0,,,29.82,0.0,0.0,0.0,0.0,2025-02-06,2,2025,22,KOKV,0.0,0.0,0.0,0.0,7
2025-02-03,3,2025-02-03 23:55,23:55,EST,SW  9,10.0,Fair,CLR,51.8,35.6,54.0,,,29.83,0.0,0.0,0.0,0.0,2025-02-06,2,2025,23,KOKV,0.0,0.0,0.0,0.0,9
2025-02-04,4,2025-02-04 00:55,00:55,EST,SW  10  G 17,10.0,Fair,CLR,51.8,35.6,54.0,,,29.82,0.0,0.0,0.0,0.0,2025-02-07,2,2025,0,KOKV,0.0,0.0,0.0,0.0,10
2025-02-04,4,2025-02-04 01:55,01:55,EST,SW  10,10.0,Fair,CLR,51.8,35.6,54.0,,,29.79,0.0,0.0,0.0,0.0,2025-02-07,2,2025,1,KOKV,0.0,0.0,0.0,0.0,10
2025-02-04,4,2025-02-04 02:55,02:55,EST,SW  7,10.0,Fair,CLR,51.8,35.6,54.0,,,29.79,0.0,0.0,0.0,0.0,2025-02-07,2,2025,2,KOKV,0.0,0.0,0.0,0.0,7
2025-02-04,4,2025-02-04 03:55,03:55,EST,SW  9,10.0,Fair,CLR,51.8,35.6,54.0,,,29.8,0.0,0.0,0.0,0.0,2025-02-07,2,2025,3,KOKV,0.0,0.0,0.0,0.0,9
2025-02-04,4,2025-02-04 04:55,04:55,EST,W  8,10.0,Overcast,SCT060 OVC070,55.4,37.4,51.0,,,29.81,0.0,0.0,0.0,0.0,2025-02-07,2,2025,4,KOKV,0.0,0.0,0.0,0.0,8
2025-02-04,4,2025-02-04 05:55,05:55,EST,NW  7,10.0,Overcast,OVC060,53.6,39.2,58.0,,,29.83,0.0,0.0,0.0,0.0,2025-02-07,2,2025,5,KOKV,0.0,0.0,0.0,0.0,7
2025-02-04,4,2025-02-04 06:55,06:55,EST,NW  12,10.0,Overcast,BKN060 OVC070,57.2,41.0,55.0,,,29.84,0.0,0.0,0.0,0.0,2025-02-07,2,2025,6,KOKV,0.0,0.0,0.0,0.0,12
2025-02-04,4,2025-02-04 07:55,07:55,EST,NW  10,10.0,Overcast,BKN055 OVC065,55.4,42.8,63.0,,,29.89,0.0,0.0,0.0,0.0,2025-02-07,2,2025,7,KOKV,0.0,0.0,0.0,0.0,10
2025-02-04,4,2025-02-04 08:55,08:55,EST,NW  16,10.0,Overcast,SCT037 BKN043 OVC050,53.6,42.8,67.0,,,29.95,0.0,0.0,0.0,0.0,2025-02-07,2,2025,8,KOKV,0.0,0.0,0.0,0.0,16
2025-02-04,4,2025-02-04 09:55,09:55,EST,NW  18  G 28,10.0,Overcast,OVC037,51.8,41.0,67.0,,,29.99,0.0,0.0,0.0,0.0,2025-02-07,2,2025,9,KOKV,0.0,0.0,0.0,0.0,18
2025-02-04,4,2025-02-04 10:55,10:55,EST,NW  18  G 26,10.0,Mostly Cloudy,BKN035 BKN041,51.8,37.4,58.0,,,30.03,0.0,0.0,0.0,0.0,2025-02-07,2,2025,10,KOKV,0.0,0.0,0.0,0.0,18
2025-02-04,4,2025-02-04 11:55,11:55,EST,N  13  G 22,10.0,Mostly Cloudy,BKN039,50.0,33.8,54.0,46.0,,30.07,0.0,0.0,0.0,0.0,2025-02-07,2,2025,11,KOKV,0.0,0.0,0.0,0.0,13
2025-02-04,4,2025-02-04 12:55,12:55,EST,NW  17  G 25,10.0,Partly Cloudy,SCT043,46.4,30.2,53.0,40.0,,30.09,0.0,0.0,0.0,0.0,2025-02-07,2,2025,12,KOKV,0.0,0.0,0.0,0.0,17
2025-02-04,4,2025-02-04 13:55,13:55,EST,NW  22  G 31,10.0,Fair and Breezy,CLR,46.4,28.4,50.0,39.0,,30.11,0.0,0.0,0.0,0.0,2025-02-07,2,2025,13,KOKV,0.0,0.0,0.0,0.0,22
2025-02-04,4,2025-02-04 14:55,14:55,EST,NW  24  G 32,10.0,Fair and Breezy,CLR,44.6,26.6,49.0,36.0,,30.12,0.0,0.0,0.0,0.0,2025-02-07,2,2025,14,KOKV,0.0,0.0,0.0,0.0,24
2025-02-04,4,2025-02-04 15:55,15:55,EST,NW  22  G 25,10.0,Partly Cloudy and Breezy,SCT049,44.6,26.6,49.0,37.0,,30.15,0.0,0.0,0.0,0.0,2025-02-07,2,2025,15,KOKV,0.0,0.0,0.0,0.0,22
2025-02-04,4,2025-02-04 16:55,16:55,EST,NW  10,10.0,Fair,CLR,42.8,23.0,46.0,38.0,,30.17,0.0,0.0,0.0,0.0,2025-02-07,2,2025,16,KOKV,0.0,0.0,0.0,0.0,10
2025-02-04,4,2025-02-04 17:55,17:55,EST,NW  9,10.0,Fair,CLR,37.4,21.2,52.0,31.0,,30.21,0.0,0.0,0.0,0.0,2025-02-07,2,2025,17,KOKV,0.0,0.0,0.0,0.0,9
2025-02-04,4,2025-02-04 18:55,18:55,EST,NW  9,10.0,Fair,CLR,37.4,21.2,52.0,31.0,,30.24,0.0,0.0,0.0,0.0,2025-02-07,2,2025,18,KOKV,0.0,0.0,0.0,0.0,9
2025-02-04,4,2025-02-04 19:55,19:55,EST,NW  8,10.0,Fair,CLR,33.8,21.2,60.0,28.0,,30.25,0.0,0.0,0.0,0.0,2025-02-07,2,2025,19,KOKV,0.0,0.0,0.0,0.0,8
2025-02-04,4,2025-02-04 20:55,20:55,EST,Calm,10.0,Fair,CLR,33.8,21.2,60.0,,,30.27,0.0,0.0,0.0,0.0,2025-02-07,2,2025,20,KOKV,0.0,0.0,0.0,0.0,0
2025-02-04,4,2025-02-04 21:55,21:55,EST,Calm,10.0,Fair,CLR,32.0,21.2,64.0,,,30.28,0.0,0.0,0.0,0.0,2025-02-07,2,2025,21,KOKV,0.0,0.0,0.0,0.0,0
2025-02-04,4,2025-02-04 22:55,22:55,EST,Calm,10.0,Fair,CLR,32.0,21.2,64.0,,,30.3,0.0,0.0,0.0,0.0,2025-02-07,2,2025,22,KOKV,0.0,0.0,0.0,0.0,0
2025-02-04,4,2025-02-04 23:55,23:55,EST,N  3,10.0,Fair,CLR,32.0,21.2,64.0,,,30.3,0.0,0.0,0.0,0.0,2025-02-07,2,2025,23,KOKV,0.0,0.0,0.0,0.0,3
2025-02-05,5,2025-02-05 00:55,00:55,EST,Calm,10.0,Fair,CLR,32.0,19.4,60.0,,,30.29,0.0,0.0,0.0,0.0,2025-02-08,2,2025,0,KOKV,0.0,0.0,0.0,0.0,0
2025-02-05,5,2025-02-05 01:55,01:55,EST,N  5,10.0,Fair,CLR,32.0,19.4,60.0,28.0,,30.29,0.0,0.0,0.0,0.0,2025-02-08,2,2025,1,KOKV,0.0,0.0,0.0,0.0,5
2025-02-05,5,2025-02-05 02:55,02:55,EST,Calm,10.0,Fair,CLR,32.0,19.4,60.0,,,30.3,0.0,0.0,0.0,0.0,2025-02-08,2,2025,2,KOKV,0.0,0.0,0.0,0.0,0
2025-02-05,5,2025-02-05 03:55,03:55,EST,Calm,10.0,Fair,CLR,30.2,19.4,64.0,,,30.31,0.0,0.0,0.0,0.0,2025-02-08,2,2025,3,KOKV,0.0,0.0,0.0,0.0,0
2025-02-05,5,2025-02-05 04:55,04:55,EST,Calm,10.0,Fair,CLR,30.2,19.4,64.0,,,30.33,0.0,0.0,0.0,0.0,2025-02-08,2,2025,4,KOKV,0.0,0.0,0.0,0.0,0
2025-02-05,5,2025-02-05 05:55,05:55,EST,Calm,10.0,Overcast,OVC110,30.2,21.2,69.0,,,30.34,0.0,0.0,0.0,0.0,2025-02-08,2,2025,5,KOKV,0.0,0.0,0.0,0.0,0
2025-02-05,5,2025-02-05 06:55,06:55,EST,Calm,10.0,Mostly Cloudy,BKN120,30.2,19.4,64.0,,,30.36,0.0,0.0,0.0,0.0,2025-02-08,2,2025,6,KOKV,0.0,0.0,0.0,0.0,0
2025-02-05,5,2025-02-05 07:55,07:55,EST,Calm,10.0,Overcast,BKN090 OVC120,32.0,19.4,60.0,,,30.37,0.0,0.0,0.0,0.0,2025-02-08,2,2025,7,KOKV,0.0,0.0,0.0,0.0,0
2025-02-05,5,2025-02-05 08:55,08:55,EST,Calm,10.0,Overcast,OVC080,32.0,19.4,60.0,,,30.39,0.0,0.0,0.0,0.0,2025-02-08,2,2025,8,KOKV,0.0,0.0,0.0,0.0,0
2025-02-05,5,2025-02-05 09:55,09:55,EST,Calm,10.0,Overcast,OVC070,32.0,17.6,55.0,,,30.39,0.0,0.0,0.0,0.0,2025-02-08,2,2025,9,KOKV,0.0,0.0,0.0,0.0,0
2025-02-05,5,2025-02-05 10:55,10:55,EST,Calm,10.0,Overcast,OVC070,32.0,17.6,55.0,,,30.4,0.0,0.0,0.0,0.0,2025-02-08,2,2025,10,KOKV,0.0,0.0,0.0,0.0,0
2025-02-05,5,2025-02-05 11:55,11:55,EST,SE  6,10.0,Overcast,BKN070 OVC095,33.8,17.6,51.0,29.0,,30.37,0.0,0.0,0.0,0.0,2025-02-08,2,2025,11,KOKV,0.0,0.0,0.0,0.0,6
2025-02-05,5,2025-02-05 12:55,12:55,EST,Calm,10.0,Overcast,OVC085,33.8,17.6,51.0,,,30.35,0.0,0.0,0.0,0.0,2025-02-08,2,2025,12,KOKV,0.0,0.0,0.0,0.0,0
2025-02-05,5,2025-02-05 13:55,13:55,EST,SE  5,10.0,Overcast,BKN043 OVC085,33.8,17.6,51.0,30.0,,30.32,0.0,0.0,0.0,0.0,2025-02-08,2,2025,13,KOKV,0.0,0.0,0.0,0.0,5
2025-02-05,5,2025-02-05 14:55,14:55,EST,E  3,10.0,Overcast,BKN043 OVC070,33.8,14.0,44.0,,,30.29,0.0,0.0,0.0,0.0,2025-02-08,2,2025,14,KOKV,0.0,0.0,0.0,0.0,3
2025-02-05,5,2025-02-05 15:55,15:55,EST,E  3,10.0,Overcast,BKN037 OVC065,33.8,17.6,51.0,,,30.29,0.0,0.0,0.0,0.0,2025-02-08,2,2025,15,KOKV,0.0,0.0,0.0,0.0,3
2025-02-05,5,2025-02-05 16:55,16:55,EST,SE  7,10.0,Overcast,SCT037 SCT044 OVC055,33.8,19.4,56.0,28.0,,30.27,0.0,0.0,0.0,0.0,2025-02-08,2,2025,16,KOKV,0.0,0.0,0.0,0.0,7
2025-02-05,5,2025-02-05 17:55,17:55,EST,SE  6,10.0,Overcast,OVC039,33.8,19.4,56.0,29.0,,30.27,0.0,0.0,0.0,0.0,2025-02-08,2,2025,17,KOKV,0.0,0.0,0.0,0.0,6
2025-02-05,5,2025-02-05 18:55,18:55,EST,SE  5,10.0,Overcast,OVC033,32.0,21.2,64.0,28.0,,30.27,0.0,0.0,0.0,0.0,2025-02-08,2,2025,18,KOKV,0.0,0.0,0.0,0.0,5
2025-02-05,5,2025-02-05 19:55,19:55,EST,S  5,10.0,Overcast,OVC031,32.0,23.0,69.0,28.0,,30.28,0.0,0.0,0.0,0.0,2025-02-08,2,2025,19,KOKV,0.0,0.0,0.0,0.0,5
2025-02-05,5,2025-02-05 20:55,20:55,EST,S  3,10.0,Light Drizzle,OVC041,32.0,21.2,64.0,,,30.27,0.0,0.0,0.0,0.0,2025-02-08,2,2025,20,KOKV,0.0,0.0,0.0,0.0,3
2025-02-05,5,2025-02-05 21:55,21:55,EST,SE  7,10.0,Light Drizzle,OVC041,32.0,23.0,69.0,26.0,,30.24,0.0,0.0,0.0,0.0,2025-02-08,2,2025,21,KOKV,0.0,0.0,0.0,0.0,7
2025-02-05,5,2025-02-05 22:55,22:55,EST,SE  8,10.0,Drizzle,OVC039,32.0,24.8,75.0,25.0,,30.23,0.0,0.0,0.0,0.0,2025-02-08,2,2025,22,KOKV,0.0,0.0,0.0,0.0,8
2025-02-05,5,2025-02-05 23:55,23:55,EST,SE  9,10.0,Unknown Precip,SCT021 OVC033,32.0,28.4,87.0,25.0,,30.2,0.0,0.0,0.0,0.0,2025-02-08,2,2025,23,KOKV,0.0,0.0,0.0,0.0,9
2025-02-06,6,2025-02-06 00:55,00:55,EST,SE  7,10.0,Unknown Precip,OVC014,32.0,28.4,87.0,26.0,,30.19,0.0,0.0,0.0,0.0,2025-02-09,2,2025,0,KOKV,0.0,0.0,0.0,0.0,7
2025-02-06,6,2025-02-06 01:55,01:55,EST,SE  9,10.0,Unknown Precip,OVC016,32.0,28.4,87.0,25.0,,30.15,0.0,0.0,0.0,0.0,2025-02-09,2,2025,1,KOKV,0.0,0.0,0.0,0.0,9
2025-02-06,6,2025-02-06 02:55,02:55,EST,SE  8,5.0,Unknown Precip,OVC010,32.0,30.2,93.0,25.0,,30.1,0.0,0.0,0.0,0.0,2025-02-09,2,2025,2,KOKV,0.0,0.0,0.0,0.0,8
2025-02-06,6,2025-02-06 03:55,03:55,EST,SE  10  G 16,5.0,Light Rain,OVC014,32.0,30.2,93.0,24.0,,30.05,0.0,0.0,0.0,0.0,2025-02-09,2,2025,3,KOKV,0.0,0.0,0.0,0.0,10
2025-02-06,6,2025-02-06 04:55,04:55,EST,SE  9,5.0,Unknown Precip,BKN014 OVC022,32.0,30.2,93.0,25.0,,30.08,0.0,0.0,0.0,0.0,2025-02-09,2,2025,4,KOKV,0.0,0.0,0.0,0.0,9
2025-02-06,6,2025-02-06 05:55,05:55,EST,S  6,10.0,Light Rain,BKN018 OVC025,32.0,30.2,93.0,27.0,,30.02,0.0,0.0,0.0,0.0,2025-02-09,2,2025,5,KOKV,0.0,0.0,0.0,0.0,6
2025-02-06,6,2025-02-06 06:55,06:55,EST,SE  5,7.0,Light Rain,SCT009 OVC014,32.0,30.2,93.0,28.0,,29.98,0.0,0.0,0.0,0.0,2025-02-09,2,2025,6,KOKV,0.0,0.0,0.0,0.0,5
2025-02-06,6,2025-02-06 07:55,07:55,EST,S  3,5.0,Light Rain,OVC014,32.0,32.0,100.0,,,29.96,0.0,0.0,0.0,0.0,2025-02-09,2,2025,7,KOKV,0.0,0.0,0.0,0.0,3
2025-02-06,6,2025-02-06 08:55,08:55,EST,S  6,1.25,Light Rain,SCT007 OVC014,32.0,32.0,100.0,27.0,,29.95,0.0,0.0,0.0,0.0,2025-02-09,2,2025,8,KOKV,0.0,0.0,0.0,0.0,6
2025-02-06,6,2025-02-06 09:55,09:55,EST,Calm,7.0,Light Drizzle,OVC009,32.0,32.0,100.0,,,29.93,0.0,0.0,0.0,0.0,2025-02-09,2,2025,9,KOKV,0.0,0.0,0.0,0.0,0
2025-02-06,6,2025-02-06 10:55,10:55,EST,S  5,10.0,Overcast,BKN007 BKN012 OVC055,33.8,33.8,100.0,30.0,,29.9,0.0,0.0,0.0,0.0,2025-02-09,2,2025,10,KOKV,0.0,0.0,0.0,0.0,5
2025-02-06,6,2025-02-06 11:55,11:55,EST,S  6,10.0,Overcast,OVC005,35.6,35.6,100.0,31.0,,29.86,0.0,0.0,0.0,0.0,2025-02-09,2,2025,11,KOKV,0.0,0.0,0.0,0.0,6
2025-02-06,6,2025-02-06 12:55,12:55,EST,SW  7,10.0,Overcast,OVC009,41.0,37.4,87.0,37.0,,29.82,0.0,0.0,0.0,0.0,2025-02-09,2,2025,12,KOKV,0.0,0.0,0.0,0.0,7
2025-02-06,6,2025-02-06 13:55,13:55,EST,SW  9,10.0,Fair,CLR,44.6,41.0,87.0,40.0,,29.8,0.0,0.0,0.0,0.0,2025-02-09,2,2025,13,KOKV,0.0,0.0,0.0,0.0,9
2025-02-06,6,2025-02-06 14:55,14:55,EST,SW  7,10.0,Fair,CLR,48.2,41.0,76.0,46.0,,29.78,0.0,0.0,0.0,0.0,2025-02-09,2,2025,14,KOKV,0.0,0.0,0.0,0.0,7
2025-02-06,6,2025-02-06 15:55,15:55,EST,SW  3,10.0,Fair,CLR,51.8,42.8,72.0,,,29.78,0.0,0.0,0.0,0.0,2025-02-09,2,2025,15,KOKV,0.0,0.0,0.0,0.0,3
2025-02-06,6,2025-02-06 16:55,16:55,EST,Calm,10.0,Fair,CLR,51.8,42.8,72.0,,,29.77,0.0,0.0,0.0,0.0,2025-02-09,2,2025,16,KOKV,0.0,0.0,0.0,0.0,0
2025-02-06,6,2025-02-06 17:55,17:55,EST,SE  3,10.0,Fair,CLR,46.4,42.8,87.0,,,29.78,0.0,0.0,0.0,0.0,2025-02-09,2,2025,17,KOKV,0.0,0.0,0.0,0.0,3
2025-02-06,6,2025-02-06 18:55,18:55,EST,Calm,10.0,Fair,CLR,42.8,41.0,93.0,,,29.81,0.0,0.0,0.0,0.0,2025-02-09,2,2025,18,KOKV,0.0,0.0,0.0,0.0,0
2025-02-06,6,2025-02-06 19:55,19:55,EST,Calm,2.5,Fog/Mist,CLR,37.4,37.4,100.0,,,29.81,0.0,0.0,0.0,0.0,2025-02-09,2,2025,19,KOKV,0.0,0.0,0.0,0.0,0
2025-02-06,6,2025-02-06 20:55,20:55,EST,Calm,0.5,Fog,BKN002,37.4,35.6,93.0,,,29.79,0.0,0.0,0.0,0.0,2025-02-09,2,2025,20,KOKV,0.0,0.0,0.0,0.0,0
2025-02-06,6,2025-02-06 21:55,21:55,EST,Calm,0.75,Fog/Mist,BKN002,35.6,35.6,100.0,,,29.79,0.0,0.0,0.0,0.0,2025-02-09,2,2025,21,KOKV,0.0,0.0,0.0,0.0,0
2025-02-06,6,2025-02-06 22:55,22:55,EST,Calm,4.0,Fog/Mist,CLR,35.6,35.6,100.0,,,29.79,0.0,0.0,0.0,0.0,2025-02-09,2,2025,22,KOKV,0.0,0.0,0.0,0.0,0
2025-02-06,6,2025-02-06 23:55,23:55,EST,NW  3,1.75,Fog/Mist,SCT060 BKN080,35.6,35.6,100.0,,,29.82,0.0,0.0,0.0,0.0,2025-02-09,2,2025,23,KOKV,0.0,0.0,0.0,0.0,3
2025-02-07,7,2025-02-07 00:55,00:55,EST,Calm,10.0,Partly Cloudy,SCT070 SCT090,41.0,39.2,93.0,,,29.83,0.0,0.0,0.0,0.0,2025-02-10,2,2025,0,KOKV,0.0,0.0,0.0,0.0,0
2025-02-07,7,2025-02-07 01:55,01:55,EST,W  10,10.0,Mostly Cloudy,BKN120,46.4,37.4,71.0,42.0,,29.85,0.0,0.0,0.0,0.0,2025-02-10,2,2025,1,KOKV,0.0,0.0,0.0,0.0,10
2025-02-07,7,2025-02-07 02:55,02:55,EST,SW  10  G 17,10.0,Fair,CLR,48.2,26.6,43.0,44.0,,29.84,0.0,0.0,0.0,0.0,2025-02-10,2,2025,2,KOKV,0.0,0.0,0.0,0.0,10
2025-02-07,7,2025-02-07 03:55,03:55,EST,W  12  G 20,10.0,Fair,CLR,46.4,17.6,32.0,42.0,,29.84,0.0,0.0,0.0,0.0,2025-02-10,2,2025,3,KOKV,0.0,0.0,0.0,0.0,12
2025-02-07,7,2025-02-07 04:55,04:55,EST,NW  12,10.0,Fair,CLR,44.6,14.0,29.0,39.0,,29.88,0.0,0.0,0.0,0.0,2025-02-10,2,2025,4,KOKV,0.0,0.0,0.0,0.0,12
2025-02-07,7,2025-02-07 05:55,05:55,EST,NW  23  G 26,10.0,Fair and Breezy,CLR,41.0,19.4,42.0,32.0,,29.9,0.0,0.0,0.0,0.0,2025-02-10,2,2025,5,KOKV,0.0,0.0,0.0,0.0,23
2025-02-07,7,2025-02-07 06:55,06:55,EST,NW  18,10.0,Fair,CLR,37.4,19.4,48.0,28.0,,29.93,0.0,0.0,0.0,0.0,2025-02-10,2,2025,6,KOKV,0.0,0.0,0.0,0.0,18
2025-02-07,7,2025-02-07 07:55,07:55,EST,NW  18,10.0,Fair,CLR,37.4,19.4,48.0,28.0,,29.98,0.0,0.0,0.0,0.0,2025-02-10,2,2025,7,KOKV,0.0,0.0,0.0,0.0,18
2025-02-07,7,2025-02-07 08:55,08:55,EST,NW  21  G 26,10.0,Fair and Breezy,CLR,39.2,19.4,45.0,30.0,,30.02,0.0,0.0,0.0,0.0,2025-02-10,2,2025,8,KOKV,0.0,0.0,0.0,0.0,21
2025-02-07,7,2025-02-07 09:55,09:55,EST,NW  18  G 25,10.0,Fair,CLR,41.0,21.2,45.0,33.0,,30.03,0.0,0.0,0.0,0.0,2025-02-10,2,2025,9,KOKV,0.0,0.0,0.0,0.0,18
2025-02-07,7,2025-02-07 10:55,10:55,EST,NW  17  G 26,10.0,Fair,CLR,42.8,21.2,42.0,35.0,,30.06,0.0,0.0,0.0,0.0,2025-02-10,2,2025,10,KOKV,0.0,0.0,0.0,0.0,17
2025-02-07,7,2025-02-07 11:55,11:55,EST,NW  24  G 29,10.0,Fair and Breezy,CLR,44.6,21.2,39.0,36.0,,30.06,0.0,0.0,0.0,0.0,2025-02-10,2,2025,11,KOKV,0.0,0.0,0.0,0.0,24
2025-02-07,7,2025-02-07 12:55,12:55,EST,W  21  G 31,10.0,Fair and Breezy,CLR,44.6,19.4,37.0,37.0,,30.07,0.0,0.0,0.0,0.0,2025-02-10,2,2025,12,KOKV,0.0,0.0,0.0,0.0,21
2025-02-07,7,2025-02-07 13:55,13:55,EST,NW  18  G 24,10.0,Fair,CLR,46.4,21.2,37.0,40.0,,30.08,0.0,0.0,0.0,0.0,2025-02-10,2,2025,13,KOKV,0.0,0.0,0.0,0.0,18
2025-02-07,7,2025-02-07 14:55,14:55,EST,NW  15  G 23,10.0,Fair,CLR,44.6,19.4,37.0,38.0,,30.08,0.0,0.0,0.0,0.0,2025-02-10,2,2025,14,KOKV,0.0,0.0,0.0,0.0,15
2025-02-07,7,2025-02-07 15:55,15:55,EST,NW  14  G 21,10.0,Fair,CLR,44.6,19.4,37.0,39.0,,30.1,0.0,0.0,0.0,0.0,2025-02-10,2,2025,15,KOKV,0.0,0.0,0.0,0.0,14
2025-02-07,7,2025-02-07 16:55,16:55,EST,NW  15  G 23,10.0,Fair,CLR,42.8,17.6,36.0,36.0,,30.12,0.0,0.0,0.0,0.0,2025-02-10,2,2025,16,KOKV,0.0,0.0,0.0,0.0,15
2025-02-07,7,2025-02-07 17:35,17:35,EST,NW  6,10.0,Fair,CLR,41.0,17.6,39.0,38.0,,30.14,0.0,0.0,0.0,0.0,2025-02-10,2,2025,17,KOKV,0.0,0.0,0.0,0.0,6
2025-02-07,7,2025-02-07 19:55,19:55,EST,NW  8,10.0,Fair,CLR,35.6,17.6,48.0,30.0,,30.19,0.0,0.0,0.0,0.0,2025-02-10,2,2025,19,KOKV,0.0,0.0,0.0,0.0,8
2025-02-07,7,2025-02-07 20:55,20:55,EST,N  12,10.0,Fair,CLR,37.4,19.4,48.0,30.0,,30.19,0.0,0.0,0.0,0.0,2025-02-10,2,2025,20,KOKV,0.0,0.0,0.0,0.0,12
2025-02-07,7,2025-02-07 21:55,21:55,EST,N  6,10.0,Fair,CLR,33.8,19.4,56.0,29.0,,30.22,0.0,0.0,0.0,0.0,2025-02-10,2,2025,21,KOKV,0.0,0.0,0.0,0.0,6
2025-02-07,7,2025-02-07 22:35,22:35,EST,SE  7,10.0,Fair,CLR,32.0,19.4,60.0,26.0,,30.23,0.0,0.0,0.0,0.0,2025-02-10,2,2025,22,KOKV,0.0,0.0,0.0,0.0,7
2025-02-07,7,2025-02-07 23:55,23:55,EST,Calm,10.0,Fair,CLR,32.0,17.6,55.0,,,30.23,0.0,0.0,0.0,0.0,2025-02-10,2,2025,23,KOKV,0.0,0.0,0.0,0.0,0
2025-02-08,8,2025-02-08 00:55,00:55,EST,Calm,10.0,Fair,CLR,30.2,19.4,64.0,,,30.24,0.0,0.0,0.0,0.0,2025-02-11,2,2025,0,KOKV,0.0,0.0,0.0,0.0,0
2025-02-08,8,2025-02-08 01:55,01:55,EST,Calm,10.0,Fair,CLR,30.2,19.4,64.0,,,30.24,0.0,0.0,0.0,0.0,2025-02-11,2,2025,1,KOKV,0.0,0.0,0.0,0.0,0
2025-02-08,8,2025-02-08 02:55,02:55,EST,Calm,10.0,Mostly Cloudy,BKN120,30.2,21.2,69.0,,,30.25,0.0,0.0,0.0,0.0,2025-02-11,2,2025,2,KOKV,0.0,0.0,0.0,0.0,0
2025-02-08,8,2025-02-08 03:55,03:55,EST,Calm,10.0,Mostly Cloudy,BKN120,32.0,19.4,60.0,,,30.23,0.0,0.0,0.0,0.0,2025-02-11,2,2025,3,KOKV,0.0,0.0,0.0,0.0,0
2025-02-08,8,2025-02-08 04:55,04:55,EST,Calm,10.0,Overcast,OVC100,32.0,19.4,60.0,,,30.23,0.0,0.0,0.0,0.0,2025-02-11,2,2025,4,KOKV,0.0,0.0,0.0,0.0,0
2025-02-08,8,2025-02-08 05:55,05:55,EST,Calm,10.0,Mostly Cloudy,BKN100,32.0,19.4,60.0,,,30.25,0.0,0.0,0.0,0.0,2025-02-11,2,2025,5,KOKV,0.0,0.0,0.0,0.0,0
2025-02-08,8,2025-02-08 06:55,06:55,EST,NE  3,10.0,Overcast,OVC080,32.0,19.4,60.0,,,30.26,0.0,0.0,0.0,0.0,2025-02-11,2,2025,6,KOKV,0.0,0.0,0.0,0.0,3
2025-02-08,8,2025-02-08 07:55,07:55,EST,Calm,10.0,Overcast,OVC045,30.2,19.4,64.0,,,30.26,0.0,0.0,0.0,0.0,2025-02-11,2,2025,7,KOKV,0.0,0.0,0.0,0.0,0
2025-02-08,8,2025-02-08 08:55,08:55,EST,S  3,5.0,Light Snow,BKN026 BKN032 OVC041,32.0,26.6,80.0,,,30.27,0.0,0.0,0.0,0.0,2025-02-11,2,2025,8,KOKV,0.0,0.0,0.0,0.0,3
2025-02-08,8,2025-02-08 09:55,09:55,EST,Calm,5.0,Light Rain,SCT016 BKN038 OVC060,32.0,28.4,87.0,,,30.26,0.0,0.0,0.0,0.0,2025-02-11,2,2025,9,KOKV,0.0,0.0,0.0,0.0,0
2025-02-08,8,2025-02-08 10:55,10:55,EST,SE  3,3.0,Light Drizzle,BKN017 OVC026,32.0,30.2,93.0,,,30.25,0.0,0.0,0.0,0.0,2025-02-11,2,2025,10,KOKV,0.0,0.0,0.0,0.0,3
2025-02-08,8,2025-02-08 11:55,11:55,EST,E  8,10.0,Overcast,OVC017,32.0,30.2,93.0,25.0,,30.18,0.0,0.0,0.0,0.0,2025-02-11,2,2025,11,KOKV,0.0,0.0,0.0,0.0,8
2025-02-08,8,2025-02-08 12:55,12:55,EST,SE  8,10.0,Light Drizzle,OVC017,32.0,28.4,87.0,25.0,,30.15,0.0,0.0,0.0,0.0,2025-02-11,2,2025,12,KOKV,0.0,0.0,0.0,0.0,8
2025-02-08,8,2025-02-08 13:55,13:55,EST,SE  10,10.0,Overcast,OVC015,32.0,28.4,87.0,24.0,,30.12,0.0,0.0,0.0,0.0,2025-02-11,2,2025,13,KOKV,0.0,0.0,0.0,0.0,10
2025-02-08,8,2025-02-08 14:55,14:55,EST,SE  14  G 17,10.0,Light Rain,OVC013,32.0,28.4,87.0,23.0,,30.09,0.0,0.0,0.0,0.0,2025-02-11,2,2025,14,KOKV,0.0,0.0,0.0,0.0,14
2025-02-08,8,2025-02-08 15:55,15:55,EST,SE  12,10.0,Overcast,OVC009,32.0,30.2,93.0,24.0,,30.05,0.0,0.0,0.0,0.0,2025-02-11,2,2025,15,KOKV,0.0,0.0,0.0,0.0,12
2025-02-08,8,2025-02-08 16:55,16:55,EST,SE  10  G 20,5.0,Unknown Precip,OVC007,32.0,30.2,93.0,24.0,,30.01,0.0,0.0,0.0,0.0,2025-02-11,2,2025,16,KOKV,0.0,0.0,0.0,0.0,10
2025-02-08,8,2025-02-08 17:55,17:55,EST,S  10  G 16,10.0,Overcast,OVC010,32.0,30.2,93.0,24.0,,29.97,0.0,0.0,0.0,0.0,2025-02-11,2,2025,17,KOKV,0.0,0.0,0.0,0.0,10
2025-02-08,8,2025-02-08 18:55,18:55,EST,S  12  G 17,10.0,Overcast,OVC010,32.0,30.2,93.0,24.0,,29.95,0.0,0.0,0.0,0.0,2025-02-11,2,2025,18,KOKV,0.0,0.0,0.0,0.0,12
2025-02-08,8,2025-02-08 19:55,19:55,EST,S  13  G 22,10.0,Overcast,BKN008 OVC012,32.0,30.2,93.0,23.0,,29.88,0.0,0.0,0.0,0.0,2025-02-11,2,2025,19,KOKV,0.0,0.0,0.0,0.0,13
2025-02-08,8,2025-02-08 20:55,20:55,EST,S  14  G 20,10.0,Overcast,OVC006,32.0,30.2,93.0,23.0,,29.84,0.0,0.0,0.0,0.0,2025-02-11,2,2025,20,KOKV,0.0,0.0,0.0,0.0,14
2025-02-08,8,2025-02-08 21:55,21:55,EST,S  9,10.0,Overcast,SCT006 OVC021,32.0,30.2,93.0,25.0,,29.79,0.0,0.0,0.0,0.0,2025-02-11,2,2025,21,KOKV,0.0,0.0,0.0,0.0,9
2025-02-08,8,2025-02-08 22:55,22:55,EST,S  6,10.0,Overcast,SCT019 BKN047 OVC065,32.0,32.0,100.0,27.0,,29.77,0.0,0.0,0.0,0.0,2025-02-11,2,2025,22,KOKV,0.0,0.0,0.0,0.0,6
2025-02-08,8,2025-02-08 23:55,23:55,EST,Calm,7.0,Light Drizzle,SCT006 BKN036 OVC043,32.0,32.0,100.0,,,29.79,0.0,0.0,0.0,0.0,2025-02-11,2,2025,23,KOKV,0.0,0.0,0.0,0.0,0
2025-02-09,9,2025-02-09 00:55,00:55,EST,S  3,10.0,Overcast,SCT031 OVC037,32.0,32.0,100.0,,,29.75,0.0,0.0,0.0,0.0,2025-02-12,2,2025,0,KOKV,0.0,0.0,0.0,0.0,3
2025-02-09,9,2025-02-09 01:55,01:55,EST,Calm,7.0,Overcast,SCT030 BKN035 OVC044,32.0,32.0,100.0,,,29.77,0.0,0.0,0.0,0.0,2025-02-12,2,2025,1,KOKV,0.0,0.0,0.0,0.0,0
2025-02-09,9,2025-02-09 02:55,02:55,EST,Calm,7.0,Overcast,BKN034 OVC041,32.0,32.0,100.0,,,29.78,0.0,0.0,0.0,0.0,2025-02-12,2,2025,2,KOKV,0.0,0.0,0.0,0.0,0
2025-02-09,9,2025-02-09 03:55,03:55,EST,Calm,5.0,Fog/Mist,BKN039,32.0,32.0,100.0,,,29.8,0.0,0.0,0.0,0.0,2025-02-12,2,2025,3,KOKV,0.0,0.0,0.0,0.0,0
2025-02-09,9,2025-02-09 04:55,04:55,EST,NW  15  G 25,10.0,Fair,CLR,41.0,33.8,76.0,34.0,,29.83,0.0,0.0,0.0,0.0,2025-02-12,2,2025,4,KOKV,0.0,0.0,0.0,0.0,15
2025-02-09,9,2025-02-09 05:55,05:55,EST,NW  21  G 26,10.0,Mostly Cloudy and Breezy,BKN034 BKN041,41.0,32.0,70.0,32.0,,29.89,0.0,0.0,0.0,0.0,2025-02-12,2,2025,5,KOKV,0.0,0.0,0.0,0.0,21
2025-02-09,9,2025-02-09 06:55,06:55,EST,NW  20  G 24,10.0,Overcast,OVC034,39.2,32.0,75.0,30.0,,29.95,0.0,0.0,0.0,0.0,2025-02-12,2,2025,6,KOKV,0.0,0.0,0.0,0.0,20
2025-02-09,9,2025-02-09 07:55,07:55,EST,NW  18  G 24,10.0,Overcast,SCT027 BKN034 OVC042,37.4,30.2,75.0,28.0,,30.01,0.0,0.0,0.0,0.0,2025-02-12,2,2025,7,KOKV,0.0,0.0,0.0,0.0,18
2025-02-09,9,2025-02-09 08:55,08:55,EST,NW  22  G 32,10.0,Overcast and Breezy,OVC031,35.6,28.4,75.0,25.0,,30.06,0.0,0.0,0.0,0.0,2025-02-12,2,2025,8,KOKV,0.0,0.0,0.0,0.0,22
2025-02-09,9,2025-02-09 09:55,09:55,EST,NW  5  G 17,10.0,Overcast,OVC027,35.6,26.6,70.0,32.0,,30.12,0.0,0.0,0.0,0.0,2025-02-12,2,2025,9,KOKV,0.0,0.0,0.0,0.0,5
2025-02-09,9,2025-02-09 10:55,10:55,EST,NW  6,10.0,Overcast,OVC029,35.6,26.6,70.0,31.0,,30.16,0.0,0.0,0.0,0.0,2025-02-12,2,2025,10,KOKV,0.0,0.0,0.0,0.0,6
2025-02-09,9,2025-02-09 11:55,11:55,EST,NW  17  G 24,10.0,Overcast,OVC033,37.4,26.6,65.0,29.0,,30.15,0.0,0.0,0.0,0.0,2025-02-12,2,2025,11,KOKV,0.0,0.0,0.0,0.0,17
2025-02-09,9,2025-02-09 12:55,12:55,EST,NW  12  G 20,10.0,Overcast,OVC035,37.4,26.6,65.0,30.0,,30.17,0.0,0.0,0.0,0.0,2025-02-12,2,2025,12,KOKV,0.0,0.0,0.0,0.0,12
2025-02-09,9,2025-02-09 13:55,13:55,EST,NW  15,10.0,Overcast,OVC037,37.4,26.6,65.0,29.0,,30.17,0.0,0.0,0.0,0.0,2025-02-12,2,2025,13,KOKV,0.0,0.0,0.0,0.0,15
2025-02-09,9,2025-02-09 14:55,14:55,EST,NW  13,10.0,Mostly Cloudy,BKN037,37.4,24.8,60.0,30.0,,30.19,0.0,0.0,0.0,0.0,2025-02-12,2,2025,14,KOKV,0.0,0.0,0.0,0.0,13
2025-02-09,9,2025-02-09 15:55,15:55,EST,NW  17  G 23,10.0,Partly Cloudy,SCT040,37.4,24.8,60.0,29.0,,30.19,0.0,0.0,0.0,0.0,2025-02-12,2,2025,15,KOKV,0.0,0.0,0.0,0.0,17
2025-02-09,9,2025-02-09 16:55,16:55,EST,NW  14,10.0,Partly Cloudy,SCT039,35.6,23.0,60.0,27.0,,30.21,0.0,0.0,0.0,0.0,2025-02-12,2,2025,16,KOKV,0.0,0.0,0.0,0.0,14
2025-02-09,9,2025-02-09 17:55,17:55,EST,NW  10,10.0,Partly Cloudy,SCT120,33.8,23.0,65.0,26.0,,30.24,0.0,0.0,0.0,0.0,2025-02-12,2,2025,17,KOKV,0.0,0.0,0.0,0.0,10
2025-02-09,9,2025-02-09 18:55,18:55,EST,NW  13  G 17,10.0,Mostly Cloudy,BKN120,33.8,23.0,65.0,25.0,,30.25,0.0,0.0,0.0,0.0,2025-02-12,2,2025,18,KOKV,0.0,0.0,0.0,0.0,13
2025-02-09,9,2025-02-09 19:55,19:55,EST,NW  10,10.0,Fair,CLR,33.8,23.0,65.0,26.0,,30.28,0.0,0.0,0.0,0.0,2025-02-12,2,2025,19,KOKV,0.0,0.0,0.0,0.0,10
2025-02-09,9,2025-02-09 20:55,20:55,EST,NW  14,10.0,Partly Cloudy,SCT120,32.0,21.2,64.0,23.0,,30.27,0.0,0.0,0.0,0.0,2025-02-12,2,2025,20,KOKV,0.0,0.0,0.0,0.0,14
2025-02-09,9,2025-02-09 21:55,21:55,EST,NW  6,10.0,Fair,CLR,32.0,21.2,64.0,27.0,,30.29,0.0,0.0,0.0,0.0,2025-02-12,2,2025,21,KOKV,0.0,0.0,0.0,0.0,6
2025-02-09,9,2025-02-09 22:55,22:55,EST,N  5,10.0,Fair,CLR,32.0,21.2,64.0,28.0,,30.29,0.0,0.0,0.0,0.0,2025-02-12,2,2025,22,KOKV,0.0,0.0,0.0,0.0,5
2025-02-09,9,2025-02-09 23:55,23:55,EST,Calm,10.0,Mostly Cloudy,BKN120,32.0,23.0,69.0,,,30.29,0.0,0.0,0.0,0.0,2025-02-13,2,2025,23,KOKV,0.0,0.0,0.0,0.0,0
2025-02-10,10,2025-02-10 00:55,00:55,EST,Calm,10.0,Partly Cloudy,SCT120,32.0,23.0,69.0,,,30.3,0.0,0.0,0.0,0.0,2025-02-13,2,2025,0,KOKV,0.0,0.0,0.0,0.0,0
2025-02-10,10,2025-02-10 01:55,01:55,EST,NW  3,10.0,Overcast,OVC120,32.0,23.0,69.0,,,30.3,0.0,0.0,0.0,0.0,2025-02-13,2,2025,1,KOKV,0.0,0.0,0.0,0.0,3
2025-02-10,10,2025-02-10 02:55,02:55,EST,NW  6,10.0,Mostly Cloudy,BKN034 BKN120,32.0,23.0,69.0,27.0,,30.32,0.0,0.0,0.0,0.0,2025-02-13,2,2025,2,KOKV,0.0,0.0,0.0,0.0,6
2025-02-10,10,2025-02-10 03:55,03:55,EST,NW  6,10.0,Overcast,OVC032,32.0,23.0,69.0,27.0,,30.33,0.0,0.0,0.0,0.0,2025-02-13,2,2025,3,KOKV,0.0,0.0,0.0,0.0,6
2025-02-10,10,2025-02-10 04:55,04:55,EST,N  5,10.0,Overcast,OVC032,32.0,23.0,69.0,28.0,,30.34,0.0,0.0,0.0,0.0,2025-02-13,2,2025,4,KOKV,0.0,0.0,0.0,0.0,5
2025-02-10,10,2025-02-10 05:55,05:55,EST,NW  6,10.0,Mostly Cloudy,BKN110,32.0,21.2,64.0,27.0,,30.35,0.0,0.0,0.0,0.0,2025-02-13,2,2025,5,KOKV,0.0,0.0,0.0,0.0,6
2025-02-10,10,2025-02-10 06:55,06:55,EST,NW  3,10.0,Overcast,OVC110,32.0,21.2,64.0,,,30.37,0.0,0.0,0.0,0.0,2025-02-13,2,2025,6,KOKV,0.0,0.0,0.0,0.0,3
2025-02-10,10,2025-02-10 07:55,07:55,EST,NW  3,10.0,Fair,CLR,30.2,21.2,69.0,,,30.39,0.0,0.0,0.0,0.0,2025-02-13,2,2025,7,KOKV,0.0,0.0,0.0,0.0,3
2025-02-10,10,2025-02-10 08:55,08:55,EST,N  8,10.0,Fair,CLR,32.0,21.2,64.0,25.0,,30.4,0.0,0.0,0.0,0.0,2025-02-13,2,2025,8,KOKV,0.0,0.0,0.0,0.0,8
2025-02-10,10,2025-02-10 09:55,09:55,EST,W  10,10.0,Partly Cloudy,SCT036,33.8,21.2,60.0,26.0,,30.4,0.0,0.0,0.0,0.0,2025-02-13,2,2025,9,KOKV,0.0,0.0,0.0,0.0,10
2025-02-10,10,2025-02-10 10:55,10:55,EST,NW  6,10.0,Fair,CLR,33.8,19.4,56.0,29.0,,30.4,0.0,0.0,0.0,0.0,2025-02-13,2,2025,10,KOKV,0.0,0.0,0.0,0.0,6
2025-02-10,10,2025-02-10 11:55,11:55,EST,W  8,10.0,Fair,CLR,37.4,21.2,52.0,32.0,,30.38,0.0,0.0,0.0,0.0,2025-02-13,2,2025,11,KOKV,0.0,0.0,0.0,0.0,8
2025-02-10,10,2025-02-10 12:55,12:55,EST,Calm,10.0,Fair,CLR,37.4,19.4,48.0,,,30.36,0.0,0.0,0.0,0.0,2025-02-13,2,2025,12,KOKV,0.0,0.0,0.0,0.0,0
2025-02-10,10,2025-02-10 13:55,13:55,EST,NW  10,10.0,Partly Cloudy,SCT055,41.0,19.4,42.0,35.0,,30.34,0.0,0.0,0.0,0.0,2025-02-13,2,2025,13,KOKV,0.0,0.0,0.0,0.0,10
2025-02-10,10,2025-02-10 14:55,14:55,EST,N  9,10.0,Partly Cloudy,SCT055,41.0,17.6,39.0,36.0,,30.33,0.0,0.0,0.0,0.0,2025-02-13,2,2025,14,KOKV,0.0,0.0,0.0,0.0,9
2025-02-10,10,2025-02-10 15:55,15:55,EST,NW  8  G 16,10.0,Fair,CLR,41.0,17.6,39.0,36.0,,30.34,0.0,0.0,0.0,0.0,2025-02-13,2,2025,15,KOKV,0.0,0.0,0.0,0.0,8
2025-02-10,10,2025-02-10 16:55,16:55,EST,NW  12,10.0,Fair,CLR,39.2,17.6,42.0,33.0,,30.35,0.0,0.0,0.0,0.0,2025-02-13,2,2025,16,KOKV,0.0,0.0,0.0,0.0,12
2025-02-10,10,2025-02-10 17:55,17:55,EST,NW  7,10.0,Fair,CLR,35.6,14.0,41.0,31.0,,30.37,0.0,0.0,0.0,0.0,2025-02-13,2,2025,17,KOKV,0.0,0.0,0.0,0.0,7
2025-02-10,10,2025-02-10 18:55,18:55,EST,NW  5,10.0,Fair,CLR,32.0,14.0,47.0,28.0,,30.38,0.0,0.0,0.0,0.0,2025-02-13,2,2025,18,KOKV,0.0,0.0,0.0,0.0,5
2025-02-10,10,2025-02-10 19:55,19:55,EST,Calm,10.0,Fair,CLR,33.8,14.0,44.0,,,30.4,0.0,0.0,0.0,0.0,2025-02-13,2,2025,19,KOKV,0.0,0.0,0.0,0.0,0
2025-02-10,10,2025-02-10 20:55,20:55,EST,E  3,10.0,Fair,CLR,26.6,15.8,64.0,,,30.41,0.0,0.0,0.0,0.0,2025-02-13,2,2025,20,KOKV,0.0,0.0,0.0,0.0,3
2025-02-10,10,2025-02-10 21:55,21:55,EST,Calm,10.0,Fair,CLR,30.2,17.6,59.0,,,30.42,0.0,0.0,0.0,0.0,2025-02-13,2,2025,21,KOKV,0.0,0.0,0.0,0.0,0
2025-02-10,10,2025-02-10 22:55,22:55,EST,Calm,10.0,Fair,CLR,28.4,17.6,64.0,,,30.42,0.0,0.0,0.0,0.0,2025-02-13,2,2025,22,KOKV,0.0,0.0,0.0,0.0,0
2025-02-10,10,2025-02-10 23:55,23:55,EST,Calm,10.0,Fair,CLR,26.6,19.4,74.0,,,30.41,0.0,0.0,0.0,0.0,2025-02-13,2,2025,23,KOKV,0.0,0.0,0.0,0.0,0
2025-02-11,11,2025-02-11 00:55,00:55,EST,Calm,10.0,Fair,CLR,30.2,19.4,64.0,,,30.4,0.0,0.0,0.0,0.0,2025-02-14,2,2025,0,KOKV,0.0,0.0,0.0,0.0,0
2025-02-11,11,2025-02-11 01:55,01:55,EST,Calm,10.0,Fair,CLR,28.4,17.6,64.0,,,30.41,0.0,0.0,0.0,0.0,2025-02-14,2,2025,1,KOKV,0.0,0.0,0.0,0.0,0
2025-02-11,11,2025-02-11 02:55,02:55,EST,Calm,10.0,Mostly Cloudy,BKN120,28.4,17.6,64.0,,,30.41,0.0,0.0,0.0,0.0,2025-02-14,2,2025,2,KOKV,0.0,0.0,0.0,0.0,0
2025-02-11,11,2025-02-11 03:55,03:55,EST,Calm,10.0,Overcast,OVC110,28.4,17.6,64.0,,,30.39,0.0,0.0,0.0,0.0,2025-02-14,2,2025,3,KOKV,0.0,0.0,0.0,0.0,0
2025-02-11,11,2025-02-11 04:55,04:55,EST,Calm,10.0,Overcast,OVC120,28.4,17.6,64.0,,,30.39,0.0,0.0,0.0,0.0,2025-02-14,2,2025,4,KOKV,0.0,0.0,0.0,0.0,0
2025-02-11,11,2025-02-11 05:55,05:55,EST,Calm,10.0,Mostly Cloudy,BKN120,28.4,17.6,64.0,,,30.4,0.0,0.0,0.0,0.0,2025-02-14,2,2025,5,KOKV,0.0,0.0,0.0,0.0,0
2025-02-11,11,2025-02-11 06:55,06:55,EST,Calm,10.0,Overcast,OVC120,28.4,17.6,64.0,,,30.4,0.0,0.0,0.0,0.0,2025-02-14,2,2025,6,KOKV,0.0,0.0,0.0,0.0,0
2025-02-11,11,2025-02-11 07:55,07:55,EST,E  5,10.0,Overcast,OVC110,28.4,19.4,69.0,24.0,,30.39,0.0,0.0,0.0,0.0,2025-02-14,2,2025,7,KOKV,0.0,0.0,0.0,0.0,5
2025-02-11,11,2025-02-11 08:55,08:55,EST,Calm,10.0,Overcast,OVC100,30.2,19.4,64.0,,,30.39,0.0,0.0,0.0,0.0,2025-02-14,2,2025,8,KOKV,0.0,0.0,0.0,0.0,0
2025-02-11,11,2025-02-11 09:55,09:55,EST,SE  7,10.0,Overcast,SCT044 BKN050 OVC065,32.0,17.6,55.0,26.0,,30.37,0.0,0.0,0.0,0.0,2025-02-14,2,2025,9,KOKV,0.0,0.0,0.0,0.0,7
2025-02-11,11,2025-02-11 10:55,10:55,EST,SE  13,10.0,Mostly Cloudy,SCT045 BKN085,32.0,19.4,60.0,23.0,,30.35,0.0,0.0,0.0,0.0,2025-02-14,2,2025,10,KOKV,0.0,0.0,0.0,0.0,13
2025-02-11,11,2025-02-11 11:55,11:55,EST,S  10,10.0,Overcast,OVC050,32.0,19.4,60.0,24.0,,30.3,0.0,0.0,0.0,0.0,2025-02-14,2,2025,11,KOKV,0.0,0.0,0.0,0.0,10
2025-02-11,11,2025-02-11 12:55,12:55,EST,S  9,4.0,Light Snow,SCT026 BKN037 OVC045,32.0,23.0,69.0,25.0,,30.27,0.0,0.0,0.0,0.0,2025-02-14,2,2025,12,KOKV,0.0,0.0,0.0,0.0,9
2025-02-11,11,2025-02-11 13:55,13:55,EST,SE  5,1.25,Light Snow,BKN019 OVC029,30.2,26.6,86.0,26.0,,30.24,0.0,0.0,0.0,0.0,2025-02-14,2,2025,13,KOKV,0.0,0.0,0.0,0.0,5
2025-02-11,11,2025-02-11 14:55,14:55,EST,E  5,1.5,Light Snow,SCT007 BKN023 OVC036,30.2,26.6,86.0,26.0,,30.22,0.0,0.0,0.0,0.0,2025-02-14,2,2025,14,KOKV,0.0,0.0,0.0,0.0,5
2025-02-11,11,2025-02-11 15:55,15:55,EST,SE  6,0.75,Light Snow,OVC005,30.2,28.4,93.0,25.0,,30.21,0.0,0.0,0.0,0.0,2025-02-14,2,2025,15,KOKV,0.0,0.0,0.0,0.0,6
2025-02-11,11,2025-02-11 16:55,16:55,EST,E  3,1.0,Light Snow,OVC005,30.2,28.4,93.0,,,30.21,0.0,0.0,0.0,0.0,2025-02-14,2,2025,16,KOKV,0.0,0.0,0.0,0.0,3
2025-02-11,11,2025-02-11 17:55,17:55,EST,E  5,1.5,Light Snow,BKN005 OVC014,28.4,28.4,100.0,24.0,,30.2,0.0,0.0,0.0,0.0,2025-02-14,2,2025,17,KOKV,0.0,0.0,0.0,0.0,5
2025-02-11,11,2025-02-11 18:55,18:55,EST,E  6,1.75,Light Snow,BKN005 OVC020,28.4,28.4,100.0,23.0,,30.19,0.0,0.0,0.0,0.0,2025-02-14,2,2025,18,KOKV,0.0,0.0,0.0,0.0,6
2025-02-11,11,2025-02-11 19:55,19:55,EST,E  3,2.5,Light Snow,BKN005 OVC029,28.4,28.4,100.0,,,30.19,0.0,0.0,0.0,0.0,2025-02-14,2,2025,19,KOKV,0.0,0.0,0.0,0.0,3
2025-02-11,11,2025-02-11 20:55,20:55,EST,Calm,2.5,Light Snow,BKN005 OVC026,28.4,28.4,100.0,,,30.18,0.0,0.0,0.0,0.0,2025-02-14,2,2025,20,KOKV,0.0,0.0,0.0,0.0,0
2025-02-11,11,2025-02-11 21:55,21:55,EST,E  3,2.5,Light Snow,BKN005 BKN021 OVC029,28.4,28.4,100.0,,,30.17,0.0,0.0,0.0,0.0,2025-02-14,2,2025,21,KOKV,0.0,0.0,0.0,0.0,3
2025-02-11,11,2025-02-11 22:55,22:55,EST,Calm,2.0,Light Snow,OVC005,28.4,26.6,93.0,,,30.17,0.0,0.0,0.0,0.0,2025-02-14,2,2025,22,KOKV,0.0,0.0,0.0,0.0,0
2025-02-11,11,2025-02-11 23:55,23:55,EST,Calm,2.0,Light Snow,BKN005 OVC027,28.4,26.6,93.0,,,30.15,0.0,0.0,0.0,0.0,2025-02-14,2,2025,23,KOKV,0.0,0.0,0.0,0.0,0
2025-02-12,12,2025-02-12 00:55,00:55,EST,Calm,2.0,Light Snow,SCT005 OVC030,28.4,26.6,93.0,,,30.14,0.0,0.0,0.0,0.0,2025-02-15,2,2025,0,KOKV,0.0,0.0,0.0,0.0,0
2025-02-12,12,2025-02-12 01:55,01:55,EST,Calm,3.0,Light Snow,OVC005,28.4,26.6,93.0,,,30.13,0.0,0.0,0.0,0.0,2025-02-15,2,2025,1,KOKV,0.0,0.0,0.0,0.0,0
2025-02-12,12,2025-02-12 02:55,02:55,EST,Calm,5.0,Fog/Mist,OVC005,28.4,26.6,93.0,,,30.13,0.0,0.0,0.0,0.0,2025-02-15,2,2025,2,KOKV,0.0,0.0,0.0,0.0,0
2025-02-12,12,2025-02-12 03:55,03:55,EST,Calm,4.0,Light Snow,SCT005 OVC014,28.4,26.6,93.0,,,30.13,0.0,0.0,0.0,0.0,2025-02-15,2,2025,3,KOKV,0.0,0.0,0.0,0.0,0
2025-02-12,12,2025-02-12 04:55,04:55,EST,Calm,2.5,Light Snow,SCT005 OVC019,28.4,26.6,93.0,,,30.12,0.0,0.0,0.0,0.0,2025-02-15,2,2025,4,KOKV,0.0,0.0,0.0,0.0,0
2025-02-12,12,2025-02-12 05:55,05:55,EST,Calm,1.75,Light Snow,SCT004 BKN017 OVC033,28.4,26.6,93.0,,,30.13,0.0,0.0,0.0,0.0,2025-02-15,2,2025,5,KOKV,0.0,0.0,0.0,0.0,0
2025-02-12,12,2025-02-12 06:55,06:55,EST,Calm,3.0,Light Snow,SCT019 OVC027,28.4,26.6,93.0,,,30.15,0.0,0.0,0.0,0.0,2025-02-15,2,2025,6,KOKV,0.0,0.0,0.0,0.0,0
2025-02-12,12,2025-02-12 07:55,07:55,EST,Calm,0.5,Light Snow,OVC012,28.4,26.6,93.0,,,30.17,0.0,0.0,0.0,0.0,2025-02-15,2,2025,7,KOKV,0.0,0.0,0.0,0.0,0
2025-02-12,12,2025-02-12 08:55,08:55,EST,Calm,1.25,Light Snow,SCT006 OVC032,28.4,26.6,93.0,,,30.18,0.0,0.0,0.0,0.0,2025-02-15,2,2025,8,KOKV,0.0,0.0,0.0,0.0,0
2025-02-12,12,2025-02-12 09:55,09:55,EST,Calm,3.0,Fog/Mist,OVC006,28.4,26.6,93.0,,,30.19,0.0,0.0,0.0,0.0,2025-02-15,2,2025,9,KOKV,0.0,0.0,0.0,0.0,0
2025-02-12,12,2025-02-12 10:55,10:55,EST,Calm,2.5,Fog/Mist,OVC008,30.2,26.6,86.0,,,30.17,0.0,0.0,0.0,0.0,2025-02-15,2,2025,10,KOKV,0.0,0.0,0.0,0.0,0
2025-02-12,12,2025-02-12 11:55,11:55,EST,Calm,3.0,Fog/Mist,OVC008,30.2,28.4,93.0,,,30.17,0.0,0.0,0.0,0.0,2025-02-15,2,2025,11,KOKV,0.0,0.0,0.0,0.0,0
2025-02-12,12,2025-02-12 12:55,12:55,EST,Calm,1.75,Fog/Mist,OVC006,30.2,28.4,93.0,,,30.13,0.0,0.0,0.0,0.0,2025-02-15,2,2025,12,KOKV,0.0,0.0,0.0,0.0,0
2025-02-12,12,2025-02-12 13:55,13:55,EST,Calm,1.25,Fog/Mist,OVC004,30.2,30.2,100.0,,,30.13,0.0,0.0,0.0,0.0,2025-02-15,2,2025,13,KOKV,0.0,0.0,0.0,0.0,0
2025-02-12,12,2025-02-12 14:55,14:55,EST,E  5,1.0,Fog/Mist,OVC004,32.0,30.2,93.0,28.0,,30.13,0.0,0.0,0.0,0.0,2025-02-15,2,2025,14,KOKV,0.0,0.0,0.0,0.0,5
2025-02-12,12,2025-02-12 15:55,15:55,EST,SE  5,0.75,Fog/Mist,OVC004,32.0,30.2,93.0,28.0,,30.12,0.0,0.0,0.0,0.0,2025-02-15,2,2025,15,KOKV,0.0,0.0,0.0,0.0,5
2025-02-12,12,2025-02-12 16:55,16:55,EST,SE  5,0.75,Unknown Precip,OVC002,32.0,30.2,93.0,28.0,,30.12,0.0,0.0,0.0,0.0,2025-02-15,2,2025,16,KOKV,0.0,0.0,0.0,0.0,5
2025-02-12,12,2025-02-12 17:55,17:55,EST,E  3,3.0,Rain,OVC004,32.0,30.2,93.0,,,30.12,0.0,0.0,0.0,0.0,2025-02-15,2,2025,17,KOKV,0.0,0.0,0.0,0.0,3
2025-02-12,12,2025-02-12 18:55,18:55,EST,Calm,4.0,Drizzle,OVC004,32.0,32.0,100.0,,,30.11,0.0,0.0,0.0,0.0,2025-02-15,2,2025,18,KOKV,0.0,0.0,0.0,0.0,0
2025-02-12,12,2025-02-12 19:55,19:55,EST,Calm,2.5,Drizzle,OVC006,32.0,32.0,100.0,,,30.1,0.0,0.0,0.0,0.0,2025-02-15,2,2025,19,KOKV,0.0,0.0,0.0,0.0,0
2025-02-12,12,2025-02-12 20:55,20:55,EST,Calm,2.5,Drizzle,OVC008,32.0,32.0,100.0,,,30.09,0.0,0.0,0.0,0.0,2025-02-15,2,2025,20,KOKV,0.0,0.0,0.0,0.0,0
2025-02-12,12,2025-02-12 21:55,21:55,EST,Calm,3.0,Drizzle,BKN008 OVC012,32.0,32.0,100.0,,,30.08,0.0,0.0,0.0,0.0,2025-02-15,2,2025,21,KOKV,0.0,0.0,0.0,0.0,0
2025-02-12,12,2025-02-12 22:55,22:55,EST,SE  5,4.0,Fog/Mist,BKN004 OVC008,32.0,32.0,100.0,28.0,,30.05,0.0,0.0,0.0,0.0,2025-02-15,2,2025,22,KOKV,0.0,0.0,0.0,0.0,5
2025-02-12,12,2025-02-12 23:35,23:35,EST,Calm,3.0,Fog/Mist,OVC002,32.0,32.0,100.0,,,30.04,0.0,0.0,0.0,0.0,2025-02-15,2,2025,23,KOKV,0.0,0.0,0.0,0.0,0
2025-02-13,13,2025-02-13 00:55,00:55,EST,SE  5,3.0,Drizzle,BKN002 OVC008,32.0,32.0,100.0,28.0,,30.0,0.0,0.0,0.0,0.0,2025-02-16,2,2025,0,KOKV,0.0,0.0,0.0,0.0,5
2025-02-13,13,2025-02-13 01:55,01:55,EST,Calm,5.0,Rain,BKN002 OVC012,32.0,32.0,100.0,,,29.96,0.0,0.0,0.0,0.0,2025-02-16,2,2025,1,KOKV,0.0,0.0,0.0,0.0,0
2025-02-13,13,2025-02-13 02:55,02:55,EST,Calm,4.0,Light Rain,OVC002,32.0,32.0,100.0,,,29.93,0.0,0.0,0.0,0.0,2025-02-16,2,2025,2,KOKV,0.0,0.0,0.0,0.0,0
2025-02-13,13,2025-02-13 03:55,03:55,EST,Calm,4.0,Fog/Mist,OVC004,32.0,32.0,100.0,,,29.89,0.0,0.0,0.0,0.0,2025-02-16,2,2025,3,KOKV,0.0,0.0,0.0,0.0,0
2025-02-13,13,2025-02-13 04:55,04:55,EST,Calm,4.0,Fog/Mist,OVC002,32.0,32.0,100.0,,,29.85,0.0,0.0,0.0,0.0,2025-02-16,2,2025,4,KOKV,0.0,0.0,0.0,0.0,0
2025-02-13,13,2025-02-13 05:55,05:55,EST,E  3,1.0,Fog/Mist,OVC004,32.0,32.0,100.0,,,29.83,0.0,0.0,0.0,0.0,2025-02-16,2,2025,5,KOKV,0.0,0.0,0.0,0.0,3
2025-02-13,13,2025-02-13 06:55,06:55,EST,Calm,1.25,Fog/Mist,OVC002,32.0,32.0,100.0,,,29.81,0.0,0.0,0.0,0.0,2025-02-16,2,2025,6,KOKV,0.0,0.0,0.0,0.0,0
2025-02-13,13,2025-02-13 07:55,07:55,EST,S  3,2.0,Fog/Mist,OVC010,32.0,32.0,100.0,,,29.8,0.0,0.0,0.0,0.0,2025-02-16,2,2025,7,KOKV,0.0,0.0,0.0,0.0,3
2025-02-13,13,2025-02-13 08:55,08:55,EST,Calm,5.0,Fog/Mist,SCT075,32.0,32.0,100.0,,,29.78,0.0,0.0,0.0,0.0,2025-02-16,2,2025,8,KOKV,0.0,0.0,0.0,0.0,0
2025-02-13,13,2025-02-13 09:55,09:55,EST,SW  3,7.0,Partly Cloudy,SCT009 SCT044,35.6,33.8,93.0,,,29.79,0.0,0.0,0.0,0.0,2025-02-16,2,2025,9,KOKV,0.0,0.0,0.0,0.0,3
2025-02-13,13,2025-02-13 10:55,10:55,EST,W  6,10.0,Fair,CLR,41.0,35.6,81.0,38.0,,29.81,0.0,0.0,0.0,0.0,2025-02-16,2,2025,10,KOKV,0.0,0.0,0.0,0.0,6
2025-02-13,13,2025-02-13 11:55,11:55,EST,SW  14,10.0,Fair,CLR,46.4,41.0,82.0,41.0,,29.82,0.0,0.0,0.0,0.0,2025-02-16,2,2025,11,KOKV,0.0,0.0,0.0,0.0,14
2025-02-13,13,2025-02-13 12:55,12:55,EST,W  8,10.0,Fair,CLR,51.8,42.8,72.0,,,29.82,0.0,0.0,0.0,0.0,2025-02-16,2,2025,12,KOKV,0.0,0.0,0.0,0.0,8
2025-02-13,13,2025-02-13 13:55,13:55,EST,NW  23  G 31,10.0,Fair and Breezy,CLR,53.6,35.6,51.0,,,29.85,0.0,0.0,0.0,0.0,2025-02-16,2,2025,13,KOKV,0.0,0.0,0.0,0.0,23
2025-02-13,13,2025-02-13 14:55,14:55,EST,W  21  G 29,10.0,Fair and Breezy,CLR,48.2,32.0,54.0,42.0,,29.93,0.0,0.0,0.0,0.0,2025-02-16,2,2025,14,KOKV,0.0,0.0,0.0,0.0,21
2025-02-13,13,2025-02-13 15:55,15:55,EST,NW  24  G 32,10.0,Fair and Breezy,CLR,42.8,30.2,61.0,34.0,,30.0,0.0,0.0,0.0,0.0,2025-02-16,2,2025,15,KOKV,0.0,0.0,0.0,0.0,24
2025-02-13,13,2025-02-13 16:55,16:55,EST,NW  24  G 31,10.0,Mostly Cloudy and Breezy,BKN045,39.2,28.4,65.0,29.0,,30.09,0.0,0.0,0.0,0.0,2025-02-16,2,2025,16,KOKV,0.0,0.0,0.0,0.0,24
2025-02-13,13,2025-02-13 17:55,17:55,EST,W  20  G 31,10.0,Mostly Cloudy,BKN047,37.4,23.0,56.0,28.0,,30.16,0.0,0.0,0.0,0.0,2025-02-16,2,2025,17,KOKV,0.0,0.0,0.0,0.0,20
2025-02-13,13,2025-02-13 18:55,18:55,EST,W  18  G 23,10.0,Overcast,BKN042 OVC049,35.6,23.0,60.0,26.0,,30.21,0.0,0.0,0.0,0.0,2025-02-16,2,2025,18,KOKV,0.0,0.0,0.0,0.0,18
2025-02-13,13,2025-02-13 19:55,19:55,EST,NW  20  G 28,10.0,Overcast,BKN038 OVC047,33.8,24.8,70.0,23.0,,30.25,0.0,0.0,0.0,0.0,2025-02-16,2,2025,19,KOKV,0.0,0.0,0.0,0.0,20
2025-02-13,13,2025-02-13 20:55,20:55,EST,NW  26  G 32,10.0,Partly Cloudy and Windy,SCT032 SCT038,32.0,23.0,69.0,19.0,,30.27,0.0,0.0,0.0,0.0,2025-02-16,2,2025,20,KOKV,0.0,0.0,0.0,0.0,26
2025-02-13,13,2025-02-13 21:55,21:55,EST,W  20  G 28,10.0,Overcast,SCT042 SCT047 OVC050,33.8,19.4,56.0,23.0,,30.3,0.0,0.0,0.0,0.0,2025-02-16,2,2025,21,KOKV,0.0,0.0,0.0,0.0,20
2025-02-13,13,2025-02-13 22:55,22:55,EST,W  10  G 17,10.0,Overcast,OVC060,33.8,19.4,56.0,26.0,,30.32,0.0,0.0,0.0,0.0,2025-02-16,2,2025,22,KOKV,0.0,0.0,0.0,0.0,10
2025-02-13,13,2025-02-13 23:55,23:55,EST,NW  21  G 30,10.0,Overcast and Breezy,OVC060,33.8,17.6,51.0,23.0,,30.34,0.0,0.0,0.0,0.0,2025-02-16,2,2025,23,KOKV,0.0,0.0,0.0,0.0,21
2025-02-14,14,2025-02-14 00:55,00:55,EST,W  20  G 33,10.0,Mostly Cloudy,BKN049 BKN060,32.0,15.8,51.0,21.0,,30.38,0.0,0.0,0.0,0.0,2025-02-17,2,2025,0,KOKV,0.0,0.0,0.0,0.0,20
2025-02-14,14,2025-02-14 01:55,01:55,EST,W  23  G 39,10.0,Fair and Breezy,CLR,32.0,12.2,44.0,20.0,,30.39,0.0,0.0,0.0,0.0,2025-02-17,2,2025,1,KOKV,0.0,0.0,0.0,0.0,23
2025-02-14,14,2025-02-14 02:55,02:55,EST,W  17  G 28,10.0,Fair,CLR,32.0,14.0,47.0,22.0,,30.42,0.0,0.0,0.0,0.0,2025-02-17,2,2025,2,KOKV,0.0,0.0,0.0,0.0,17
2025-02-14,14,2025-02-14 03:55,03:55,EST,W  16  G 28,10.0,Fair,CLR,30.2,10.4,43.0,20.0,,30.44,0.0,0.0,0.0,0.0,2025-02-17,2,2025,3,KOKV,0.0,0.0,0.0,0.0,16
2025-02-14,14,2025-02-14 04:55,04:55,EST,NW  18  G 30,10.0,Fair,CLR,28.4,10.4,47.0,17.0,,30.46,0.0,0.0,0.0,0.0,2025-02-17,2,2025,4,KOKV,0.0,0.0,0.0,0.0,18
2025-02-14,14,2025-02-14 05:55,05:55,EST,N  6  G 20,10.0,Fair,CLR,28.4,10.4,47.0,23.0,,30.52,0.0,0.0,0.0,0.0,2025-02-17,2,2025,5,KOKV,0.0,0.0,0.0,0.0,6
2025-02-14,14,2025-02-14 06:55,06:55,EST,W  9,10.0,Fair,CLR,26.6,6.8,43.0,18.0,,30.55,0.0,0.0,0.0,0.0,2025-02-17,2,2025,6,KOKV,0.0,0.0,0.0,0.0,9
2025-02-14,14,2025-02-14 07:55,07:55,EST,Calm,10.0,Fair,CLR,26.6,8.6,46.0,,,30.59,0.0,0.0,0.0,0.0,2025-02-17,2,2025,7,KOKV,0.0,0.0,0.0,0.0,0
2025-02-14,14,2025-02-14 08:55,08:55,EST,NW  12,10.0,Fair,CLR,28.4,8.6,43.0,19.0,,30.62,0.0,0.0,0.0,0.0,2025-02-17,2,2025,8,KOKV,0.0,0.0,0.0,0.0,12
2025-02-14,14,2025-02-14 09:55,09:55,EST,W  10  G 15,10.0,Fair,CLR,30.2,5.0,34.0,22.0,,30.62,0.0,0.0,0.0,0.0,2025-02-17,2,2025,9,KOKV,0.0,0.0,0.0,0.0,10
2025-02-14,14,2025-02-14 10:55,10:55,EST,NW  10  G 16,10.0,Fair,CLR,32.0,5.0,32.0,24.0,,30.64,0.0,0.0,0.0,0.0,2025-02-17,2,2025,10,KOKV,0.0,0.0,0.0,0.0,10
2025-02-14,14,2025-02-14 11:55,11:55,EST,NW  12  G 18,10.0,Fair,CLR,33.8,8.6,35.0,26.0,,30.61,0.0,0.0,0.0,0.0,2025-02-17,2,2025,11,KOKV,0.0,0.0,0.0,0.0,12
2025-02-14,14,2025-02-14 12:55,12:55,EST,NW  13,10.0,Fair,CLR,35.6,5.0,27.0,28.0,,30.59,0.0,0.0,0.0,0.0,2025-02-17,2,2025,12,KOKV,0.0,0.0,0.0,0.0,13
2025-02-14,14,2025-02-14 13:55,13:55,EST,NW  9  G 18,10.0,Fair,CLR,37.4,6.8,28.0,31.0,,30.56,0.0,0.0,0.0,0.0,2025-02-17,2,2025,13,KOKV,0.0,0.0,0.0,0.0,9
2025-02-14,14,2025-02-14 14:55,14:55,EST,N  8  G 16,10.0,Fair,CLR,37.4,3.2,23.0,32.0,,30.53,0.0,0.0,0.0,0.0,2025-02-17,2,2025,14,KOKV,0.0,0.0,0.0,0.0,8
2025-02-14,14,2025-02-14 15:55,15:55,EST,NW  8,10.0,Fair,CLR,37.4,5.0,26.0,32.0,,30.54,0.0,0.0,0.0,0.0,2025-02-17,2,2025,15,KOKV,0.0,0.0,0.0,0.0,8
2025-02-14,14,2025-02-14 16:55,16:55,EST,NW  7,10.0,Fair,CLR,37.4,5.0,26.0,33.0,,30.52,0.0,0.0,0.0,0.0,2025-02-17,2,2025,16,KOKV,0.0,0.0,0.0,0.0,7
2025-02-14,14,2025-02-14 17:55,17:55,EST,Calm,10.0,Fair,CLR,33.8,3.2,27.0,,,30.53,0.0,0.0,0.0,0.0,2025-02-17,2,2025,17,KOKV,0.0,0.0,0.0,0.0,0
2025-02-14,14,2025-02-14 18:55,18:55,EST,N  3,10.0,Fair,CLR,32.0,3.2,29.0,,,30.53,0.0,0.0,0.0,0.0,2025-02-17,2,2025,18,KOKV,0.0,0.0,0.0,0.0,3
2025-02-14,14,2025-02-14 19:55,19:55,EST,Calm,10.0,Fair,CLR,28.4,12.2,51.0,,,30.55,0.0,0.0,0.0,0.0,2025-02-17,2,2025,19,KOKV,0.0,0.0,0.0,0.0,0
2025-02-14,14,2025-02-14 20:55,20:55,EST,NE  3,10.0,Fair,CLR,30.2,8.6,40.0,,,30.53,0.0,0.0,0.0,0.0,2025-02-17,2,2025,20,KOKV,0.0,0.0,0.0,0.0,3
2025-02-14,14,2025-02-14 21:55,21:55,EST,Calm,10.0,Fair,CLR,30.2,12.2,47.0,,,30.51,0.0,0.0,0.0,0.0,2025-02-17,2,2025,21,KOKV,0.0,0.0,0.0,0.0,0
2025-02-14,14,2025-02-14 22:55,22:55,EST,Calm,10.0,Fair,CLR,28.4,12.2,51.0,,,30.49,0.0,0.0,0.0,0.0,2025-02-17,2,2025,22,KOKV,0.0,0.0,0.0,0.0,0
2025-02-14,14,2025-02-14 23:55,23:55,EST,Calm,10.0,Fair,CLR,26.6,17.6,69.0,,,30.48,0.0,0.0,0.0,0.0,2025-02-17,2,2025,23,KOKV,0.0,0.0,0.0,0.0,0
2025-02-15,15,2025-02-15 00:55,00:55,EST,SE  5,10.0,Mostly Cloudy,BKN120,32.0,15.8,51.0,28.0,,30.44,0.0,0.0,0.0,0.0,2025-02-18,2,2025,0,KOKV,0.0,0.0,0.0,0.0,5
2025-02-15,15,2025-02-15 01:55,01:55,EST,SE  9,10.0,Overcast,OVC110,32.0,12.2,44.0,25.0,,30.42,0.0,0.0,0.0,0.0,2025-02-18,2,2025,1,KOKV,0.0,0.0,0.0,0.0,9
2025-02-15,15,2025-02-15 02:55,02:55,EST,SE  5,10.0,Overcast,OVC090,32.0,14.0,47.0,28.0,,30.4,0.0,0.0,0.0,0.0,2025-02-18,2,2025,2,KOKV,0.0,0.0,0.0,0.0,5
2025-02-15,15,2025-02-15 03:55,03:55,EST,SE  3,10.0,Overcast,OVC110,32.0,15.8,51.0,,,30.4,0.0,0.0,0.0,0.0,2025-02-18,2,2025,3,KOKV,0.0,0.0,0.0,0.0,3
2025-02-15,15,2025-02-15 04:55,04:55,EST,SE  6,10.0,Mostly Cloudy,BKN120,32.0,15.8,51.0,27.0,,30.38,0.0,0.0,0.0,0.0,2025-02-18,2,2025,4,KOKV,0.0,0.0,0.0,0.0,6
2025-02-15,15,2025-02-15 05:55,05:55,EST,SE  6,10.0,Overcast,OVC110,32.0,17.6,55.0,27.0,,30.36,0.0,0.0,0.0,0.0,2025-02-18,2,2025,5,KOKV,0.0,0.0,0.0,0.0,6
2025-02-15,15,2025-02-15 06:55,06:55,EST,SE  3,10.0,Overcast,OVC080,32.0,19.4,60.0,,,30.33,0.0,0.0,0.0,0.0,2025-02-18,2,2025,6,KOKV,0.0,0.0,0.0,0.0,3
2025-02-15,15,2025-02-15 07:55,07:55,EST,S  9,10.0,Overcast,OVC075,32.0,21.2,64.0,25.0,,30.33,0.0,0.0,0.0,0.0,2025-02-18,2,2025,7,KOKV,0.0,0.0,0.0,0.0,9
2025-02-15,15,2025-02-15 08:55,08:55,EST,S  7,10.0,Overcast,SCT060 OVC075,33.8,21.2,60.0,28.0,,30.32,0.0,0.0,0.0,0.0,2025-02-18,2,2025,8,KOKV,0.0,0.0,0.0,0.0,7
2025-02-15,15,2025-02-15 09:55,09:55,EST,S  5,10.0,Overcast,BKN050 OVC060,33.8,23.0,65.0,30.0,,30.31,0.0,0.0,0.0,0.0,2025-02-18,2,2025,9,KOKV,0.0,0.0,0.0,0.0,5
2025-02-15,15,2025-02-15 10:55,10:55,EST,SE  6,10.0,Overcast,BKN048 OVC055,35.6,23.0,60.0,31.0,,30.27,0.0,0.0,0.0,0.0,2025-02-18,2,2025,10,KOKV,0.0,0.0,0.0,0.0,6
2025-02-15,15,2025-02-15 11:55,11:55,EST,SE  5,10.0,Light Snow,SCT060 OVC090,35.6,26.6,70.0,32.0,,30.22,0.0,0.0,0.0,0.0,2025-02-18,2,2025,11,KOKV,0.0,0.0,0.0,0.0,5
2025-02-15,15,2025-02-15 12:55,12:55,EST,S  12  G 17,5.0,Light Rain,SCT070 OVC080,33.8,30.2,87.0,26.0,,30.15,0.0,0.0,0.0,0.0,2025-02-18,2,2025,12,KOKV,0.0,0.0,0.0,0.0,12
2025-02-15,15,2025-02-15 13:55,13:55,EST,S  12,4.0,Light Rain,SCT031 BKN047 OVC055,33.8,32.0,93.0,26.0,,30.12,0.0,0.0,0.0,0.0,2025-02-18,2,2025,13,KOKV,0.0,0.0,0.0,0.0,12
2025-02-15,15,2025-02-15 14:55,14:55,EST,S  7,2.5,Rain,SCT024 BKN033 OVC075,33.8,32.0,93.0,28.0,,30.09,0.0,0.0,0.0,0.0,2025-02-18,2,2025,14,KOKV,0.0,0.0,0.0,0.0,7
2025-02-15,15,2025-02-15 15:55,15:55,EST,SE  8,4.0,Light Rain,SCT007 OVC011,33.8,32.0,93.0,28.0,,30.04,0.0,0.0,0.0,0.0,2025-02-18,2,2025,15,KOKV,0.0,0.0,0.0,0.0,8
2025-02-15,15,2025-02-15 16:55,16:55,EST,S  9,4.0,Light Rain,SCT005 BKN013 OVC020,33.8,32.0,93.0,27.0,,29.99,0.0,0.0,0.0,0.0,2025-02-18,2,2025,16,KOKV,0.0,0.0,0.0,0.0,9
2025-02-15,15,2025-02-15 17:55,17:55,EST,S  5,10.0,Overcast,OVC014,33.8,32.0,93.0,30.0,,29.97,0.0,0.0,0.0,0.0,2025-02-18,2,2025,17,KOKV,0.0,0.0,0.0,0.0,5
2025-02-15,15,2025-02-15 18:55,18:55,EST,SE  5,10.0,Overcast,OVC012,33.8,32.0,93.0,30.0,,29.96,0.0,0.0,0.0,0.0,2025-02-18,2,2025,18,KOKV,0.0,0.0,0.0,0.0,5
2025-02-15,15,2025-02-15 19:55,19:55,EST,SE  3,10.0,Overcast,SCT012 BKN022 OVC050,33.8,33.8,100.0,,,29.92,0.0,0.0,0.0,0.0,2025-02-18,2,2025,19,KOKV,0.0,0.0,0.0,0.0,3
2025-02-15,15,2025-02-15 20:55,20:55,EST,Calm,10.0,Overcast,OVC014,33.8,33.8,100.0,,,29.9,0.0,0.0,0.0,0.0,2025-02-18,2,2025,20,KOKV,0.0,0.0,0.0,0.0,0
2025-02-15,15,2025-02-15 21:55,21:55,EST,Calm,10.0,Light Rain,SCT009 SCT065 OVC100,33.8,33.8,100.0,,,29.87,0.0,0.0,0.0,0.0,2025-02-18,2,2025,21,KOKV,0.0,0.0,0.0,0.0,0
2025-02-15,15,2025-02-15 22:55,22:55,EST,Calm,5.0,Rain,BKN009 BKN024 OVC090,33.8,33.8,100.0,,,29.84,0.0,0.0,0.0,0.0,2025-02-18,2,2025,22,KOKV,0.0,0.0,0.0,0.0,0
2025-02-15,15,2025-02-15 23:55,23:55,EST,Calm,2.5,Fog/Mist,OVC002,33.8,33.8,100.0,,,29.8,0.0,0.0,0.0,0.0,2025-02-18,2,2025,23,KOKV,0.0,0.0,0.0,0.0,0
2025-02-16,16,2025-02-16 00:55,00:55,EST,Calm,2.5,Rain,OVC002,33.8,32.0,93.0,,,29.76,0.0,0.0,0.0,0.0,2025-02-19,2,2025,0,KOKV,0.0,0.0,0.0,0.0,0
2025-02-16,16,2025-02-16 01:55,01:55,EST,Calm,3.0,Fog/Mist,OVC002,33.8,32.0,93.0,,,29.69,0.0,0.0,0.0,0.0,2025-02-19,2,2025,1,KOKV,0.0,0.0,0.0,0.0,0
2025-02-16,16,2025-02-16 02:55,02:55,EST,Calm,0.75,Fog/Mist,OVC002,33.8,32.0,93.0,,,29.64,0.0,0.0,0.0,0.0,2025-02-19,2,2025,2,KOKV,0.0,0.0,0.0,0.0,0
2025-02-16,16,2025-02-16 03:55,03:55,EST,Calm,0.25,Fog,OVC002,32.0,32.0,100.0,,,29.57,0.0,0.0,0.0,0.0,2025-02-19,2,2025,3,KOKV,0.0,0.0,0.0,0.0,0
2025-02-16,16,2025-02-16 04:55,04:55,EST,Calm,0.75,Fog/Mist,OVC002,33.8,32.0,93.0,,,29.54,0.0,0.0,0.0,0.0,2025-02-19,2,2025,4,KOKV,0.0,0.0,0.0,0.0,0
2025-02-16,16,2025-02-16 05:55,05:55,EST,Calm,0.75,Fog/Mist,OVC002,33.8,32.0,93.0,,,29.49,0.0,0.0,0.0,0.0,2025-02-19,2,2025,5,KOKV,0.0,0.0,0.0,0.0,0
2025-02-16,16,2025-02-16 06:55,06:55,EST,NW  3,4.0,Fog/Mist,OVC002,33.8,33.8,100.0,,,29.44,0.0,0.0,0.0,0.0,2025-02-19,2,2025,6,KOKV,0.0,0.0,0.0,0.0,3
2025-02-16,16,2025-02-16 07:55,07:55,EST,Calm,1.0,Fog/Mist,OVC002,33.8,33.8,100.0,,,29.4,0.0,0.0,0.0,0.0,2025-02-19,2,2025,7,KOKV,0.0,0.0,0.0,0.0,0
2025-02-16,16,2025-02-16 08:55,08:55,EST,Calm,3.0,Light Rain,BKN004 BKN042 OVC090,35.6,35.6,100.0,,,29.37,0.0,0.0,0.0,0.0,2025-02-19,2,2025,8,KOKV,0.0,0.0,0.0,0.0,0
2025-02-16,16,2025-02-16 09:55,09:55,EST,Calm,2.5,Light Rain,SCT001 SCT019 OVC090,37.4,37.4,100.0,,,29.3,0.0,0.0,0.0,0.0,2025-02-19,2,2025,9,KOKV,0.0,0.0,0.0,0.0,0
2025-02-16,16,2025-02-16 10:55,10:55,EST,W  5,7.0,Partly Cloudy,SCT001 SCT006 SCT033,41.0,41.0,100.0,38.0,,29.2,0.0,0.0,0.0,0.0,2025-02-19,2,2025,10,KOKV,0.0,0.0,0.0,0.0,5
2025-02-16,16,2025-02-16 11:55,11:55,EST,SE  3,10.0,Partly Cloudy,SCT005,46.4,46.4,100.0,,,29.17,0.0,0.0,0.0,0.0,2025-02-19,2,2025,11,KOKV,0.0,0.0,0.0,0.0,3
2025-02-16,16,2025-02-16 12:55,12:55,EST,SW  8,10.0,Fair,CLR,53.6,51.8,94.0,,,29.11,0.0,0.0,0.0,0.0,2025-02-19,2,2025,12,KOKV,0.0,0.0,0.0,0.0,8
2025-02-16,16,2025-02-16 13:55,13:55,EST,SW  17  G 24,10.0,Mostly Cloudy,BKN065,60.8,50.0,68.0,,,29.08,0.0,0.0,0.0,0.0,2025-02-19,2,2025,13,KOKV,0.0,0.0,0.0,0.0,17
2025-02-16,16,2025-02-16 14:55,14:55,EST,Calm,0.0,,,53.6,46.4,77.0,,,0.0,0.0,0.0,0.0,0.0,2025-02-19,2,2025,14,KOKV,0.0,0.0,0.0,0.0,0
2025-02-16,16,2025-02-16 15:55,15:55,EST,W  25  G 36,10.0,Mostly Cloudy and Breezy,BKN049 BKN060,48.2,32.0,54.0,41.0,,29.32,0.0,0.0,0.0,0.0,2025-02-19,2,2025,15,KOKV,0.0,0.0,0.0,0.0,25
2025-02-16,16,2025-02-16 16:55,16:55,EST,W  23  G 37,10.0,Partly Cloudy and Breezy,SCT047,42.8,26.6,53.0,34.0,,29.4,0.0,0.0,0.0,0.0,2025-02-19,2,2025,16,KOKV,0.0,0.0,0.0,0.0,23
2025-02-16,16,2025-02-16 17:55,17:55,EST,W  25  G 36,10.0,Mostly Cloudy and Breezy,BKN047,37.4,24.8,60.0,27.0,,29.46,0.0,0.0,0.0,0.0,2025-02-19,2,2025,17,KOKV,0.0,0.0,0.0,0.0,25
2025-02-16,16,2025-02-16 18:55,18:55,EST,W  8,10.0,Overcast,OVC043,35.6,23.0,60.0,30.0,,29.54,0.0,0.0,0.0,0.0,2025-02-19,2,2025,18,KOKV,0.0,0.0,0.0,0.0,8
2025-02-16,16,2025-02-16 19:55,19:55,EST,W  14  G 22,10.0,Overcast,OVC047,33.8,21.2,60.0,25.0,,29.59,0.0,0.0,0.0,0.0,2025-02-19,2,2025,19,KOKV,0.0,0.0,0.0,0.0,14
2025-02-16,16,2025-02-16 20:55,20:55,EST,W  20  G 30,10.0,Mostly Cloudy,BKN047,33.8,19.4,56.0,23.0,,29.64,0.0,0.0,0.0,0.0,2025-02-19,2,2025,20,KOKV,0.0,0.0,0.0,0.0,20
2025-02-16,16,2025-02-16 21:55,21:55,EST,W  30  G 39,10.0,Partly Cloudy and Windy,SCT045,33.8,19.4,56.0,21.0,,29.65,0.0,0.0,0.0,0.0,2025-02-19,2,2025,21,KOKV,0.0,0.0,0.0,0.0,30
2025-02-16,16,2025-02-16 22:55,22:55,EST,NW  26  G 32,10.0,Overcast and Windy,OVC047,32.0,19.4,60.0,19.0,,29.69,0.0,0.0,0.0,0.0,2025-02-19,2,2025,22,KOKV,0.0,0.0,0.0,0.0,26
2025-02-16,16,2025-02-16 23:55,23:55,EST,W  21  G 33,10.0,Overcast and Breezy,BKN047 OVC055,32.0,19.4,60.0,21.0,,29.73,0.0,0.0,0.0,0.0,2025-02-19,2,2025,23,KOKV,0.0,0.0,0.0,0.0,21
2025-02-17,17,2025-02-17 00:35,00:35,EST,NW  22  G 35,4.0,Light Snow and Breezy,SCT021 BKN038 OVC050,30.2,23.0,75.0,18.0,,29.76,0.0,0.0,0.0,0.0,2025-02-20,2,2025,0,KOKV,0.0,0.0,0.0,0.0,22
2025-02-17,17,2025-02-17 01:55,01:55,EST,W  17  G 25,10.0,Light Snow,SCT041 BKN048 OVC060,30.2,23.0,75.0,19.0,,29.79,0.0,0.0,0.0,0.0,2025-02-20,2,2025,1,KOKV,0.0,0.0,0.0,0.0,17
2025-02-17,17,2025-02-17 02:55,02:55,EST,W  18  G 31,10.0,Partly Cloudy,SCT050 SCT065 SCT075,30.2,14.0,51.0,19.0,,29.83,0.0,0.0,0.0,0.0,2025-02-20,2,2025,2,KOKV,0.0,0.0,0.0,0.0,18
2025-02-17,17,2025-02-17 03:55,03:55,EST,NW  24  G 32,10.0,Overcast and Breezy,BKN048 OVC050,30.2,17.6,59.0,17.0,,29.86,0.0,0.0,0.0,0.0,2025-02-20,2,2025,3,KOKV,0.0,0.0,0.0,0.0,24
2025-02-17,17,2025-02-17 04:55,04:55,EST,W  22  G 35,10.0,Overcast and Breezy,OVC046,28.4,14.0,55.0,16.0,,29.9,0.0,0.0,0.0,0.0,2025-02-20,2,2025,4,KOKV,0.0,0.0,0.0,0.0,22
2025-02-17,17,2025-02-17 05:55,05:55,EST,W  18  G 39,10.0,Overcast,OVC048,28.4,12.2,51.0,17.0,,29.94,0.0,0.0,0.0,0.0,2025-02-20,2,2025,5,KOKV,0.0,0.0,0.0,0.0,18
2025-02-17,17,2025-02-17 06:55,06:55,EST,W  17  G 26,10.0,Mostly Cloudy,BKN050,28.4,12.2,51.0,17.0,,29.97,0.0,0.0,0.0,0.0,2025-02-20,2,2025,6,KOKV,0.0,0.0,0.0,0.0,17
2025-02-17,17,2025-02-17 07:55,07:55,EST,NW  21  G 30,10.0,Overcast and Breezy,OVC046,28.4,12.2,51.0,16.0,,29.97,0.0,0.0,0.0,0.0,2025-02-20,2,2025,7,KOKV,0.0,0.0,0.0,0.0,21
2025-02-17,17,2025-02-17 08:55,08:55,EST,W  20  G 31,10.0,Partly Cloudy,SCT047,30.2,14.0,51.0,19.0,,30.0,0.0,0.0,0.0,0.0,2025-02-20,2,2025,8,KOKV,0.0,0.0,0.0,0.0,20
2025-02-17,17,2025-02-17 09:55,09:55,EST,W  22  G 36,10.0,Partly Cloudy and Breezy,SCT046,30.2,12.2,47.0,18.0,,30.01,0.0,0.0,0.0,0.0,2025-02-20,2,2025,9,KOKV,0.0,0.0,0.0,0.0,22
2025-02-17,17,2025-02-17 10:55,10:55,EST,W  25  G 36,10.0,Fair and Breezy,CLR,32.0,10.4,40.0,19.0,,30.03,0.0,0.0,0.0,0.0,2025-02-20,2,2025,10,KOKV,0.0,0.0,0.0,0.0,25
2025-02-17,17,2025-02-17 11:55,11:55,EST,W  22  G 33,10.0,Fair and Breezy,CLR,32.0,12.2,44.0,20.0,,30.02,0.0,0.0,0.0,0.0,2025-02-20,2,2025,11,KOKV,0.0,0.0,0.0,0.0,22
2025-02-17,17,2025-02-17 12:55,12:55,EST,NW  23  G 33,10.0,Fair and Breezy,CLR,33.8,14.0,44.0,22.0,,30.01,0.0,0.0,0.0,0.0,2025-02-20,2,2025,12,KOKV,0.0,0.0,0.0,0.0,23
2025-02-17,17,2025-02-17 13:55,13:55,EST,NW  18  G 30,10.0,Fair,CLR,33.8,12.2,41.0,24.0,,30.02,0.0,0.0,0.0,0.0,2025-02-20,2,2025,13,KOKV,0.0,0.0,0.0,0.0,18
2025-02-17,17,2025-02-17 14:55,14:55,EST,NW  22  G 25,10.0,Fair and Breezy,CLR,33.8,14.0,44.0,23.0,,30.01,0.0,0.0,0.0,0.0,2025-02-20,2,2025,14,KOKV,0.0,0.0,0.0,0.0,22
2025-02-17,17,2025-02-17 15:55,15:55,EST,NW  15  G 21,10.0,Fair,CLR,33.8,12.2,41.0,25.0,,30.02,0.0,0.0,0.0,0.0,2025-02-20,2,2025,15,KOKV,0.0,0.0,0.0,0.0,15
2025-02-17,17,2025-02-17 16:55,16:55,EST,W  18  G 22,10.0,Fair,CLR,32.0,8.6,37.0,21.0,,30.04,0.0,0.0,0.0,0.0,2025-02-20,2,2025,16,KOKV,0.0,0.0,0.0,0.0,18
2025-02-17,17,2025-02-17 17:55,17:55,EST,NW  9,10.0,Fair,CLR,30.2,10.4,43.0,23.0,,30.06,0.0,0.0,0.0,0.0,2025-02-20,2,2025,17,KOKV,0.0,0.0,0.0,0.0,9
2025-02-17,17,2025-02-17 18:55,18:55,EST,W  9,10.0,Fair,CLR,30.2,8.6,40.0,23.0,,30.07,0.0,0.0,0.0,0.0,2025-02-20,2,2025,18,KOKV,0.0,0.0,0.0,0.0,9
2025-02-17,17,2025-02-17 19:55,19:55,EST,W  6,10.0,Fair,CLR,28.4,10.4,47.0,23.0,,30.08,0.0,0.0,0.0,0.0,2025-02-20,2,2025,19,KOKV,0.0,0.0,0.0,0.0,6
2025-02-17,17,2025-02-17 20:55,20:55,EST,W  12,10.0,Fair,CLR,28.4,8.6,43.0,19.0,,30.09,0.0,0.0,0.0,0.0,2025-02-20,2,2025,20,KOKV,0.0,0.0,0.0,0.0,12
2025-02-17,17,2025-02-17 21:55,21:55,EST,W  13,10.0,Fair,CLR,28.4,5.0,37.0,19.0,,30.11,0.0,0.0,0.0,0.0,2025-02-20,2,2025,21,KOKV,0.0,0.0,0.0,0.0,13
2025-02-17,17,2025-02-17 22:55,22:55,EST,W  12,10.0,Fair,CLR,28.4,6.8,40.0,19.0,,30.11,0.0,0.0,0.0,0.0,2025-02-20,2,2025,22,KOKV,0.0,0.0,0.0,0.0,12
2025-02-17,17,2025-02-17 23:55,23:55,EST,NW  3,10.0,Fair,CLR,26.6,6.8,43.0,,,30.12,0.0,0.0,0.0,0.0,2025-02-20,2,2025,23,KOKV,0.0,0.0,0.0,0.0,3
2025-02-18,18,2025-02-18 00:55,00:55,EST,Calm,10.0,Fair,CLR,26.6,6.8,43.0,,,30.14,0.0,0.0,0.0,0.0,2025-02-21,2,2025,0,KOKV,0.0,0.0,0.0,0.0,0
2025-02-18,18,2025-02-18 01:55,01:55,EST,NW  10,10.0,Fair,CLR,24.8,8.6,50.0,15.0,,30.14,0.0,0.0,0.0,0.0,2025-02-21,2,2025,1,KOKV,0.0,0.0,0.0,0.0,10
2025-02-18,18,2025-02-18 02:55,02:55,EST,NW  9,10.0,Fair,CLR,23.0,8.6,54.0,14.0,,30.15,0.0,0.0,0.0,0.0,2025-02-21,2,2025,2,KOKV,0.0,0.0,0.0,0.0,9
2025-02-18,18,2025-02-18 03:55,03:55,EST,NW  10,10.0,Fair,CLR,23.0,6.8,50.0,13.0,,30.17,0.0,0.0,0.0,0.0,2025-02-21,2,2025,3,KOKV,0.0,0.0,0.0,0.0,10
2025-02-18,18,2025-02-18 04:55,04:55,EST,NW  9,10.0,Fair,CLR,21.2,5.0,49.0,12.0,,30.19,0.0,0.0,0.0,0.0,2025-02-21,2,2025,4,KOKV,0.0,0.0,0.0,0.0,9
2025-02-18,18,2025-02-18 05:55,05:55,EST,NW  6,10.0,Fair,CLR,21.2,5.0,49.0,14.0,,30.2,0.0,0.0,0.0,0.0,2025-02-21,2,2025,5,KOKV,0.0,0.0,0.0,0.0,6
2025-02-18,18,2025-02-18 06:55,06:55,EST,NW  10,10.0,Fair,CLR,21.2,3.2,45.0,11.0,,30.22,0.0,0.0,0.0,0.0,2025-02-21,2,2025,6,KOKV,0.0,0.0,0.0,0.0,10
2025-02-18,18,2025-02-18 07:55,07:55,EST,NW  6,10.0,Fair,CLR,19.4,1.4,45.0,12.0,,30.25,0.0,0.0,0.0,0.0,2025-02-21,2,2025,7,KOKV,0.0,0.0,0.0,0.0,6
2025-02-18,18,2025-02-18 08:55,08:55,EST,NW  8,10.0,Fair,CLR,21.2,1.4,42.0,12.0,,30.27,0.0,0.0,0.0,0.0,2025-02-21,2,2025,8,KOKV,0.0,0.0,0.0,0.0,8
2025-02-18,18,2025-02-18 09:55,09:55,EST,NW  10,10.0,Fair,CLR,23.0,3.2,42.0,13.0,,30.28,0.0,0.0,0.0,0.0,2025-02-21,2,2025,9,KOKV,0.0,0.0,0.0,0.0,10
2025-02-18,18,2025-02-18 10:35,10:35,EST,NW  8  G 16,10.0,Fair,CLR,24.8,3.2,39.0,17.0,,30.28,0.0,0.0,0.0,0.0,2025-02-21,2,2025,10,KOKV,0.0,0.0,0.0,0.0,8
2025-02-18,18,2025-02-18 11:55,11:55,EST,NW  16  G 21,10.0,Fair,CLR,28.4,1.4,31.0,17.0,,30.27,0.0,0.0,0.0,0.0,2025-02-21,2,2025,11,KOKV,0.0,0.0,0.0,0.0,16
2025-02-18,18,2025-02-18 12:55,12:55,EST,NW  21  G 24,10.0,Fair and Breezy,CLR,30.2,-0.4,26.0,18.0,,30.25,0.0,0.0,0.0,0.0,2025-02-21,2,2025,12,KOKV,0.0,0.0,0.0,0.0,21
2025-02-18,18,2025-02-18 13:55,13:55,EST,NW  17  G 28,10.0,Fair,CLR,32.0,1.4,27.0,22.0,,30.22,0.0,0.0,0.0,0.0,2025-02-21,2,2025,13,KOKV,0.0,0.0,0.0,0.0,17
2025-02-18,18,2025-02-18 14:55,14:55,EST,NW  15  G 25,10.0,Fair,CLR,32.0,1.4,27.0,22.0,,30.22,0.0,0.0,0.0,0.0,2025-02-21,2,2025,14,KOKV,0.0,0.0,0.0,0.0,15
2025-02-18,18,2025-02-18 15:55,15:55,EST,NW  17,10.0,Fair,CLR,30.2,3.2,31.0,19.0,,30.24,0.0,0.0,0.0,0.0,2025-02-21,2,2025,15,KOKV,0.0,0.0,0.0,0.0,17
2025-02-18,18,2025-02-18 16:55,16:55,EST,NW  13,10.0,Fair,CLR,30.2,1.4,29.0,21.0,,30.25,0.0,0.0,0.0,0.0,2025-02-21,2,2025,16,KOKV,0.0,0.0,0.0,0.0,13
2025-02-18,18,2025-02-18 17:55,17:55,EST,NW  9,10.0,Fair,CLR,28.4,1.4,31.0,20.0,,30.26,0.0,0.0,0.0,0.0,2025-02-21,2,2025,17,KOKV,0.0,0.0,0.0,0.0,9
2025-02-18,18,2025-02-18 18:55,18:55,EST,NW  8,10.0,Fair,CLR,26.6,1.4,33.0,19.0,,30.29,0.0,0.0,0.0,0.0,2025-02-21,2,2025,18,KOKV,0.0,0.0,0.0,0.0,8
2025-02-18,18,2025-02-18 19:55,19:55,EST,N  6,10.0,Fair,CLR,23.0,1.4,39.0,17.0,,30.32,0.0,0.0,0.0,0.0,2025-02-21,2,2025,19,KOKV,0.0,0.0,0.0,0.0,6
2025-02-18,18,2025-02-18 20:55,20:55,EST,NW  12,10.0,Fair,CLR,21.2,3.2,45.0,10.0,,30.33,0.0,0.0,0.0,0.0,2025-02-21,2,2025,20,KOKV,0.0,0.0,0.0,0.0,12
2025-02-18,18,2025-02-18 21:55,21:55,EST,N  7,10.0,Fair,CLR,19.4,3.2,49.0,11.0,,30.36,0.0,0.0,0.0,0.0,2025-02-21,2,2025,21,KOKV,0.0,0.0,0.0,0.0,7
2025-02-18,18,2025-02-18 22:55,22:55,EST,N  8,10.0,Fair,CLR,19.4,1.4,45.0,10.0,,30.37,0.0,0.0,0.0,0.0,2025-02-21,2,2025,22,KOKV,0.0,0.0,0.0,0.0,8
2025-02-18,18,2025-02-18 23:55,23:55,EST,N  10,10.0,Fair,CLR,17.6,1.4,49.0,7.0,,30.37,0.0,0.0,0.0,0.0,2025-02-22,2,2025,23,KOKV,0.0,0.0,0.0,0.0,10
2025-02-19,19,2025-02-19 00:55,00:55,EST,NW  13,10.0,Fair,CLR,17.6,1.4,49.0,5.0,,30.38,0.0,0.0,0.0,0.0,2025-02-22,2,2025,0,KOKV,0.0,0.0,0.0,0.0,13
2025-02-19,19,2025-02-19 01:55,01:55,EST,NW  5,10.0,Fair,CLR,15.8,1.4,53.0,9.0,,30.39,0.0,0.0,0.0,0.0,2025-02-22,2,2025,1,KOKV,0.0,0.0,0.0,0.0,5
2025-02-19,19,2025-02-19 02:55,02:55,EST,N  6,10.0,Fair,CLR,15.8,1.4,53.0,8.0,,30.4,0.0,0.0,0.0,0.0,2025-02-22,2,2025,2,KOKV,0.0,0.0,0.0,0.0,6
2025-02-19,19,2025-02-19 03:55,03:55,EST,NW  6,10.0,Fair,CLR,15.8,1.4,53.0,8.0,,30.4,0.0,0.0,0.0,0.0,2025-02-22,2,2025,3,KOKV,0.0,0.0,0.0,0.0,6
2025-02-19,19,2025-02-19 04:55,04:55,EST,NW  8,10.0,Fair,CLR,15.8,1.4,53.0,6.0,,30.39,0.0,0.0,0.0,0.0,2025-02-22,2,2025,4,KOKV,0.0,0.0,0.0,0.0,8
2025-02-19,19,2025-02-19 05:55,05:55,EST,N  5,10.0,Overcast,OVC110,15.8,-0.4,48.0,9.0,,30.4,0.0,0.0,0.0,0.0,2025-02-22,2,2025,5,KOKV,0.0,0.0,0.0,0.0,5
2025-02-19,19,2025-02-19 06:55,06:55,EST,NW  8,10.0,Overcast,OVC090,15.8,1.4,53.0,6.0,,30.4,0.0,0.0,0.0,0.0,2025-02-22,2,2025,6,KOKV,0.0,0.0,0.0,0.0,8
2025-02-19,19,2025-02-19 07:55,07:55,EST,N  3,10.0,Overcast,BKN070 OVC080,15.8,1.4,53.0,,,30.4,0.0,0.0,0.0,0.0,2025-02-22,2,2025,7,KOKV,0.0,0.0,0.0,0.0,3
2025-02-19,19,2025-02-19 08:55,08:55,EST,NW  6,10.0,Overcast,OVC060,17.6,1.4,49.0,10.0,,30.41,0.0,0.0,0.0,0.0,2025-02-22,2,2025,8,KOKV,0.0,0.0,0.0,0.0,6
2025-02-19,19,2025-02-19 09:55,09:55,EST,Calm,10.0,Overcast,OVC060,17.6,1.4,49.0,,,30.42,0.0,0.0,0.0,0.0,2025-02-22,2,2025,9,KOKV,0.0,0.0,0.0,0.0,0
2025-02-19,19,2025-02-19 10:55,10:55,EST,NW  5,10.0,Overcast,SCT039 OVC045,17.6,3.2,53.0,11.0,,30.41,0.0,0.0,0.0,0.0,2025-02-22,2,2025,10,KOKV,0.0,0.0,0.0,0.0,5
2025-02-19,19,2025-02-19 11:55,11:55,EST,NW  8,7.0,Overcast,SCT035 OVC043,17.6,5.0,58.0,8.0,,30.38,0.0,0.0,0.0,0.0,2025-02-22,2,2025,11,KOKV,0.0,0.0,0.0,0.0,8
2025-02-19,19,2025-02-19 12:55,12:55,EST,NW  6,10.0,Overcast,SCT036 SCT045 OVC075,21.2,6.8,54.0,14.0,,30.33,0.0,0.0,0.0,0.0,2025-02-22,2,2025,12,KOKV,0.0,0.0,0.0,0.0,6
2025-02-19,19,2025-02-19 13:55,13:55,EST,SW  3,10.0,Overcast,OVC095,21.2,6.8,54.0,,,30.28,0.0,0.0,0.0,0.0,2025-02-22,2,2025,13,KOKV,0.0,0.0,0.0,0.0,3
2025-02-19,19,2025-02-19 14:55,14:55,EST,W  3,10.0,Overcast,OVC050,23.0,8.6,54.0,,,30.25,0.0,0.0,0.0,0.0,2025-02-22,2,2025,14,KOKV,0.0,0.0,0.0,0.0,3
2025-02-19,19,2025-02-19 15:55,15:55,EST,Calm,10.0,Overcast,SCT045 BKN055 OVC120,24.8,8.6,50.0,,,30.23,0.0,0.0,0.0,0.0,2025-02-22,2,2025,15,KOKV,0.0,0.0,0.0,0.0,0
2025-02-19,19,2025-02-19 16:55,16:55,EST,N  5,10.0,Overcast,OVC110,24.8,6.8,46.0,20.0,,30.21,0.0,0.0,0.0,0.0,2025-02-22,2,2025,16,KOKV,0.0,0.0,0.0,0.0,5
2025-02-19,19,2025-02-19 17:55,17:55,EST,NW  5,10.0,Fair,CLR,23.0,6.8,50.0,18.0,,30.21,0.0,0.0,0.0,0.0,2025-02-22,2,2025,17,KOKV,0.0,0.0,0.0,0.0,5
2025-02-19,19,2025-02-19 18:55,18:55,EST,Calm,10.0,Fair,CLR,21.2,6.8,54.0,,,30.23,0.0,0.0,0.0,0.0,2025-02-22,2,2025,18,KOKV,0.0,0.0,0.0,0.0,0
2025-02-19,19,2025-02-19 19:55,19:55,EST,Calm,10.0,Fair,CLR,19.4,8.6,63.0,,,30.22,0.0,0.0,0.0,0.0,2025-02-22,2,2025,19,KOKV,0.0,0.0,0.0,0.0,0
2025-02-19,19,2025-02-19 20:55,20:55,EST,Calm,10.0,Overcast,OVC050,19.4,8.6,63.0,,,30.21,0.0,0.0,0.0,0.0,2025-02-22,2,2025,20,KOKV,0.0,0.0,0.0,0.0,0
2025-02-19,19,2025-02-19 21:55,21:55,EST,Calm,10.0,Mostly Cloudy,BKN050,19.4,8.6,63.0,,,30.2,0.0,0.0,0.0,0.0,2025-02-22,2,2025,21,KOKV,0.0,0.0,0.0,0.0,0
2025-02-19,19,2025-02-19 22:55,22:55,EST,Calm,10.0,Mostly Cloudy,BKN048,21.2,6.8,54.0,,,30.18,0.0,0.0,0.0,0.0,2025-02-22,2,2025,22,KOKV,0.0,0.0,0.0,0.0,0
2025-02-19,19,2025-02-19 23:55,23:55,EST,NW  6,10.0,Overcast,OVC050,19.4,6.8,58.0,12.0,,30.17,0.0,0.0,0.0,0.0,2025-02-22,2,2025,23,KOKV,0.0,0.0,0.0,0.0,6
2025-02-20,20,2025-02-20 00:55,00:55,EST,NW  5,10.0,Overcast,OVC050,19.4,5.0,53.0,14.0,,30.15,0.0,0.0,0.0,0.0,2025-02-23,2,2025,0,KOKV,0.0,0.0,0.0,0.0,5
2025-02-20,20,2025-02-20 01:55,01:55,EST,NW  3,10.0,Overcast,OVC050,19.4,6.8,58.0,,,30.13,0.0,0.0,0.0,0.0,2025-02-23,2,2025,1,KOKV,0.0,0.0,0.0,0.0,3
2025-02-20,20,2025-02-20 02:55,02:55,EST,NW  7,10.0,Overcast,OVC048,19.4,6.8,58.0,11.0,,30.12,0.0,0.0,0.0,0.0,2025-02-23,2,2025,2,KOKV,0.0,0.0,0.0,0.0,7
2025-02-20,20,2025-02-20 03:55,03:55,EST,NW  8,10.0,Overcast,OVC046,19.4,6.8,58.0,10.0,,30.1,0.0,0.0,0.0,0.0,2025-02-23,2,2025,3,KOKV,0.0,0.0,0.0,0.0,8
2025-02-20,20,2025-02-20 04:55,04:55,EST,NW  5,10.0,Overcast,OVC046,19.4,5.0,53.0,14.0,,30.09,0.0,0.0,0.0,0.0,2025-02-23,2,2025,4,KOKV,0.0,0.0,0.0,0.0,5
2025-02-20,20,2025-02-20 05:55,05:55,EST,NW  8,10.0,Overcast,OVC050,19.4,5.0,53.0,10.0,,30.09,0.0,0.0,0.0,0.0,2025-02-23,2,2025,5,KOKV,0.0,0.0,0.0,0.0,8
2025-02-20,20,2025-02-20 06:55,06:55,EST,NW  8,10.0,Overcast,OVC050,17.6,6.8,62.0,8.0,,30.1,0.0,0.0,0.0,0.0,2025-02-23,2,2025,6,KOKV,0.0,0.0,0.0,0.0,8
2025-02-20,20,2025-02-20 07:55,07:55,EST,NW  8,7.0,Light Snow,OVC060,17.6,8.6,68.0,8.0,,30.1,0.0,0.0,0.0,0.0,2025-02-23,2,2025,7,KOKV,0.0,0.0,0.0,0.0,8
2025-02-20,20,2025-02-20 08:55,08:55,EST,NW  9,7.0,Light Snow,SCT030 BKN039 OVC070,17.6,8.6,68.0,7.0,,30.12,0.0,0.0,0.0,0.0,2025-02-23,2,2025,8,KOKV,0.0,0.0,0.0,0.0,9
2025-02-20,20,2025-02-20 09:55,09:55,EST,NW  12,7.0,Overcast,BKN023 OVC032,19.4,12.2,73.0,8.0,,30.11,0.0,0.0,0.0,0.0,2025-02-23,2,2025,9,KOKV,0.0,0.0,0.0,0.0,12
2025-02-20,20,2025-02-20 10:55,10:55,EST,NW  13,3.0,Light Snow,BKN017 OVC025,21.2,12.2,68.0,10.0,,30.1,0.0,0.0,0.0,0.0,2025-02-23,2,2025,10,KOKV,0.0,0.0,0.0,0.0,13
2025-02-20,20,2025-02-20 11:35,11:35,EST,NW  20  G 29,10.0,Overcast,SCT028 BKN033 OVC060,23.0,8.6,54.0,9.0,,30.1,0.0,0.0,0.0,0.0,2025-02-23,2,2025,11,KOKV,0.0,0.0,0.0,0.0,20
2025-02-20,20,2025-02-20 12:55,12:55,EST,NW  17,10.0,Overcast,BKN036 OVC044,23.0,10.4,58.0,10.0,,30.06,0.0,0.0,0.0,0.0,2025-02-23,2,2025,12,KOKV,0.0,0.0,0.0,0.0,17
2025-02-20,20,2025-02-20 13:55,13:55,EST,NW  21  G 25,10.0,Overcast and Breezy,OVC042,24.8,8.6,50.0,11.0,,30.05,0.0,0.0,0.0,0.0,2025-02-23,2,2025,13,KOKV,0.0,0.0,0.0,0.0,21
2025-02-20,20,2025-02-20 14:55,14:55,EST,NW  22  G 30,10.0,Overcast and Breezy,OVC046,26.6,8.6,46.0,13.0,,30.06,0.0,0.0,0.0,0.0,2025-02-23,2,2025,14,KOKV,0.0,0.0,0.0,0.0,22
2025-02-20,20,2025-02-20 15:55,15:55,EST,NW  25  G 37,10.0,Overcast and Breezy,OVC046,24.8,5.0,42.0,10.0,,30.07,0.0,0.0,0.0,0.0,2025-02-23,2,2025,15,KOKV,0.0,0.0,0.0,0.0,25
2025-02-20,20,2025-02-20 16:55,16:55,EST,W  21  G 26,10.0,Overcast and Breezy,BKN048 OVC055,23.0,5.0,46.0,9.0,,30.1,0.0,0.0,0.0,0.0,2025-02-23,2,2025,16,KOKV,0.0,0.0,0.0,0.0,21
2025-02-20,20,2025-02-20 17:55,17:55,EST,W  25  G 35,10.0,Overcast and Breezy,OVC050,23.0,5.0,46.0,8.0,,30.1,0.0,0.0,0.0,0.0,2025-02-23,2,2025,17,KOKV,0.0,0.0,0.0,0.0,25
2025-02-20,20,2025-02-20 18:55,18:55,EST,W  14  G 28,10.0,Partly Cloudy,SCT048,23.0,5.0,46.0,11.0,,30.13,0.0,0.0,0.0,0.0,2025-02-23,2,2025,18,KOKV,0.0,0.0,0.0,0.0,14
2025-02-20,20,2025-02-20 19:55,19:55,EST,NW  22  G 33,10.0,Mostly Cloudy and Breezy,BKN046,23.0,5.0,46.0,9.0,,30.15,0.0,0.0,0.0,0.0,2025-02-23,2,2025,19,KOKV,0.0,0.0,0.0,0.0,22
2025-02-20,20,2025-02-20 20:55,20:55,EST,NW  22  G 31,10.0,Mostly Cloudy and Breezy,BKN044,21.2,6.8,54.0,6.0,,30.16,0.0,0.0,0.0,0.0,2025-02-23,2,2025,20,KOKV,0.0,0.0,0.0,0.0,22
2025-02-20,20,2025-02-20 21:55,21:55,EST,NW  14  G 35,10.0,Overcast,OVC044,23.0,6.8,50.0,11.0,,30.18,0.0,0.0,0.0,0.0,2025-02-23,2,2025,21,KOKV,0.0,0.0,0.0,0.0,14
2025-02-20,20,2025-02-20 22:55,22:55,EST,NW  16  G 28,10.0,Mostly Cloudy,BKN040,21.2,8.6,58.0,8.0,,30.2,0.0,0.0,0.0,0.0,2025-02-23,2,2025,22,KOKV,0.0,0.0,0.0,0.0,16
2025-02-20,20,2025-02-20 23:55,23:55,EST,NW  21  G 32,10.0,Overcast and Breezy,SCT033 OVC040,21.2,8.6,58.0,7.0,,30.2,0.0,0.0,0.0,0.0,2025-02-23,2,2025,23,KOKV,0.0,0.0,0.0,0.0,21
2025-02-21,21,2025-02-21 00:55,00:55,EST,W  29  G 38,10.0,Mostly Cloudy and Windy,BKN035 BKN060,21.2,8.6,58.0,4.0,,30.2,0.0,0.0,0.0,0.0,2025-02-24,2,2025,0,KOKV,0.0,0.0,0.0,0.0,29
2025-02-21,21,2025-02-21 01:55,01:55,EST,NW  16  G 26,10.0,Overcast,OVC037,23.0,8.6,54.0,11.0,,30.24,0.0,0.0,0.0,0.0,2025-02-24,2,2025,1,KOKV,0.0,0.0,0.0,0.0,16
2025-02-21,21,2025-02-21 02:55,02:55,EST,W  23  G 26,10.0,Overcast and Breezy,OVC037,23.0,8.6,54.0,8.0,,30.25,0.0,0.0,0.0,0.0,2025-02-24,2,2025,2,KOKV,0.0,0.0,0.0,0.0,23
2025-02-21,21,2025-02-21 03:55,03:55,EST,NW  16  G 22,10.0,Overcast,OVC037,23.0,10.4,58.0,11.0,,30.28,0.0,0.0,0.0,0.0,2025-02-24,2,2025,3,KOKV,0.0,0.0,0.0,0.0,16
2025-02-21,21,2025-02-21 04:55,04:55,EST,NW  13  G 18,10.0,Mostly Cloudy,BKN035,21.2,10.4,63.0,10.0,,30.29,0.0,0.0,0.0,0.0,2025-02-24,2,2025,4,KOKV,0.0,0.0,0.0,0.0,13
2025-02-21,21,2025-02-21 05:55,05:55,EST,NW  9  G 23,10.0,Overcast,OVC035,23.0,10.4,58.0,14.0,,30.31,0.0,0.0,0.0,0.0,2025-02-24,2,2025,5,KOKV,0.0,0.0,0.0,0.0,9
2025-02-21,21,2025-02-21 06:55,06:55,EST,NW  18  G 24,10.0,Overcast,OVC037,23.0,10.4,58.0,10.0,,30.33,0.0,0.0,0.0,0.0,2025-02-24,2,2025,6,KOKV,0.0,0.0,0.0,0.0,18
2025-02-21,21,2025-02-21 07:55,07:55,EST,NW  18  G 29,10.0,Overcast,OVC035,24.8,10.4,54.0,12.0,,30.35,0.0,0.0,0.0,0.0,2025-02-24,2,2025,7,KOKV,0.0,0.0,0.0,0.0,18
2025-02-21,21,2025-02-21 08:55,08:55,EST,W  22  G 36,10.0,Overcast and Breezy,OVC029,24.8,10.4,54.0,11.0,,30.35,0.0,0.0,0.0,0.0,2025-02-24,2,2025,8,KOKV,0.0,0.0,0.0,0.0,22
2025-02-21,21,2025-02-21 09:55,09:55,EST,W  15,10.0,Overcast,OVC038,26.6,10.4,50.0,16.0,,30.39,0.0,0.0,0.0,0.0,2025-02-24,2,2025,9,KOKV,0.0,0.0,0.0,0.0,15
2025-02-21,21,2025-02-21 10:55,10:55,EST,NW  21  G 31,10.0,Fair and Breezy,CLR,28.4,8.6,43.0,16.0,,30.39,0.0,0.0,0.0,0.0,2025-02-24,2,2025,10,KOKV,0.0,0.0,0.0,0.0,21
2025-02-21,21,2025-02-21 11:55,11:55,EST,W  23  G 29,10.0,Fair and Breezy,CLR,32.0,10.4,40.0,20.0,,30.38,0.0,0.0,0.0,0.0,2025-02-24,2,2025,11,KOKV,0.0,0.0,0.0,0.0,23
2025-02-21,21,2025-02-21 12:55,12:55,EST,NW  18  G 35,10.0,Fair,CLR,32.0,10.4,40.0,21.0,,30.37,0.0,0.0,0.0,0.0,2025-02-24,2,2025,12,KOKV,0.0,0.0,0.0,0.0,18
2025-02-21,21,2025-02-21 13:55,13:55,EST,NW  18  G 29,10.0,Fair,CLR,32.0,10.4,40.0,21.0,,30.36,0.0,0.0,0.0,0.0,2025-02-24,2,2025,13,KOKV,0.0,0.0,0.0,0.0,18
2025-02-21,21,2025-02-21 14:55,14:55,EST,NW  22  G 29,10.0,Fair and Breezy,CLR,32.0,10.4,40.0,20.0,,30.36,0.0,0.0,0.0,0.0,2025-02-24,2,2025,14,KOKV,0.0,0.0,0.0,0.0,22
2025-02-21,21,2025-02-21 15:55,15:55,EST,NW  15  G 25,10.0,Fair,CLR,32.0,10.4,40.0,22.0,,30.38,0.0,0.0,0.0,0.0,2025-02-24,2,2025,15,KOKV,0.0,0.0,0.0,0.0,15
2025-02-21,21,2025-02-21 16:55,16:55,EST,NW  16  G 22,10.0,Partly Cloudy,SCT048,32.0,12.2,44.0,22.0,,30.39,0.0,0.0,0.0,0.0,2025-02-24,2,2025,16,KOKV,0.0,0.0,0.0,0.0,16
2025-02-21,21,2025-02-21 17:55,17:55,EST,NW  14  G 23,10.0,Fair,CLR,28.4,12.2,51.0,18.0,,30.4,0.0,0.0,0.0,0.0,2025-02-24,2,2025,17,KOKV,0.0,0.0,0.0,0.0,14
2025-02-21,21,2025-02-21 18:55,18:55,EST,W  14,10.0,Fair,CLR,26.6,12.2,54.0,16.0,,30.42,0.0,0.0,0.0,0.0,2025-02-24,2,2025,18,KOKV,0.0,0.0,0.0,0.0,14
2025-02-21,21,2025-02-21 19:55,19:55,EST,W  13,10.0,Partly Cloudy,SCT039,26.6,12.2,54.0,16.0,,30.43,0.0,0.0,0.0,0.0,2025-02-24,2,2025,19,KOKV,0.0,0.0,0.0,0.0,13
2025-02-21,21,2025-02-21 20:55,20:55,EST,W  9  G 22,10.0,Fair,CLR,26.6,12.2,54.0,18.0,,30.44,0.0,0.0,0.0,0.0,2025-02-24,2,2025,20,KOKV,0.0,0.0,0.0,0.0,9
2025-02-21,21,2025-02-21 21:55,21:55,EST,NW  13,10.0,Fair,CLR,24.8,12.2,59.0,14.0,,30.44,0.0,0.0,0.0,0.0,2025-02-24,2,2025,21,KOKV,0.0,0.0,0.0,0.0,13
2025-02-21,21,2025-02-21 22:55,22:55,EST,W  6,10.0,Fair,CLR,24.8,12.2,59.0,19.0,,30.44,0.0,0.0,0.0,0.0,2025-02-24,2,2025,22,KOKV,0.0,0.0,0.0,0.0,6
2025-02-21,21,2025-02-21 23:55,23:55,EST,NW  7,10.0,Fair,CLR,23.0,12.2,63.0,16.0,,30.45,0.0,0.0,0.0,0.0,2025-02-24,2,2025,23,KOKV,0.0,0.0,0.0,0.0,7
2025-02-22,22,2025-02-22 00:55,00:55,EST,W  7,10.0,Fair,CLR,23.0,12.2,63.0,16.0,,30.44,0.0,0.0,0.0,0.0,2025-02-25,2,2025,0,KOKV,0.0,0.0,0.0,0.0,7
2025-02-22,22,2025-02-22 01:55,01:55,EST,Calm,10.0,Fair,CLR,21.2,12.2,68.0,,,30.44,0.0,0.0,0.0,0.0,2025-02-25,2,2025,1,KOKV,0.0,0.0,0.0,0.0,0
2025-02-22,22,2025-02-22 02:55,02:55,EST,Calm,10.0,Fair,CLR,19.4,10.4,68.0,,,30.44,0.0,0.0,0.0,0.0,2025-02-25,2,2025,2,KOKV,0.0,0.0,0.0,0.0,0
2025-02-22,22,2025-02-22 03:55,03:55,EST,Calm,10.0,Fair,CLR,19.4,10.4,68.0,,,30.43,0.0,0.0,0.0,0.0,2025-02-25,2,2025,3,KOKV,0.0,0.0,0.0,0.0,0
2025-02-22,22,2025-02-22 04:55,04:55,EST,Calm,10.0,Fair,CLR,17.6,10.4,73.0,,,30.43,0.0,0.0,0.0,0.0,2025-02-25,2,2025,4,KOKV,0.0,0.0,0.0,0.0,0
2025-02-22,22,2025-02-22 05:55,05:55,EST,Calm,10.0,Fair,CLR,15.8,10.4,79.0,,,30.43,0.0,0.0,0.0,0.0,2025-02-25,2,2025,5,KOKV,0.0,0.0,0.0,0.0,0
2025-02-22,22,2025-02-22 06:55,06:55,EST,Calm,10.0,Fair,CLR,12.2,8.6,85.0,,,30.42,0.0,0.0,0.0,0.0,2025-02-25,2,2025,6,KOKV,0.0,0.0,0.0,0.0,0
2025-02-22,22,2025-02-22 07:55,07:55,EST,S  5,10.0,Fair,CLR,21.2,12.2,68.0,16.0,,30.42,0.0,0.0,0.0,0.0,2025-02-25,2,2025,7,KOKV,0.0,0.0,0.0,0.0,5
2025-02-22,22,2025-02-22 08:55,08:55,EST,Calm,10.0,Fair,CLR,26.6,14.0,59.0,,,30.42,0.0,0.0,0.0,0.0,2025-02-25,2,2025,8,KOKV,0.0,0.0,0.0,0.0,0
2025-02-22,22,2025-02-22 09:55,09:55,EST,W  3,10.0,Fair,CLR,30.2,12.2,47.0,,,30.4,0.0,0.0,0.0,0.0,2025-02-25,2,2025,9,KOKV,0.0,0.0,0.0,0.0,3
2025-02-22,22,2025-02-22 10:55,10:55,EST,Calm,10.0,Fair,CLR,32.0,12.2,44.0,,,30.37,0.0,0.0,0.0,0.0,2025-02-25,2,2025,10,KOKV,0.0,0.0,0.0,0.0,0
2025-02-22,22,2025-02-22 11:55,11:55,EST,S  7,10.0,Fair,CLR,33.8,12.2,41.0,28.0,,30.34,0.0,0.0,0.0,0.0,2025-02-25,2,2025,11,KOKV,0.0,0.0,0.0,0.0,7
2025-02-22,22,2025-02-22 12:55,12:55,EST,S  6,10.0,Fair,CLR,35.6,12.2,38.0,31.0,,30.29,0.0,0.0,0.0,0.0,2025-02-25,2,2025,12,KOKV,0.0,0.0,0.0,0.0,6
2025-02-22,22,2025-02-22 13:55,13:55,EST,SE  3,10.0,Fair,CLR,41.0,14.0,33.0,,,30.25,0.0,0.0,0.0,0.0,2025-02-25,2,2025,13,KOKV,0.0,0.0,0.0,0.0,3
2025-02-22,22,2025-02-22 14:55,14:55,EST,Calm,10.0,Overcast,OVC120,39.2,12.2,33.0,,,30.23,0.0,0.0,0.0,0.0,2025-02-25,2,2025,14,KOKV,0.0,0.0,0.0,0.0,0
2025-02-22,22,2025-02-22 15:55,15:55,EST,S  3,10.0,Overcast,OVC110,41.0,12.2,31.0,,,30.21,0.0,0.0,0.0,0.0,2025-02-25,2,2025,15,KOKV,0.0,0.0,0.0,0.0,3
2025-02-22,22,2025-02-22 16:55,16:55,EST,S  5,10.0,Partly Cloudy,SCT120,39.2,14.0,36.0,36.0,,30.2,0.0,0.0,0.0,0.0,2025-02-25,2,2025,16,KOKV,0.0,0.0,0.0,0.0,5
2025-02-22,22,2025-02-22 17:55,17:55,EST,SE  3,10.0,Mostly Cloudy,BKN120,37.4,15.8,41.0,,,30.2,0.0,0.0,0.0,0.0,2025-02-25,2,2025,17,KOKV,0.0,0.0,0.0,0.0,3
2025-02-22,22,2025-02-22 18:55,18:55,EST,Calm,10.0,Partly Cloudy,SCT120,32.0,15.8,51.0,,,30.21,0.0,0.0,0.0,0.0,2025-02-25,2,2025,18,KOKV,0.0,0.0,0.0,0.0,0
2025-02-22,22,2025-02-22 19:55,19:55,EST,Calm,10.0,Fair,CLR,28.4,15.8,59.0,,,30.2,0.0,0.0,0.0,0.0,2025-02-25,2,2025,19,KOKV,0.0,0.0,0.0,0.0,0
2025-02-22,22,2025-02-22 20:55,20:55,EST,Calm,10.0,Fair,CLR,30.2,15.8,55.0,,,30.19,0.0,0.0,0.0,0.0,2025-02-25,2,2025,20,KOKV,0.0,0.0,0.0,0.0,0
2025-02-22,22,2025-02-22 21:55,21:55,EST,Calm,10.0,Fair,CLR,28.4,15.8,59.0,,,30.2,0.0,0.0,0.0,0.0,2025-02-25,2,2025,21,KOKV,0.0,0.0,0.0,0.0,0
2025-02-22,22,2025-02-22 22:55,22:55,EST,Calm,10.0,Overcast,OVC090,26.6,17.6,69.0,,,30.18,0.0,0.0,0.0,0.0,2025-02-25,2,2025,22,KOKV,0.0,0.0,0.0,0.0,0
2025-02-22,22,2025-02-22 23:55,23:55,EST,Calm,10.0,Fair,CLR,28.4,17.6,64.0,,,30.18,0.0,0.0,0.0,0.0,2025-02-25,2,2025,23,KOKV,0.0,0.0,0.0,0.0,0
2025-02-23,23,2025-02-23 00:55,00:55,EST,W  3,10.0,Fair,CLR,26.6,17.6,69.0,,,30.17,0.0,0.0,0.0,0.0,2025-02-26,2,2025,0,KOKV,0.0,0.0,0.0,0.0,3
2025-02-23,23,2025-02-23 01:55,01:55,EST,Calm,10.0,Fair,CLR,24.8,15.8,69.0,,,30.17,0.0,0.0,0.0,0.0,2025-02-26,2,2025,1,KOKV,0.0,0.0,0.0,0.0,0
2025-02-23,23,2025-02-23 02:55,02:55,EST,W  8,10.0,Fair,CLR,33.8,14.0,44.0,28.0,,30.16,0.0,0.0,0.0,0.0,2025-02-26,2,2025,2,KOKV,0.0,0.0,0.0,0.0,8
2025-02-23,23,2025-02-23 03:55,03:55,EST,W  9  G 16,10.0,Fair,CLR,33.8,15.8,48.0,27.0,,30.15,0.0,0.0,0.0,0.0,2025-02-26,2,2025,3,KOKV,0.0,0.0,0.0,0.0,9
2025-02-23,23,2025-02-23 04:55,04:55,EST,NW  5,10.0,Fair,CLR,30.2,15.8,55.0,26.0,,30.16,0.0,0.0,0.0,0.0,2025-02-26,2,2025,4,KOKV,0.0,0.0,0.0,0.0,5
2025-02-23,23,2025-02-23 05:55,05:55,EST,W  8,10.0,Fair,CLR,32.0,15.8,51.0,25.0,,30.17,0.0,0.0,0.0,0.0,2025-02-26,2,2025,5,KOKV,0.0,0.0,0.0,0.0,8
2025-02-23,23,2025-02-23 06:55,06:55,EST,W  13,10.0,Fair,CLR,32.0,15.8,51.0,23.0,,30.18,0.0,0.0,0.0,0.0,2025-02-26,2,2025,6,KOKV,0.0,0.0,0.0,0.0,13
2025-02-23,23,2025-02-23 07:55,07:55,EST,SE  5,10.0,Fair,CLR,32.0,15.8,51.0,28.0,,30.21,0.0,0.0,0.0,0.0,2025-02-26,2,2025,7,KOKV,0.0,0.0,0.0,0.0,5
2025-02-23,23,2025-02-23 08:55,08:55,EST,NW  14  G 24,10.0,Fair,CLR,33.8,19.4,56.0,25.0,,30.2,0.0,0.0,0.0,0.0,2025-02-26,2,2025,8,KOKV,0.0,0.0,0.0,0.0,14
2025-02-23,23,2025-02-23 09:55,09:55,EST,NW  14  G 18,10.0,Fair,CLR,37.4,19.4,48.0,30.0,,30.19,0.0,0.0,0.0,0.0,2025-02-26,2,2025,9,KOKV,0.0,0.0,0.0,0.0,14
2025-02-23,23,2025-02-23 10:55,10:55,EST,NW  10,10.0,Fair,CLR,39.2,17.6,42.0,33.0,,30.19,0.0,0.0,0.0,0.0,2025-02-26,2,2025,10,KOKV,0.0,0.0,0.0,0.0,10
2025-02-23,23,2025-02-23 11:55,11:55,EST,W  6,10.0,Fair,CLR,41.0,15.8,36.0,38.0,,30.16,0.0,0.0,0.0,0.0,2025-02-26,2,2025,11,KOKV,0.0,0.0,0.0,0.0,6
2025-02-23,23,2025-02-23 12:55,12:55,EST,Calm,10.0,Fair,CLR,42.8,14.0,31.0,,,30.12,0.0,0.0,0.0,0.0,2025-02-26,2,2025,12,KOKV,0.0,0.0,0.0,0.0,0
2025-02-23,23,2025-02-23 13:55,13:55,EST,W  3,10.0,Fair,CLR,46.4,14.0,27.0,,,30.08,0.0,0.0,0.0,0.0,2025-02-26,2,2025,13,KOKV,0.0,0.0,0.0,0.0,3
2025-02-23,23,2025-02-23 14:55,14:55,EST,W  5,10.0,Fair,CLR,46.4,14.0,27.0,45.0,,30.06,0.0,0.0,0.0,0.0,2025-02-26,2,2025,14,KOKV,0.0,0.0,0.0,0.0,5
2025-02-23,23,2025-02-23 15:55,15:55,EST,Calm,10.0,Fair,CLR,48.2,15.8,27.0,,,30.05,0.0,0.0,0.0,0.0,2025-02-26,2,2025,15,KOKV,0.0,0.0,0.0,0.0,0
2025-02-23,23,2025-02-23 16:55,16:55,EST,W  6,10.0,Fair,CLR,48.2,17.6,29.0,46.0,,30.04,0.0,0.0,0.0,0.0,2025-02-26,2,2025,16,KOKV,0.0,0.0,0.0,0.0,6
2025-02-23,23,2025-02-23 17:55,17:55,EST,Calm,10.0,Fair,CLR,44.6,19.4,37.0,,,30.05,0.0,0.0,0.0,0.0,2025-02-26,2,2025,17,KOKV,0.0,0.0,0.0,0.0,0
2025-02-23,23,2025-02-23 18:55,18:55,EST,Calm,10.0,Fair,CLR,37.4,19.4,48.0,,,30.07,0.0,0.0,0.0,0.0,2025-02-26,2,2025,18,KOKV,0.0,0.0,0.0,0.0,0
2025-02-23,23,2025-02-23 19:55,19:55,EST,Calm,10.0,Fair,CLR,33.8,19.4,56.0,,,30.09,0.0,0.0,0.0,0.0,2025-02-26,2,2025,19,KOKV,0.0,0.0,0.0,0.0,0
2025-02-23,23,2025-02-23 20:55,20:55,EST,Calm,10.0,Fair,CLR,39.2,19.4,45.0,,,30.1,0.0,0.0,0.0,0.0,2025-02-26,2,2025,20,KOKV,0.0,0.0,0.0,0.0,0
2025-02-23,23,2025-02-23 21:55,21:55,EST,Calm,10.0,Fair,CLR,37.4,19.4,48.0,,,30.11,0.0,0.0,0.0,0.0,2025-02-26,2,2025,21,KOKV,0.0,0.0,0.0,0.0,0
2025-02-23,23,2025-02-23 22:55,22:55,EST,Calm,10.0,Partly Cloudy,SCT120,32.0,19.4,60.0,,,30.1,0.0,0.0,0.0,0.0,2025-02-26,2,2025,22,KOKV,0.0,0.0,0.0,0.0,0
2025-02-23,23,2025-02-23 23:55,23:55,EST,Calm,10.0,Partly Cloudy,SCT120,33.8,19.4,56.0,,,30.08,0.0,0.0,0.0,0.0,2025-02-26,2,2025,23,KOKV,0.0,0.0,0.0,0.0,0
2025-02-24,24,2025-02-24 00:55,00:55,EST,Calm,10.0,Partly Cloudy,SCT100 SCT120,32.0,21.2,64.0,,,30.09,0.0,0.0,0.0,0.0,2025-02-27,2,2025,0,KOKV,0.0,0.0,0.0,0.0,0
2025-02-24,24,2025-02-24 01:55,01:55,EST,Calm,10.0,Partly Cloudy,SCT120,32.0,21.2,64.0,,,30.08,0.0,0.0,0.0,0.0,2025-02-27,2,2025,1,KOKV,0.0,0.0,0.0,0.0,0
2025-02-24,24,2025-02-24 02:55,02:55,EST,Calm,10.0,Mostly Cloudy,BKN120,32.0,19.4,60.0,,,30.06,0.0,0.0,0.0,0.0,2025-02-27,2,2025,2,KOKV,0.0,0.0,0.0,0.0,0
2025-02-24,24,2025-02-24 03:55,03:55,EST,Calm,10.0,Overcast,OVC110,32.0,21.2,64.0,,,30.06,0.0,0.0,0.0,0.0,2025-02-27,2,2025,3,KOKV,0.0,0.0,0.0,0.0,0
2025-02-24,24,2025-02-24 04:55,04:55,EST,Calm,10.0,Fair,CLR,32.0,19.4,60.0,,,30.07,0.0,0.0,0.0,0.0,2025-02-27,2,2025,4,KOKV,0.0,0.0,0.0,0.0,0
2025-02-24,24,2025-02-24 05:55,05:55,EST,Calm,10.0,Fair,CLR,23.0,19.4,86.0,,,30.07,0.0,0.0,0.0,0.0,2025-02-27,2,2025,5,KOKV,0.0,0.0,0.0,0.0,0
2025-02-24,24,2025-02-24 06:55,06:55,EST,Calm,10.0,Fair,CLR,26.6,19.4,74.0,,,30.09,0.0,0.0,0.0,0.0,2025-02-27,2,2025,6,KOKV,0.0,0.0,0.0,0.0,0
2025-02-24,24,2025-02-24 07:55,07:55,EST,Calm,10.0,Fair,CLR,28.4,23.0,80.0,,,30.1,0.0,0.0,0.0,0.0,2025-02-27,2,2025,7,KOKV,0.0,0.0,0.0,0.0,0
2025-02-24,24,2025-02-24 08:55,08:55,EST,SW  3,10.0,Fair,CLR,35.6,23.0,60.0,,,30.1,0.0,0.0,0.0,0.0,2025-02-27,2,2025,8,KOKV,0.0,0.0,0.0,0.0,3
2025-02-24,24,2025-02-24 09:55,09:55,EST,S  7,10.0,Fair,CLR,41.0,23.0,49.0,37.0,,30.09,0.0,0.0,0.0,0.0,2025-02-27,2,2025,9,KOKV,0.0,0.0,0.0,0.0,7
2025-02-24,24,2025-02-24 10:55,10:55,EST,S  7,10.0,Fair,CLR,44.6,23.0,43.0,41.0,,30.06,0.0,0.0,0.0,0.0,2025-02-27,2,2025,10,KOKV,0.0,0.0,0.0,0.0,7
2025-02-24,24,2025-02-24 11:55,11:55,EST,S  7,10.0,Fair,CLR,48.2,23.0,37.0,46.0,,30.02,0.0,0.0,0.0,0.0,2025-02-27,2,2025,11,KOKV,0.0,0.0,0.0,0.0,7
2025-02-24,24,2025-02-24 12:55,12:55,EST,S  8,10.0,Fair,CLR,51.8,23.0,32.0,,,29.98,0.0,0.0,0.0,0.0,2025-02-27,2,2025,12,KOKV,0.0,0.0,0.0,0.0,8
2025-02-24,24,2025-02-24 13:55,13:55,EST,SW  7,10.0,Fair,CLR,53.6,24.8,33.0,,,29.94,0.0,0.0,0.0,0.0,2025-02-27,2,2025,13,KOKV,0.0,0.0,0.0,0.0,7
2025-02-24,24,2025-02-24 14:55,14:55,EST,S  9,10.0,Fair,CLR,53.6,24.8,33.0,,,29.9,0.0,0.0,0.0,0.0,2025-02-27,2,2025,14,KOKV,0.0,0.0,0.0,0.0,9
2025-02-24,24,2025-02-24 15:55,15:55,EST,S  6,10.0,Fair,CLR,55.4,26.6,33.0,,,29.89,0.0,0.0,0.0,0.0,2025-02-27,2,2025,15,KOKV,0.0,0.0,0.0,0.0,6
2025-02-24,24,2025-02-24 16:55,16:55,EST,S  12  G 16,10.0,Fair,CLR,55.4,26.6,33.0,,,29.88,0.0,0.0,0.0,0.0,2025-02-27,2,2025,16,KOKV,0.0,0.0,0.0,0.0,12
2025-02-24,24,2025-02-24 17:55,17:55,EST,S  6,10.0,Fair,CLR,51.8,24.8,35.0,,,29.88,0.0,0.0,0.0,0.0,2025-02-27,2,2025,17,KOKV,0.0,0.0,0.0,0.0,6
2025-02-24,24,2025-02-24 18:55,18:55,EST,S  6,10.0,Fair,CLR,50.0,24.8,37.0,48.0,,29.88,0.0,0.0,0.0,0.0,2025-02-27,2,2025,18,KOKV,0.0,0.0,0.0,0.0,6
2025-02-24,24,2025-02-24 19:55,19:55,EST,S  6,10.0,Fair,CLR,46.4,24.8,43.0,44.0,,29.87,0.0,0.0,0.0,0.0,2025-02-27,2,2025,19,KOKV,0.0,0.0,0.0,0.0,6
2025-02-24,24,2025-02-24 20:55,20:55,EST,Calm,10.0,Fair,CLR,46.4,24.8,43.0,,,29.87,0.0,0.0,0.0,0.0,2025-02-27,2,2025,20,KOKV,0.0,0.0,0.0,0.0,0
2025-02-24,24,2025-02-24 21:55,21:55,EST,S  3,10.0,Fair,CLR,42.8,26.6,53.0,,,29.87,0.0,0.0,0.0,0.0,2025-02-27,2,2025,21,KOKV,0.0,0.0,0.0,0.0,3
2025-02-24,24,2025-02-24 22:55,22:55,EST,SW  6,10.0,Fair,CLR,46.4,26.6,46.0,44.0,,29.86,0.0,0.0,0.0,0.0,2025-02-27,2,2025,22,KOKV,0.0,0.0,0.0,0.0,6
2025-02-24,24,2025-02-24 23:55,23:55,EST,SW  7,10.0,Fair,CLR,46.4,26.6,46.0,43.0,,29.85,0.0,0.0,0.0,0.0,2025-02-27,2,2025,23,KOKV,0.0,0.0,0.0,0.0,7
2025-02-25,25,2025-02-25 00:55,00:55,EST,SW  7,10.0,Fair,CLR,46.4,26.6,46.0,43.0,,29.84,0.0,0.0,0.0,0.0,2025-02-28,2,2025,0,KOKV,0.0,0.0,0.0,0.0,7
2025-02-25,25,2025-02-25 01:35,01:35,EST,SW  6,10.0,Fair,CLR,46.4,26.6,46.0,44.0,,29.83,0.0,0.0,0.0,0.0,2025-02-28,2,2025,1,KOKV,0.0,0.0,0.0,0.0,6
2025-02-25,25,2025-02-25 02:55,02:55,EST,SW  3,10.0,Fair,CLR,44.6,26.6,49.0,,,29.82,0.0,0.0,0.0,0.0,2025-02-28,2,2025,2,KOKV,0.0,0.0,0.0,0.0,3
2025-02-25,25,2025-02-25 03:55,03:55,EST,SW  6,10.0,Fair,CLR,44.6,26.6,49.0,42.0,,29.8,0.0,0.0,0.0,0.0,2025-02-28,2,2025,3,KOKV,0.0,0.0,0.0,0.0,6
2025-02-25,25,2025-02-25 04:55,04:55,EST,SW  8,10.0,Fair,CLR,46.4,26.6,46.0,43.0,,29.81,0.0,0.0,0.0,0.0,2025-02-28,2,2025,4,KOKV,0.0,0.0,0.0,0.0,8
2025-02-25,25,2025-02-25 05:55,05:55,EST,SW  10,10.0,Fair,CLR,46.4,26.6,46.0,42.0,,29.81,0.0,0.0,0.0,0.0,2025-02-28,2,2025,5,KOKV,0.0,0.0,0.0,0.0,10
2025-02-25,25,2025-02-25 06:55,06:55,EST,S  6,10.0,Fair,CLR,44.6,26.6,49.0,42.0,,29.8,0.0,0.0,0.0,0.0,2025-02-28,2,2025,6,KOKV,0.0,0.0,0.0,0.0,6
2025-02-25,25,2025-02-25 07:55,07:55,EST,SW  3,10.0,Fair,CLR,44.6,28.4,53.0,,,29.79,0.0,0.0,0.0,0.0,2025-02-28,2,2025,7,KOKV,0.0,0.0,0.0,0.0,3
2025-02-25,25,2025-02-25 08:55,08:55,EST,SW  6,10.0,Fair,CLR,46.4,28.4,50.0,44.0,,29.8,0.0,0.0,0.0,0.0,2025-02-28,2,2025,8,KOKV,0.0,0.0,0.0,0.0,6
2025-02-25,25,2025-02-25 09:55,09:55,EST,SW  5,10.0,Mostly Cloudy,BKN120,46.4,28.4,50.0,45.0,,29.79,0.0,0.0,0.0,0.0,2025-02-28,2,2025,9,KOKV,0.0,0.0,0.0,0.0,5
2025-02-25,25,2025-02-25 10:55,10:55,EST,SW  5,10.0,Overcast,OVC100,46.4,28.4,50.0,45.0,,29.75,0.0,0.0,0.0,0.0,2025-02-28,2,2025,10,KOKV,0.0,0.0,0.0,0.0,5
2025-02-25,25,2025-02-25 11:55,11:55,EST,SW  6,10.0,Mostly Cloudy,BKN065,53.6,30.2,41.0,,,29.76,0.0,0.0,0.0,0.0,2025-02-28,2,2025,11,KOKV,0.0,0.0,0.0,0.0,6
2025-02-25,25,2025-02-25 12:55,12:55,EST,SW  6,10.0,Partly Cloudy,SCT065 SCT075,57.2,28.4,33.0,,,29.73,0.0,0.0,0.0,0.0,2025-02-28,2,2025,12,KOKV,0.0,0.0,0.0,0.0,6
2025-02-25,25,2025-02-25 13:55,13:55,EST,W  14  G 18,10.0,Mostly Cloudy,BKN075 BKN080,60.8,32.0,34.0,,,29.72,0.0,0.0,0.0,0.0,2025-02-28,2,2025,13,KOKV,0.0,0.0,0.0,0.0,14
2025-02-25,25,2025-02-25 14:55,14:55,EST,NW  13,10.0,Fair,CLR,60.8,32.0,34.0,,,29.72,0.0,0.0,0.0,0.0,2025-02-28,2,2025,14,KOKV,0.0,0.0,0.0,0.0,13
2025-02-25,25,2025-02-25 15:55,15:55,EST,W  15  G 22,10.0,Fair,CLR,60.8,32.0,34.0,,,29.73,0.0,0.0,0.0,0.0,2025-02-28,2,2025,15,KOKV,0.0,0.0,0.0,0.0,15
2025-02-25,25,2025-02-25 16:35,16:35,EST,NW  12,10.0,Overcast,OVC100,59.0,32.0,36.0,,,29.74,0.0,0.0,0.0,0.0,2025-02-28,2,2025,16,KOKV,0.0,0.0,0.0,0.0,12
2025-02-25,25,2025-02-25 17:55,17:55,EST,NW  8,10.0,Partly Cloudy,SCT080,55.4,32.0,41.0,,,29.77,0.0,0.0,0.0,0.0,2025-02-28,2,2025,17,KOKV,0.0,0.0,0.0,0.0,8
2025-02-25,25,2025-02-25 18:55,18:55,EST,NW  6,10.0,Fair,CLR,51.8,32.0,47.0,,,29.79,0.0,0.0,0.0,0.0,2025-02-28,2,2025,18,KOKV,0.0,0.0,0.0,0.0,6
2025-02-25,25,2025-02-25 19:55,19:55,EST,N  5,10.0,Fair,CLR,44.6,32.0,61.0,43.0,,29.81,0.0,0.0,0.0,0.0,2025-02-28,2,2025,19,KOKV,0.0,0.0,0.0,0.0,5
2025-02-25,25,2025-02-25 20:55,20:55,EST,W  3,10.0,Fair,CLR,37.4,30.2,75.0,,,29.82,0.0,0.0,0.0,0.0,2025-02-28,2,2025,20,KOKV,0.0,0.0,0.0,0.0,3
2025-02-25,25,2025-02-25 21:55,21:55,EST,Calm,10.0,Overcast,BKN070 OVC080,42.8,32.0,66.0,,,29.84,0.0,0.0,0.0,0.0,2025-02-28,2,2025,21,KOKV,0.0,0.0,0.0,0.0,0
2025-02-25,25,2025-02-25 22:55,22:55,EST,Calm,10.0,Fair,CLR,41.0,32.0,70.0,,,29.83,0.0,0.0,0.0,0.0,2025-02-28,2,2025,22,KOKV,0.0,0.0,0.0,0.0,0
2025-02-25,25,2025-02-25 23:55,23:55,EST,Calm,10.0,Fair,CLR,39.2,32.0,75.0,,,29.83,0.0,0.0,0.0,0.0,2025-02-28,2,2025,23,KOKV,0.0,0.0,0.0,0.0,0
2025-02-26,26,2025-02-26 00:55,00:55,EST,Calm,10.0,Fair,CLR,37.4,32.0,81.0,,,29.84,0.0,0.0,0.0,0.0,2025-03-01,2,2025,0,KOKV,0.0,0.0,0.0,0.0,0
2025-02-26,26,2025-02-26 01:55,01:55,EST,Calm,10.0,Overcast,OVC049,37.4,32.0,81.0,,,29.86,0.0,0.0,0.0,0.0,2025-03-01,2,2025,1,KOKV,0.0,0.0,0.0,0.0,0
2025-02-26,26,2025-02-26 02:55,02:55,EST,NE  5,10.0,Overcast,SCT039 OVC047,41.0,33.8,76.0,38.0,,29.86,0.0,0.0,0.0,0.0,2025-03-01,2,2025,2,KOKV,0.0,0.0,0.0,0.0,5
2025-02-26,26,2025-02-26 03:55,03:55,EST,Calm,10.0,Overcast,OVC046,41.0,33.8,76.0,,,29.86,0.0,0.0,0.0,0.0,2025-03-01,2,2025,3,KOKV,0.0,0.0,0.0,0.0,0
2025-02-26,26,2025-02-26 04:55,04:55,EST,Calm,10.0,Overcast,OVC046,37.4,33.8,87.0,,,29.87,0.0,0.0,0.0,0.0,2025-03-01,2,2025,4,KOKV,0.0,0.0,0.0,0.0,0
2025-02-26,26,2025-02-26 05:55,05:55,EST,Calm,10.0,Overcast,OVC042,37.4,32.0,81.0,,,29.9,0.0,0.0,0.0,0.0,2025-03-01,2,2025,5,KOKV,0.0,0.0,0.0,0.0,0
2025-02-26,26,2025-02-26 06:55,06:55,EST,Calm,10.0,Partly Cloudy,SCT042,32.0,30.2,93.0,,,29.92,0.0,0.0,0.0,0.0,2025-03-01,2,2025,6,KOKV,0.0,0.0,0.0,0.0,0
2025-02-26,26,2025-02-26 07:55,07:55,EST,SE  3,10.0,Fair,CLR,37.4,33.8,87.0,,,29.94,0.0,0.0,0.0,0.0,2025-03-01,2,2025,7,KOKV,0.0,0.0,0.0,0.0,3
2025-02-26,26,2025-02-26 08:55,08:55,EST,SW  3,10.0,Fair,CLR,44.6,33.8,66.0,,,29.96,0.0,0.0,0.0,0.0,2025-03-01,2,2025,8,KOKV,0.0,0.0,0.0,0.0,3
2025-02-26,26,2025-02-26 09:55,09:55,EST,SW  8,10.0,Fair,CLR,51.8,35.6,54.0,,,29.97,0.0,0.0,0.0,0.0,2025-03-01,2,2025,9,KOKV,0.0,0.0,0.0,0.0,8
2025-02-26,26,2025-02-26 10:55,10:55,EST,W  7,10.0,Fair,CLR,53.6,33.8,47.0,,,29.97,0.0,0.0,0.0,0.0,2025-03-01,2,2025,10,KOKV,0.0,0.0,0.0,0.0,7
2025-02-26,26,2025-02-26 11:55,11:55,EST,SW  8,10.0,Fair,CLR,57.2,33.8,41.0,,,29.95,0.0,0.0,0.0,0.0,2025-03-01,2,2025,11,KOKV,0.0,0.0,0.0,0.0,8
2025-02-26,26,2025-02-26 12:55,12:55,EST,SW  6,10.0,Fair,CLR,59.0,32.0,36.0,,,29.93,0.0,0.0,0.0,0.0,2025-03-01,2,2025,12,KOKV,0.0,0.0,0.0,0.0,6
2025-02-26,26,2025-02-26 13:35,13:35,EST,SW  10,10.0,Fair,CLR,60.8,32.0,34.0,,,29.92,0.0,0.0,0.0,0.0,2025-03-01,2,2025,13,KOKV,0.0,0.0,0.0,0.0,10
2025-02-26,26,2025-02-26 14:35,14:35,EST,Calm,0.0,,,62.6,28.4,27.0,,,0.0,0.0,0.0,0.0,0.0,2025-03-01,2,2025,14,KOKV,0.0,0.0,0.0,0.0,0
2025-02-26,26,2025-02-26 15:55,15:55,EST,Calm,10.0,Fair,CLR,62.6,28.4,27.0,,,29.89,0.0,0.0,0.0,0.0,2025-03-01,2,2025,15,KOKV,0.0,0.0,0.0,0.0,0
2025-02-26,26,2025-02-26 16:55,16:55,EST,SW  7,10.0,Partly Cloudy,SCT110,62.6,26.6,25.0,,,29.88,0.0,0.0,0.0,0.0,2025-03-01,2,2025,16,KOKV,0.0,0.0,0.0,0.0,7
2025-02-26,26,2025-02-26 17:55,17:55,EST,SE  8,10.0,Partly Cloudy,SCT095,59.0,28.4,31.0,,,29.87,0.0,0.0,0.0,0.0,2025-03-01,2,2025,17,KOKV,0.0,0.0,0.0,0.0,8
2025-02-26,26,2025-02-26 18:55,18:55,EST,SE  3,10.0,Partly Cloudy,SCT095 SCT120,53.6,32.0,44.0,,,29.88,0.0,0.0,0.0,0.0,2025-03-01,2,2025,18,KOKV,0.0,0.0,0.0,0.0,3
2025-02-26,26,2025-02-26 19:55,19:55,EST,SE  3,10.0,Fair,CLR,50.0,32.0,50.0,,,29.86,0.0,0.0,0.0,0.0,2025-03-01,2,2025,19,KOKV,0.0,0.0,0.0,0.0,3
2025-02-26,26,2025-02-26 20:55,20:55,EST,NE  3,10.0,Partly Cloudy,SCT120,44.6,32.0,61.0,,,29.87,0.0,0.0,0.0,0.0,2025-03-01,2,2025,20,KOKV,0.0,0.0,0.0,0.0,3
2025-02-26,26,2025-02-26 21:55,21:55,EST,N  6,10.0,Fair,CLR,50.0,32.0,50.0,48.0,,29.9,0.0,0.0,0.0,0.0,2025-03-01,2,2025,21,KOKV,0.0,0.0,0.0,0.0,6
2025-02-26,26,2025-02-26 22:55,22:55,EST,Calm,10.0,Fair,CLR,48.2,32.0,54.0,,,29.89,0.0,0.0,0.0,0.0,2025-03-01,2,2025,22,KOKV,0.0,0.0,0.0,0.0,0
2025-02-26,26,2025-02-26 23:55,23:55,EST,Calm,10.0,Fair,CLR,44.6,30.2,57.0,,,29.85,0.0,0.0,0.0,0.0,2025-03-01,2,2025,23,KOKV,0.0,0.0,0.0,0.0,0
2025-02-27,27,2025-02-27 00:55,00:55,EST,SW  3,10.0,Fair,CLR,42.8,32.0,66.0,,,29.82,0.0,0.0,0.0,0.0,2025-03-02,2,2025,0,KOKV,0.0,0.0,0.0,0.0,3
2025-02-27,27,2025-02-27 01:55,01:55,EST,SW  3,10.0,Fair,CLR,42.8,30.2,61.0,,,29.78,0.0,0.0,0.0,0.0,2025-03-02,2,2025,1,KOKV,0.0,0.0,0.0,0.0,3
2025-02-27,27,2025-02-27 02:55,02:55,EST,SW  6,10.0,Partly Cloudy,SCT120,44.6,30.2,57.0,42.0,,29.75,0.0,0.0,0.0,0.0,2025-03-02,2,2025,2,KOKV,0.0,0.0,0.0,0.0,6
2025-02-27,27,2025-02-27 03:55,03:55,EST,SW  7,10.0,Overcast,OVC110,46.4,32.0,57.0,43.0,,29.73,0.0,0.0,0.0,0.0,2025-03-02,2,2025,3,KOKV,0.0,0.0,0.0,0.0,7
2025-02-27,27,2025-02-27 04:55,04:55,EST,NE  3,10.0,Mostly Cloudy,SCT100 BKN120,46.4,32.0,57.0,,,29.75,0.0,0.0,0.0,0.0,2025-03-02,2,2025,4,KOKV,0.0,0.0,0.0,0.0,3
2025-02-27,27,2025-02-27 05:55,05:55,EST,Calm,10.0,Overcast,SCT070 OVC090,44.6,33.8,66.0,,,29.75,0.0,0.0,0.0,0.0,2025-03-02,2,2025,5,KOKV,0.0,0.0,0.0,0.0,0
2025-02-27,27,2025-02-27 06:55,06:55,EST,N  3,10.0,Overcast,OVC090,44.6,33.8,66.0,,,29.75,0.0,0.0,0.0,0.0,2025-03-02,2,2025,6,KOKV,0.0,0.0,0.0,0.0,3
2025-02-27,27,2025-02-27 07:55,07:55,EST,Calm,10.0,Light Rain,BKN080 OVC100,42.8,33.8,71.0,,,29.75,0.0,0.0,0.0,0.0,2025-03-02,2,2025,7,KOKV,0.0,0.0,0.0,0.0,0
2025-02-27,27,2025-02-27 08:55,08:55,EST,SE  3,10.0,Mostly Cloudy,SCT070 BKN120,44.6,37.4,76.0,,,29.73,0.0,0.0,0.0,0.0,2025-03-02,2,2025,8,KOKV,0.0,0.0,0.0,0.0,3
2025-02-27,27,2025-02-27 09:55,09:55,EST,Calm,10.0,Mostly Cloudy,BKN110,46.4,35.6,66.0,,,29.71,0.0,0.0,0.0,0.0,2025-03-02,2,2025,9,KOKV,0.0,0.0,0.0,0.0,0
2025-02-27,27,2025-02-27 10:55,10:55,EST,SW  3,10.0,Partly Cloudy,SCT110,51.8,37.4,58.0,,,29.68,0.0,0.0,0.0,0.0,2025-03-02,2,2025,10,KOKV,0.0,0.0,0.0,0.0,3
2025-02-27,27,2025-02-27 11:55,11:55,EST,N  3,10.0,Overcast,OVC060,53.6,37.4,54.0,,,29.68,0.0,0.0,0.0,0.0,2025-03-02,2,2025,11,KOKV,0.0,0.0,0.0,0.0,3
2025-02-27,27,2025-02-27 12:55,12:55,EST,W  18  G 29,10.0,Partly Cloudy,SCT070 SCT085,62.6,35.6,37.0,,,29.63,0.0,0.0,0.0,0.0,2025-03-02,2,2025,12,KOKV,0.0,0.0,0.0,0.0,18
2025-02-27,27,2025-02-27 13:55,13:55,EST,W  18  G 28,10.0,Mostly Cloudy,SCT070 BKN095,62.6,33.8,34.0,,,29.63,0.0,0.0,0.0,0.0,2025-03-02,2,2025,13,KOKV,0.0,0.0,0.0,0.0,18
2025-02-27,27,2025-02-27 14:55,14:55,EST,W  16  G 23,10.0,Mostly Cloudy,SCT070 BKN095,59.0,35.6,42.0,,,29.64,0.0,0.0,0.0,0.0,2025-03-02,2,2025,14,KOKV,0.0,0.0,0.0,0.0,16
2025-02-27,27,2025-02-27 15:55,15:55,EST,NW  21  G 25,10.0,Overcast and Breezy,SCT065 BKN075 OVC085,59.0,33.8,39.0,,,29.65,0.0,0.0,0.0,0.0,2025-03-02,2,2025,15,KOKV,0.0,0.0,0.0,0.0,21
2025-02-27,27,2025-02-27 16:55,16:55,EST,NW  21  G 30,10.0,Mostly Cloudy and Breezy,BKN095,53.6,33.8,47.0,,,29.67,0.0,0.0,0.0,0.0,2025-03-02,2,2025,16,KOKV,0.0,0.0,0.0,0.0,21
2025-02-27,27,2025-02-27 17:55,17:55,EST,NW  23  G 30,10.0,Fair and Breezy,CLR,50.0,33.8,54.0,44.0,,29.7,0.0,0.0,0.0,0.0,2025-03-02,2,2025,17,KOKV,0.0,0.0,0.0,0.0,23
2025-02-27,27,2025-02-27 18:55,18:55,EST,W  12,10.0,Fair,CLR,48.2,32.0,54.0,44.0,,29.73,0.0,0.0,0.0,0.0,2025-03-02,2,2025,18,KOKV,0.0,0.0,0.0,0.0,12
2025-02-27,27,2025-02-27 19:55,19:55,EST,W  10,10.0,Fair,CLR,46.4,30.2,53.0,42.0,,29.73,0.0,0.0,0.0,0.0,2025-03-02,2,2025,19,KOKV,0.0,0.0,0.0,0.0,10
2025-02-27,27,2025-02-27 20:55,20:55,EST,W  6,10.0,Fair,CLR,42.8,30.2,61.0,40.0,,29.73,0.0,0.0,0.0,0.0,2025-03-02,2,2025,20,KOKV,0.0,0.0,0.0,0.0,6
2025-02-27,27,2025-02-27 21:55,21:55,EST,Calm,10.0,Fair,CLR,44.6,30.2,57.0,,,29.73,0.0,0.0,0.0,0.0,2025-03-02,2,2025,21,KOKV,0.0,0.0,0.0,0.0,0
2025-02-27,27,2025-02-27 22:55,22:55,EST,SW  3,10.0,Mostly Cloudy,BKN065 BKN075,42.8,30.2,61.0,,,29.73,0.0,0.0,0.0,0.0,2025-03-02,2,2025,22,KOKV,0.0,0.0,0.0,0.0,3
2025-02-27,27,2025-02-27 23:55,23:55,EST,W  13  G 18,10.0,Partly Cloudy,SCT044 SCT070 SCT085,44.6,32.0,61.0,39.0,,29.72,0.0,0.0,0.0,0.0,2025-03-02,2,2025,23,KOKV,0.0,0.0,0.0,0.0,13
2025-02-28,28,2025-02-28 00:55,00:55,EST,W  16  G 21,10.0,Overcast,OVC044,44.6,32.0,61.0,38.0,,29.72,0.0,0.0,0.0,0.0,2025-03-03,2,2025,0,KOKV,0.0,0.0,0.0,0.0,16
2025-02-28,28,2025-02-28 01:55,01:55,EST,W  13  G 24,10.0,Partly Cloudy,SCT037 SCT048 SCT080,41.0,32.0,70.0,34.0,,29.73,0.0,0.0,0.0,0.0,2025-03-03,2,2025,1,KOKV,0.0,0.0,0.0,0.0,13
2025-02-28,28,2025-02-28 02:55,02:55,EST,W  15  G 18,10.0,Overcast,OVC039,42.8,30.2,61.0,36.0,,29.74,0.0,0.0,0.0,0.0,2025-03-03,2,2025,2,KOKV,0.0,0.0,0.0,0.0,15
2025-02-28,28,2025-02-28 03:55,03:55,EST,W  15  G 24,10.0,Partly Cloudy,SCT065,41.0,30.2,66.0,34.0,,29.76,0.0,0.0,0.0,0.0,2025-03-03,2,2025,3,KOKV,0.0,0.0,0.0,0.0,15
2025-02-28,28,2025-02-28 04:55,04:55,EST,NW  16  G 22,10.0,Overcast,SCT042 OVC049,41.0,28.4,61.0,33.0,,29.8,0.0,0.0,0.0,0.0,2025-03-03,2,2025,4,KOKV,0.0,0.0,0.0,0.0,16
2025-02-28,28,2025-02-28 05:55,05:55,EST,W  14  G 21,10.0,Overcast,OVC060,39.2,28.4,65.0,32.0,,29.82,0.0,0.0,0.0,0.0,2025-03-03,2,2025,5,KOKV,0.0,0.0,0.0,0.0,14
2025-02-28,28,2025-02-28 06:55,06:55,EST,W  13  G 23,10.0,Overcast,BKN044 OVC050,39.2,24.8,56.0,32.0,,29.84,0.0,0.0,0.0,0.0,2025-03-03,2,2025,6,KOKV,0.0,0.0,0.0,0.0,13
2025-02-28,28,2025-02-28 07:55,07:55,EST,W  14  G 24,10.0,Overcast,BKN047 OVC050,39.2,23.0,52.0,32.0,,29.86,0.0,0.0,0.0,0.0,2025-03-03,2,2025,7,KOKV,0.0,0.0,0.0,0.0,14
2025-02-28,28,2025-02-28 08:55,08:55,EST,NW  16  G 20,10.0,Overcast,OVC050,41.0,23.0,49.0,33.0,,29.88,0.0,0.0,0.0,0.0,2025-03-03,2,2025,8,KOKV,0.0,0.0,0.0,0.0,16
2025-02-28,28,2025-02-28 09:55,09:55,EST,W  15  G 21,10.0,Mostly Cloudy,BKN050,42.8,23.0,46.0,36.0,,29.87,0.0,0.0,0.0,0.0,2025-03-03,2,2025,9,KOKV,0.0,0.0,0.0,0.0,15
2025-02-28,28,2025-02-28 10:55,10:55,EST,W  15,10.0,Mostly Cloudy,BKN050,44.6,24.8,46.0,38.0,,29.87,0.0,0.0,0.0,0.0,2025-03-03,2,2025,10,KOKV,0.0,0.0,0.0,0.0,15
2025-02-28,28,2025-02-28 11:55,11:55,EST,W  9,10.0,Partly Cloudy,SCT055,46.4,23.0,40.0,42.0,,29.85,0.0,0.0,0.0,0.0,2025-03-03,2,2025,11,KOKV,0.0,0.0,0.0,0.0,9
2025-02-28,28,2025-02-28 12:55,12:55,EST,W  7,10.0,Fair,CLR,50.0,21.2,32.0,48.0,,29.8,0.0,0.0,0.0,0.0,2025-03-03,2,2025,12,KOKV,0.0,0.0,0.0,0.0,7
2025-02-28,28,2025-02-28 13:55,13:55,EST,SW  10,10.0,Fair,CLR,50.0,21.2,32.0,46.0,,29.77,0.0,0.0,0.0,0.0,2025-03-03,2,2025,13,KOKV,0.0,0.0,0.0,0.0,10
2025-02-28,28,2025-02-28 14:15,14:15,EST,SW  6,10.0,Fair,CLR,51.8,19.4,28.0,,,29.77,0.0,0.0,0.0,0.0,2025-03-03,2,2025,14,KOKV,0.0,0.0,0.0,0.0,6
2025-02-28,28,2025-02-28 15:55,15:55,EST,SW  9  G 21,10.0,Fair,CLR,53.6,17.6,24.0,,,29.72,0.0,0.0,0.0,0.0,2025-03-03,2,2025,15,KOKV,0.0,0.0,0.0,0.0,9
2025-02-28,28,2025-02-28 16:55,16:55,EST,S  8,10.0,Fair,CLR,53.6,19.4,26.0,,,29.69,0.0,0.0,0.0,0.0,2025-03-03,2,2025,16,KOKV,0.0,0.0,0.0,0.0,8
2025-02-28,28,2025-02-28 17:55,17:55,EST,S  10,10.0,Fair,CLR,50.0,21.2,32.0,46.0,,29.68,0.0,0.0,0.0,0.0,2025-03-03,2,2025,17,KOKV,0.0,0.0,0.0,0.0,10
2025-02-28,28,2025-02-28 18:55,18:55,EST,S  8,10.0,Fair,CLR,48.2,21.2,34.0,45.0,,29.67,0.0,0.0,0.0,0.0,2025-03-03,2,2025,18,KOKV,0.0,0.0,0.0,0.0,8
2025-02-28,28,2025-02-28 19:55,19:55,EST,S  7,10.0,Fair,CLR,46.4,21.2,37.0,43.0,,29.65,0.0,0.0,0.0,0.0,2025-03-03,2,2025,19,KOKV,0.0,0.0,0.0,0.0,7
2025-02-28,28,2025-02-28 20:55,20:55,EST,S  5,10.0,Fair,CLR,44.6,21.2,39.0,43.0,,29.64,0.0,0.0,0.0,0.0,2025-03-03,2,2025,20,KOKV,0.0,0.0,0.0,0.0,5
2025-02-28,28,2025-02-28 21:55,21:55,EST,Calm,10.0,Fair,CLR,37.4,21.2,52.0,,,29.65,0.0,0.0,0.0,0.0,2025-03-03,2,2025,21,KOKV,0.0,0.0,0.0,0.0,0
2025-02-28,28,2025-02-28 22:55,22:55,EST,S  3,10.0,Fair,CLR,33.8,21.2,60.0,,,29.62,0.0,0.0,0.0,0.0,2025-03-03,2,2025,22,KOKV,0.0,0.0,0.0,0.0,3
2025-02-28,28,2025-02-28 23:55,23:55,EST,SW  6,10.0,Fair,CLR,44.6,23.0,43.0,42.0,,29.59,0.0,0.0,0.0,0.0,2025-03-04,2,2025,23,KOKV,0.0,0.0,0.0,0.0,6
2025-03-01,1,2025-03-01 00:55,00:55,EST,SW  6,10.0,Fair,CLR,42.8,23.0,46.0,40.0,,29.58,0.0,0.0,0.0,0.0,2025-03-04,3,2025,0,KOKV,0.0,0.0,0.0,0.0,6
2025-03-01,1,2025-03-01 01:55,01:55,EST,SW  6,10.0,Fair,CLR,44.6,24.8,46.0,42.0,,29.55,0.0,0.0,0.0,0.0,2025-03-04,3,2025,1,KOKV,0.0,0.0,0.0,0.0,6
2025-03-01,1,2025-03-01 02:55,02:55,EST,SW  6,10.0,Fair,CLR,42.8,24.8,49.0,40.0,,29.53,0.0,0.0,0.0,0.0,2025-03-04,3,2025,2,KOKV,0.0,0.0,0.0,0.0,6
2025-03-01,1,2025-03-01 03:55,03:55,EST,SW  6,10.0,Fair,CLR,44.6,26.6,49.0,42.0,,29.52,0.0,0.0,0.0,0.0,2025-03-04,3,2025,3,KOKV,0.0,0.0,0.0,0.0,6
2025-03-01,1,2025-03-01 04:55,04:55,EST,SW  7,10.0,Fair,CLR,44.6,26.6,49.0,41.0,,29.51,0.0,0.0,0.0,0.0,2025-03-04,3,2025,4,KOKV,0.0,0.0,0.0,0.0,7
2025-03-01,1,2025-03-01 05:55,05:55,EST,SW  8,10.0,Fair,CLR,46.4,26.6,46.0,43.0,,29.5,0.0,0.0,0.0,0.0,2025-03-04,3,2025,5,KOKV,0.0,0.0,0.0,0.0,8
2025-03-01,1,2025-03-01 06:55,06:55,EST,S  5,10.0,Fair,CLR,39.2,26.6,61.0,36.0,,29.5,0.0,0.0,0.0,0.0,2025-03-04,3,2025,6,KOKV,0.0,0.0,0.0,0.0,5
2025-03-01,1,2025-03-01 07:55,07:55,EST,SE  6,10.0,Fair,CLR,42.8,26.6,53.0,40.0,,29.52,0.0,0.0,0.0,0.0,2025-03-04,3,2025,7,KOKV,0.0,0.0,0.0,0.0,6
2025-03-01,1,2025-03-01 08:55,08:55,EST,SW  5,10.0,Fair,CLR,51.8,30.2,44.0,,,29.54,0.0,0.0,0.0,0.0,2025-03-04,3,2025,8,KOKV,0.0,0.0,0.0,0.0,5
2025-03-01,1,2025-03-01 09:55,09:55,EST,W  23  G 35,10.0,Partly Cloudy and Breezy,SCT070,55.4,28.4,36.0,,,29.55,0.0,0.0,0.0,0.0,2025-03-04,3,2025,9,KOKV,0.0,0.0,0.0,0.0,23
2025-03-01,1,2025-03-01 10:55,10:55,EST,W  25  G 38,10.0,Fair and Breezy,CLR,53.6,23.0,30.0,,,29.58,0.0,0.0,0.0,0.0,2025-03-04,3,2025,10,KOKV,0.0,0.0,0.0,0.0,25
2025-03-01,1,2025-03-01 11:55,11:55,EST,W  21  G 30,10.0,Fair and Breezy,CLR,53.6,23.0,30.0,,,29.6,0.0,0.0,0.0,0.0,2025-03-04,3,2025,11,KOKV,0.0,0.0,0.0,0.0,21
2025-03-01,1,2025-03-01 12:55,12:55,EST,W  28  G 37,10.0,Partly Cloudy and Windy,SCT065 SCT075,51.8,24.8,35.0,,,29.61,0.0,0.0,0.0,0.0,2025-03-04,3,2025,12,KOKV,0.0,0.0,0.0,0.0,28
2025-03-01,1,2025-03-01 13:55,13:55,EST,NW  25  G 33,10.0,Overcast and Breezy,BKN070 OVC085,50.0,24.8,37.0,43.0,,29.63,0.0,0.0,0.0,0.0,2025-03-04,3,2025,13,KOKV,0.0,0.0,0.0,0.0,25
2025-03-01,1,2025-03-01 14:55,14:55,EST,NW  25  G 37,10.0,Fair and Breezy,CLR,46.4,21.2,37.0,38.0,,29.66,0.0,0.0,0.0,0.0,2025-03-04,3,2025,14,KOKV,0.0,0.0,0.0,0.0,25
2025-03-01,1,2025-03-01 15:55,15:55,EST,NW  20  G 33,10.0,Overcast,BKN090 OVC110,42.8,21.2,42.0,35.0,,29.71,0.0,0.0,0.0,0.0,2025-03-04,3,2025,15,KOKV,0.0,0.0,0.0,0.0,20
2025-03-01,1,2025-03-01 16:55,16:55,EST,NW  26  G 35,10.0,Mostly Cloudy and Windy,BKN075 BKN085,35.6,21.2,56.0,24.0,,29.76,0.0,0.0,0.0,0.0,2025-03-04,3,2025,16,KOKV,0.0,0.0,0.0,0.0,26
2025-03-01,1,2025-03-01 17:55,17:55,EST,Calm,0.0,Overcast,OVC070,33.8,19.4,56.0,,,0.0,0.0,0.0,0.0,0.0,2025-03-04,3,2025,17,KOKV,0.0,0.0,0.0,0.0,0
2025-03-01,1,2025-03-01 18:55,18:55,EST,NW  17  G 23,10.0,Partly Cloudy,SCT050,32.0,17.6,55.0,22.0,,29.86,0.0,0.0,0.0,0.0,2025-03-04,3,2025,18,KOKV,0.0,0.0,0.0,0.0,17
2025-03-01,1,2025-03-01 19:55,19:55,EST,NW  17  G 22,10.0,Mostly Cloudy,BKN046 BKN050,32.0,14.0,47.0,22.0,,29.9,0.0,0.0,0.0,0.0,2025-03-04,3,2025,19,KOKV,0.0,0.0,0.0,0.0,17
2025-03-01,1,2025-03-01 20:55,20:55,EST,NW  18  G 26,10.0,Fair,CLR,30.2,12.2,47.0,19.0,,29.92,0.0,0.0,0.0,0.0,2025-03-04,3,2025,20,KOKV,0.0,0.0,0.0,0.0,18
2025-03-01,1,2025-03-01 21:55,21:55,EST,NW  12,10.0,Fair,CLR,28.4,10.4,47.0,19.0,,29.96,0.0,0.0,0.0,0.0,2025-03-04,3,2025,21,KOKV,0.0,0.0,0.0,0.0,12
2025-03-01,1,2025-03-01 22:55,22:55,EST,NW  18  G 30,10.0,Fair,CLR,26.6,6.8,43.0,14.0,,29.99,0.0,0.0,0.0,0.0,2025-03-04,3,2025,22,KOKV,0.0,0.0,0.0,0.0,18
2025-03-01,1,2025-03-01 23:55,23:55,EST,NW  12  G 17,10.0,Partly Cloudy,SCT049,24.8,8.6,50.0,15.0,,30.01,0.0,0.0,0.0,0.0,2025-03-04,3,2025,23,KOKV,0.0,0.0,0.0,0.0,12
2025-03-02,2,2025-03-02 00:55,00:55,EST,NW  14  G 30,10.0,Partly Cloudy,SCT039,23.0,5.0,46.0,11.0,,30.04,0.0,0.0,0.0,0.0,2025-03-05,3,2025,0,KOKV,0.0,0.0,0.0,0.0,14
2025-03-02,2,2025-03-02 01:55,01:55,EST,NW  14  G 23,10.0,Partly Cloudy,SCT047,21.2,3.2,45.0,9.0,,30.07,0.0,0.0,0.0,0.0,2025-03-05,3,2025,1,KOKV,0.0,0.0,0.0,0.0,14
2025-03-02,2,2025-03-02 02:55,02:55,EST,NW  17  G 26,10.0,Partly Cloudy,SCT047,21.2,5.0,49.0,8.0,,30.09,0.0,0.0,0.0,0.0,2025-03-05,3,2025,2,KOKV,0.0,0.0,0.0,0.0,17
2025-03-02,2,2025-03-02 03:55,03:55,EST,NW  15  G 25,10.0,Partly Cloudy,SCT050,21.2,3.2,45.0,9.0,,30.11,0.0,0.0,0.0,0.0,2025-03-05,3,2025,3,KOKV,0.0,0.0,0.0,0.0,15
2025-03-02,2,2025-03-02 04:55,04:55,EST,NW  12  G 18,10.0,Mostly Cloudy,BKN048,21.2,3.2,45.0,10.0,,30.13,0.0,0.0,0.0,0.0,2025-03-05,3,2025,4,KOKV,0.0,0.0,0.0,0.0,12
2025-03-02,2,2025-03-02 05:55,05:55,EST,NW  10,10.0,Partly Cloudy,SCT046,19.4,3.2,49.0,9.0,,30.15,0.0,0.0,0.0,0.0,2025-03-05,3,2025,5,KOKV,0.0,0.0,0.0,0.0,10
2025-03-02,2,2025-03-02 06:55,06:55,EST,NW  10,10.0,Fair,CLR,19.4,5.0,53.0,9.0,,30.16,0.0,0.0,0.0,0.0,2025-03-05,3,2025,6,KOKV,0.0,0.0,0.0,0.0,10
2025-03-02,2,2025-03-02 07:55,07:55,EST,NW  12  G 16,10.0,Fair,CLR,21.2,5.0,49.0,10.0,,30.18,0.0,0.0,0.0,0.0,2025-03-05,3,2025,7,KOKV,0.0,0.0,0.0,0.0,12
2025-03-02,2,2025-03-02 08:55,08:55,EST,NW  18  G 24,10.0,Fair,CLR,23.0,5.0,46.0,10.0,,30.2,0.0,0.0,0.0,0.0,2025-03-05,3,2025,8,KOKV,0.0,0.0,0.0,0.0,18
2025-03-02,2,2025-03-02 09:55,09:55,EST,W  12,10.0,Fair,CLR,26.6,5.0,39.0,17.0,,30.21,0.0,0.0,0.0,0.0,2025-03-05,3,2025,9,KOKV,0.0,0.0,0.0,0.0,12
2025-03-02,2,2025-03-02 10:55,10:55,EST,NW  12  G 21,10.0,Fair,CLR,28.4,5.0,37.0,19.0,,30.2,0.0,0.0,0.0,0.0,2025-03-05,3,2025,10,KOKV,0.0,0.0,0.0,0.0,12
2025-03-02,2,2025-03-02 11:55,11:55,EST,NW  12  G 16,10.0,Fair,CLR,30.2,5.0,34.0,21.0,,30.18,0.0,0.0,0.0,0.0,2025-03-05,3,2025,11,KOKV,0.0,0.0,0.0,0.0,12
2025-03-02,2,2025-03-02 12:55,12:55,EST,NW  8,10.0,Fair,CLR,32.0,6.8,34.0,25.0,,30.15,0.0,0.0,0.0,0.0,2025-03-05,3,2025,12,KOKV,0.0,0.0,0.0,0.0,8
2025-03-02,2,2025-03-02 13:55,13:55,EST,NW  13  G 17,10.0,Fair,CLR,33.8,6.8,32.0,25.0,,30.13,0.0,0.0,0.0,0.0,2025-03-05,3,2025,13,KOKV,0.0,0.0,0.0,0.0,13
2025-03-02,2,2025-03-02 14:55,14:55,EST,NW  9,10.0,Fair,CLR,35.6,6.8,30.0,29.0,,30.12,0.0,0.0,0.0,0.0,2025-03-05,3,2025,14,KOKV,0.0,0.0,0.0,0.0,9
2025-03-02,2,2025-03-02 15:55,15:55,EST,NW  9,10.0,Fair,CLR,35.6,6.8,30.0,29.0,,30.12,0.0,0.0,0.0,0.0,2025-03-05,3,2025,15,KOKV,0.0,0.0,0.0,0.0,9
2025-03-02,2,2025-03-02 16:55,16:55,EST,NW  13  G 17,10.0,Fair,CLR,35.6,6.8,30.0,28.0,,30.11,0.0,0.0,0.0,0.0,2025-03-05,3,2025,16,KOKV,0.0,0.0,0.0,0.0,13
2025-03-02,2,2025-03-02 17:55,17:55,EST,NW  8,10.0,Fair,CLR,33.8,8.6,35.0,28.0,,30.11,0.0,0.0,0.0,0.0,2025-03-05,3,2025,17,KOKV,0.0,0.0,0.0,0.0,8
2025-03-02,2,2025-03-02 18:55,18:55,EST,NW  3,10.0,Fair,CLR,32.0,8.6,37.0,,,30.13,0.0,0.0,0.0,0.0,2025-03-05,3,2025,18,KOKV,0.0,0.0,0.0,0.0,3
2025-03-02,2,2025-03-02 19:55,19:55,EST,N  6,10.0,Fair,CLR,30.2,8.6,40.0,25.0,,30.15,0.0,0.0,0.0,0.0,2025-03-05,3,2025,19,KOKV,0.0,0.0,0.0,0.0,6
2025-03-02,2,2025-03-02 20:55,20:55,EST,Calm,10.0,Fair,CLR,30.2,8.6,40.0,,,30.17,0.0,0.0,0.0,0.0,2025-03-05,3,2025,20,KOKV,0.0,0.0,0.0,0.0,0
2025-03-02,2,2025-03-02 21:55,21:55,EST,Calm,10.0,Fair,CLR,26.6,10.4,50.0,,,30.2,0.0,0.0,0.0,0.0,2025-03-05,3,2025,21,KOKV,0.0,0.0,0.0,0.0,0
2025-03-02,2,2025-03-02 22:55,22:55,EST,Calm,10.0,Fair,CLR,24.8,10.4,54.0,,,30.2,0.0,0.0,0.0,0.0,2025-03-05,3,2025,22,KOKV,0.0,0.0,0.0,0.0,0
2025-03-02,2,2025-03-02 23:55,23:55,EST,Calm,10.0,Fair,CLR,21.2,8.6,58.0,,,30.2,0.0,0.0,0.0,0.0,2025-03-05,3,2025,23,KOKV,0.0,0.0,0.0,0.0,0
2025-03-03,3,2025-03-03 00:55,00:55,EST,Calm,10.0,Fair,CLR,19.4,8.6,63.0,,,30.21,0.0,0.0,0.0,0.0,2025-03-06,3,2025,0,KOKV,0.0,0.0,0.0,0.0,0
2025-03-03,3,2025-03-03 01:55,01:55,EST,Calm,10.0,Fair,CLR,21.2,12.2,68.0,,,30.22,0.0,0.0,0.0,0.0,2025-03-06,3,2025,1,KOKV,0.0,0.0,0.0,0.0,0
2025-03-03,3,2025-03-03 02:55,02:55,EST,Calm,10.0,Fair,CLR,21.2,12.2,68.0,,,30.23,0.0,0.0,0.0,0.0,2025-03-06,3,2025,2,KOKV,0.0,0.0,0.0,0.0,0
2025-03-03,3,2025-03-03 03:55,03:55,EST,Calm,10.0,Overcast,OVC120,21.2,12.2,68.0,,,30.23,0.0,0.0,0.0,0.0,2025-03-06,3,2025,3,KOKV,0.0,0.0,0.0,0.0,0
2025-03-03,3,2025-03-03 04:55,04:55,EST,Calm,10.0,Overcast,OVC110,21.2,14.0,74.0,,,30.25,0.0,0.0,0.0,0.0,2025-03-06,3,2025,4,KOKV,0.0,0.0,0.0,0.0,0
2025-03-03,3,2025-03-03 05:55,05:55,EST,Calm,10.0,Overcast,OVC110,21.2,14.0,74.0,,,30.25,0.0,0.0,0.0,0.0,2025-03-06,3,2025,5,KOKV,0.0,0.0,0.0,0.0,0
2025-03-03,3,2025-03-03 06:55,06:55,EST,Calm,10.0,Overcast,OVC100,23.0,12.2,63.0,,,30.27,0.0,0.0,0.0,0.0,2025-03-06,3,2025,6,KOKV,0.0,0.0,0.0,0.0,0
2025-03-03,3,2025-03-03 07:55,07:55,EST,Calm,10.0,Overcast,OVC100,24.8,14.0,63.0,,,30.27,0.0,0.0,0.0,0.0,2025-03-06,3,2025,7,KOKV,0.0,0.0,0.0,0.0,0
2025-03-03,3,2025-03-03 08:55,08:55,EST,Calm,10.0,Fair,CLR,28.4,12.2,51.0,,,30.29,0.0,0.0,0.0,0.0,2025-03-06,3,2025,8,KOKV,0.0,0.0,0.0,0.0,0
2025-03-03,3,2025-03-03 09:55,09:55,EST,Calm,10.0,Fair,CLR,30.2,12.2,47.0,,,30.3,0.0,0.0,0.0,0.0,2025-03-06,3,2025,9,KOKV,0.0,0.0,0.0,0.0,0
2025-03-03,3,2025-03-03 10:55,10:55,EST,NW  7,10.0,Fair,CLR,32.0,12.2,44.0,26.0,,30.28,0.0,0.0,0.0,0.0,2025-03-06,3,2025,10,KOKV,0.0,0.0,0.0,0.0,7
2025-03-03,3,2025-03-03 11:55,11:55,EST,SE  5,10.0,Fair,CLR,33.8,14.0,44.0,30.0,,30.28,0.0,0.0,0.0,0.0,2025-03-06,3,2025,11,KOKV,0.0,0.0,0.0,0.0,5
2025-03-03,3,2025-03-03 12:55,12:55,EST,W  5,10.0,Fair,CLR,37.4,14.0,38.0,34.0,,30.24,0.0,0.0,0.0,0.0,2025-03-06,3,2025,12,KOKV,0.0,0.0,0.0,0.0,5
2025-03-03,3,2025-03-03 13:55,13:55,EST,W  5,10.0,Fair,CLR,39.2,12.2,33.0,36.0,,30.21,0.0,0.0,0.0,0.0,2025-03-06,3,2025,13,KOKV,0.0,0.0,0.0,0.0,5
2025-03-03,3,2025-03-03 14:55,14:55,EST,S  9,10.0,Fair,CLR,41.0,12.2,31.0,36.0,,30.2,0.0,0.0,0.0,0.0,2025-03-06,3,2025,14,KOKV,0.0,0.0,0.0,0.0,9
2025-03-03,3,2025-03-03 15:55,15:55,EST,SW  5,10.0,Fair,CLR,42.8,10.4,26.0,41.0,,30.18,0.0,0.0,0.0,0.0,2025-03-06,3,2025,15,KOKV,0.0,0.0,0.0,0.0,5
2025-03-03,3,2025-03-03 16:55,16:55,EST,S  3,0.0,,,42.8,10.4,26.0,,,30.17,0.0,0.0,0.0,0.0,2025-03-06,3,2025,16,KOKV,0.0,0.0,0.0,0.0,3
2025-03-03,3,2025-03-03 17:55,17:55,EST,SE  3,10.0,Fair,CLR,41.0,10.4,28.0,,,30.17,0.0,0.0,0.0,0.0,2025-03-06,3,2025,17,KOKV,0.0,0.0,0.0,0.0,3
2025-03-03,3,2025-03-03 18:55,18:55,EST,Calm,10.0,Fair,CLR,33.8,14.0,44.0,,,30.19,0.0,0.0,0.0,0.0,2025-03-06,3,2025,18,KOKV,0.0,0.0,0.0,0.0,0
2025-03-03,3,2025-03-03 19:55,19:55,EST,Calm,10.0,Fair,CLR,33.8,14.0,44.0,,,30.19,0.0,0.0,0.0,0.0,2025-03-06,3,2025,19,KOKV,0.0,0.0,0.0,0.0,0
2025-03-03,3,2025-03-03 20:55,20:55,EST,Calm,10.0,Fair,CLR,32.0,14.0,47.0,,,30.18,0.0,0.0,0.0,0.0,2025-03-06,3,2025,20,KOKV,0.0,0.0,0.0,0.0,0
2025-03-03,3,2025-03-03 21:55,21:55,EST,Calm,10.0,Fair,CLR,32.0,14.0,47.0,,,30.18,0.0,0.0,0.0,0.0,2025-03-06,3,2025,21,KOKV,0.0,0.0,0.0,0.0,0
2025-03-03,3,2025-03-03 22:55,22:55,EST,Calm,10.0,Partly Cloudy,SCT090,30.2,14.0,51.0,,,30.17,0.0,0.0,0.0,0.0,2025-03-06,3,2025,22,KOKV,0.0,0.0,0.0,0.0,0
2025-03-03,3,2025-03-03 23:55,23:55,EST,Calm,10.0,Overcast,OVC080,33.8,15.8,48.0,,,30.17,0.0,0.0,0.0,0.0,2025-03-07,3,2025,23,KOKV,0.0,0.0,0.0,0.0,0
2025-03-04,4,2025-03-04 00:55,00:55,EST,Calm,10.0,Overcast,OVC080,33.8,21.2,60.0,,,30.16,0.0,0.0,0.0,0.0,2025-03-07,3,2025,0,KOKV,0.0,0.0,0.0,0.0,0
2025-03-04,4,2025-03-04 01:55,01:55,EST,Calm,10.0,Overcast,OVC070,33.8,21.2,60.0,,,30.16,0.0,0.0,0.0,0.0,2025-03-07,3,2025,1,KOKV,0.0,0.0,0.0,0.0,0
2025-03-04,4,2025-03-04 02:55,02:55,EST,Calm,10.0,Overcast,OVC070,35.6,19.4,52.0,,,30.15,0.0,0.0,0.0,0.0,2025-03-07,3,2025,2,KOKV,0.0,0.0,0.0,0.0,0
2025-03-04,4,2025-03-04 03:55,03:55,EST,SE  6,10.0,Overcast,BKN070 OVC090,35.6,21.2,56.0,31.0,,30.13,0.0,0.0,0.0,0.0,2025-03-07,3,2025,3,KOKV,0.0,0.0,0.0,0.0,6
2025-03-04,4,2025-03-04 04:55,04:55,EST,Calm,10.0,Overcast,BKN070 OVC100,35.6,17.6,48.0,,,30.14,0.0,0.0,0.0,0.0,2025-03-07,3,2025,4,KOKV,0.0,0.0,0.0,0.0,0
2025-03-04,4,2025-03-04 05:55,05:55,EST,Calm,10.0,Overcast,BKN070 OVC100,33.8,19.4,56.0,,,30.14,0.0,0.0,0.0,0.0,2025-03-07,3,2025,5,KOKV,0.0,0.0,0.0,0.0,0
2025-03-04,4,2025-03-04 06:55,06:55,EST,Calm,10.0,Overcast,SCT085 OVC110,32.0,19.4,60.0,,,30.14,0.0,0.0,0.0,0.0,2025-03-07,3,2025,6,KOKV,0.0,0.0,0.0,0.0,0
2025-03-04,4,2025-03-04 07:55,07:55,EST,Calm,10.0,Overcast,OVC085,35.6,21.2,56.0,,,30.15,0.0,0.0,0.0,0.0,2025-03-07,3,2025,7,KOKV,0.0,0.0,0.0,0.0,0
2025-03-04,4,2025-03-04 08:55,08:55,EST,SE  3,10.0,Overcast,OVC075,41.0,21.2,45.0,,,30.14,0.0,0.0,0.0,0.0,2025-03-07,3,2025,8,KOKV,0.0,0.0,0.0,0.0,3
2025-03-04,4,2025-03-04 09:55,09:55,EST,S  3,10.0,Mostly Cloudy,BKN070 BKN085,46.4,21.2,37.0,,,30.14,0.0,0.0,0.0,0.0,2025-03-07,3,2025,9,KOKV,0.0,0.0,0.0,0.0,3
2025-03-04,4,2025-03-04 10:55,10:55,EST,S  5,10.0,Overcast,BKN070 OVC090,50.0,21.2,32.0,49.0,,30.13,0.0,0.0,0.0,0.0,2025-03-07,3,2025,10,KOKV,0.0,0.0,0.0,0.0,5
2025-03-04,4,2025-03-04 11:55,11:55,EST,S  5,10.0,Overcast,OVC070,53.6,23.0,30.0,,,30.1,0.0,0.0,0.0,0.0,2025-03-07,3,2025,11,KOKV,0.0,0.0,0.0,0.0,5
2025-03-04,4,2025-03-04 12:55,12:55,EST,S  9,10.0,,,57.2,23.0,27.0,,,30.06,0.0,0.0,0.0,0.0,2025-03-07,3,2025,12,KOKV,0.0,0.0,0.0,0.0,9
2025-03-04,4,2025-03-04 14:55,14:55,EST,S  16  G 24,10.0,Fair,CLR,60.8,23.0,23.0,,,29.99,0.0,0.0,0.0,0.0,2025-03-07,3,2025,14,KOKV,0.0,0.0,0.0,0.0,16
2025-03-04,4,2025-03-04 15:55,15:55,EST,S  17  G 23,10.0,Fair,CLR,62.6,23.0,22.0,,,29.97,0.0,0.0,0.0,0.0,2025-03-07,3,2025,15,KOKV,0.0,0.0,0.0,0.0,17
2025-03-04,4,2025-03-04 16:55,16:55,EST,S  14  G 17,10.0,Fair,CLR,59.0,24.8,27.0,,,29.97,0.0,0.0,0.0,0.0,2025-03-07,3,2025,16,KOKV,0.0,0.0,0.0,0.0,14
2025-03-04,4,2025-03-04 17:55,17:55,EST,S  12  G 20,10.0,Fair,CLR,55.4,24.8,31.0,,,29.97,0.0,0.0,0.0,0.0,2025-03-07,3,2025,17,KOKV,0.0,0.0,0.0,0.0,12
2025-03-04,4,2025-03-04 18:55,18:55,EST,S  8,10.0,Fair,CLR,53.6,24.8,33.0,,,29.97,0.0,0.0,0.0,0.0,2025-03-07,3,2025,18,KOKV,0.0,0.0,0.0,0.0,8
2025-03-04,4,2025-03-04 19:55,19:55,EST,S  10,10.0,Fair,CLR,53.6,26.6,35.0,,,29.94,0.0,0.0,0.0,0.0,2025-03-07,3,2025,19,KOKV,0.0,0.0,0.0,0.0,10
2025-03-04,4,2025-03-04 20:55,20:55,EST,SE  12  G 16,10.0,Fair,CLR,51.8,28.4,41.0,,,29.92,0.0,0.0,0.0,0.0,2025-03-07,3,2025,20,KOKV,0.0,0.0,0.0,0.0,12
2025-03-04,4,2025-03-04 21:55,21:55,EST,S  13  G 20,10.0,Fair,CLR,53.6,33.8,47.0,,,29.89,0.0,0.0,0.0,0.0,2025-03-07,3,2025,21,KOKV,0.0,0.0,0.0,0.0,13
2025-03-04,4,2025-03-04 22:55,22:55,EST,S  12  G 20,10.0,Mostly Cloudy,BKN065,53.6,37.4,54.0,,,29.86,0.0,0.0,0.0,0.0,2025-03-07,3,2025,22,KOKV,0.0,0.0,0.0,0.0,12
2025-03-04,4,2025-03-04 23:55,23:55,EST,S  14  G 22,10.0,Overcast,OVC055,53.6,39.2,58.0,,,29.85,0.0,0.0,0.0,0.0,2025-03-07,3,2025,23,KOKV,0.0,0.0,0.0,0.0,14
2025-03-05,5,2025-03-05 00:55,00:55,EST,S  18  G 25,10.0,Overcast,SCT045 OVC050,53.6,41.0,63.0,,,29.81,0.0,0.0,0.0,0.0,2025-03-08,3,2025,0,KOKV,0.0,0.0,0.0,0.0,18
2025-03-05,5,2025-03-05 01:55,01:55,EST,SE  14  G 25,10.0,Overcast,BKN040 BKN046 OVC060,53.6,42.8,67.0,,,29.77,0.0,0.0,0.0,0.0,2025-03-08,3,2025,1,KOKV,0.0,0.0,0.0,0.0,14
2025-03-05,5,2025-03-05 02:55,02:55,EST,S  16  G 22,10.0,Light Drizzle,SCT042 SCT055 BKN100,53.6,44.6,72.0,,,29.74,0.0,0.0,0.0,0.0,2025-03-08,3,2025,2,KOKV,0.0,0.0,0.0,0.0,16
2025-03-05,5,2025-03-05 03:55,03:55,EST,S  13  G 20,10.0,Overcast,OVC040,53.6,46.4,77.0,,,29.74,0.0,0.0,0.0,0.0,2025-03-08,3,2025,3,KOKV,0.0,0.0,0.0,0.0,13
2025-03-05,5,2025-03-05 04:55,04:55,EST,SE  14,10.0,Overcast,OVC034,53.6,48.2,82.0,,,29.72,0.0,0.0,0.0,0.0,2025-03-08,3,2025,4,KOKV,0.0,0.0,0.0,0.0,14
2025-03-05,5,2025-03-05 05:55,05:55,EST,S  13  G 20,10.0,Overcast,OVC042,53.6,46.4,77.0,,,29.69,0.0,0.0,0.0,0.0,2025-03-08,3,2025,5,KOKV,0.0,0.0,0.0,0.0,13
2025-03-05,5,2025-03-05 06:15,06:15,EST,S  20  G 28,10.0,Overcast,OVC042,55.4,46.4,72.0,,,29.69,0.0,0.0,0.0,0.0,2025-03-08,3,2025,6,KOKV,0.0,0.0,0.0,0.0,20
2025-03-05,5,2025-03-05 07:55,07:55,EST,S  14  G 26,10.0,Overcast,SCT019 BKN033 OVC080,55.4,48.2,77.0,,,29.64,0.0,0.0,0.0,0.0,2025-03-08,3,2025,7,KOKV,0.0,0.0,0.0,0.0,14
2025-03-05,5,2025-03-05 08:55,08:55,EST,SE  13  G 25,10.0,Overcast,OVC017,53.6,50.0,88.0,,,29.58,0.0,0.0,0.0,0.0,2025-03-08,3,2025,8,KOKV,0.0,0.0,0.0,0.0,13
2025-03-05,5,2025-03-05 09:55,09:55,EST,SE  13  G 21,7.0,Light Drizzle,BKN015 OVC022,53.6,50.0,88.0,,,29.54,0.0,0.0,0.0,0.0,2025-03-08,3,2025,9,KOKV,0.0,0.0,0.0,0.0,13
2025-03-05,5,2025-03-05 10:55,10:55,EST,SE  16  G 23,3.0,Light Rain,OVC013,53.6,51.8,94.0,,,29.48,0.0,0.0,0.0,0.0,2025-03-08,3,2025,10,KOKV,0.0,0.0,0.0,0.0,16
2025-03-05,5,2025-03-05 11:55,11:55,EST,S  14  G 24,1.5,Heavy Rain,SCT011 BKN017 OVC030,53.6,51.8,94.0,,,29.5,0.0,0.0,0.0,0.0,2025-03-08,3,2025,11,KOKV,0.0,0.0,0.0,0.0,14
2025-03-05,5,2025-03-05 12:55,12:55,EST,E  13  G 22,10.0,Light Rain,OVC085,53.6,51.8,94.0,,,29.34,0.0,0.0,0.0,0.0,2025-03-08,3,2025,12,KOKV,0.0,0.0,0.0,0.0,13
2025-03-05,5,2025-03-05 13:55,13:55,EST,S  13  G 24,10.0,Partly Cloudy,SCT120,57.2,51.8,82.0,,,29.3,0.0,0.0,0.0,0.0,2025-03-08,3,2025,13,KOKV,0.0,0.0,0.0,0.0,13
2025-03-05,5,2025-03-05 14:55,14:55,EST,S  12  G 18,10.0,Fair,CLR,59.0,51.8,77.0,,,29.28,0.0,0.0,0.0,0.0,2025-03-08,3,2025,14,KOKV,0.0,0.0,0.0,0.0,12
2025-03-05,5,2025-03-05 15:55,15:55,EST,S  15  G 23,10.0,Fair,CLR,57.2,51.8,82.0,,,29.24,0.0,0.0,0.0,0.0,2025-03-08,3,2025,15,KOKV,0.0,0.0,0.0,0.0,15
2025-03-05,5,2025-03-05 16:55,16:55,EST,SE  13,10.0,Fair,CLR,59.0,51.8,77.0,,,29.21,0.0,0.0,0.0,0.0,2025-03-08,3,2025,16,KOKV,0.0,0.0,0.0,0.0,13
2025-03-05,5,2025-03-05 17:55,17:55,EST,SE  13  G 16,10.0,Mostly Cloudy,SCT047 BKN070,55.4,50.0,82.0,,,29.24,0.0,0.0,0.0,0.0,2025-03-08,3,2025,17,KOKV,0.0,0.0,0.0,0.0,13
2025-03-05,5,2025-03-05 18:55,18:55,EST,S  7,10.0,Overcast,BKN047 OVC060,55.4,51.8,88.0,,,29.24,0.0,0.0,0.0,0.0,2025-03-08,3,2025,18,KOKV,0.0,0.0,0.0,0.0,7
2025-03-05,5,2025-03-05 19:55,19:55,EST,S  10,10.0,Thunderstorm Rain in Vicinity,SCT049 BKN065 OVC090,53.6,51.8,94.0,,,29.27,0.0,0.0,0.0,0.0,2025-03-08,3,2025,19,KOKV,0.0,0.0,0.0,0.0,10
2025-03-05,5,2025-03-05 20:55,20:55,EST,SW  3,10.0,Light Rain,SCT055 SCT070 OVC095,50.0,46.4,88.0,,,29.25,0.0,0.0,0.0,0.0,2025-03-08,3,2025,20,KOKV,0.0,0.0,0.0,0.0,3
2025-03-05,5,2025-03-05 21:55,21:55,EST,SW  5,10.0,Overcast,BKN085 OVC100,50.0,46.4,88.0,49.0,,29.25,0.0,0.0,0.0,0.0,2025-03-08,3,2025,21,KOKV,0.0,0.0,0.0,0.0,5
2025-03-05,5,2025-03-05 22:55,22:55,EST,W  9,10.0,Overcast,SCT047 BKN050 OVC070,50.0,41.0,71.0,47.0,,29.28,0.0,0.0,0.0,0.0,2025-03-08,3,2025,22,KOKV,0.0,0.0,0.0,0.0,9
2025-03-05,5,2025-03-05 23:55,23:55,EST,W  13  G 20,10.0,Overcast,OVC060,48.2,35.6,62.0,43.0,,29.3,0.0,0.0,0.0,0.0,2025-03-08,3,2025,23,KOKV,0.0,0.0,0.0,0.0,13
2025-03-06,6,2025-03-06 00:55,00:55,EST,W  16  G 22,10.0,Overcast,SCT060 OVC085,46.4,32.0,57.0,40.0,,29.32,0.0,0.0,0.0,0.0,2025-03-09,3,2025,0,KOKV,0.0,0.0,0.0,0.0,16
2025-03-06,6,2025-03-06 01:55,01:55,EST,W  14  G 22,10.0,Overcast,SCT075 OVC100,44.6,30.2,57.0,39.0,,29.35,0.0,0.0,0.0,0.0,2025-03-09,3,2025,1,KOKV,0.0,0.0,0.0,0.0,14
2025-03-06,6,2025-03-06 02:55,02:55,EDT,W  18  G 25,10.0,Overcast,OVC100,41.0,28.4,61.0,33.0,,29.36,0.0,0.0,0.0,0.0,2025-03-09,3,2025,2,KOKV,0.0,0.0,0.0,0.0,18
2025-03-06,6,2025-03-06 03:55,03:55,EDT,W  15  G 21,10.0,Fair,CLR,39.2,26.6,61.0,31.0,,29.37,0.0,0.0,0.0,0.0,2025-03-09,3,2025,3,KOKV,0.0,0.0,0.0,0.0,15
2025-03-06,6,2025-03-06 04:55,04:55,EDT,W  13  G 17,10.0,Mostly Cloudy,BKN110,37.4,26.6,65.0,30.0,,29.4,0.0,0.0,0.0,0.0,2025-03-09,3,2025,4,KOKV,0.0,0.0,0.0,0.0,13
2025-03-06,6,2025-03-06 05:55,05:55,EDT,W  16  G 21,10.0,Mostly Cloudy,SCT037 BKN110,37.4,26.6,65.0,29.0,,29.42,0.0,0.0,0.0,0.0,2025-03-09,3,2025,5,KOKV,0.0,0.0,0.0,0.0,16
2025-03-06,6,2025-03-06 06:55,06:55,EDT,W  15  G 28,10.0,Overcast,OVC037,37.4,26.6,65.0,29.0,,29.45,0.0,0.0,0.0,0.0,2025-03-09,3,2025,6,KOKV,0.0,0.0,0.0,0.0,15
2025-03-06,6,2025-03-06 07:55,07:55,EDT,W  18  G 24,10.0,Overcast,OVC037,37.4,26.6,65.0,28.0,,29.47,0.0,0.0,0.0,0.0,2025-03-09,3,2025,7,KOKV,0.0,0.0,0.0,0.0,18
2025-03-06,6,2025-03-06 08:55,08:55,EDT,W  15  G 28,10.0,Overcast,OVC041,37.4,26.6,65.0,29.0,,29.48,0.0,0.0,0.0,0.0,2025-03-09,3,2025,8,KOKV,0.0,0.0,0.0,0.0,15
2025-03-06,6,2025-03-06 09:55,09:55,EDT,W  17  G 29,10.0,Overcast,OVC041,39.2,26.6,61.0,31.0,,29.48,0.0,0.0,0.0,0.0,2025-03-09,3,2025,9,KOKV,0.0,0.0,0.0,0.0,17
2025-03-06,6,2025-03-06 10:55,10:55,EDT,W  23  G 31,10.0,Overcast and Breezy,OVC043,39.2,26.6,61.0,29.0,,29.5,0.0,0.0,0.0,0.0,2025-03-09,3,2025,10,KOKV,0.0,0.0,0.0,0.0,23
2025-03-06,6,2025-03-06 11:55,11:55,EDT,W  28  G 33,10.0,Overcast and Windy,OVC043,39.2,24.8,56.0,29.0,,29.53,0.0,0.0,0.0,0.0,2025-03-09,3,2025,11,KOKV,0.0,0.0,0.0,0.0,28
2025-03-06,6,2025-03-06 12:55,12:55,EDT,W  23  G 31,10.0,Overcast and Breezy,BKN040 OVC046,37.4,26.6,65.0,27.0,,29.55,0.0,0.0,0.0,0.0,2025-03-09,3,2025,12,KOKV,0.0,0.0,0.0,0.0,23
2025-03-06,6,2025-03-06 13:55,13:55,EDT,W  25  G 31,10.0,Overcast and Breezy,OVC036,35.6,23.0,60.0,24.0,,29.58,0.0,0.0,0.0,0.0,2025-03-09,3,2025,13,KOKV,0.0,0.0,0.0,0.0,25
2025-03-06,6,2025-03-06 14:55,14:55,EDT,W  28  G 35,10.0,Overcast and Windy,OVC034,35.6,23.0,60.0,24.0,,29.59,0.0,0.0,0.0,0.0,2025-03-09,3,2025,14,KOKV,0.0,0.0,0.0,0.0,28
2025-03-06,6,2025-03-06 15:55,15:55,EDT,W  18  G 25,10.0,Overcast,OVC034,35.6,23.0,60.0,26.0,,29.62,0.0,0.0,0.0,0.0,2025-03-09,3,2025,15,KOKV,0.0,0.0,0.0,0.0,18
2025-03-06,6,2025-03-06 16:55,16:55,EDT,W  22  G 30,10.0,Overcast and Breezy,OVC036,33.8,23.0,65.0,23.0,,29.63,0.0,0.0,0.0,0.0,2025-03-09,3,2025,16,KOKV,0.0,0.0,0.0,0.0,22
2025-03-06,6,2025-03-06 17:35,17:35,EDT,Calm,0.0,,,33.8,23.0,65.0,,,0.0,0.0,0.0,0.0,0.0,2025-03-09,3,2025,17,KOKV,0.0,0.0,0.0,0.0,0
2025-03-06,6,2025-03-06 18:55,18:55,EDT,W  15  G 33,10.0,Overcast,OVC043,35.6,21.2,56.0,27.0,,29.7,0.0,0.0,0.0,0.0,2025-03-09,3,2025,18,KOKV,0.0,0.0,0.0,0.0,15
2025-03-06,6,2025-03-06 19:55,19:55,EDT,W  23  G 35,10.0,Overcast and Breezy,OVC047,33.8,21.2,60.0,22.0,,29.71,0.0,0.0,0.0,0.0,2025-03-09,3,2025,19,KOKV,0.0,0.0,0.0,0.0,23
2025-03-06,6,2025-03-06 20:55,20:55,EDT,W  28  G 35,10.0,Mostly Cloudy and Windy,BKN047,33.8,19.4,56.0,21.0,,29.73,0.0,0.0,0.0,0.0,2025-03-09,3,2025,20,KOKV,0.0,0.0,0.0,0.0,28
2025-03-06,6,2025-03-06 21:55,21:55,EDT,W  23  G 37,10.0,Mostly Cloudy and Breezy,BKN047,33.8,19.4,56.0,22.0,,29.75,0.0,0.0,0.0,0.0,2025-03-09,3,2025,21,KOKV,0.0,0.0,0.0,0.0,23
2025-03-06,6,2025-03-06 22:55,22:55,EDT,W  29  G 39,10.0,Partly Cloudy and Windy,SCT049,33.8,19.4,56.0,21.0,,29.76,0.0,0.0,0.0,0.0,2025-03-09,3,2025,22,KOKV,0.0,0.0,0.0,0.0,29
2025-03-06,6,2025-03-06 23:55,23:55,EDT,W  26  G 44,10.0,Fair and Windy,CLR,33.8,19.4,56.0,22.0,,29.76,0.0,0.0,0.0,0.0,2025-03-10,3,2025,23,KOKV,0.0,0.0,0.0,0.0,26
2025-03-07,7,2025-03-07 00:55,00:55,EDT,W  24  G 41,10.0,Fair and Breezy,CLR,33.8,19.4,56.0,22.0,,29.77,0.0,0.0,0.0,0.0,2025-03-10,3,2025,0,KOKV,0.0,0.0,0.0,0.0,24
2025-03-07,7,2025-03-07 01:55,01:55,EDT,W  20  G 29,10.0,Fair,CLR,33.8,19.4,56.0,23.0,,29.79,0.0,0.0,0.0,0.0,2025-03-10,3,2025,1,KOKV,0.0,0.0,0.0,0.0,20
2025-03-07,7,2025-03-07 02:55,02:55,EDT,W  22  G 36,10.0,Fair and Breezy,CLR,33.8,17.6,51.0,23.0,,29.78,0.0,0.0,0.0,0.0,2025-03-10,3,2025,2,KOKV,0.0,0.0,0.0,0.0,22
2025-03-07,7,2025-03-07 03:55,03:55,EDT,W  17,10.0,Fair,CLR,32.0,17.6,55.0,22.0,,29.8,0.0,0.0,0.0,0.0,2025-03-10,3,2025,3,KOKV,0.0,0.0,0.0,0.0,17
2025-03-07,7,2025-03-07 04:55,04:55,EDT,NW  18  G 24,10.0,Fair,CLR,32.0,17.6,55.0,21.0,,29.82,0.0,0.0,0.0,0.0,2025-03-10,3,2025,4,KOKV,0.0,0.0,0.0,0.0,18
2025-03-07,7,2025-03-07 05:55,05:55,EDT,W  15  G 20,10.0,Fair,CLR,32.0,17.6,55.0,22.0,,29.84,0.0,0.0,0.0,0.0,2025-03-10,3,2025,5,KOKV,0.0,0.0,0.0,0.0,15
2025-03-07,7,2025-03-07 06:55,06:55,EDT,W  7,10.0,Fair,CLR,32.0,17.6,55.0,26.0,,29.86,0.0,0.0,0.0,0.0,2025-03-10,3,2025,6,KOKV,0.0,0.0,0.0,0.0,7
2025-03-07,7,2025-03-07 07:55,07:55,EDT,W  14  G 22,10.0,Fair,CLR,33.8,17.6,51.0,25.0,,29.89,0.0,0.0,0.0,0.0,2025-03-10,3,2025,7,KOKV,0.0,0.0,0.0,0.0,14
2025-03-07,7,2025-03-07 08:55,08:55,EDT,NW  13  G 23,10.0,Fair,CLR,37.4,14.0,38.0,30.0,,29.89,0.0,0.0,0.0,0.0,2025-03-10,3,2025,8,KOKV,0.0,0.0,0.0,0.0,13
2025-03-07,7,2025-03-07 09:55,09:55,EDT,W  22  G 25,10.0,Fair and Breezy,CLR,41.0,14.0,33.0,32.0,,29.88,0.0,0.0,0.0,0.0,2025-03-10,3,2025,9,KOKV,0.0,0.0,0.0,0.0,22
2025-03-07,7,2025-03-07 10:55,10:55,EDT,W  22  G 26,10.0,Fair and Breezy,CLR,42.8,14.0,31.0,34.0,,29.86,0.0,0.0,0.0,0.0,2025-03-10,3,2025,10,KOKV,0.0,0.0,0.0,0.0,22
2025-03-07,7,2025-03-07 11:55,11:55,EDT,NW  21  G 26,10.0,Fair and Breezy,CLR,46.4,17.6,32.0,39.0,,29.84,0.0,0.0,0.0,0.0,2025-03-10,3,2025,11,KOKV,0.0,0.0,0.0,0.0,21
2025-03-07,7,2025-03-07 12:55,12:55,EDT,W  14  G 29,10.0,Fair,CLR,46.4,17.6,32.0,41.0,,29.82,0.0,0.0,0.0,0.0,2025-03-10,3,2025,12,KOKV,0.0,0.0,0.0,0.0,14
2025-03-07,7,2025-03-07 13:55,13:55,EDT,W  17  G 24,10.0,Fair,CLR,50.0,17.6,28.0,45.0,,29.79,0.0,0.0,0.0,0.0,2025-03-10,3,2025,13,KOKV,0.0,0.0,0.0,0.0,17
2025-03-07,7,2025-03-07 14:55,14:55,EDT,W  14  G 20,10.0,Fair,CLR,50.0,17.6,28.0,45.0,,29.77,0.0,0.0,0.0,0.0,2025-03-10,3,2025,14,KOKV,0.0,0.0,0.0,0.0,14
2025-03-07,7,2025-03-07 15:55,15:55,EDT,W  10  G 21,10.0,Fair,CLR,51.8,19.4,28.0,,,29.75,0.0,0.0,0.0,0.0,2025-03-10,3,2025,15,KOKV,0.0,0.0,0.0,0.0,10
2025-03-07,7,2025-03-07 16:55,16:55,EDT,W  10,10.0,Overcast,OVC100,50.0,19.4,30.0,46.0,,29.75,0.0,0.0,0.0,0.0,2025-03-10,3,2025,16,KOKV,0.0,0.0,0.0,0.0,10
2025-03-07,7,2025-03-07 17:55,17:55,EDT,W  10,10.0,Overcast,SCT065 OVC075,48.2,21.2,34.0,44.0,,29.75,0.0,0.0,0.0,0.0,2025-03-10,3,2025,17,KOKV,0.0,0.0,0.0,0.0,10
2025-03-07,7,2025-03-07 18:55,18:55,EDT,NW  12,10.0,Overcast,BKN070 OVC090,46.4,26.6,46.0,42.0,,29.76,0.0,0.0,0.0,0.0,2025-03-10,3,2025,18,KOKV,0.0,0.0,0.0,0.0,12
2025-03-07,7,2025-03-07 19:55,19:55,EDT,W  7,10.0,Overcast,BKN060 BKN070 OVC090,44.6,28.4,53.0,41.0,,29.76,0.0,0.0,0.0,0.0,2025-03-10,3,2025,19,KOKV,0.0,0.0,0.0,0.0,7
2025-03-07,7,2025-03-07 20:55,20:55,EDT,NW  7,10.0,Overcast,BKN050 BKN070 OVC090,42.8,30.2,61.0,39.0,,29.75,0.0,0.0,0.0,0.0,2025-03-10,3,2025,20,KOKV,0.0,0.0,0.0,0.0,7
2025-03-07,7,2025-03-07 21:55,21:55,EDT,N  3,10.0,Overcast,OVC065,42.8,30.2,61.0,,,29.73,0.0,0.0,0.0,0.0,2025-03-10,3,2025,21,KOKV,0.0,0.0,0.0,0.0,3
2025-03-07,7,2025-03-07 22:55,22:55,EDT,Calm,10.0,Overcast,BKN065 OVC075,41.0,30.2,66.0,,,29.72,0.0,0.0,0.0,0.0,2025-03-10,3,2025,22,KOKV,0.0,0.0,0.0,0.0,0
2025-03-07,7,2025-03-07 23:55,23:55,EDT,SE  5,10.0,Overcast,OVC065,37.4,32.0,81.0,34.0,,29.69,0.0,0.0,0.0,0.0,2025-03-11,3,2025,23,KOKV,0.0,0.0,0.0,0.0,5
2025-03-08,8,2025-03-08 00:55,00:55,EDT,Calm,10.0,Overcast,OVC065,39.2,30.2,70.0,,,29.67,0.0,0.0,0.0,0.0,2025-03-11,3,2025,0,KOKV,0.0,0.0,0.0,0.0,0
2025-03-08,8,2025-03-08 01:55,01:55,EDT,Calm,10.0,Overcast,SCT065 OVC085,39.2,30.2,70.0,,,29.66,0.0,0.0,0.0,0.0,2025-03-11,3,2025,1,KOKV,0.0,0.0,0.0,0.0,0
2025-03-08,8,2025-03-08 02:55,02:55,EDT,Calm,10.0,Mostly Cloudy,BKN050,33.8,30.2,87.0,,,29.66,0.0,0.0,0.0,0.0,2025-03-11,3,2025,2,KOKV,0.0,0.0,0.0,0.0,0
2025-03-08,8,2025-03-08 03:55,03:55,EDT,Calm,10.0,Partly Cloudy,SCT044 SCT095 SCT110,33.8,30.2,87.0,,,29.65,0.0,0.0,0.0,0.0,2025-03-11,3,2025,3,KOKV,0.0,0.0,0.0,0.0,0
2025-03-08,8,2025-03-08 04:55,04:55,EDT,NW  8  G 17,10.0,Mostly Cloudy,SCT038 SCT080 BKN110,41.0,32.0,70.0,36.0,,29.66,0.0,0.0,0.0,0.0,2025-03-11,3,2025,4,KOKV,0.0,0.0,0.0,0.0,8
2025-03-08,8,2025-03-08 05:55,05:55,EDT,W  15  G 22,10.0,Partly Cloudy,SCT080,41.0,30.2,66.0,34.0,,29.68,0.0,0.0,0.0,0.0,2025-03-11,3,2025,5,KOKV,0.0,0.0,0.0,0.0,15
2025-03-08,8,2025-03-08 06:55,06:55,EDT,NW  12,10.0,Mostly Cloudy,BKN035 BKN075 BKN090,39.2,30.2,70.0,33.0,,29.71,0.0,0.0,0.0,0.0,2025-03-11,3,2025,6,KOKV,0.0,0.0,0.0,0.0,12
2025-03-08,8,2025-03-08 07:55,07:55,EDT,NW  10,10.0,Overcast,OVC033,39.2,32.0,75.0,33.0,,29.73,0.0,0.0,0.0,0.0,2025-03-11,3,2025,7,KOKV,0.0,0.0,0.0,0.0,10
2025-03-08,8,2025-03-08 08:55,08:55,EDT,NW  6  G 16,10.0,Overcast,OVC035,39.2,28.4,65.0,36.0,,29.76,0.0,0.0,0.0,0.0,2025-03-11,3,2025,8,KOKV,0.0,0.0,0.0,0.0,6
2025-03-08,8,2025-03-08 09:55,09:55,EDT,NW  15  G 24,10.0,Overcast,OVC031,37.4,28.4,70.0,29.0,,29.78,0.0,0.0,0.0,0.0,2025-03-11,3,2025,9,KOKV,0.0,0.0,0.0,0.0,15
2025-03-08,8,2025-03-08 10:55,10:55,EDT,NW  16  G 24,10.0,Overcast,BKN035 OVC042,37.4,24.8,60.0,29.0,,29.8,0.0,0.0,0.0,0.0,2025-03-11,3,2025,10,KOKV,0.0,0.0,0.0,0.0,16
2025-03-08,8,2025-03-08 11:55,11:55,EDT,W  20  G 26,10.0,Partly Cloudy,SCT050,42.8,23.0,46.0,35.0,,29.81,0.0,0.0,0.0,0.0,2025-03-11,3,2025,11,KOKV,0.0,0.0,0.0,0.0,20
2025-03-08,8,2025-03-08 12:55,12:55,EDT,NW  18  G 26,10.0,Mostly Cloudy,BKN050,41.0,21.2,45.0,33.0,,29.82,0.0,0.0,0.0,0.0,2025-03-11,3,2025,12,KOKV,0.0,0.0,0.0,0.0,18
2025-03-08,8,2025-03-08 13:55,13:55,EDT,NW  22  G 29,10.0,Partly Cloudy and Breezy,SCT060,42.8,21.2,42.0,34.0,,29.82,0.0,0.0,0.0,0.0,2025-03-11,3,2025,13,KOKV,0.0,0.0,0.0,0.0,22
2025-03-08,8,2025-03-08 14:55,14:55,EDT,W  22  G 31,10.0,Partly Cloudy and Breezy,SCT060,44.6,19.4,37.0,37.0,,29.82,0.0,0.0,0.0,0.0,2025-03-11,3,2025,14,KOKV,0.0,0.0,0.0,0.0,22
2025-03-08,8,2025-03-08 15:55,15:55,EDT,NW  14  G 25,10.0,Partly Cloudy,SCT060,44.6,21.2,39.0,39.0,,29.85,0.0,0.0,0.0,0.0,2025-03-11,3,2025,15,KOKV,0.0,0.0,0.0,0.0,14
2025-03-08,8,2025-03-08 16:55,16:55,EDT,NW  13  G 21,10.0,Partly Cloudy,SCT060,42.8,21.2,42.0,37.0,,29.87,0.0,0.0,0.0,0.0,2025-03-11,3,2025,16,KOKV,0.0,0.0,0.0,0.0,13
2025-03-08,8,2025-03-08 17:55,17:55,EDT,NW  13,10.0,Fair,CLR,41.0,19.4,42.0,34.0,,29.89,0.0,0.0,0.0,0.0,2025-03-11,3,2025,17,KOKV,0.0,0.0,0.0,0.0,13
2025-03-08,8,2025-03-08 18:55,18:55,EDT,NW  8  G 16,10.0,Fair,CLR,39.2,19.4,45.0,34.0,,29.92,0.0,0.0,0.0,0.0,2025-03-11,3,2025,18,KOKV,0.0,0.0,0.0,0.0,8
2025-03-08,8,2025-03-08 19:55,19:55,EDT,Calm,10.0,Fair,CLR,37.4,19.4,48.0,,,29.95,0.0,0.0,0.0,0.0,2025-03-11,3,2025,19,KOKV,0.0,0.0,0.0,0.0,0
2025-03-08,8,2025-03-08 20:55,20:55,EDT,N  6,10.0,Fair,CLR,35.6,19.4,52.0,31.0,,29.97,0.0,0.0,0.0,0.0,2025-03-11,3,2025,20,KOKV,0.0,0.0,0.0,0.0,6
2025-03-08,8,2025-03-08 21:55,21:55,EDT,N  5,10.0,Fair,CLR,33.8,19.4,56.0,30.0,,29.97,0.0,0.0,0.0,0.0,2025-03-11,3,2025,21,KOKV,0.0,0.0,0.0,0.0,5
2025-03-08,8,2025-03-08 22:55,22:55,EDT,Calm,10.0,Fair,CLR,32.0,21.2,64.0,,,29.99,0.0,0.0,0.0,0.0,2025-03-11,3,2025,22,KOKV,0.0,0.0,0.0,0.0,0
2025-03-08,8,2025-03-08 23:55,23:55,EDT,Calm,10.0,Fair,CLR,28.4,19.4,69.0,,,29.98,0.0,0.0,0.0,0.0,2025-03-12,3,2025,23,KOKV,0.0,0.0,0.0,0.0,0
2025-03-09,9,2025-03-09 00:55,00:55,EDT,Calm,10.0,Fair,CLR,28.4,19.4,69.0,,,29.97,0.0,0.0,0.0,0.0,2025-03-12,3,2025,0,KOKV,0.0,0.0,0.0,0.0,0
2025-03-09,9,2025-03-09 01:55,01:55,EDT,Calm,10.0,Fair,CLR,30.2,19.4,64.0,,,29.98,0.0,0.0,0.0,0.0,2025-03-12,3,2025,1,KOKV,0.0,0.0,0.0,0.0,0
2025-03-09,9,2025-03-09 03:55,03:55,EDT,Calm,10.0,Fair,CLR,30.2,19.4,64.0,,,30.0,0.0,0.0,0.0,0.0,2025-03-12,3,2025,3,KOKV,0.0,0.0,0.0,0.0,0
2025-03-09,9,2025-03-09 04:55,04:55,EDT,W  6,10.0,Fair,CLR,28.4,19.4,69.0,23.0,,30.0,0.0,0.0,0.0,0.0,2025-03-12,3,2025,4,KOKV,0.0,0.0,0.0,0.0,6
2025-03-09,9,2025-03-09 05:55,05:55,EDT,W  9,10.0,Fair,CLR,33.8,17.6,51.0,27.0,,30.01,0.0,0.0,0.0,0.0,2025-03-12,3,2025,5,KOKV,0.0,0.0,0.0,0.0,9
2025-03-09,9,2025-03-09 06:55,06:55,EDT,W  7,10.0,Fair,CLR,33.8,15.8,48.0,28.0,,30.01,0.0,0.0,0.0,0.0,2025-03-12,3,2025,6,KOKV,0.0,0.0,0.0,0.0,7
2025-03-09,9,2025-03-09 07:55,07:55,EDT,SW  9,10.0,Fair,CLR,33.8,15.8,48.0,27.0,,30.02,0.0,0.0,0.0,0.0,2025-03-12,3,2025,7,KOKV,0.0,0.0,0.0,0.0,9
2025-03-09,9,2025-03-09 08:55,08:55,EDT,SW  9,10.0,Fair,CLR,35.6,15.8,44.0,29.0,,30.03,0.0,0.0,0.0,0.0,2025-03-12,3,2025,8,KOKV,0.0,0.0,0.0,0.0,9
2025-03-09,9,2025-03-09 09:55,09:55,EDT,SW  12  G 18,10.0,Fair,CLR,39.2,17.6,42.0,33.0,,30.03,0.0,0.0,0.0,0.0,2025-03-12,3,2025,9,KOKV,0.0,0.0,0.0,0.0,12
2025-03-09,9,2025-03-09 10:55,10:55,EDT,SW  16  G 23,10.0,Fair,CLR,44.6,21.2,39.0,38.0,,30.02,0.0,0.0,0.0,0.0,2025-03-12,3,2025,10,KOKV,0.0,0.0,0.0,0.0,16
2025-03-09,9,2025-03-09 11:55,11:55,EDT,SW  14  G 21,10.0,Partly Cloudy,SCT055,46.4,24.8,43.0,41.0,,30.0,0.0,0.0,0.0,0.0,2025-03-12,3,2025,11,KOKV,0.0,0.0,0.0,0.0,14
2025-03-09,9,2025-03-09 12:55,12:55,EDT,W  15  G 23,10.0,Partly Cloudy,SCT070 SCT075,51.8,26.6,38.0,,,29.97,0.0,0.0,0.0,0.0,2025-03-12,3,2025,12,KOKV,0.0,0.0,0.0,0.0,15
2025-03-09,9,2025-03-09 13:55,13:55,EDT,W  23  G 33,10.0,Partly Cloudy and Breezy,SCT065,51.8,24.8,35.0,,,29.96,0.0,0.0,0.0,0.0,2025-03-12,3,2025,13,KOKV,0.0,0.0,0.0,0.0,23
2025-03-09,9,2025-03-09 14:55,14:55,EDT,W  16  G 21,10.0,Partly Cloudy,SCT070,53.6,26.6,35.0,,,29.94,0.0,0.0,0.0,0.0,2025-03-12,3,2025,14,KOKV,0.0,0.0,0.0,0.0,16
2025-03-09,9,2025-03-09 15:55,15:55,EDT,NW  13  G 21,10.0,Fair,CLR,55.4,24.8,31.0,,,29.91,0.0,0.0,0.0,0.0,2025-03-12,3,2025,15,KOKV,0.0,0.0,0.0,0.0,13
2025-03-09,9,2025-03-09 16:55,16:55,EDT,NW  10  G 18,10.0,Fair,CLR,55.4,23.0,28.0,,,29.9,0.0,0.0,0.0,0.0,2025-03-12,3,2025,16,KOKV,0.0,0.0,0.0,0.0,10
2025-03-09,9,2025-03-09 17:55,17:55,EDT,W  8,10.0,Fair,CLR,55.4,23.0,28.0,,,29.91,0.0,0.0,0.0,0.0,2025-03-12,3,2025,17,KOKV,0.0,0.0,0.0,0.0,8
2025-03-09,9,2025-03-09 18:55,18:55,EDT,W  6,10.0,Fair,CLR,53.6,23.0,30.0,,,29.92,0.0,0.0,0.0,0.0,2025-03-12,3,2025,18,KOKV,0.0,0.0,0.0,0.0,6
2025-03-09,9,2025-03-09 19:55,19:55,EDT,SW  3,10.0,Fair,CLR,50.0,23.0,35.0,,,29.92,0.0,0.0,0.0,0.0,2025-03-12,3,2025,19,KOKV,0.0,0.0,0.0,0.0,3
2025-03-09,9,2025-03-09 20:55,20:55,EDT,S  5,10.0,Fair,CLR,37.4,24.8,60.0,34.0,,29.93,0.0,0.0,0.0,0.0,2025-03-12,3,2025,20,KOKV,0.0,0.0,0.0,0.0,5
2025-03-09,9,2025-03-09 21:55,21:55,EDT,W  6,10.0,Fair,CLR,48.2,23.0,37.0,46.0,,29.94,0.0,0.0,0.0,0.0,2025-03-12,3,2025,21,KOKV,0.0,0.0,0.0,0.0,6
2025-03-09,9,2025-03-09 22:55,22:55,EDT,SW  6,10.0,Fair,CLR,46.4,23.0,40.0,44.0,,29.94,0.0,0.0,0.0,0.0,2025-03-12,3,2025,22,KOKV,0.0,0.0,0.0,0.0,6
2025-03-09,9,2025-03-09 23:55,23:55,EDT,SW  3,10.0,Fair,CLR,37.4,23.0,56.0,,,29.93,0.0,0.0,0.0,0.0,2025-03-13,3,2025,23,KOKV,0.0,0.0,0.0,0.0,3
2025-03-10,10,2025-03-10 00:15,00:15,EDT,S  5,10.0,Fair,CLR,37.4,23.0,56.0,34.0,,29.93,0.0,0.0,0.0,0.0,2025-03-13,3,2025,0,KOKV,0.0,0.0,0.0,0.0,5
2025-03-10,10,2025-03-10 01:55,01:55,EDT,S  6,10.0,Fair,CLR,39.2,24.8,56.0,36.0,,29.92,0.0,0.0,0.0,0.0,2025-03-13,3,2025,1,KOKV,0.0,0.0,0.0,0.0,6
2025-03-10,10,2025-03-10 02:55,02:55,EDT,SW  6,10.0,Fair,CLR,39.2,24.8,56.0,36.0,,29.93,0.0,0.0,0.0,0.0,2025-03-13,3,2025,2,KOKV,0.0,0.0,0.0,0.0,6
2025-03-10,10,2025-03-10 03:55,03:55,EDT,SW  7,10.0,Fair,CLR,42.8,24.8,49.0,39.0,,29.92,0.0,0.0,0.0,0.0,2025-03-13,3,2025,3,KOKV,0.0,0.0,0.0,0.0,7
2025-03-10,10,2025-03-10 04:55,04:55,EDT,W  8,10.0,Fair,CLR,42.8,24.8,49.0,39.0,,29.91,0.0,0.0,0.0,0.0,2025-03-13,3,2025,4,KOKV,0.0,0.0,0.0,0.0,8
2025-03-10,10,2025-03-10 05:55,05:55,EDT,SW  6,10.0,Fair,CLR,37.4,24.8,60.0,33.0,,29.93,0.0,0.0,0.0,0.0,2025-03-13,3,2025,5,KOKV,0.0,0.0,0.0,0.0,6
2025-03-10,10,2025-03-10 06:55,06:55,EDT,S  3,10.0,Fair,CLR,37.4,24.8,60.0,,,29.93,0.0,0.0,0.0,0.0,2025-03-13,3,2025,6,KOKV,0.0,0.0,0.0,0.0,3
2025-03-10,10,2025-03-10 07:55,07:55,EDT,SW  5,10.0,Fair,CLR,37.4,24.8,60.0,34.0,,29.94,0.0,0.0,0.0,0.0,2025-03-13,3,2025,7,KOKV,0.0,0.0,0.0,0.0,5
2025-03-10,10,2025-03-10 08:55,08:55,EDT,SW  3,10.0,Fair,CLR,41.0,26.6,57.0,,,29.93,0.0,0.0,0.0,0.0,2025-03-13,3,2025,8,KOKV,0.0,0.0,0.0,0.0,3
2025-03-10,10,2025-03-10 09:55,09:55,EDT,S  3,10.0,Fair,CLR,48.2,28.4,46.0,,,29.93,0.0,0.0,0.0,0.0,2025-03-13,3,2025,9,KOKV,0.0,0.0,0.0,0.0,3
2025-03-10,10,2025-03-10 10:55,10:55,EDT,S  5,10.0,Fair,CLR,53.6,28.4,38.0,,,29.93,0.0,0.0,0.0,0.0,2025-03-13,3,2025,10,KOKV,0.0,0.0,0.0,0.0,5
2025-03-10,10,2025-03-10 11:55,11:55,EDT,W  6,10.0,Fair,CLR,55.4,28.4,36.0,,,29.91,0.0,0.0,0.0,0.0,2025-03-13,3,2025,11,KOKV,0.0,0.0,0.0,0.0,6
2025-03-10,10,2025-03-10 12:55,12:55,EDT,W  3,10.0,Fair,CLR,59.0,30.2,34.0,,,29.9,0.0,0.0,0.0,0.0,2025-03-13,3,2025,12,KOKV,0.0,0.0,0.0,0.0,3
2025-03-10,10,2025-03-10 13:55,13:55,EDT,N  5,10.0,Fair,CLR,60.8,28.4,29.0,,,29.87,0.0,0.0,0.0,0.0,2025-03-13,3,2025,13,KOKV,0.0,0.0,0.0,0.0,5
2025-03-10,10,2025-03-10 14:55,14:55,EDT,SE  5,10.0,Fair,CLR,62.6,28.4,27.0,,,29.84,0.0,0.0,0.0,0.0,2025-03-13,3,2025,14,KOKV,0.0,0.0,0.0,0.0,5
2025-03-10,10,2025-03-10 15:55,15:55,EDT,S  3,10.0,Fair,CLR,62.6,28.4,27.0,,,29.82,0.0,0.0,0.0,0.0,2025-03-13,3,2025,15,KOKV,0.0,0.0,0.0,0.0,3
2025-03-10,10,2025-03-10 16:55,16:55,EDT,SE  3,10.0,Fair,CLR,62.6,26.6,25.0,,,29.81,0.0,0.0,0.0,0.0,2025-03-13,3,2025,16,KOKV,0.0,0.0,0.0,0.0,3
2025-03-10,10,2025-03-10 17:55,17:55,EDT,SE  5,10.0,Fair,CLR,62.6,28.4,27.0,,,29.8,0.0,0.0,0.0,0.0,2025-03-13,3,2025,17,KOKV,0.0,0.0,0.0,0.0,5
2025-03-10,10,2025-03-10 18:55,18:55,EDT,SE  5,10.0,Fair,CLR,60.8,28.4,29.0,,,29.8,0.0,0.0,0.0,0.0,2025-03-13,3,2025,18,KOKV,0.0,0.0,0.0,0.0,5
2025-03-10,10,2025-03-10 19:55,19:55,EDT,SE  5,10.0,Fair,CLR,51.8,28.4,41.0,,,29.81,0.0,0.0,0.0,0.0,2025-03-13,3,2025,19,KOKV,0.0,0.0,0.0,0.0,5
2025-03-10,10,2025-03-10 20:55,20:55,EDT,S  3,10.0,Fair,CLR,50.0,28.4,43.0,,,29.81,0.0,0.0,0.0,0.0,2025-03-13,3,2025,20,KOKV,0.0,0.0,0.0,0.0,3
2025-03-10,10,2025-03-10 21:55,21:55,EDT,Calm,10.0,Fair,CLR,46.4,28.4,50.0,,,29.81,0.0,0.0,0.0,0.0,2025-03-13,3,2025,21,KOKV,0.0,0.0,0.0,0.0,0
2025-03-10,10,2025-03-10 22:55,22:55,EDT,Calm,10.0,Fair,CLR,44.6,28.4,53.0,,,29.81,0.0,0.0,0.0,0.0,2025-03-13,3,2025,22,KOKV,0.0,0.0,0.0,0.0,0
2025-03-10,10,2025-03-10 23:55,23:55,EDT,S  3,10.0,Fair,CLR,44.6,28.4,53.0,,,29.81,0.0,0.0,0.0,0.0,2025-03-13,3,2025,23,KOKV,0.0,0.0,0.0,0.0,3
2025-03-11,11,2025-03-11 00:55,00:55,EDT,W  3,10.0,Fair,CLR,41.0,28.4,61.0,,,29.79,0.0,0.0,0.0,0.0,2025-03-14,3,2025,0,KOKV,0.0,0.0,0.0,0.0,3
2025-03-11,11,2025-03-11 01:55,01:55,EDT,Calm,10.0,Fair,CLR,35.6,28.4,75.0,,,29.79,0.0,0.0,0.0,0.0,2025-03-14,3,2025,1,KOKV,0.0,0.0,0.0,0.0,0
2025-03-11,11,2025-03-11 02:55,02:55,EDT,SW  6,10.0,Fair,CLR,42.8,28.4,57.0,40.0,,29.78,0.0,0.0,0.0,0.0,2025-03-14,3,2025,2,KOKV,0.0,0.0,0.0,0.0,6
2025-03-11,11,2025-03-11 03:55,03:55,EDT,S  3,10.0,Fair,CLR,35.6,28.4,75.0,,,29.78,0.0,0.0,0.0,0.0,2025-03-14,3,2025,3,KOKV,0.0,0.0,0.0,0.0,3
2025-03-11,11,2025-03-11 04:55,04:55,EDT,Calm,10.0,Fair,CLR,39.2,28.4,65.0,,,29.78,0.0,0.0,0.0,0.0,2025-03-14,3,2025,4,KOKV,0.0,0.0,0.0,0.0,0
2025-03-11,11,2025-03-11 05:55,05:55,EDT,SW  5,10.0,Fair,CLR,37.4,28.4,70.0,34.0,,29.79,0.0,0.0,0.0,0.0,2025-03-14,3,2025,5,KOKV,0.0,0.0,0.0,0.0,5
2025-03-11,11,2025-03-11 06:55,06:55,EDT,SW  6,10.0,Fair,CLR,37.4,28.4,70.0,33.0,,29.81,0.0,0.0,0.0,0.0,2025-03-14,3,2025,6,KOKV,0.0,0.0,0.0,0.0,6
2025-03-11,11,2025-03-11 07:55,07:55,EDT,SW  7,10.0,Fair,CLR,39.2,28.4,65.0,35.0,,29.82,0.0,0.0,0.0,0.0,2025-03-14,3,2025,7,KOKV,0.0,0.0,0.0,0.0,7
2025-03-11,11,2025-03-11 08:55,08:55,EDT,SW  3,10.0,Fair,CLR,42.8,30.2,61.0,,,29.82,0.0,0.0,0.0,0.0,2025-03-14,3,2025,8,KOKV,0.0,0.0,0.0,0.0,3
2025-03-11,11,2025-03-11 09:55,09:55,EDT,SW  7,10.0,Fair,CLR,50.0,32.0,50.0,48.0,,29.82,0.0,0.0,0.0,0.0,2025-03-14,3,2025,9,KOKV,0.0,0.0,0.0,0.0,7
2025-03-11,11,2025-03-11 10:55,10:55,EDT,SW  6,10.0,Fair,CLR,55.4,32.0,41.0,,,29.82,0.0,0.0,0.0,0.0,2025-03-14,3,2025,10,KOKV,0.0,0.0,0.0,0.0,6
2025-03-11,11,2025-03-11 11:55,11:55,EDT,S  6,10.0,Fair,CLR,60.8,32.0,34.0,,,29.8,0.0,0.0,0.0,0.0,2025-03-14,3,2025,11,KOKV,0.0,0.0,0.0,0.0,6
2025-03-11,11,2025-03-11 12:55,12:55,EDT,SW  8,10.0,Fair,CLR,64.4,32.0,30.0,,,29.78,0.0,0.0,0.0,0.0,2025-03-14,3,2025,12,KOKV,0.0,0.0,0.0,0.0,8
2025-03-11,11,2025-03-11 13:55,13:55,EDT,S  7,10.0,Fair,CLR,68.0,30.2,24.0,,,29.75,0.0,0.0,0.0,0.0,2025-03-14,3,2025,13,KOKV,0.0,0.0,0.0,0.0,7
2025-03-11,11,2025-03-11 14:55,14:55,EDT,SW  9  G 16,10.0,Fair,CLR,69.8,32.0,25.0,,,29.7,0.0,0.0,0.0,0.0,2025-03-14,3,2025,14,KOKV,0.0,0.0,0.0,0.0,9
2025-03-11,11,2025-03-11 15:55,15:55,EDT,S  9,10.0,Fair,CLR,71.6,32.0,23.0,,,29.69,0.0,0.0,0.0,0.0,2025-03-14,3,2025,15,KOKV,0.0,0.0,0.0,0.0,9
2025-03-11,11,2025-03-11 16:55,16:55,EDT,S  8,10.0,Fair,CLR,71.6,32.0,23.0,,,29.67,0.0,0.0,0.0,0.0,2025-03-14,3,2025,16,KOKV,0.0,0.0,0.0,0.0,8
2025-03-11,11,2025-03-11 17:55,17:55,EDT,S  8,10.0,Fair,CLR,71.6,32.0,23.0,,,29.67,0.0,0.0,0.0,0.0,2025-03-14,3,2025,17,KOKV,0.0,0.0,0.0,0.0,8
2025-03-11,11,2025-03-11 18:55,18:55,EDT,SW  6,10.0,Fair,CLR,68.0,32.0,26.0,,,29.69,0.0,0.0,0.0,0.0,2025-03-14,3,2025,18,KOKV,0.0,0.0,0.0,0.0,6
2025-03-11,11,2025-03-11 19:55,19:55,EDT,SW  5,10.0,Fair,CLR,64.4,32.0,30.0,,,29.71,0.0,0.0,0.0,0.0,2025-03-14,3,2025,19,KOKV,0.0,0.0,0.0,0.0,5
2025-03-11,11,2025-03-11 20:55,20:55,EDT,SW  5,10.0,Fair,CLR,62.6,32.0,32.0,,,29.73,0.0,0.0,0.0,0.0,2025-03-14,3,2025,20,KOKV,0.0,0.0,0.0,0.0,5
2025-03-11,11,2025-03-11 21:55,21:55,EDT,W  7,10.0,Fair,CLR,60.8,32.0,34.0,,,29.74,0.0,0.0,0.0,0.0,2025-03-14,3,2025,21,KOKV,0.0,0.0,0.0,0.0,7
2025-03-11,11,2025-03-11 22:55,22:55,EDT,SW  5,10.0,Fair,CLR,59.0,32.0,36.0,,,29.76,0.0,0.0,0.0,0.0,2025-03-14,3,2025,22,KOKV,0.0,0.0,0.0,0.0,5
2025-03-11,11,2025-03-11 23:55,23:55,EDT,SW  6,10.0,Fair,CLR,55.4,32.0,41.0,,,29.76,0.0,0.0,0.0,0.0,2025-03-15,3,2025,23,KOKV,0.0,0.0,0.0,0.0,6
2025-03-12,12,2025-03-12 00:55,00:55,EDT,Calm,10.0,Fair,CLR,48.2,32.0,54.0,,,29.78,0.0,0.0,0.0,0.0,2025-03-15,3,2025,0,KOKV,0.0,0.0,0.0,0.0,0
2025-03-12,12,2025-03-12 01:55,01:55,EDT,NW  3,10.0,Fair,CLR,46.4,30.2,53.0,,,29.79,0.0,0.0,0.0,0.0,2025-03-15,3,2025,1,KOKV,0.0,0.0,0.0,0.0,3
2025-03-12,12,2025-03-12 02:55,02:55,EDT,Calm,10.0,Fair,CLR,44.6,32.0,61.0,,,29.82,0.0,0.0,0.0,0.0,2025-03-15,3,2025,2,KOKV,0.0,0.0,0.0,0.0,0
2025-03-12,12,2025-03-12 03:55,03:55,EDT,NW  3,10.0,Fair,CLR,46.4,32.0,57.0,,,29.84,0.0,0.0,0.0,0.0,2025-03-15,3,2025,3,KOKV,0.0,0.0,0.0,0.0,3
2025-03-12,12,2025-03-12 04:55,04:55,EDT,NW  3,10.0,Fair,CLR,46.4,33.8,62.0,,,29.85,0.0,0.0,0.0,0.0,2025-03-15,3,2025,4,KOKV,0.0,0.0,0.0,0.0,3
2025-03-12,12,2025-03-12 05:55,05:55,EDT,NW  3,10.0,Fair,CLR,46.4,32.0,57.0,,,29.88,0.0,0.0,0.0,0.0,2025-03-15,3,2025,5,KOKV,0.0,0.0,0.0,0.0,3
2025-03-12,12,2025-03-12 06:55,06:55,EDT,Calm,10.0,Fair,CLR,37.4,32.0,81.0,,,29.91,0.0,0.0,0.0,0.0,2025-03-15,3,2025,6,KOKV,0.0,0.0,0.0,0.0,0
2025-03-12,12,2025-03-12 07:35,07:35,EDT,Calm,10.0,Fair,CLR,35.6,32.0,87.0,,,29.92,0.0,0.0,0.0,0.0,2025-03-15,3,2025,7,KOKV,0.0,0.0,0.0,0.0,0
2025-03-12,12,2025-03-12 08:55,08:55,EDT,Calm,10.0,Fair,CLR,46.4,32.0,57.0,,,29.95,0.0,0.0,0.0,0.0,2025-03-15,3,2025,8,KOKV,0.0,0.0,0.0,0.0,0
2025-03-12,12,2025-03-12 09:55,09:55,EDT,NE  5,10.0,Fair,CLR,48.2,28.4,46.0,47.0,,29.96,0.0,0.0,0.0,0.0,2025-03-15,3,2025,9,KOKV,0.0,0.0,0.0,0.0,5
2025-03-12,12,2025-03-12 10:55,10:55,EDT,E  3,10.0,Fair,CLR,51.8,32.0,47.0,,,29.95,0.0,0.0,0.0,0.0,2025-03-15,3,2025,10,KOKV,0.0,0.0,0.0,0.0,3
2025-03-12,12,2025-03-12 11:55,11:55,EDT,SE  5,10.0,Fair,CLR,53.6,33.8,47.0,,,29.93,0.0,0.0,0.0,0.0,2025-03-15,3,2025,11,KOKV,0.0,0.0,0.0,0.0,5
2025-03-12,12,2025-03-12 12:55,12:55,EDT,E  5,10.0,Fair,CLR,57.2,32.0,39.0,,,29.91,0.0,0.0,0.0,0.0,2025-03-15,3,2025,12,KOKV,0.0,0.0,0.0,0.0,5
2025-03-12,12,2025-03-12 13:55,13:55,EDT,E  8,10.0,Fair,CLR,60.8,32.0,34.0,,,29.87,0.0,0.0,0.0,0.0,2025-03-15,3,2025,13,KOKV,0.0,0.0,0.0,0.0,8
2025-03-12,12,2025-03-12 14:55,14:55,EDT,E  8  G 17,10.0,Fair,CLR,62.6,33.8,34.0,,,29.83,0.0,0.0,0.0,0.0,2025-03-15,3,2025,14,KOKV,0.0,0.0,0.0,0.0,8
2025-03-12,12,2025-03-12 15:55,15:55,EDT,SE  8,10.0,Fair,CLR,66.2,35.6,32.0,,,29.8,0.0,0.0,0.0,0.0,2025-03-15,3,2025,15,KOKV,0.0,0.0,0.0,0.0,8
2025-03-12,12,2025-03-12 16:55,16:55,EDT,SE  10  G 18,10.0,Fair,CLR,68.0,33.8,28.0,,,29.78,0.0,0.0,0.0,0.0,2025-03-15,3,2025,16,KOKV,0.0,0.0,0.0,0.0,10
2025-03-12,12,2025-03-12 17:55,17:55,EDT,E  9,10.0,Fair,CLR,64.4,32.0,30.0,,,29.78,0.0,0.0,0.0,0.0,2025-03-15,3,2025,17,KOKV,0.0,0.0,0.0,0.0,9
2025-03-12,12,2025-03-12 18:55,18:55,EDT,E  10,10.0,Fair,CLR,62.6,33.8,34.0,,,29.8,0.0,0.0,0.0,0.0,2025-03-15,3,2025,18,KOKV,0.0,0.0,0.0,0.0,10
2025-03-12,12,2025-03-12 19:55,19:55,EDT,SE  9,10.0,Fair,CLR,59.0,32.0,36.0,,,29.8,0.0,0.0,0.0,0.0,2025-03-15,3,2025,19,KOKV,0.0,0.0,0.0,0.0,9
2025-03-12,12,2025-03-12 20:55,20:55,EDT,SE  7,10.0,Fair,CLR,53.6,32.0,44.0,,,29.82,0.0,0.0,0.0,0.0,2025-03-15,3,2025,20,KOKV,0.0,0.0,0.0,0.0,7
2025-03-12,12,2025-03-12 21:55,21:55,EDT,Calm,10.0,Fair,CLR,50.0,33.8,54.0,,,29.84,0.0,0.0,0.0,0.0,2025-03-15,3,2025,21,KOKV,0.0,0.0,0.0,0.0,0
2025-03-12,12,2025-03-12 22:55,22:55,EDT,E  3,10.0,Fair,CLR,44.6,33.8,66.0,,,29.86,0.0,0.0,0.0,0.0,2025-03-15,3,2025,22,KOKV,0.0,0.0,0.0,0.0,3
2025-03-12,12,2025-03-12 23:55,23:55,EDT,E  7,10.0,Fair,CLR,46.4,30.2,53.0,43.0,,29.86,0.0,0.0,0.0,0.0,2025-03-15,3,2025,23,KOKV,0.0,0.0,0.0,0.0,7
2025-03-13,13,2025-03-13 00:55,00:55,EDT,E  6,10.0,Fair,CLR,46.4,28.4,50.0,44.0,,29.87,0.0,0.0,0.0,0.0,2025-03-16,3,2025,0,KOKV,0.0,0.0,0.0,0.0,6
2025-03-13,13,2025-03-13 01:55,01:55,EDT,Calm,10.0,Fair,CLR,44.6,28.4,53.0,,,29.89,0.0,0.0,0.0,0.0,2025-03-16,3,2025,1,KOKV,0.0,0.0,0.0,0.0,0
2025-03-13,13,2025-03-13 02:55,02:55,EDT,NE  3,10.0,Fair,CLR,41.0,28.4,61.0,,,29.89,0.0,0.0,0.0,0.0,2025-03-16,3,2025,2,KOKV,0.0,0.0,0.0,0.0,3
2025-03-13,13,2025-03-13 03:55,03:55,EDT,N  3,10.0,Fair,CLR,39.2,28.4,65.0,,,29.9,0.0,0.0,0.0,0.0,2025-03-16,3,2025,3,KOKV,0.0,0.0,0.0,0.0,3
2025-03-13,13,2025-03-13 04:55,04:55,EDT,NE  3,10.0,Fair,CLR,37.4,32.0,81.0,,,29.92,0.0,0.0,0.0,0.0,2025-03-16,3,2025,4,KOKV,0.0,0.0,0.0,0.0,3
2025-03-13,13,2025-03-13 05:55,05:55,EDT,Calm,10.0,Fair,CLR,35.6,32.0,87.0,,,29.94,0.0,0.0,0.0,0.0,2025-03-16,3,2025,5,KOKV,0.0,0.0,0.0,0.0,0
2025-03-13,13,2025-03-13 06:55,06:55,EDT,Calm,10.0,Partly Cloudy,SCT011,35.6,32.0,87.0,,,29.95,0.0,0.0,0.0,0.0,2025-03-16,3,2025,6,KOKV,0.0,0.0,0.0,0.0,0
2025-03-13,13,2025-03-13 07:55,07:55,EDT,Calm,10.0,Partly Cloudy,SCT012,35.6,33.8,93.0,,,29.97,0.0,0.0,0.0,0.0,2025-03-16,3,2025,7,KOKV,0.0,0.0,0.0,0.0,0
2025-03-13,13,2025-03-13 08:55,08:55,EDT,NE  5,10.0,Overcast,OVC012,37.4,33.8,87.0,34.0,,29.98,0.0,0.0,0.0,0.0,2025-03-16,3,2025,8,KOKV,0.0,0.0,0.0,0.0,5
2025-03-13,13,2025-03-13 09:55,09:55,EDT,Calm,10.0,Overcast,OVC012,41.0,35.6,81.0,,,30.0,0.0,0.0,0.0,0.0,2025-03-16,3,2025,9,KOKV,0.0,0.0,0.0,0.0,0
2025-03-13,13,2025-03-13 10:55,10:55,EDT,Calm,10.0,Overcast,OVC012,41.0,35.6,81.0,,,30.01,0.0,0.0,0.0,0.0,2025-03-16,3,2025,10,KOKV,0.0,0.0,0.0,0.0,0
2025-03-13,13,2025-03-13 11:55,11:55,EDT,NE  7,10.0,Overcast,OVC012,42.8,35.6,76.0,39.0,,29.99,0.0,0.0,0.0,0.0,2025-03-16,3,2025,11,KOKV,0.0,0.0,0.0,0.0,7
2025-03-13,13,2025-03-13 12:55,12:55,EDT,E  8,10.0,Overcast,OVC014,44.6,37.4,76.0,41.0,,30.0,0.0,0.0,0.0,0.0,2025-03-16,3,2025,12,KOKV,0.0,0.0,0.0,0.0,8
2025-03-13,13,2025-03-13 13:55,13:55,EDT,E  7,10.0,Partly Cloudy,SCT016,46.4,37.4,71.0,43.0,,30.0,0.0,0.0,0.0,0.0,2025-03-16,3,2025,13,KOKV,0.0,0.0,0.0,0.0,7
2025-03-13,13,2025-03-13 14:55,14:55,EDT,E  7,10.0,Fair,CLR,50.0,37.4,62.0,48.0,,29.98,0.0,0.0,0.0,0.0,2025-03-16,3,2025,14,KOKV,0.0,0.0,0.0,0.0,7
2025-03-13,13,2025-03-13 15:55,15:55,EDT,NE  6,10.0,Fair,CLR,50.0,37.4,62.0,48.0,,29.96,0.0,0.0,0.0,0.0,2025-03-16,3,2025,15,KOKV,0.0,0.0,0.0,0.0,6
2025-03-13,13,2025-03-13 16:55,16:55,EDT,E  7,10.0,Fair,CLR,51.8,37.4,58.0,,,29.95,0.0,0.0,0.0,0.0,2025-03-16,3,2025,16,KOKV,0.0,0.0,0.0,0.0,7
2025-03-13,13,2025-03-13 17:55,17:55,EDT,NE  5,10.0,Fair,CLR,50.0,37.4,62.0,49.0,,29.96,0.0,0.0,0.0,0.0,2025-03-16,3,2025,17,KOKV,0.0,0.0,0.0,0.0,5
2025-03-13,13,2025-03-13 18:55,18:55,EDT,NE  5,10.0,Fair,CLR,46.4,37.4,71.0,45.0,,29.97,0.0,0.0,0.0,0.0,2025-03-16,3,2025,18,KOKV,0.0,0.0,0.0,0.0,5
2025-03-13,13,2025-03-13 19:55,19:55,EDT,NE  6,10.0,Partly Cloudy,SCT100,42.8,35.6,76.0,40.0,,30.0,0.0,0.0,0.0,0.0,2025-03-16,3,2025,19,KOKV,0.0,0.0,0.0,0.0,6
2025-03-13,13,2025-03-13 20:55,20:55,EDT,Calm,10.0,Overcast,OVC110,42.8,35.6,76.0,,,30.02,0.0,0.0,0.0,0.0,2025-03-16,3,2025,20,KOKV,0.0,0.0,0.0,0.0,0
2025-03-13,13,2025-03-13 21:55,21:55,EDT,Calm,10.0,Partly Cloudy,SCT110,39.2,35.6,87.0,,,30.03,0.0,0.0,0.0,0.0,2025-03-16,3,2025,21,KOKV,0.0,0.0,0.0,0.0,0
2025-03-13,13,2025-03-13 22:55,22:55,EDT,Calm,10.0,Fair,CLR,37.4,33.8,87.0,,,30.04,0.0,0.0,0.0,0.0,2025-03-16,3,2025,22,KOKV,0.0,0.0,0.0,0.0,0
2025-03-13,13,2025-03-13 23:55,23:55,EDT,N  3,10.0,Fair,CLR,37.4,35.6,93.0,,,30.05,0.0,0.0,0.0,0.0,2025-03-16,3,2025,23,KOKV,0.0,0.0,0.0,0.0,3
2025-03-14,14,2025-03-14 00:55,00:55,EDT,Calm,5.0,Fog/Mist,CLR,33.8,33.8,100.0,,,30.04,0.0,0.0,0.0,0.0,2025-03-17,3,2025,0,KOKV,0.0,0.0,0.0,0.0,0
2025-03-14,14,2025-03-14 01:55,01:55,EDT,Calm,7.0,Fair,CLR,35.6,33.8,93.0,,,30.04,0.0,0.0,0.0,0.0,2025-03-17,3,2025,1,KOKV,0.0,0.0,0.0,0.0,0
2025-03-14,14,2025-03-14 02:55,02:55,EDT,Calm,4.0,Fog/Mist,CLR,32.0,32.0,100.0,,,30.05,0.0,0.0,0.0,0.0,2025-03-17,3,2025,2,KOKV,0.0,0.0,0.0,0.0,0
2025-03-14,14,2025-03-14 03:55,03:55,EDT,Calm,3.0,Fog/Mist,CLR,32.0,32.0,100.0,,,30.04,0.0,0.0,0.0,0.0,2025-03-17,3,2025,3,KOKV,0.0,0.0,0.0,0.0,0
2025-03-14,14,2025-03-14 04:55,04:55,EDT,Calm,2.5,Fog/Mist,CLR,33.8,32.0,93.0,,,30.05,0.0,0.0,0.0,0.0,2025-03-17,3,2025,4,KOKV,0.0,0.0,0.0,0.0,0
2025-03-14,14,2025-03-14 05:55,05:55,EDT,Calm,2.5,Fog/Mist,CLR,32.0,32.0,100.0,,,30.06,0.0,0.0,0.0,0.0,2025-03-17,3,2025,5,KOKV,0.0,0.0,0.0,0.0,0
2025-03-14,14,2025-03-14 06:55,06:55,EDT,N  5,3.0,Fog/Mist,SCT100,33.8,33.8,100.0,30.0,,30.08,0.0,0.0,0.0,0.0,2025-03-17,3,2025,6,KOKV,0.0,0.0,0.0,0.0,5
2025-03-14,14,2025-03-14 07:55,07:55,EDT,Calm,2.0,Fog/Mist,SCT100,33.8,33.8,100.0,,,30.09,0.0,0.0,0.0,0.0,2025-03-17,3,2025,7,KOKV,0.0,0.0,0.0,0.0,0
2025-03-14,14,2025-03-14 08:55,08:55,EDT,Calm,4.0,Fog/Mist,BKN009 BKN015,37.4,35.6,93.0,,,30.11,0.0,0.0,0.0,0.0,2025-03-17,3,2025,8,KOKV,0.0,0.0,0.0,0.0,0
2025-03-14,14,2025-03-14 09:55,09:55,EDT,Calm,5.0,Fog/Mist,BKN007 BKN012,41.0,37.4,87.0,,,30.12,0.0,0.0,0.0,0.0,2025-03-17,3,2025,9,KOKV,0.0,0.0,0.0,0.0,0
2025-03-14,14,2025-03-14 10:55,10:55,EDT,E  3,7.0,Overcast,OVC009,44.6,37.4,76.0,,,30.13,0.0,0.0,0.0,0.0,2025-03-17,3,2025,10,KOKV,0.0,0.0,0.0,0.0,3
2025-03-14,14,2025-03-14 11:55,11:55,EDT,NE  6,7.0,Overcast,OVC011,44.6,39.2,81.0,42.0,,30.12,0.0,0.0,0.0,0.0,2025-03-17,3,2025,11,KOKV,0.0,0.0,0.0,0.0,6
2025-03-14,14,2025-03-14 12:55,12:55,EDT,NE  6,7.0,Mostly Cloudy,BKN015,46.4,39.2,76.0,44.0,,30.1,0.0,0.0,0.0,0.0,2025-03-17,3,2025,12,KOKV,0.0,0.0,0.0,0.0,6
2025-03-14,14,2025-03-14 13:55,13:55,EDT,E  5,7.0,Fair,CLR,51.8,39.2,62.0,,,30.08,0.0,0.0,0.0,0.0,2025-03-17,3,2025,13,KOKV,0.0,0.0,0.0,0.0,5
2025-03-14,14,2025-03-14 14:55,14:55,EDT,E  6,10.0,Fair,CLR,53.6,41.0,63.0,,,30.06,0.0,0.0,0.0,0.0,2025-03-17,3,2025,14,KOKV,0.0,0.0,0.0,0.0,6
2025-03-14,14,2025-03-14 15:55,15:55,EDT,SE  12  G 16,10.0,Fair,CLR,55.4,41.0,59.0,,,30.04,0.0,0.0,0.0,0.0,2025-03-17,3,2025,15,KOKV,0.0,0.0,0.0,0.0,12
2025-03-14,14,2025-03-14 16:55,16:55,EDT,E  7,10.0,Fair,CLR,55.4,39.2,55.0,,,30.02,0.0,0.0,0.0,0.0,2025-03-17,3,2025,16,KOKV,0.0,0.0,0.0,0.0,7
2025-03-14,14,2025-03-14 17:55,17:55,EDT,SE  13,10.0,Fair,CLR,55.4,39.2,55.0,,,30.02,0.0,0.0,0.0,0.0,2025-03-17,3,2025,17,KOKV,0.0,0.0,0.0,0.0,13
2025-03-14,14,2025-03-14 18:55,18:55,EDT,E  12,10.0,Fair,CLR,51.8,39.2,62.0,,,30.02,0.0,0.0,0.0,0.0,2025-03-17,3,2025,18,KOKV,0.0,0.0,0.0,0.0,12
2025-03-14,14,2025-03-14 19:55,19:55,EDT,E  10  G 17,10.0,Fair,CLR,46.4,37.4,71.0,42.0,,30.02,0.0,0.0,0.0,0.0,2025-03-17,3,2025,19,KOKV,0.0,0.0,0.0,0.0,10
2025-03-14,14,2025-03-14 20:55,20:55,EDT,E  7,10.0,Fair,CLR,44.6,37.4,76.0,41.0,,30.03,0.0,0.0,0.0,0.0,2025-03-17,3,2025,20,KOKV,0.0,0.0,0.0,0.0,7
2025-03-14,14,2025-03-14 21:55,21:55,EDT,E  5,10.0,Fair,CLR,42.8,37.4,81.0,41.0,,30.02,0.0,0.0,0.0,0.0,2025-03-17,3,2025,21,KOKV,0.0,0.0,0.0,0.0,5
2025-03-14,14,2025-03-14 22:55,22:55,EDT,Calm,10.0,Fair,CLR,41.0,37.4,87.0,,,30.02,0.0,0.0,0.0,0.0,2025-03-17,3,2025,22,KOKV,0.0,0.0,0.0,0.0,0
2025-03-14,14,2025-03-14 23:55,23:55,EDT,Calm,10.0,Fair,CLR,41.0,37.4,87.0,,,30.01,0.0,0.0,0.0,0.0,2025-03-17,3,2025,23,KOKV,0.0,0.0,0.0,0.0,0
2025-03-15,15,2025-03-15 00:55,00:55,EDT,Calm,10.0,Fair,CLR,37.4,35.6,93.0,,,30.0,0.0,0.0,0.0,0.0,2025-03-18,3,2025,0,KOKV,0.0,0.0,0.0,0.0,0
2025-03-15,15,2025-03-15 01:55,01:55,EDT,Calm,7.0,Fair,CLR,37.4,35.6,93.0,,,30.0,0.0,0.0,0.0,0.0,2025-03-18,3,2025,1,KOKV,0.0,0.0,0.0,0.0,0
2025-03-15,15,2025-03-15 02:55,02:55,EDT,NE  3,7.0,Fair,CLR,37.4,37.4,100.0,,,29.99,0.0,0.0,0.0,0.0,2025-03-18,3,2025,2,KOKV,0.0,0.0,0.0,0.0,3
2025-03-15,15,2025-03-15 03:55,03:55,EDT,Calm,2.5,Fog/Mist,CLR,35.6,33.8,93.0,,,29.96,0.0,0.0,0.0,0.0,2025-03-18,3,2025,3,KOKV,0.0,0.0,0.0,0.0,0
2025-03-15,15,2025-03-15 04:55,04:55,EDT,Calm,4.0,Fog/Mist,CLR,35.6,33.8,93.0,,,29.98,0.0,0.0,0.0,0.0,2025-03-18,3,2025,4,KOKV,0.0,0.0,0.0,0.0,0
2025-03-15,15,2025-03-15 05:55,05:55,EDT,Calm,0.0,,,0.0,0.0,0.0,,,30.02,0.0,0.0,0.0,0.0,2025-03-18,3,2025,5,KOKV,0.0,0.0,0.0,0.0,0
2025-03-15,15,2025-03-15 06:55,06:55,EDT,E  5,5.0,Fog/Mist,OVC023,37.4,37.4,100.0,34.0,,30.0,0.0,0.0,0.0,0.0,2025-03-18,3,2025,6,KOKV,0.0,0.0,0.0,0.0,5
2025-03-15,15,2025-03-15 07:55,07:55,EDT,Calm,3.0,Fog/Mist,BKN009 OVC021,41.0,39.2,93.0,,,30.03,0.0,0.0,0.0,0.0,2025-03-18,3,2025,7,KOKV,0.0,0.0,0.0,0.0,0
2025-03-15,15,2025-03-15 08:55,08:55,EDT,SE  6,4.0,Fog/Mist,OVC007,42.8,41.0,93.0,40.0,,30.04,0.0,0.0,0.0,0.0,2025-03-18,3,2025,8,KOKV,0.0,0.0,0.0,0.0,6
2025-03-15,15,2025-03-15 09:55,09:55,EDT,SE  7,10.0,Overcast,SCT009 SCT014 OVC021,44.6,42.8,93.0,41.0,,30.0,0.0,0.0,0.0,0.0,2025-03-18,3,2025,9,KOKV,0.0,0.0,0.0,0.0,7
2025-03-15,15,2025-03-15 10:55,10:55,EDT,SE  10,10.0,Overcast,BKN013 OVC021,50.0,42.8,76.0,46.0,,30.01,0.0,0.0,0.0,0.0,2025-03-18,3,2025,10,KOKV,0.0,0.0,0.0,0.0,10
2025-03-15,15,2025-03-15 11:55,11:55,EDT,SE  12,10.0,Fair,CLR,51.8,42.8,72.0,,,30.0,0.0,0.0,0.0,0.0,2025-03-18,3,2025,11,KOKV,0.0,0.0,0.0,0.0,12
2025-03-15,15,2025-03-15 12:55,12:55,EDT,S  10,10.0,Fair,CLR,53.6,44.6,72.0,,,30.0,0.0,0.0,0.0,0.0,2025-03-18,3,2025,12,KOKV,0.0,0.0,0.0,0.0,10
2025-03-15,15,2025-03-15 13:55,13:55,EDT,SE  8,10.0,Fair,CLR,55.4,44.6,67.0,,,29.97,0.0,0.0,0.0,0.0,2025-03-18,3,2025,13,KOKV,0.0,0.0,0.0,0.0,8
2025-03-15,15,2025-03-15 14:55,14:55,EDT,SE  12,10.0,Fair,CLR,55.4,44.6,67.0,,,29.93,0.0,0.0,0.0,0.0,2025-03-18,3,2025,14,KOKV,0.0,0.0,0.0,0.0,12
2025-03-15,15,2025-03-15 15:55,15:55,EDT,SE  14,10.0,Fair,CLR,57.2,44.6,63.0,,,29.92,0.0,0.0,0.0,0.0,2025-03-18,3,2025,15,KOKV,0.0,0.0,0.0,0.0,14
2025-03-15,15,2025-03-15 16:55,16:55,EDT,SE  9,10.0,Fair,CLR,59.0,46.4,63.0,,,29.9,0.0,0.0,0.0,0.0,2025-03-18,3,2025,16,KOKV,0.0,0.0,0.0,0.0,9
2025-03-15,15,2025-03-15 17:55,17:55,EDT,SE  15  G 24,10.0,Fair,CLR,55.4,46.4,72.0,,,29.87,0.0,0.0,0.0,0.0,2025-03-18,3,2025,17,KOKV,0.0,0.0,0.0,0.0,15
2025-03-15,15,2025-03-15 18:35,18:35,EDT,S  15  G 22,10.0,Fair,CLR,55.4,46.4,72.0,,,29.89,0.0,0.0,0.0,0.0,2025-03-18,3,2025,18,KOKV,0.0,0.0,0.0,0.0,15
2025-03-15,15,2025-03-15 19:55,19:55,EDT,S  8,10.0,Mostly Cloudy,BKN020 BKN031,53.6,46.4,77.0,,,29.92,0.0,0.0,0.0,0.0,2025-03-18,3,2025,19,KOKV,0.0,0.0,0.0,0.0,8
2025-03-15,15,2025-03-15 20:55,20:55,EDT,SE  9,10.0,Partly Cloudy,SCT033,51.8,46.4,82.0,,,29.91,0.0,0.0,0.0,0.0,2025-03-18,3,2025,20,KOKV,0.0,0.0,0.0,0.0,9
2025-03-15,15,2025-03-15 21:55,21:55,EDT,SE  15  G 23,10.0,Partly Cloudy,SCT028,53.6,50.0,88.0,,,29.91,0.0,0.0,0.0,0.0,2025-03-18,3,2025,21,KOKV,0.0,0.0,0.0,0.0,15
2025-03-15,15,2025-03-15 22:55,22:55,EDT,SE  14  G 21,10.0,Overcast,OVC025,53.6,50.0,88.0,,,29.92,0.0,0.0,0.0,0.0,2025-03-18,3,2025,22,KOKV,0.0,0.0,0.0,0.0,14
2025-03-15,15,2025-03-15 23:55,23:55,EDT,SE  10,10.0,Mostly Cloudy,SCT050 SCT065 BKN070,53.6,50.0,88.0,,,29.9,0.0,0.0,0.0,0.0,2025-03-18,3,2025,23,KOKV,0.0,0.0,0.0,0.0,10
2025-03-16,16,2025-03-16 00:55,00:55,EDT,SE  8,10.0,Mostly Cloudy,SCT015 BKN023 BKN060,53.6,50.0,88.0,,,29.87,0.0,0.0,0.0,0.0,2025-03-19,3,2025,0,KOKV,0.0,0.0,0.0,0.0,8
2025-03-16,16,2025-03-16 01:55,01:55,EDT,SE  14,10.0,Partly Cloudy,SCT027,53.6,50.0,88.0,,,29.85,0.0,0.0,0.0,0.0,2025-03-19,3,2025,1,KOKV,0.0,0.0,0.0,0.0,14
2025-03-16,16,2025-03-16 02:55,02:55,EDT,S  9  G 18,10.0,Partly Cloudy,SCT039,55.4,51.8,88.0,,,29.83,0.0,0.0,0.0,0.0,2025-03-19,3,2025,2,KOKV,0.0,0.0,0.0,0.0,9
2025-03-16,16,2025-03-16 03:55,03:55,EDT,SE  12,10.0,Partly Cloudy,SCT039,55.4,51.8,88.0,,,29.81,0.0,0.0,0.0,0.0,2025-03-19,3,2025,3,KOKV,0.0,0.0,0.0,0.0,12
2025-03-16,16,2025-03-16 04:55,04:55,EDT,SE  15  G 21,10.0,Partly Cloudy,SCT048,59.0,53.6,82.0,,,29.79,0.0,0.0,0.0,0.0,2025-03-19,3,2025,4,KOKV,0.0,0.0,0.0,0.0,15
2025-03-16,16,2025-03-16 05:55,05:55,EDT,S  13  G 20,10.0,Overcast,SCT031 OVC044,59.0,55.4,88.0,,,29.79,0.0,0.0,0.0,0.0,2025-03-19,3,2025,5,KOKV,0.0,0.0,0.0,0.0,13
2025-03-16,16,2025-03-16 06:55,06:55,EDT,SE  16  G 28,10.0,Overcast,SCT030 OVC040,59.0,55.4,88.0,,,29.78,0.0,0.0,0.0,0.0,2025-03-19,3,2025,6,KOKV,0.0,0.0,0.0,0.0,16
2025-03-16,16,2025-03-16 07:55,07:55,EDT,S  18  G 26,10.0,Overcast,BKN028 OVC032,60.8,55.4,83.0,,,29.76,0.0,0.0,0.0,0.0,2025-03-19,3,2025,7,KOKV,0.0,0.0,0.0,0.0,18
2025-03-16,16,2025-03-16 08:55,08:55,EDT,S  16  G 24,10.0,Overcast,OVC029,62.6,55.4,77.0,,,29.75,0.0,0.0,0.0,0.0,2025-03-19,3,2025,8,KOKV,0.0,0.0,0.0,0.0,16
2025-03-16,16,2025-03-16 09:55,09:55,EDT,SE  12  G 22,10.0,Overcast,SCT016 BKN035 OVC043,60.8,59.0,94.0,,,29.74,0.0,0.0,0.0,0.0,2025-03-19,3,2025,9,KOKV,0.0,0.0,0.0,0.0,12
2025-03-16,16,2025-03-16 10:55,10:55,EDT,SE  12  G 17,10.0,Overcast,SCT017 BKN035 OVC048,62.6,59.0,88.0,,,29.74,0.0,0.0,0.0,0.0,2025-03-19,3,2025,10,KOKV,0.0,0.0,0.0,0.0,12
2025-03-16,16,2025-03-16 11:55,11:55,EDT,SE  16  G 25,7.0,Light Rain,SCT016 SCT035 OVC045,62.6,59.0,88.0,,,29.72,0.0,0.0,0.0,0.0,2025-03-19,3,2025,11,KOKV,0.0,0.0,0.0,0.0,16
2025-03-16,16,2025-03-16 12:55,12:55,EDT,S  17  G 25,10.0,Overcast,BKN050 BKN060 OVC070,64.4,59.0,83.0,,,29.67,0.0,0.0,0.0,0.0,2025-03-19,3,2025,12,KOKV,0.0,0.0,0.0,0.0,17
2025-03-16,16,2025-03-16 13:55,13:55,EDT,S  23  G 31,10.0,Partly Cloudy and Breezy,SCT034 SCT044,69.8,55.4,60.0,,,29.64,0.0,0.0,0.0,0.0,2025-03-19,3,2025,13,KOKV,0.0,0.0,0.0,0.0,23
2025-03-16,16,2025-03-16 14:55,14:55,EDT,S  22  G 41,10.0,Mostly Cloudy and Breezy,SCT028 BKN035 BKN044,69.8,59.0,69.0,,,29.63,0.0,0.0,0.0,0.0,2025-03-19,3,2025,14,KOKV,0.0,0.0,0.0,0.0,22
2025-03-16,16,2025-03-16 15:55,15:55,EDT,S  21  G 25,10.0,Mostly Cloudy and Breezy,SCT042 SCT050 BKN070,71.6,55.4,57.0,,,29.63,0.0,0.0,0.0,0.0,2025-03-19,3,2025,15,KOKV,0.0,0.0,0.0,0.0,21
2025-03-16,16,2025-03-16 16:55,16:55,EDT,S  22  G 36,10.0,Fair and Breezy,CLR,71.6,53.6,53.0,,,29.62,0.0,0.0,0.0,0.0,2025-03-19,3,2025,16,KOKV,0.0,0.0,0.0,0.0,22
2025-03-16,16,2025-03-16 17:35,17:35,EDT,S  17  G 24,10.0,Overcast,BKN070 OVC080,69.8,55.4,60.0,,,29.64,0.0,0.0,0.0,0.0,2025-03-19,3,2025,17,KOKV,0.0,0.0,0.0,0.0,17
2025-03-16,16,2025-03-16 18:55,18:55,EDT,NW  10,10.0,Overcast,BKN040 BKN050 OVC070,60.8,50.0,68.0,,,29.69,0.0,0.0,0.0,0.0,2025-03-19,3,2025,18,KOKV,0.0,0.0,0.0,0.0,10
2025-03-16,16,2025-03-16 19:55,19:55,EDT,NW  7,10.0,Overcast,OVC035,57.2,51.8,82.0,,,29.67,0.0,0.0,0.0,0.0,2025-03-19,3,2025,19,KOKV,0.0,0.0,0.0,0.0,7
2025-03-16,16,2025-03-16 20:55,20:55,EDT,W  3,3.0,Heavy Rain,SCT043 BKN055 OVC075,53.6,50.0,88.0,,,0.0,0.0,0.0,0.0,0.0,2025-03-19,3,2025,20,KOKV,0.0,0.0,0.0,0.0,3
2025-03-16,16,2025-03-16 21:55,21:55,EDT,NW  3,10.0,Thunderstorm in Vicinity,SCT065 SCT080 BKN100,51.8,50.0,94.0,,,29.72,0.0,0.0,0.0,0.0,2025-03-19,3,2025,21,KOKV,0.0,0.0,0.0,0.0,3
2025-03-16,16,2025-03-16 22:55,22:55,EDT,Calm,10.0,Overcast,SCT003 SCT037 OVC080,51.8,51.8,100.0,,,29.77,0.0,0.0,0.0,0.0,2025-03-19,3,2025,22,KOKV,0.0,0.0,0.0,0.0,0
2025-03-16,16,2025-03-16 23:55,23:55,EDT,Calm,10.0,Overcast,SCT065 OVC080,51.8,51.8,100.0,,,29.78,0.0,0.0,0.0,0.0,2025-03-19,3,2025,23,KOKV,0.0,0.0,0.0,0.0,0
2025-03-17,17,2025-03-17 00:55,00:55,EDT,NW  3,10.0,Overcast,SCT045 OVC085,51.8,51.8,100.0,,,29.78,0.0,0.0,0.0,0.0,2025-03-20,3,2025,0,KOKV,0.0,0.0,0.0,0.0,3
2025-03-17,17,2025-03-17 01:55,01:55,EDT,N  5,10.0,Partly Cloudy,SCT085,51.8,51.8,100.0,,,29.79,0.0,0.0,0.0,0.0,2025-03-20,3,2025,1,KOKV,0.0,0.0,0.0,0.0,5
2025-03-17,17,2025-03-17 02:55,02:55,EDT,NW  16  G 21,10.0,Partly Cloudy,SCT110,51.8,46.4,82.0,,,29.79,0.0,0.0,0.0,0.0,2025-03-20,3,2025,2,KOKV,0.0,0.0,0.0,0.0,16
2025-03-17,17,2025-03-17 03:55,03:55,EDT,NW  13,10.0,Partly Cloudy,SCT110,50.0,42.8,76.0,46.0,,29.82,0.0,0.0,0.0,0.0,2025-03-20,3,2025,3,KOKV,0.0,0.0,0.0,0.0,13
2025-03-17,17,2025-03-17 04:55,04:55,EDT,NW  15  G 25,10.0,Fair,CLR,48.2,41.0,76.0,43.0,,29.83,0.0,0.0,0.0,0.0,2025-03-20,3,2025,4,KOKV,0.0,0.0,0.0,0.0,15
2025-03-17,17,2025-03-17 05:55,05:55,EDT,NW  14  G 20,10.0,Partly Cloudy,SCT036 SCT047,46.4,37.4,71.0,41.0,,29.85,0.0,0.0,0.0,0.0,2025-03-20,3,2025,5,KOKV,0.0,0.0,0.0,0.0,14
2025-03-17,17,2025-03-17 06:55,06:55,EDT,NW  10,10.0,Overcast,OVC043,44.6,35.6,71.0,40.0,,29.9,0.0,0.0,0.0,0.0,2025-03-20,3,2025,6,KOKV,0.0,0.0,0.0,0.0,10
2025-03-17,17,2025-03-17 07:55,07:55,EDT,NW  9  G 17,10.0,Overcast,BKN038 OVC044,44.6,33.8,66.0,40.0,,29.93,0.0,0.0,0.0,0.0,2025-03-20,3,2025,7,KOKV,0.0,0.0,0.0,0.0,9
2025-03-17,17,2025-03-17 08:55,08:55,EDT,NW  15,10.0,Overcast,OVC041,42.8,32.0,66.0,36.0,,29.97,0.0,0.0,0.0,0.0,2025-03-20,3,2025,8,KOKV,0.0,0.0,0.0,0.0,15
2025-03-17,17,2025-03-17 09:55,09:55,EDT,NW  16  G 21,10.0,Overcast,SCT035 OVC040,42.8,32.0,66.0,36.0,,29.99,0.0,0.0,0.0,0.0,2025-03-20,3,2025,9,KOKV,0.0,0.0,0.0,0.0,16
2025-03-17,17,2025-03-17 10:55,10:55,EDT,NW  13  G 23,10.0,Overcast,SCT037 OVC050,44.6,32.0,61.0,39.0,,30.0,0.0,0.0,0.0,0.0,2025-03-20,3,2025,10,KOKV,0.0,0.0,0.0,0.0,13
2025-03-17,17,2025-03-17 11:35,11:35,EDT,NW  15,10.0,Overcast,BKN035 OVC042,44.6,32.0,61.0,38.0,,30.0,0.0,0.0,0.0,0.0,2025-03-20,3,2025,11,KOKV,0.0,0.0,0.0,0.0,15
2025-03-17,17,2025-03-17 12:55,12:55,EDT,NW  13  G 20,10.0,Overcast,SCT032 BKN037 OVC045,44.6,32.0,61.0,39.0,,30.01,0.0,0.0,0.0,0.0,2025-03-20,3,2025,12,KOKV,0.0,0.0,0.0,0.0,13
2025-03-17,17,2025-03-17 13:55,13:55,EDT,NW  14  G 18,10.0,Overcast,OVC037,44.6,32.0,61.0,39.0,,30.0,0.0,0.0,0.0,0.0,2025-03-20,3,2025,13,KOKV,0.0,0.0,0.0,0.0,14
2025-03-17,17,2025-03-17 14:55,14:55,EDT,NW  15  G 21,10.0,Mostly Cloudy,BKN043,46.4,32.0,57.0,41.0,,29.99,0.0,0.0,0.0,0.0,2025-03-20,3,2025,14,KOKV,0.0,0.0,0.0,0.0,15
2025-03-17,17,2025-03-17 15:55,15:55,EDT,NW  16  G 29,10.0,Partly Cloudy,SCT043,44.6,30.2,57.0,38.0,,29.99,0.0,0.0,0.0,0.0,2025-03-20,3,2025,15,KOKV,0.0,0.0,0.0,0.0,16
2025-03-17,17,2025-03-17 16:55,16:55,EDT,NW  20  G 31,10.0,Mostly Cloudy,BKN043,44.6,30.2,57.0,37.0,,30.0,0.0,0.0,0.0,0.0,2025-03-20,3,2025,16,KOKV,0.0,0.0,0.0,0.0,20
2025-03-17,17,2025-03-17 17:55,17:55,EDT,NW  21  G 28,10.0,Fair and Breezy,CLR,44.6,26.6,49.0,37.0,,30.01,0.0,0.0,0.0,0.0,2025-03-20,3,2025,17,KOKV,0.0,0.0,0.0,0.0,21
2025-03-17,17,2025-03-17 18:55,18:55,EDT,NW  10  G 20,10.0,Fair,CLR,42.8,26.6,53.0,38.0,,30.02,0.0,0.0,0.0,0.0,2025-03-20,3,2025,18,KOKV,0.0,0.0,0.0,0.0,10
2025-03-17,17,2025-03-17 19:55,19:55,EDT,NW  9,10.0,Fair,CLR,41.0,26.6,57.0,36.0,,30.04,0.0,0.0,0.0,0.0,2025-03-20,3,2025,19,KOKV,0.0,0.0,0.0,0.0,9
2025-03-17,17,2025-03-17 20:55,20:55,EDT,NW  9,10.0,Fair,CLR,39.2,26.6,61.0,34.0,,30.05,0.0,0.0,0.0,0.0,2025-03-20,3,2025,20,KOKV,0.0,0.0,0.0,0.0,9
2025-03-17,17,2025-03-17 21:55,21:55,EDT,NW  9,10.0,Fair,CLR,37.4,26.6,65.0,31.0,,30.08,0.0,0.0,0.0,0.0,2025-03-20,3,2025,21,KOKV,0.0,0.0,0.0,0.0,9
2025-03-17,17,2025-03-17 22:55,22:55,EDT,NW  5,10.0,Fair,CLR,37.4,24.8,60.0,34.0,,30.1,0.0,0.0,0.0,0.0,2025-03-20,3,2025,22,KOKV,0.0,0.0,0.0,0.0,5
2025-03-17,17,2025-03-17 23:55,23:55,EDT,NW  5,10.0,Fair,CLR,35.6,26.6,70.0,32.0,,30.1,0.0,0.0,0.0,0.0,2025-03-20,3,2025,23,KOKV,0.0,0.0,0.0,0.0,5
2025-03-18,18,2025-03-18 00:55,00:55,EDT,NW  9,10.0,Fair,CLR,32.0,24.8,75.0,25.0,,30.12,0.0,0.0,0.0,0.0,2025-03-21,3,2025,0,KOKV,0.0,0.0,0.0,0.0,9
2025-03-18,18,2025-03-18 01:55,01:55,EDT,NW  8,10.0,Fair,CLR,33.8,23.0,65.0,28.0,,30.12,0.0,0.0,0.0,0.0,2025-03-21,3,2025,1,KOKV,0.0,0.0,0.0,0.0,8
2025-03-18,18,2025-03-18 02:55,02:55,EDT,NW  14  G 21,10.0,Fair,CLR,35.6,23.0,60.0,27.0,,30.11,0.0,0.0,0.0,0.0,2025-03-21,3,2025,2,KOKV,0.0,0.0,0.0,0.0,14
2025-03-18,18,2025-03-18 03:55,03:55,EDT,NW  13,10.0,Fair,CLR,35.6,23.0,60.0,28.0,,30.11,0.0,0.0,0.0,0.0,2025-03-21,3,2025,3,KOKV,0.0,0.0,0.0,0.0,13
2025-03-18,18,2025-03-18 04:55,04:55,EDT,NW  10,10.0,Fair,CLR,35.6,23.0,60.0,29.0,,30.12,0.0,0.0,0.0,0.0,2025-03-21,3,2025,4,KOKV,0.0,0.0,0.0,0.0,10
2025-03-18,18,2025-03-18 05:55,05:55,EDT,NE  3,10.0,Fair,CLR,35.6,23.0,60.0,,,30.14,0.0,0.0,0.0,0.0,2025-03-21,3,2025,5,KOKV,0.0,0.0,0.0,0.0,3
2025-03-18,18,2025-03-18 06:55,06:55,EDT,N  3,10.0,Fair,CLR,35.6,23.0,60.0,,,30.16,0.0,0.0,0.0,0.0,2025-03-21,3,2025,6,KOKV,0.0,0.0,0.0,0.0,3
2025-03-18,18,2025-03-18 07:55,07:55,EDT,Calm,10.0,Fair,CLR,35.6,23.0,60.0,,,30.15,0.0,0.0,0.0,0.0,2025-03-21,3,2025,7,KOKV,0.0,0.0,0.0,0.0,0
2025-03-18,18,2025-03-18 08:55,08:55,EDT,N  6,10.0,Fair,CLR,41.0,23.0,49.0,38.0,,30.16,0.0,0.0,0.0,0.0,2025-03-21,3,2025,8,KOKV,0.0,0.0,0.0,0.0,6
2025-03-18,18,2025-03-18 09:55,09:55,EDT,NW  7,10.0,Fair,CLR,44.6,26.6,49.0,41.0,,30.15,0.0,0.0,0.0,0.0,2025-03-21,3,2025,9,KOKV,0.0,0.0,0.0,0.0,7
2025-03-18,18,2025-03-18 10:55,10:55,EDT,NW  3,10.0,Fair,CLR,48.2,26.6,43.0,,,30.16,0.0,0.0,0.0,0.0,2025-03-21,3,2025,10,KOKV,0.0,0.0,0.0,0.0,3
2025-03-18,18,2025-03-18 11:55,11:55,EDT,SW  3,10.0,Fair,CLR,51.8,26.6,38.0,,,30.14,0.0,0.0,0.0,0.0,2025-03-21,3,2025,11,KOKV,0.0,0.0,0.0,0.0,3
2025-03-18,18,2025-03-18 12:55,12:55,EDT,W  5,10.0,Fair,CLR,53.6,26.6,35.0,,,30.11,0.0,0.0,0.0,0.0,2025-03-21,3,2025,12,KOKV,0.0,0.0,0.0,0.0,5
2025-03-18,18,2025-03-18 13:55,13:55,EDT,W  6,10.0,Fair,CLR,59.0,26.6,29.0,,,30.08,0.0,0.0,0.0,0.0,2025-03-21,3,2025,13,KOKV,0.0,0.0,0.0,0.0,6
2025-03-18,18,2025-03-18 14:55,14:55,EDT,S  3,10.0,Fair,CLR,60.8,26.6,27.0,,,30.05,0.0,0.0,0.0,0.0,2025-03-21,3,2025,14,KOKV,0.0,0.0,0.0,0.0,3
2025-03-18,18,2025-03-18 15:55,15:55,EDT,Calm,10.0,Fair,CLR,62.6,26.6,25.0,,,30.02,0.0,0.0,0.0,0.0,2025-03-21,3,2025,15,KOKV,0.0,0.0,0.0,0.0,0
2025-03-18,18,2025-03-18 16:55,16:55,EDT,S  5,10.0,Fair,CLR,64.4,26.6,24.0,,,30.02,0.0,0.0,0.0,0.0,2025-03-21,3,2025,16,KOKV,0.0,0.0,0.0,0.0,5
2025-03-18,18,2025-03-18 17:55,17:55,EDT,SE  3,10.0,Fair,CLR,62.6,28.4,27.0,,,30.01,0.0,0.0,0.0,0.0,2025-03-21,3,2025,17,KOKV,0.0,0.0,0.0,0.0,3
2025-03-18,18,2025-03-18 18:55,18:55,EDT,Calm,10.0,Fair,CLR,62.6,28.4,27.0,,,30.01,0.0,0.0,0.0,0.0,2025-03-21,3,2025,18,KOKV,0.0,0.0,0.0,0.0,0
2025-03-18,18,2025-03-18 19:55,19:55,EDT,SE  3,10.0,Fair,CLR,53.6,28.4,38.0,,,30.01,0.0,0.0,0.0,0.0,2025-03-21,3,2025,19,KOKV,0.0,0.0,0.0,0.0,3
2025-03-18,18,2025-03-18 20:55,20:55,EDT,S  3,10.0,Fair,CLR,50.0,28.4,43.0,,,30.02,0.0,0.0,0.0,0.0,2025-03-21,3,2025,20,KOKV,0.0,0.0,0.0,0.0,3
2025-03-18,18,2025-03-18 21:55,21:55,EDT,Calm,10.0,Fair,CLR,44.6,30.2,57.0,,,30.02,0.0,0.0,0.0,0.0,2025-03-21,3,2025,21,KOKV,0.0,0.0,0.0,0.0,0
2025-03-18,18,2025-03-18 22:55,22:55,EDT,Calm,10.0,Fair,CLR,44.6,28.4,53.0,,,30.02,0.0,0.0,0.0,0.0,2025-03-21,3,2025,22,KOKV,0.0,0.0,0.0,0.0,0
2025-03-18,18,2025-03-18 23:55,23:55,EDT,Calm,10.0,Fair,CLR,42.8,28.4,57.0,,,30.03,0.0,0.0,0.0,0.0,2025-03-21,3,2025,23,KOKV,0.0,0.0,0.0,0.0,0
2025-03-19,19,2025-03-19 00:55,00:55,EDT,Calm,10.0,Fair,CLR,41.0,28.4,61.0,,,30.01,0.0,0.0,0.0,0.0,2025-03-22,3,2025,0,KOKV,0.0,0.0,0.0,0.0,0
2025-03-19,19,2025-03-19 01:55,01:55,EDT,Calm,10.0,Fair,CLR,41.0,28.4,61.0,,,30.0,0.0,0.0,0.0,0.0,2025-03-22,3,2025,1,KOKV,0.0,0.0,0.0,0.0,0
2025-03-19,19,2025-03-19 02:55,02:55,EDT,Calm,10.0,Fair,CLR,41.0,30.2,66.0,,,30.01,0.0,0.0,0.0,0.0,2025-03-22,3,2025,2,KOKV,0.0,0.0,0.0,0.0,0
2025-03-19,19,2025-03-19 03:55,03:55,EDT,Calm,10.0,Fair,CLR,37.4,30.2,75.0,,,30.0,0.0,0.0,0.0,0.0,2025-03-22,3,2025,3,KOKV,0.0,0.0,0.0,0.0,0
2025-03-19,19,2025-03-19 04:55,04:55,EDT,Calm,10.0,Fair,CLR,35.6,28.4,75.0,,,29.99,0.0,0.0,0.0,0.0,2025-03-22,3,2025,4,KOKV,0.0,0.0,0.0,0.0,0
2025-03-19,19,2025-03-19 05:55,05:55,EDT,NW  3,10.0,Fair,CLR,35.6,30.2,81.0,,,30.01,0.0,0.0,0.0,0.0,2025-03-22,3,2025,5,KOKV,0.0,0.0,0.0,0.0,3
2025-03-19,19,2025-03-19 06:55,06:55,EDT,Calm,10.0,Fair,CLR,33.8,30.2,87.0,,,30.02,0.0,0.0,0.0,0.0,2025-03-22,3,2025,6,KOKV,0.0,0.0,0.0,0.0,0
2025-03-19,19,2025-03-19 07:55,07:55,EDT,W  5,10.0,Fair,CLR,32.0,30.2,93.0,28.0,,30.03,0.0,0.0,0.0,0.0,2025-03-22,3,2025,7,KOKV,0.0,0.0,0.0,0.0,5
2025-03-19,19,2025-03-19 08:55,08:55,EDT,SE  3,10.0,Fair,CLR,46.4,32.0,57.0,,,30.02,0.0,0.0,0.0,0.0,2025-03-22,3,2025,8,KOKV,0.0,0.0,0.0,0.0,3
2025-03-19,19,2025-03-19 09:55,09:55,EDT,Calm,10.0,Fair,CLR,51.8,32.0,47.0,,,30.02,0.0,0.0,0.0,0.0,2025-03-22,3,2025,9,KOKV,0.0,0.0,0.0,0.0,0
2025-03-19,19,2025-03-19 10:55,10:55,EDT,Calm,10.0,Fair,CLR,57.2,32.0,39.0,,,30.01,0.0,0.0,0.0,0.0,2025-03-22,3,2025,10,KOKV,0.0,0.0,0.0,0.0,0
2025-03-19,19,2025-03-19 11:55,11:55,EDT,SE  3,10.0,Fair,CLR,62.6,32.0,32.0,,,29.99,0.0,0.0,0.0,0.0,2025-03-22,3,2025,11,KOKV,0.0,0.0,0.0,0.0,3
2025-03-19,19,2025-03-19 12:55,12:55,EDT,SE  9,10.0,Fair,CLR,68.0,32.0,26.0,,,29.97,0.0,0.0,0.0,0.0,2025-03-22,3,2025,12,KOKV,0.0,0.0,0.0,0.0,9
2025-03-19,19,2025-03-19 13:55,13:55,EDT,SE  10,10.0,Fair,CLR,69.8,32.0,25.0,,,29.93,0.0,0.0,0.0,0.0,2025-03-22,3,2025,13,KOKV,0.0,0.0,0.0,0.0,10
2025-03-19,19,2025-03-19 14:55,14:55,EDT,SE  17  G 24,10.0,Fair,CLR,69.8,32.0,25.0,,,29.91,0.0,0.0,0.0,0.0,2025-03-22,3,2025,14,KOKV,0.0,0.0,0.0,0.0,17
2025-03-19,19,2025-03-19 15:55,15:55,EDT,S  12  G 23,10.0,Fair,CLR,69.8,32.0,25.0,,,29.88,0.0,0.0,0.0,0.0,2025-03-22,3,2025,15,KOKV,0.0,0.0,0.0,0.0,12
2025-03-19,19,2025-03-19 16:55,16:55,EDT,S  15  G 21,10.0,Fair,CLR,69.8,33.8,27.0,,,29.85,0.0,0.0,0.0,0.0,2025-03-22,3,2025,16,KOKV,0.0,0.0,0.0,0.0,15
2025-03-19,19,2025-03-19 17:55,17:55,EDT,S  10,10.0,Fair,CLR,69.8,33.8,27.0,,,29.84,0.0,0.0,0.0,0.0,2025-03-22,3,2025,17,KOKV,0.0,0.0,0.0,0.0,10
2025-03-19,19,2025-03-19 18:55,18:55,EDT,S  12  G 18,10.0,Fair,CLR,68.0,32.0,26.0,,,29.84,0.0,0.0,0.0,0.0,2025-03-22,3,2025,18,KOKV,0.0,0.0,0.0,0.0,12
2025-03-19,19,2025-03-19 19:55,19:55,EDT,SE  8,10.0,Fair,CLR,64.4,33.8,32.0,,,29.83,0.0,0.0,0.0,0.0,2025-03-22,3,2025,19,KOKV,0.0,0.0,0.0,0.0,8
2025-03-19,19,2025-03-19 20:55,20:55,EDT,SE  6,10.0,Fair,CLR,64.4,33.8,32.0,,,29.83,0.0,0.0,0.0,0.0,2025-03-22,3,2025,20,KOKV,0.0,0.0,0.0,0.0,6
2025-03-19,19,2025-03-19 21:55,21:55,EDT,S  13  G 20,10.0,Fair,CLR,64.4,33.8,32.0,,,29.82,0.0,0.0,0.0,0.0,2025-03-22,3,2025,21,KOKV,0.0,0.0,0.0,0.0,13
2025-03-19,19,2025-03-19 22:55,22:55,EDT,S  9,10.0,Fair,CLR,62.6,35.6,37.0,,,29.81,0.0,0.0,0.0,0.0,2025-03-22,3,2025,22,KOKV,0.0,0.0,0.0,0.0,9
2025-03-19,19,2025-03-19 23:55,23:55,EDT,S  16  G 23,10.0,Fair,CLR,62.6,35.6,37.0,,,29.79,0.0,0.0,0.0,0.0,2025-03-22,3,2025,23,KOKV,0.0,0.0,0.0,0.0,16
2025-03-20,20,2025-03-20 00:55,00:55,EDT,S  14  G 22,10.0,Fair,CLR,60.8,35.6,39.0,,,29.77,0.0,0.0,0.0,0.0,2025-03-23,3,2025,0,KOKV,0.0,0.0,0.0,0.0,14
2025-03-20,20,2025-03-20 01:55,01:55,EDT,SE  16  G 21,10.0,Fair,CLR,55.4,33.8,44.0,,,29.75,0.0,0.0,0.0,0.0,2025-03-23,3,2025,1,KOKV,0.0,0.0,0.0,0.0,16
2025-03-20,20,2025-03-20 02:55,02:55,EDT,SE  9,10.0,Fair,CLR,53.6,33.8,47.0,,,29.74,0.0,0.0,0.0,0.0,2025-03-23,3,2025,2,KOKV,0.0,0.0,0.0,0.0,9
2025-03-20,20,2025-03-20 03:55,03:55,EDT,SE  3,10.0,Fair,CLR,48.2,32.0,54.0,,,29.72,0.0,0.0,0.0,0.0,2025-03-23,3,2025,3,KOKV,0.0,0.0,0.0,0.0,3
2025-03-20,20,2025-03-20 04:55,04:55,EDT,Calm,10.0,Fair,CLR,42.8,32.0,66.0,,,29.71,0.0,0.0,0.0,0.0,2025-03-23,3,2025,4,KOKV,0.0,0.0,0.0,0.0,0
2025-03-20,20,2025-03-20 05:55,05:55,EDT,SE  6,10.0,Fair,CLR,41.0,32.0,70.0,38.0,,29.68,0.0,0.0,0.0,0.0,2025-03-23,3,2025,5,KOKV,0.0,0.0,0.0,0.0,6
2025-03-20,20,2025-03-20 06:55,06:55,EDT,SE  9,10.0,Fair,CLR,41.0,32.0,70.0,36.0,,29.65,0.0,0.0,0.0,0.0,2025-03-23,3,2025,6,KOKV,0.0,0.0,0.0,0.0,9
2025-03-20,20,2025-03-20 07:55,07:55,EDT,Calm,10.0,Fair,CLR,41.0,33.8,76.0,,,29.67,0.0,0.0,0.0,0.0,2025-03-23,3,2025,7,KOKV,0.0,0.0,0.0,0.0,0
2025-03-20,20,2025-03-20 08:55,08:55,EDT,SE  3,10.0,Fair,CLR,53.6,35.6,51.0,,,29.64,0.0,0.0,0.0,0.0,2025-03-23,3,2025,8,KOKV,0.0,0.0,0.0,0.0,3
2025-03-20,20,2025-03-20 09:55,09:55,EDT,S  8,10.0,Fair,CLR,57.2,35.6,44.0,,,29.62,0.0,0.0,0.0,0.0,2025-03-23,3,2025,9,KOKV,0.0,0.0,0.0,0.0,8
2025-03-20,20,2025-03-20 10:55,10:55,EDT,SE  9,10.0,Fair,CLR,60.8,37.4,42.0,,,29.59,0.0,0.0,0.0,0.0,2025-03-23,3,2025,10,KOKV,0.0,0.0,0.0,0.0,9
2025-03-20,20,2025-03-20 11:55,11:55,EDT,S  14  G 18,10.0,Fair,CLR,64.4,37.4,37.0,,,29.56,0.0,0.0,0.0,0.0,2025-03-23,3,2025,11,KOKV,0.0,0.0,0.0,0.0,14
2025-03-20,20,2025-03-20 12:55,12:55,EDT,S  14  G 17,10.0,Fair,CLR,68.0,37.4,33.0,,,29.54,0.0,0.0,0.0,0.0,2025-03-23,3,2025,12,KOKV,0.0,0.0,0.0,0.0,14
2025-03-20,20,2025-03-20 13:55,13:55,EDT,SE  5,10.0,Partly Cloudy,SCT095 SCT110,68.0,39.2,35.0,,,29.53,0.0,0.0,0.0,0.0,2025-03-23,3,2025,13,KOKV,0.0,0.0,0.0,0.0,5
2025-03-20,20,2025-03-20 14:55,14:55,EDT,NW  16,10.0,Mostly Cloudy,BKN100,62.6,42.8,49.0,,,29.53,0.0,0.0,0.0,0.0,2025-03-23,3,2025,14,KOKV,0.0,0.0,0.0,0.0,16
2025-03-20,20,2025-03-20 15:55,15:55,EDT,NW  9,10.0,Partly Cloudy,SCT075 SCT100,62.6,42.8,49.0,,,29.51,0.0,0.0,0.0,0.0,2025-03-23,3,2025,15,KOKV,0.0,0.0,0.0,0.0,9
2025-03-20,20,2025-03-20 16:55,16:55,EDT,NW  12  G 21,10.0,Overcast,OVC070,59.0,46.4,63.0,,,29.5,0.0,0.0,0.0,0.0,2025-03-23,3,2025,16,KOKV,0.0,0.0,0.0,0.0,12
2025-03-20,20,2025-03-20 17:55,17:55,EDT,NW  16  G 24,7.0,Rain,SCT038 BKN055 OVC085,51.8,46.4,82.0,,,29.54,0.0,0.0,0.0,0.0,2025-03-23,3,2025,17,KOKV,0.0,0.0,0.0,0.0,16
2025-03-20,20,2025-03-20 18:55,18:55,EDT,NW  9,10.0,Light Rain,OVC060,48.2,41.0,76.0,45.0,,29.57,0.0,0.0,0.0,0.0,2025-03-23,3,2025,18,KOKV,0.0,0.0,0.0,0.0,9
2025-03-20,20,2025-03-20 19:55,19:55,EDT,NW  18,10.0,Overcast,SCT080 OVC110,50.0,37.4,62.0,44.0,,29.57,0.0,0.0,0.0,0.0,2025-03-23,3,2025,19,KOKV,0.0,0.0,0.0,0.0,18
2025-03-20,20,2025-03-20 20:55,20:55,EDT,NW  23  G 31,10.0,Fair and Breezy,CLR,48.2,32.0,54.0,41.0,,29.61,0.0,0.0,0.0,0.0,2025-03-23,3,2025,20,KOKV,0.0,0.0,0.0,0.0,23
2025-03-20,20,2025-03-20 21:55,21:55,EDT,NW  22  G 37,10.0,Mostly Cloudy and Breezy,SCT049 BKN060,46.4,32.0,57.0,39.0,,29.64,0.0,0.0,0.0,0.0,2025-03-23,3,2025,21,KOKV,0.0,0.0,0.0,0.0,22
2025-03-20,20,2025-03-20 22:55,22:55,EDT,W  12  G 20,10.0,Overcast,BKN045 OVC055,44.6,32.0,61.0,39.0,,29.68,0.0,0.0,0.0,0.0,2025-03-23,3,2025,22,KOKV,0.0,0.0,0.0,0.0,12
2025-03-20,20,2025-03-20 23:55,23:55,EDT,NW  16  G 22,10.0,Overcast,OVC043,42.8,32.0,66.0,36.0,,29.69,0.0,0.0,0.0,0.0,2025-03-23,3,2025,23,KOKV,0.0,0.0,0.0,0.0,16
2025-03-21,21,2025-03-21 00:55,00:55,EDT,NW  20  G 37,10.0,Overcast,SCT033 BKN041 OVC049,41.0,30.2,66.0,33.0,,29.71,0.0,0.0,0.0,0.0,2025-03-24,3,2025,0,KOKV,0.0,0.0,0.0,0.0,20
2025-03-21,21,2025-03-21 01:55,01:55,EDT,NW  21  G 26,10.0,Overcast and Breezy,BKN042 OVC048,41.0,28.4,61.0,32.0,,29.73,0.0,0.0,0.0,0.0,2025-03-24,3,2025,1,KOKV,0.0,0.0,0.0,0.0,21
2025-03-21,21,2025-03-21 02:55,02:55,EDT,NW  20  G 29,10.0,Overcast,OVC046,39.2,26.6,61.0,30.0,,29.74,0.0,0.0,0.0,0.0,2025-03-24,3,2025,2,KOKV,0.0,0.0,0.0,0.0,20
2025-03-21,21,2025-03-21 03:55,03:55,EDT,Calm,0.0,,,37.4,26.6,65.0,,,0.0,0.0,0.0,0.0,0.0,2025-03-24,3,2025,3,KOKV,0.0,0.0,0.0,0.0,0
2025-03-21,21,2025-03-21 07:55,07:55,EDT,NW  8  G 21,10.0,Mostly Cloudy,BKN040,35.6,23.0,60.0,30.0,,29.89,0.0,0.0,0.0,0.0,2025-03-24,3,2025,7,KOKV,0.0,0.0,0.0,0.0,8
2025-03-21,21,2025-03-21 08:55,08:55,EDT,NW  21  G 29,10.0,Mostly Cloudy and Breezy,BKN042,37.4,23.0,56.0,28.0,,29.91,0.0,0.0,0.0,0.0,2025-03-24,3,2025,8,KOKV,0.0,0.0,0.0,0.0,21
2025-03-21,21,2025-03-21 09:55,09:55,EDT,NW  23  G 30,10.0,Fair and Breezy,CLR,41.0,23.0,49.0,32.0,,29.91,0.0,0.0,0.0,0.0,2025-03-24,3,2025,9,KOKV,0.0,0.0,0.0,0.0,23
2025-03-21,21,2025-03-21 10:55,10:55,EDT,NW  23  G 33,10.0,Fair and Breezy,CLR,42.8,21.2,42.0,34.0,,29.92,0.0,0.0,0.0,0.0,2025-03-24,3,2025,10,KOKV,0.0,0.0,0.0,0.0,23
2025-03-21,21,2025-03-21 11:55,11:55,EDT,W  18  G 29,10.0,Fair,CLR,44.6,19.4,37.0,37.0,,29.92,0.0,0.0,0.0,0.0,2025-03-24,3,2025,11,KOKV,0.0,0.0,0.0,0.0,18
2025-03-21,21,2025-03-21 12:55,12:55,EDT,NW  25,10.0,Breezy,,48.2,19.4,32.0,41.0,,29.91,0.0,0.0,0.0,0.0,2025-03-24,3,2025,12,KOKV,0.0,0.0,0.0,0.0,25
2025-03-21,21,2025-03-21 13:55,13:55,EDT,NW  20  G 25,10.0,Fair,CLR,50.0,21.2,32.0,44.0,,29.9,0.0,0.0,0.0,0.0,2025-03-24,3,2025,13,KOKV,0.0,0.0,0.0,0.0,20
2025-03-21,21,2025-03-21 14:55,14:55,EDT,NW  17  G 22,10.0,Fair,CLR,51.8,19.4,28.0,,,29.9,0.0,0.0,0.0,0.0,2025-03-24,3,2025,14,KOKV,0.0,0.0,0.0,0.0,17
2025-03-21,21,2025-03-21 15:55,15:55,EDT,W  8,10.0,Fair,CLR,53.6,23.0,30.0,,,29.89,0.0,0.0,0.0,0.0,2025-03-24,3,2025,15,KOKV,0.0,0.0,0.0,0.0,8
2025-03-21,21,2025-03-21 16:55,16:55,EDT,NW  15  G 20,10.0,Fair,CLR,53.6,23.0,30.0,,,29.87,0.0,0.0,0.0,0.0,2025-03-24,3,2025,16,KOKV,0.0,0.0,0.0,0.0,15
2025-03-21,21,2025-03-21 17:55,17:55,EDT,NW  14  G 20,10.0,Fair,CLR,53.6,21.2,28.0,,,29.87,0.0,0.0,0.0,0.0,2025-03-24,3,2025,17,KOKV,0.0,0.0,0.0,0.0,14
2025-03-21,21,2025-03-21 18:55,18:55,EDT,W  7,10.0,Fair,CLR,51.8,21.2,30.0,,,29.89,0.0,0.0,0.0,0.0,2025-03-24,3,2025,18,KOKV,0.0,0.0,0.0,0.0,7
2025-03-21,21,2025-03-21 19:55,19:55,EDT,W  6,10.0,Fair,CLR,50.0,21.2,32.0,48.0,,29.9,0.0,0.0,0.0,0.0,2025-03-24,3,2025,19,KOKV,0.0,0.0,0.0,0.0,6
2025-03-21,21,2025-03-21 20:55,20:55,EDT,Calm,10.0,Fair,CLR,42.8,23.0,46.0,,,29.91,0.0,0.0,0.0,0.0,2025-03-24,3,2025,20,KOKV,0.0,0.0,0.0,0.0,0
2025-03-21,21,2025-03-21 21:55,21:55,EDT,SW  6,10.0,Fair,CLR,44.6,23.0,43.0,42.0,,29.92,0.0,0.0,0.0,0.0,2025-03-24,3,2025,21,KOKV,0.0,0.0,0.0,0.0,6
2025-03-21,21,2025-03-21 22:55,22:55,EDT,Calm,10.0,Fair,CLR,44.6,21.2,39.0,,,29.9,0.0,0.0,0.0,0.0,2025-03-24,3,2025,22,KOKV,0.0,0.0,0.0,0.0,0
2025-03-21,21,2025-03-21 23:55,23:55,EDT,S  3,10.0,Fair,CLR,41.0,26.6,57.0,,,29.9,0.0,0.0,0.0,0.0,2025-03-24,3,2025,23,KOKV,0.0,0.0,0.0,0.0,3
2025-03-22,22,2025-03-22 00:55,00:55,EDT,SW  3,10.0,Fair,CLR,41.0,24.8,53.0,,,29.9,0.0,0.0,0.0,0.0,2025-03-25,3,2025,0,KOKV,0.0,0.0,0.0,0.0,3
2025-03-22,22,2025-03-22 01:55,01:55,EDT,SW  5,10.0,Fair,CLR,41.0,23.0,49.0,38.0,,29.88,0.0,0.0,0.0,0.0,2025-03-25,3,2025,1,KOKV,0.0,0.0,0.0,0.0,5
2025-03-22,22,2025-03-22 02:55,02:55,EDT,S  3,10.0,Fair,CLR,41.0,23.0,49.0,,,29.85,0.0,0.0,0.0,0.0,2025-03-25,3,2025,2,KOKV,0.0,0.0,0.0,0.0,3
2025-03-22,22,2025-03-22 03:55,03:55,EDT,SW  7,10.0,Fair,CLR,44.6,23.0,43.0,41.0,,29.82,0.0,0.0,0.0,0.0,2025-03-25,3,2025,3,KOKV,0.0,0.0,0.0,0.0,7
2025-03-22,22,2025-03-22 04:35,04:35,EDT,Calm,0.0,,,44.6,23.0,43.0,,,0.0,0.0,0.0,0.0,0.0,2025-03-25,3,2025,4,KOKV,0.0,0.0,0.0,0.0,0
2025-03-22,22,2025-03-22 07:55,07:55,EDT,SW  6,10.0,Fair,CLR,44.6,23.0,43.0,42.0,,29.78,0.0,0.0,0.0,0.0,2025-03-25,3,2025,7,KOKV,0.0,0.0,0.0,0.0,6
2025-03-22,22,2025-03-22 08:55,08:55,EDT,SW  9,10.0,Fair,CLR,44.6,23.0,43.0,40.0,,29.77,0.0,0.0,0.0,0.0,2025-03-25,3,2025,8,KOKV,0.0,0.0,0.0,0.0,9
2025-03-22,22,2025-03-22 09:55,09:55,EDT,SW  9,10.0,Fair,CLR,50.0,26.6,40.0,47.0,,29.77,0.0,0.0,0.0,0.0,2025-03-25,3,2025,9,KOKV,0.0,0.0,0.0,0.0,9
2025-03-22,22,2025-03-22 10:55,10:55,EDT,SW  7  G 17,10.0,Partly Cloudy,SCT080 SCT090,55.4,28.4,36.0,,,29.74,0.0,0.0,0.0,0.0,2025-03-25,3,2025,10,KOKV,0.0,0.0,0.0,0.0,7
2025-03-22,22,2025-03-22 11:55,11:55,EDT,W  20  G 24,10.0,Mostly Cloudy,BKN070 BKN095,57.2,30.2,36.0,,,29.75,0.0,0.0,0.0,0.0,2025-03-25,3,2025,11,KOKV,0.0,0.0,0.0,0.0,20
2025-03-22,22,2025-03-22 12:55,12:55,EDT,W  31  G 41,10.0,Overcast and Windy,BKN070 OVC085,57.2,30.2,36.0,,,29.75,0.0,0.0,0.0,0.0,2025-03-25,3,2025,12,KOKV,0.0,0.0,0.0,0.0,31
2025-03-22,22,2025-03-22 13:55,13:55,EDT,W  22  G 28,10.0,Partly Cloudy and Breezy,SCT070,59.0,30.2,34.0,,,29.75,0.0,0.0,0.0,0.0,2025-03-25,3,2025,13,KOKV,0.0,0.0,0.0,0.0,22
2025-03-22,22,2025-03-22 14:55,14:55,EDT,W  24  G 33,10.0,Overcast and Breezy,OVC085,59.0,28.4,31.0,,,29.75,0.0,0.0,0.0,0.0,2025-03-25,3,2025,14,KOKV,0.0,0.0,0.0,0.0,24
2025-03-22,22,2025-03-22 15:55,15:55,EDT,W  22  G 31,10.0,Overcast and Breezy,BKN075 OVC085,59.0,30.2,34.0,,,29.78,0.0,0.0,0.0,0.0,2025-03-25,3,2025,15,KOKV,0.0,0.0,0.0,0.0,22
2025-03-22,22,2025-03-22 16:55,16:55,EDT,W  25  G 33,10.0,Overcast and Breezy,OVC070,55.4,30.2,38.0,,,29.8,0.0,0.0,0.0,0.0,2025-03-25,3,2025,16,KOKV,0.0,0.0,0.0,0.0,25
2025-03-22,22,2025-03-22 17:55,17:55,EDT,NW  20  G 28,10.0,Overcast,BKN070 OVC080,53.6,32.0,44.0,,,29.83,0.0,0.0,0.0,0.0,2025-03-25,3,2025,17,KOKV,0.0,0.0,0.0,0.0,20
2025-03-22,22,2025-03-22 18:55,18:55,EDT,W  16  G 28,10.0,Partly Cloudy,SCT075 SCT085,51.8,32.0,47.0,,,29.87,0.0,0.0,0.0,0.0,2025-03-25,3,2025,18,KOKV,0.0,0.0,0.0,0.0,16
2025-03-22,22,2025-03-22 19:55,19:55,EDT,W  14  G 17,10.0,Mostly Cloudy,SCT060 BKN085,50.0,32.0,50.0,45.0,,29.9,0.0,0.0,0.0,0.0,2025-03-25,3,2025,19,KOKV,0.0,0.0,0.0,0.0,14
2025-03-22,22,2025-03-22 20:55,20:55,EDT,N  6,10.0,Overcast,OVC060,46.4,33.8,62.0,44.0,,29.94,0.0,0.0,0.0,0.0,2025-03-25,3,2025,20,KOKV,0.0,0.0,0.0,0.0,6
2025-03-22,22,2025-03-22 21:55,21:55,EDT,N  5,10.0,Overcast,BKN070 OVC080,46.4,32.0,57.0,45.0,,29.97,0.0,0.0,0.0,0.0,2025-03-25,3,2025,21,KOKV,0.0,0.0,0.0,0.0,5
2025-03-22,22,2025-03-22 22:55,22:55,EDT,Calm,10.0,Overcast,OVC075,44.6,32.0,61.0,,,29.98,0.0,0.0,0.0,0.0,2025-03-25,3,2025,22,KOKV,0.0,0.0,0.0,0.0,0
2025-03-22,22,2025-03-22 23:55,23:55,EDT,Calm,10.0,Overcast,SCT050 OVC065,44.6,32.0,61.0,,,30.0,0.0,0.0,0.0,0.0,2025-03-25,3,2025,23,KOKV,0.0,0.0,0.0,0.0,0
2025-03-23,23,2025-03-23 00:55,00:55,EDT,N  3,10.0,Partly Cloudy,SCT050 SCT070,41.0,32.0,70.0,,,30.03,0.0,0.0,0.0,0.0,2025-03-26,3,2025,0,KOKV,0.0,0.0,0.0,0.0,3
2025-03-23,23,2025-03-23 01:35,01:35,EDT,Calm,0.0,,,42.8,32.0,66.0,,,0.0,0.0,0.0,0.0,0.0,2025-03-26,3,2025,1,KOKV,0.0,0.0,0.0,0.0,0
2025-03-23,23,2025-03-23 06:55,06:55,EDT,Calm,10.0,,,32.0,23.0,69.0,,,30.14,0.0,0.0,0.0,0.0,2025-03-26,3,2025,6,KOKV,0.0,0.0,0.0,0.0,0
2025-03-23,23,2025-03-23 07:55,07:55,EDT,Calm,10.0,Fair,CLR,32.0,23.0,69.0,,,30.17,0.0,0.0,0.0,0.0,2025-03-26,3,2025,7,KOKV,0.0,0.0,0.0,0.0,0
2025-03-23,23,2025-03-23 08:55,08:55,EDT,NE  3,10.0,Fair,CLR,33.8,23.0,65.0,,,30.18,0.0,0.0,0.0,0.0,2025-03-26,3,2025,8,KOKV,0.0,0.0,0.0,0.0,3
2025-03-23,23,2025-03-23 09:55,09:55,EDT,NE  3,10.0,Fair,CLR,37.4,23.0,56.0,,,30.18,0.0,0.0,0.0,0.0,2025-03-26,3,2025,9,KOKV,0.0,0.0,0.0,0.0,3
2025-03-23,23,2025-03-23 10:55,10:55,EDT,Calm,10.0,Fair,CLR,41.0,24.8,53.0,,,30.18,0.0,0.0,0.0,0.0,2025-03-26,3,2025,10,KOKV,0.0,0.0,0.0,0.0,0
2025-03-23,23,2025-03-23 11:55,11:55,EDT,Calm,10.0,Fair,CLR,42.8,26.6,53.0,,,30.17,0.0,0.0,0.0,0.0,2025-03-26,3,2025,11,KOKV,0.0,0.0,0.0,0.0,0
2025-03-23,23,2025-03-23 12:55,12:55,EDT,Calm,0.0,,,44.6,26.6,49.0,,,0.0,0.0,0.0,0.0,0.0,2025-03-26,3,2025,12,KOKV,0.0,0.0,0.0,0.0,0
2025-03-23,23,2025-03-23 15:55,15:55,EDT,E  7,0.0,,,53.6,30.2,41.0,,,30.06,0.0,0.0,0.0,0.0,2025-03-26,3,2025,15,KOKV,0.0,0.0,0.0,0.0,7
2025-03-23,23,2025-03-23 16:55,16:55,EDT,NE  6,10.0,Fair,CLR,53.6,28.4,38.0,,,30.06,0.0,0.0,0.0,0.0,2025-03-26,3,2025,16,KOKV,0.0,0.0,0.0,0.0,6
2025-03-23,23,2025-03-23 17:55,17:55,EDT,Calm,10.0,Partly Cloudy,SCT120,51.8,28.4,41.0,,,30.05,0.0,0.0,0.0,0.0,2025-03-26,3,2025,17,KOKV,0.0,0.0,0.0,0.0,0
2025-03-23,23,2025-03-23 18:55,18:55,EDT,E  5,10.0,Fair,CLR,50.0,28.4,43.0,49.0,,30.02,0.0,0.0,0.0,0.0,2025-03-26,3,2025,18,KOKV,0.0,0.0,0.0,0.0,5
2025-03-23,23,2025-03-23 19:55,19:55,EDT,Calm,10.0,Mostly Cloudy,BKN110,48.2,30.2,50.0,,,29.99,0.0,0.0,0.0,0.0,2025-03-26,3,2025,19,KOKV,0.0,0.0,0.0,0.0,0
2025-03-23,23,2025-03-23 20:55,20:55,EDT,NE  3,10.0,Mostly Cloudy,BKN110,46.4,32.0,57.0,,,29.98,0.0,0.0,0.0,0.0,2025-03-26,3,2025,20,KOKV,0.0,0.0,0.0,0.0,3
2025-03-23,23,2025-03-23 21:55,21:55,EDT,SE  8,10.0,Overcast,OVC100,50.0,32.0,50.0,47.0,,29.98,0.0,0.0,0.0,0.0,2025-03-26,3,2025,21,KOKV,0.0,0.0,0.0,0.0,8
2025-03-23,23,2025-03-23 22:55,22:55,EDT,SE  5,10.0,Overcast,BKN090 OVC110,50.0,32.0,50.0,49.0,,29.97,0.0,0.0,0.0,0.0,2025-03-26,3,2025,22,KOKV,0.0,0.0,0.0,0.0,5
2025-03-23,23,2025-03-23 23:55,23:55,EDT,SE  7,10.0,Overcast,BKN100 OVC120,46.4,33.8,62.0,43.0,,29.94,0.0,0.0,0.0,0.0,2025-03-26,3,2025,23,KOKV,0.0,0.0,0.0,0.0,7
2025-03-24,24,2025-03-24 00:55,00:55,EDT,SE  9,10.0,Overcast,OVC090,46.4,35.6,66.0,42.0,,29.9,0.0,0.0,0.0,0.0,2025-03-27,3,2025,0,KOKV,0.0,0.0,0.0,0.0,9
2025-03-24,24,2025-03-24 01:55,01:55,EDT,SE  12  G 18,10.0,Overcast,OVC090,46.4,35.6,66.0,42.0,,29.9,0.0,0.0,0.0,0.0,2025-03-27,3,2025,1,KOKV,0.0,0.0,0.0,0.0,12
2025-03-24,24,2025-03-24 02:55,02:55,EDT,S  10  G 17,10.0,Mostly Cloudy,SCT100 BKN110,46.4,37.4,71.0,42.0,,29.85,0.0,0.0,0.0,0.0,2025-03-27,3,2025,2,KOKV,0.0,0.0,0.0,0.0,10
2025-03-24,24,2025-03-24 03:55,03:55,EDT,SE  9,10.0,Fair,CLR,46.4,37.4,71.0,42.0,,29.83,0.0,0.0,0.0,0.0,2025-03-27,3,2025,3,KOKV,0.0,0.0,0.0,0.0,9
2025-03-24,24,2025-03-24 04:55,04:55,EDT,SE  9,10.0,Partly Cloudy,SCT080,44.6,37.4,76.0,40.0,,29.8,0.0,0.0,0.0,0.0,2025-03-27,3,2025,4,KOKV,0.0,0.0,0.0,0.0,9
2025-03-24,24,2025-03-24 05:55,05:55,EDT,S  8,10.0,Mostly Cloudy,SCT065 BKN075,44.6,37.4,76.0,41.0,,29.8,0.0,0.0,0.0,0.0,2025-03-27,3,2025,5,KOKV,0.0,0.0,0.0,0.0,8
2025-03-24,24,2025-03-24 06:55,06:55,EDT,Calm,10.0,Overcast,OVC050,46.4,39.2,76.0,,,29.78,0.0,0.0,0.0,0.0,2025-03-27,3,2025,6,KOKV,0.0,0.0,0.0,0.0,0
2025-03-24,24,2025-03-24 07:55,07:55,EDT,Calm,10.0,Overcast,OVC050,44.6,39.2,81.0,,,29.79,0.0,0.0,0.0,0.0,2025-03-27,3,2025,7,KOKV,0.0,0.0,0.0,0.0,0
2025-03-24,24,2025-03-24 08:55,08:55,EDT,Calm,10.0,Partly Cloudy,SCT060 SCT070 SCT100,46.4,41.0,82.0,,,29.78,0.0,0.0,0.0,0.0,2025-03-27,3,2025,8,KOKV,0.0,0.0,0.0,0.0,0
2025-03-24,24,2025-03-24 09:55,09:55,EDT,Calm,10.0,Overcast,OVC048,48.2,39.2,71.0,,,29.78,0.0,0.0,0.0,0.0,2025-03-27,3,2025,9,KOKV,0.0,0.0,0.0,0.0,0
2025-03-24,24,2025-03-24 10:55,10:55,EDT,Calm,10.0,Overcast,OVC046,50.0,41.0,71.0,,,29.78,0.0,0.0,0.0,0.0,2025-03-27,3,2025,10,KOKV,0.0,0.0,0.0,0.0,0
2025-03-24,24,2025-03-24 11:55,11:55,EDT,Calm,10.0,Overcast,BKN048 OVC060,51.8,41.0,67.0,,,29.77,0.0,0.0,0.0,0.0,2025-03-27,3,2025,11,KOKV,0.0,0.0,0.0,0.0,0
2025-03-24,24,2025-03-24 12:55,12:55,EDT,S  6,10.0,Overcast,OVC055,55.4,41.0,59.0,,,29.74,0.0,0.0,0.0,0.0,2025-03-27,3,2025,12,KOKV,0.0,0.0,0.0,0.0,6
2025-03-24,24,2025-03-24 13:55,13:55,EDT,W  15  G 21,10.0,Fair,CLR,59.0,35.6,42.0,,,29.72,0.0,0.0,0.0,0.0,2025-03-27,3,2025,13,KOKV,0.0,0.0,0.0,0.0,15
2025-03-24,24,2025-03-24 14:55,14:55,EDT,W  15  G 21,10.0,Fair,CLR,62.6,26.6,25.0,,,29.69,0.0,0.0,0.0,0.0,2025-03-27,3,2025,14,KOKV,0.0,0.0,0.0,0.0,15
2025-03-24,24,2025-03-24 15:55,15:55,EDT,W  12  G 22,10.0,Fair,CLR,62.6,21.2,20.0,,,29.67,0.0,0.0,0.0,0.0,2025-03-27,3,2025,15,KOKV,0.0,0.0,0.0,0.0,12
2025-03-24,24,2025-03-24 16:55,16:55,EDT,W  18,10.0,Fair,CLR,62.6,21.2,20.0,,,29.69,0.0,0.0,0.0,0.0,2025-03-27,3,2025,16,KOKV,0.0,0.0,0.0,0.0,18
2025-03-24,24,2025-03-24 17:55,17:55,EDT,W  20  G 31,10.0,Fair,CLR,60.8,23.0,23.0,,,29.71,0.0,0.0,0.0,0.0,2025-03-27,3,2025,17,KOKV,0.0,0.0,0.0,0.0,20
2025-03-24,24,2025-03-24 18:55,18:55,EDT,W  17  G 26,10.0,Fair,CLR,59.0,23.0,25.0,,,29.76,0.0,0.0,0.0,0.0,2025-03-27,3,2025,18,KOKV,0.0,0.0,0.0,0.0,17
2025-03-24,24,2025-03-24 19:55,19:55,EDT,W  9,10.0,Fair,CLR,55.4,23.0,28.0,,,29.79,0.0,0.0,0.0,0.0,2025-03-27,3,2025,19,KOKV,0.0,0.0,0.0,0.0,9
2025-03-24,24,2025-03-24 20:55,20:55,EDT,W  8,10.0,Fair,CLR,53.6,23.0,30.0,,,29.81,0.0,0.0,0.0,0.0,2025-03-27,3,2025,20,KOKV,0.0,0.0,0.0,0.0,8
2025-03-24,24,2025-03-24 21:55,21:55,EDT,W  10  G 17,10.0,Fair,CLR,53.6,24.8,33.0,,,29.82,0.0,0.0,0.0,0.0,2025-03-27,3,2025,21,KOKV,0.0,0.0,0.0,0.0,10
2025-03-24,24,2025-03-24 22:55,22:55,EDT,W  12,10.0,Fair,CLR,53.6,23.0,30.0,,,29.82,0.0,0.0,0.0,0.0,2025-03-27,3,2025,22,KOKV,0.0,0.0,0.0,0.0,12
2025-03-24,24,2025-03-24 23:55,23:55,EDT,W  15  G 18,10.0,Fair,CLR,53.6,21.2,28.0,,,29.84,0.0,0.0,0.0,0.0,2025-03-27,3,2025,23,KOKV,0.0,0.0,0.0,0.0,15
2025-03-25,25,2025-03-25 00:55,00:55,EDT,NW  10  G 18,10.0,Fair,CLR,51.8,23.0,32.0,,,29.86,0.0,0.0,0.0,0.0,2025-03-28,3,2025,0,KOKV,0.0,0.0,0.0,0.0,10
2025-03-25,25,2025-03-25 01:55,01:55,EDT,NW  10,10.0,Fair,CLR,50.0,23.0,35.0,46.0,,29.87,0.0,0.0,0.0,0.0,2025-03-28,3,2025,1,KOKV,0.0,0.0,0.0,0.0,10
2025-03-25,25,2025-03-25 02:55,02:55,EDT,W  14  G 22,10.0,Fair,CLR,50.0,21.2,32.0,45.0,,29.88,0.0,0.0,0.0,0.0,2025-03-28,3,2025,2,KOKV,0.0,0.0,0.0,0.0,14
2025-03-25,25,2025-03-25 03:55,03:55,EDT,Calm,10.0,Fair,CLR,44.6,21.2,39.0,,,29.89,0.0,0.0,0.0,0.0,2025-03-28,3,2025,3,KOKV,0.0,0.0,0.0,0.0,0
2025-03-25,25,2025-03-25 04:55,04:55,EDT,W  6,10.0,Fair,CLR,46.4,21.2,37.0,44.0,,29.9,0.0,0.0,0.0,0.0,2025-03-28,3,2025,4,KOKV,0.0,0.0,0.0,0.0,6
2025-03-25,25,2025-03-25 05:55,05:55,EDT,W  7,10.0,Fair,CLR,44.6,21.2,39.0,41.0,,29.91,0.0,0.0,0.0,0.0,2025-03-28,3,2025,5,KOKV,0.0,0.0,0.0,0.0,7
2025-03-25,25,2025-03-25 06:55,06:55,EDT,SW  3,10.0,Fair,CLR,41.0,21.2,45.0,,,29.94,0.0,0.0,0.0,0.0,2025-03-28,3,2025,6,KOKV,0.0,0.0,0.0,0.0,3
2025-03-25,25,2025-03-25 07:35,07:35,EDT,W  5,10.0,Fair,CLR,42.8,21.2,42.0,41.0,,29.95,0.0,0.0,0.0,0.0,2025-03-28,3,2025,7,KOKV,0.0,0.0,0.0,0.0,5
2025-03-25,25,2025-03-25 08:55,08:55,EDT,W  12  G 16,10.0,Fair,CLR,48.2,23.0,37.0,44.0,,29.95,0.0,0.0,0.0,0.0,2025-03-28,3,2025,8,KOKV,0.0,0.0,0.0,0.0,12
2025-03-25,25,2025-03-25 09:55,09:55,EDT,W  8  G 18,10.0,Fair,CLR,50.0,23.0,35.0,47.0,,29.95,0.0,0.0,0.0,0.0,2025-03-28,3,2025,9,KOKV,0.0,0.0,0.0,0.0,8
2025-03-25,25,2025-03-25 10:55,10:55,EDT,W  14  G 23,10.0,Fair,CLR,51.8,21.2,30.0,,,29.95,0.0,0.0,0.0,0.0,2025-03-28,3,2025,10,KOKV,0.0,0.0,0.0,0.0,14
2025-03-25,25,2025-03-25 11:55,11:55,EDT,W  17  G 21,10.0,Fair,CLR,53.6,21.2,28.0,,,29.93,0.0,0.0,0.0,0.0,2025-03-28,3,2025,11,KOKV,0.0,0.0,0.0,0.0,17
2025-03-25,25,2025-03-25 12:55,12:55,EDT,W  15  G 23,10.0,Fair,CLR,55.4,21.2,26.0,,,29.9,0.0,0.0,0.0,0.0,2025-03-28,3,2025,12,KOKV,0.0,0.0,0.0,0.0,15
2025-03-25,25,2025-03-25 13:55,13:55,EDT,W  12  G 18,10.0,Partly Cloudy,SCT085,57.2,21.2,25.0,,,29.88,0.0,0.0,0.0,0.0,2025-03-28,3,2025,13,KOKV,0.0,0.0,0.0,0.0,12
2025-03-25,25,2025-03-25 14:55,14:55,EDT,W  9,10.0,Overcast,OVC110,57.2,23.0,27.0,,,29.85,0.0,0.0,0.0,0.0,2025-03-28,3,2025,14,KOKV,0.0,0.0,0.0,0.0,9
2025-03-25,25,2025-03-25 15:55,15:55,EDT,S  10  G 22,10.0,Overcast,OVC085,55.4,26.6,33.0,,,29.85,0.0,0.0,0.0,0.0,2025-03-28,3,2025,15,KOKV,0.0,0.0,0.0,0.0,10
2025-03-25,25,2025-03-25 16:55,16:55,EDT,SW  10  G 20,10.0,Overcast,SCT055 BKN065 OVC090,53.6,28.4,38.0,,,29.86,0.0,0.0,0.0,0.0,2025-03-28,3,2025,16,KOKV,0.0,0.0,0.0,0.0,10
2025-03-25,25,2025-03-25 17:55,17:55,EDT,W  6,10.0,Overcast,BKN070 OVC080,53.6,28.4,38.0,,,29.88,0.0,0.0,0.0,0.0,2025-03-28,3,2025,17,KOKV,0.0,0.0,0.0,0.0,6
2025-03-25,25,2025-03-25 18:55,18:55,EDT,NW  10  G 16,10.0,Overcast,SCT070 BKN080 OVC085,51.8,28.4,41.0,,,29.91,0.0,0.0,0.0,0.0,2025-03-28,3,2025,18,KOKV,0.0,0.0,0.0,0.0,10
2025-03-25,25,2025-03-25 19:55,19:55,EDT,W  10,10.0,Partly Cloudy,SCT075,50.0,28.4,43.0,46.0,,29.93,0.0,0.0,0.0,0.0,2025-03-28,3,2025,19,KOKV,0.0,0.0,0.0,0.0,10
2025-03-25,25,2025-03-25 20:55,20:55,EDT,W  10,10.0,Fair,CLR,48.2,28.4,46.0,44.0,,29.97,0.0,0.0,0.0,0.0,2025-03-28,3,2025,20,KOKV,0.0,0.0,0.0,0.0,10
2025-03-25,25,2025-03-25 21:55,21:55,EDT,W  9,10.0,Fair,CLR,46.4,30.2,53.0,42.0,,29.99,0.0,0.0,0.0,0.0,2025-03-28,3,2025,21,KOKV,0.0,0.0,0.0,0.0,9
2025-03-25,25,2025-03-25 22:55,22:55,EDT,W  9,10.0,Fair,CLR,44.6,28.4,53.0,40.0,,29.99,0.0,0.0,0.0,0.0,2025-03-28,3,2025,22,KOKV,0.0,0.0,0.0,0.0,9
2025-03-25,25,2025-03-25 23:55,23:55,EDT,W  3,10.0,Fair,CLR,41.0,28.4,61.0,,,30.0,0.0,0.0,0.0,0.0,2025-03-28,3,2025,23,KOKV,0.0,0.0,0.0,0.0,3
2025-03-26,26,2025-03-26 00:55,00:55,EDT,W  3,10.0,Fair,CLR,39.2,28.4,65.0,,,30.01,0.0,0.0,0.0,0.0,2025-03-29,3,2025,0,KOKV,0.0,0.0,0.0,0.0,3
2025-03-26,26,2025-03-26 01:55,01:55,EDT,NW  9,10.0,Partly Cloudy,SCT090,39.2,30.2,70.0,34.0,,30.02,0.0,0.0,0.0,0.0,2025-03-29,3,2025,1,KOKV,0.0,0.0,0.0,0.0,9
2025-03-26,26,2025-03-26 02:55,02:55,EDT,NW  10,10.0,Mostly Cloudy,SCT060 BKN080,41.0,30.2,66.0,35.0,,30.01,0.0,0.0,0.0,0.0,2025-03-29,3,2025,2,KOKV,0.0,0.0,0.0,0.0,10
2025-03-26,26,2025-03-26 03:55,03:55,EDT,W  12  G 18,10.0,Overcast,BKN048 OVC055,41.0,30.2,66.0,35.0,,30.01,0.0,0.0,0.0,0.0,2025-03-29,3,2025,3,KOKV,0.0,0.0,0.0,0.0,12
2025-03-26,26,2025-03-26 04:55,04:55,EDT,W  8,10.0,Overcast,OVC065,41.0,32.0,70.0,36.0,,30.03,0.0,0.0,0.0,0.0,2025-03-29,3,2025,4,KOKV,0.0,0.0,0.0,0.0,8
2025-03-26,26,2025-03-26 05:55,05:55,EDT,W  9,10.0,Overcast,BKN090 OVC110,41.0,32.0,70.0,36.0,,30.04,0.0,0.0,0.0,0.0,2025-03-29,3,2025,5,KOKV,0.0,0.0,0.0,0.0,9
2025-03-26,26,2025-03-26 06:55,06:55,EDT,W  6,10.0,Fair,CLR,37.4,28.4,70.0,33.0,,30.06,0.0,0.0,0.0,0.0,2025-03-29,3,2025,6,KOKV,0.0,0.0,0.0,0.0,6
2025-03-26,26,2025-03-26 07:55,07:55,EDT,W  8,10.0,Fair,CLR,39.2,23.0,52.0,34.0,,30.07,0.0,0.0,0.0,0.0,2025-03-29,3,2025,7,KOKV,0.0,0.0,0.0,0.0,8
2025-03-26,26,2025-03-26 08:55,08:55,EDT,W  24  G 36,10.0,Fair and Breezy,CLR,41.0,19.4,42.0,32.0,,30.09,0.0,0.0,0.0,0.0,2025-03-29,3,2025,8,KOKV,0.0,0.0,0.0,0.0,24
2025-03-26,26,2025-03-26 09:55,09:55,EDT,W  24  G 31,10.0,Mostly Cloudy and Breezy,BKN050,42.8,21.2,42.0,34.0,,30.11,0.0,0.0,0.0,0.0,2025-03-29,3,2025,9,KOKV,0.0,0.0,0.0,0.0,24
2025-03-26,26,2025-03-26 10:55,10:55,EDT,W  22  G 28,10.0,Overcast and Breezy,OVC050,42.8,21.2,42.0,34.0,,30.12,0.0,0.0,0.0,0.0,2025-03-29,3,2025,10,KOKV,0.0,0.0,0.0,0.0,22
2025-03-26,26,2025-03-26 11:55,11:55,EDT,W  14  G 25,10.0,Mostly Cloudy,BKN060,42.8,19.4,39.0,36.0,,30.11,0.0,0.0,0.0,0.0,2025-03-29,3,2025,11,KOKV,0.0,0.0,0.0,0.0,14
2025-03-26,26,2025-03-26 12:55,12:55,EDT,NW  24  G 33,10.0,Partly Cloudy and Breezy,SCT060,44.6,17.6,34.0,36.0,,30.11,0.0,0.0,0.0,0.0,2025-03-29,3,2025,12,KOKV,0.0,0.0,0.0,0.0,24
2025-03-26,26,2025-03-26 13:55,13:55,EDT,W  22  G 30,10.0,Mostly Cloudy and Breezy,BKN070 BKN080,46.4,19.4,34.0,39.0,,30.11,0.0,0.0,0.0,0.0,2025-03-29,3,2025,13,KOKV,0.0,0.0,0.0,0.0,22
2025-03-26,26,2025-03-26 14:55,14:55,EDT,NW  18  G 28,10.0,Partly Cloudy,SCT070,48.2,19.4,32.0,42.0,,30.1,0.0,0.0,0.0,0.0,2025-03-29,3,2025,14,KOKV,0.0,0.0,0.0,0.0,18
2025-03-26,26,2025-03-26 15:55,15:55,EDT,NW  18  G 25,10.0,Mostly Cloudy,BKN080,48.2,19.4,32.0,42.0,,30.1,0.0,0.0,0.0,0.0,2025-03-29,3,2025,15,KOKV,0.0,0.0,0.0,0.0,18
2025-03-26,26,2025-03-26 16:55,16:55,EDT,NW  20  G 29,10.0,Fair,CLR,50.0,17.6,28.0,44.0,,30.1,0.0,0.0,0.0,0.0,2025-03-29,3,2025,16,KOKV,0.0,0.0,0.0,0.0,20
2025-03-26,26,2025-03-26 17:55,17:55,EDT,NW  24  G 32,10.0,Mostly Cloudy and Breezy,BKN085,50.0,17.6,28.0,43.0,,30.11,0.0,0.0,0.0,0.0,2025-03-29,3,2025,17,KOKV,0.0,0.0,0.0,0.0,24
2025-03-26,26,2025-03-26 18:35,18:35,EDT,NW  16  G 24,10.0,Mostly Cloudy,BKN085,48.2,17.6,29.0,43.0,,30.12,0.0,0.0,0.0,0.0,2025-03-29,3,2025,18,KOKV,0.0,0.0,0.0,0.0,16
2025-03-26,26,2025-03-26 19:55,19:55,EDT,W  7,10.0,Partly Cloudy,SCT085,44.6,17.6,34.0,41.0,,30.15,0.0,0.0,0.0,0.0,2025-03-29,3,2025,19,KOKV,0.0,0.0,0.0,0.0,7
2025-03-26,26,2025-03-26 20:55,20:55,EDT,W  3,10.0,Mostly Cloudy,BKN090,44.6,17.6,34.0,,,30.17,0.0,0.0,0.0,0.0,2025-03-29,3,2025,20,KOKV,0.0,0.0,0.0,0.0,3
2025-03-26,26,2025-03-26 21:35,21:35,EDT,W  3,10.0,Overcast,OVC090,42.8,19.4,39.0,,,30.18,0.0,0.0,0.0,0.0,2025-03-29,3,2025,21,KOKV,0.0,0.0,0.0,0.0,3
2025-03-26,26,2025-03-26 22:55,22:55,EDT,Calm,10.0,Fair,CLR,35.6,19.4,52.0,,,30.19,0.0,0.0,0.0,0.0,2025-03-29,3,2025,22,KOKV,0.0,0.0,0.0,0.0,0
2025-03-26,26,2025-03-26 23:55,23:55,EDT,NE  3,10.0,Fair,CLR,35.6,17.6,48.0,,,30.21,0.0,0.0,0.0,0.0,2025-03-29,3,2025,23,KOKV,0.0,0.0,0.0,0.0,3
2025-03-27,27,2025-03-27 00:55,00:55,EDT,Calm,10.0,Fair,CLR,33.8,19.4,56.0,,,30.22,0.0,0.0,0.0,0.0,2025-03-30,3,2025,0,KOKV,0.0,0.0,0.0,0.0,0
2025-03-27,27,2025-03-27 01:55,01:55,EDT,N  3,10.0,Fair,CLR,30.2,19.4,64.0,,,30.22,0.0,0.0,0.0,0.0,2025-03-30,3,2025,1,KOKV,0.0,0.0,0.0,0.0,3
2025-03-27,27,2025-03-27 02:55,02:55,EDT,N  3,10.0,Partly Cloudy,SCT080,33.8,19.4,56.0,,,30.23,0.0,0.0,0.0,0.0,2025-03-30,3,2025,2,KOKV,0.0,0.0,0.0,0.0,3
2025-03-27,27,2025-03-27 03:55,03:55,EDT,N  3,10.0,Fair,CLR,32.0,19.4,60.0,,,30.24,0.0,0.0,0.0,0.0,2025-03-30,3,2025,3,KOKV,0.0,0.0,0.0,0.0,3
2025-03-27,27,2025-03-27 04:55,04:55,EDT,Calm,10.0,Fair,CLR,30.2,19.4,64.0,,,30.25,0.0,0.0,0.0,0.0,2025-03-30,3,2025,4,KOKV,0.0,0.0,0.0,0.0,0
2025-03-27,27,2025-03-27 05:55,05:55,EDT,Calm,10.0,Fair,CLR,30.2,19.4,64.0,,,30.27,0.0,0.0,0.0,0.0,2025-03-30,3,2025,5,KOKV,0.0,0.0,0.0,0.0,0
2025-03-27,27,2025-03-27 06:55,06:55,EDT,NE  5,10.0,Fair,CLR,28.4,19.4,69.0,24.0,,30.3,0.0,0.0,0.0,0.0,2025-03-30,3,2025,6,KOKV,0.0,0.0,0.0,0.0,5
2025-03-27,27,2025-03-27 07:55,07:55,EDT,Calm,10.0,Fair,CLR,28.4,21.2,74.0,,,30.32,0.0,0.0,0.0,0.0,2025-03-30,3,2025,7,KOKV,0.0,0.0,0.0,0.0,0
2025-03-27,27,2025-03-27 08:55,08:55,EDT,NE  3,10.0,Fair,CLR,35.6,19.4,52.0,,,30.33,0.0,0.0,0.0,0.0,2025-03-30,3,2025,8,KOKV,0.0,0.0,0.0,0.0,3
2025-03-27,27,2025-03-27 09:55,09:55,EDT,Calm,10.0,Fair,CLR,39.2,17.6,42.0,,,30.35,0.0,0.0,0.0,0.0,2025-03-30,3,2025,9,KOKV,0.0,0.0,0.0,0.0,0
2025-03-27,27,2025-03-27 10:55,10:55,EDT,SW  5,10.0,Fair,CLR,42.8,19.4,39.0,41.0,,30.35,0.0,0.0,0.0,0.0,2025-03-30,3,2025,10,KOKV,0.0,0.0,0.0,0.0,5
2025-03-27,27,2025-03-27 11:55,11:55,EDT,Calm,10.0,Fair,CLR,44.6,19.4,37.0,,,30.33,0.0,0.0,0.0,0.0,2025-03-30,3,2025,11,KOKV,0.0,0.0,0.0,0.0,0
2025-03-27,27,2025-03-27 12:55,12:55,EDT,NW  7,10.0,Fair,CLR,50.0,21.2,32.0,48.0,,30.3,0.0,0.0,0.0,0.0,2025-03-30,3,2025,12,KOKV,0.0,0.0,0.0,0.0,7
2025-03-27,27,2025-03-27 13:35,13:35,EDT,Calm,10.0,Fair,CLR,50.0,19.4,30.0,,,30.28,0.0,0.0,0.0,0.0,2025-03-30,3,2025,13,KOKV,0.0,0.0,0.0,0.0,0
2025-03-27,27,2025-03-27 14:55,14:55,EDT,SW  7,10.0,Fair,CLR,55.4,23.0,28.0,,,30.24,0.0,0.0,0.0,0.0,2025-03-30,3,2025,14,KOKV,0.0,0.0,0.0,0.0,7
2025-03-27,27,2025-03-27 15:55,15:55,EDT,W  8  G 20,10.0,Fair,CLR,55.4,19.4,24.0,,,30.22,0.0,0.0,0.0,0.0,2025-03-30,3,2025,15,KOKV,0.0,0.0,0.0,0.0,8
2025-03-27,27,2025-03-27 16:55,16:55,EDT,NW  8,10.0,Fair,CLR,57.2,17.6,21.0,,,30.19,0.0,0.0,0.0,0.0,2025-03-30,3,2025,16,KOKV,0.0,0.0,0.0,0.0,8
2025-03-27,27,2025-03-27 17:55,17:55,EDT,NW  12,10.0,Fair,CLR,59.0,17.6,20.0,,,30.18,0.0,0.0,0.0,0.0,2025-03-30,3,2025,17,KOKV,0.0,0.0,0.0,0.0,12
2025-03-27,27,2025-03-27 18:55,18:55,EDT,W  10,10.0,Fair,CLR,57.2,17.6,21.0,,,30.19,0.0,0.0,0.0,0.0,2025-03-30,3,2025,18,KOKV,0.0,0.0,0.0,0.0,10
2025-03-27,27,2025-03-27 19:55,19:55,EDT,Calm,10.0,Fair,CLR,50.0,21.2,32.0,,,30.21,0.0,0.0,0.0,0.0,2025-03-30,3,2025,19,KOKV,0.0,0.0,0.0,0.0,0
2025-03-27,27,2025-03-27 20:55,20:55,EDT,Calm,10.0,Fair,CLR,46.4,21.2,37.0,,,30.22,0.0,0.0,0.0,0.0,2025-03-30,3,2025,20,KOKV,0.0,0.0,0.0,0.0,0
2025-03-27,27,2025-03-27 21:55,21:55,EDT,Calm,10.0,Fair,CLR,42.8,23.0,46.0,,,30.22,0.0,0.0,0.0,0.0,2025-03-30,3,2025,21,KOKV,0.0,0.0,0.0,0.0,0
2025-03-27,27,2025-03-27 22:55,22:55,EDT,Calm,10.0,Partly Cloudy,SCT120,42.8,23.0,46.0,,,30.21,0.0,0.0,0.0,0.0,2025-03-30,3,2025,22,KOKV,0.0,0.0,0.0,0.0,0
2025-03-27,27,2025-03-27 23:55,23:55,EDT,Calm,10.0,Fair,CLR,42.8,23.0,46.0,,,30.22,0.0,0.0,0.0,0.0,2025-03-30,3,2025,23,KOKV,0.0,0.0,0.0,0.0,0
2025-03-28,28,2025-03-28 00:55,00:55,EDT,Calm,10.0,Fair,CLR,37.4,23.0,56.0,,,30.21,0.0,0.0,0.0,0.0,2025-03-31,3,2025,0,KOKV,0.0,0.0,0.0,0.0,0
2025-03-28,28,2025-03-28 01:55,01:55,EDT,Calm,10.0,Mostly Cloudy,BKN110,41.0,24.8,53.0,,,30.2,0.0,0.0,0.0,0.0,2025-03-31,3,2025,1,KOKV,0.0,0.0,0.0,0.0,0
2025-03-28,28,2025-03-28 02:55,02:55,EDT,SW  5,10.0,Overcast,OVC100,44.6,24.8,46.0,43.0,,30.2,0.0,0.0,0.0,0.0,2025-03-31,3,2025,2,KOKV,0.0,0.0,0.0,0.0,5
2025-03-28,28,2025-03-28 03:55,03:55,EDT,SW  5,10.0,Overcast,SCT075 OVC100,44.6,23.0,43.0,43.0,,30.19,0.0,0.0,0.0,0.0,2025-03-31,3,2025,3,KOKV,0.0,0.0,0.0,0.0,5
2025-03-28,28,2025-03-28 04:55,04:55,EDT,SW  5,10.0,Overcast,SCT075 OVC100,44.6,23.0,43.0,43.0,,30.19,0.0,0.0,0.0,0.0,2025-03-31,3,2025,4,KOKV,0.0,0.0,0.0,0.0,5
2025-03-28,28,2025-03-28 05:55,05:55,EDT,Calm,10.0,Overcast,BKN065 OVC110,46.4,24.8,43.0,,,30.2,0.0,0.0,0.0,0.0,2025-03-31,3,2025,5,KOKV,0.0,0.0,0.0,0.0,0
2025-03-28,28,2025-03-28 06:55,06:55,EDT,Calm,10.0,Overcast,SCT065 OVC110,42.8,30.2,61.0,,,30.2,0.0,0.0,0.0,0.0,2025-03-31,3,2025,6,KOKV,0.0,0.0,0.0,0.0,0
2025-03-28,28,2025-03-28 07:55,07:55,EDT,SW  3,10.0,Overcast,OVC110,44.6,28.4,53.0,,,30.22,0.0,0.0,0.0,0.0,2025-03-31,3,2025,7,KOKV,0.0,0.0,0.0,0.0,3
2025-03-28,28,2025-03-28 08:55,08:55,EDT,Calm,10.0,Overcast,OVC065,50.0,28.4,43.0,,,30.22,0.0,0.0,0.0,0.0,2025-03-31,3,2025,8,KOKV,0.0,0.0,0.0,0.0,0
2025-03-28,28,2025-03-28 09:55,09:55,EDT,S  5,10.0,Overcast,SCT065 BKN080 OVC100,51.8,32.0,47.0,,,30.21,0.0,0.0,0.0,0.0,2025-03-31,3,2025,9,KOKV,0.0,0.0,0.0,0.0,5
2025-03-28,28,2025-03-28 10:55,10:55,EDT,S  6,10.0,Overcast,OVC090,55.4,32.0,41.0,,,30.2,0.0,0.0,0.0,0.0,2025-03-31,3,2025,10,KOKV,0.0,0.0,0.0,0.0,6
2025-03-28,28,2025-03-28 11:55,11:55,EDT,SW  6,10.0,Overcast,OVC100,60.8,33.8,36.0,,,30.18,0.0,0.0,0.0,0.0,2025-03-31,3,2025,11,KOKV,0.0,0.0,0.0,0.0,6
2025-03-28,28,2025-03-28 12:55,12:55,EDT,SW  5,10.0,Overcast,OVC090,60.8,33.8,36.0,,,30.16,0.0,0.0,0.0,0.0,2025-03-31,3,2025,12,KOKV,0.0,0.0,0.0,0.0,5
2025-03-28,28,2025-03-28 13:55,13:55,EDT,S  5,10.0,Mostly Cloudy,BKN120,62.6,35.6,37.0,,,30.12,0.0,0.0,0.0,0.0,2025-03-31,3,2025,13,KOKV,0.0,0.0,0.0,0.0,5
2025-03-28,28,2025-03-28 14:55,14:55,EDT,S  5,10.0,Mostly Cloudy,BKN070,66.2,37.4,35.0,,,30.1,0.0,0.0,0.0,0.0,2025-03-31,3,2025,14,KOKV,0.0,0.0,0.0,0.0,5
2025-03-28,28,2025-03-28 15:55,15:55,EDT,SW  5,10.0,Rain,BKN065 OVC075,64.4,42.8,46.0,,,30.1,0.0,0.0,0.0,0.0,2025-03-31,3,2025,15,KOKV,0.0,0.0,0.0,0.0,5
2025-03-28,28,2025-03-28 16:55,16:55,EDT,S  3,10.0,Overcast,SCT035 SCT048 OVC090,60.8,50.0,68.0,,,30.08,0.0,0.0,0.0,0.0,2025-03-31,3,2025,16,KOKV,0.0,0.0,0.0,0.0,3
2025-03-28,28,2025-03-28 17:55,17:55,EDT,Calm,10.0,Overcast,SCT065 OVC090,55.4,53.6,94.0,,,30.06,0.0,0.0,0.0,0.0,2025-03-31,3,2025,17,KOKV,0.0,0.0,0.0,0.0,0
2025-03-28,28,2025-03-28 18:55,18:55,EDT,SE  5,10.0,Overcast,OVC090,55.4,53.6,94.0,,,30.07,0.0,0.0,0.0,0.0,2025-03-31,3,2025,18,KOKV,0.0,0.0,0.0,0.0,5
2025-03-28,28,2025-03-28 19:55,19:55,EDT,Calm,10.0,Overcast,OVC090,55.4,53.6,94.0,,,30.07,0.0,0.0,0.0,0.0,2025-03-31,3,2025,19,KOKV,0.0,0.0,0.0,0.0,0
2025-03-28,28,2025-03-28 20:55,20:55,EDT,Calm,10.0,Overcast,BKN090 OVC110,53.6,53.6,100.0,,,30.05,0.0,0.0,0.0,0.0,2025-03-31,3,2025,20,KOKV,0.0,0.0,0.0,0.0,0
2025-03-28,28,2025-03-28 21:55,21:55,EDT,Calm,10.0,Mostly Cloudy,BKN095,53.6,50.0,88.0,,,30.05,0.0,0.0,0.0,0.0,2025-03-31,3,2025,21,KOKV,0.0,0.0,0.0,0.0,0
2025-03-28,28,2025-03-28 22:55,22:55,EDT,Calm,7.0,Fair,CLR,50.0,48.2,94.0,,,30.03,0.0,0.0,0.0,0.0,2025-03-31,3,2025,22,KOKV,0.0,0.0,0.0,0.0,0
2025-03-28,28,2025-03-28 23:55,23:55,EDT,SW  5,10.0,Fair,CLR,53.6,50.0,88.0,,,30.03,0.0,0.0,0.0,0.0,2025-04-01,3,2025,23,KOKV,0.0,0.0,0.0,0.0,5
2025-03-29,29,2025-03-29 00:55,00:55,EDT,SW  7,10.0,Mostly Cloudy,BKN110,53.6,50.0,88.0,,,30.03,0.0,0.0,0.0,0.0,2025-04-01,3,2025,0,KOKV,0.0,0.0,0.0,0.0,7
2025-03-29,29,2025-03-29 01:15,01:15,EDT,SW  7,10.0,Partly Cloudy,SCT100,53.6,50.0,88.0,,,30.02,0.0,0.0,0.0,0.0,2025-04-01,3,2025,1,KOKV,0.0,0.0,0.0,0.0,7
2025-03-29,29,2025-03-29 04:55,04:55,EDT,SW  7,10.0,Mostly Cloudy,BKN120,57.2,44.6,63.0,,,30.03,0.0,0.0,0.0,0.0,2025-04-01,3,2025,4,KOKV,0.0,0.0,0.0,0.0,7
2025-03-29,29,2025-03-29 05:55,05:55,EDT,SW  6,10.0,Fair,CLR,59.0,42.8,55.0,,,30.04,0.0,0.0,0.0,0.0,2025-04-01,3,2025,5,KOKV,0.0,0.0,0.0,0.0,6
2025-03-29,29,2025-03-29 06:55,06:55,EDT,SW  6,10.0,Mostly Cloudy,BKN120,59.0,42.8,55.0,,,30.05,0.0,0.0,0.0,0.0,2025-04-01,3,2025,6,KOKV,0.0,0.0,0.0,0.0,6
2025-03-29,29,2025-03-29 07:55,07:55,EDT,SW  3,10.0,Fair,CLR,59.0,42.8,55.0,,,30.07,0.0,0.0,0.0,0.0,2025-04-01,3,2025,7,KOKV,0.0,0.0,0.0,0.0,3
2025-03-29,29,2025-03-29 08:35,08:35,EDT,SW  8,10.0,Fair,CLR,62.6,42.8,49.0,,,30.08,0.0,0.0,0.0,0.0,2025-04-01,3,2025,8,KOKV,0.0,0.0,0.0,0.0,8
2025-03-29,29,2025-03-29 09:55,09:55,EDT,SW  7,10.0,Fair,CLR,64.4,44.6,49.0,,,30.09,0.0,0.0,0.0,0.0,2025-04-01,3,2025,9,KOKV,0.0,0.0,0.0,0.0,7
2025-03-29,29,2025-03-29 10:55,10:55,EDT,SW  8,10.0,Partly Cloudy,SCT120,68.0,44.6,43.0,,,30.1,0.0,0.0,0.0,0.0,2025-04-01,3,2025,10,KOKV,0.0,0.0,0.0,0.0,8
2025-03-29,29,2025-03-29 11:55,11:55,EDT,SW  10  G 21,10.0,Partly Cloudy,SCT120,71.6,44.6,38.0,,,30.09,0.0,0.0,0.0,0.0,2025-04-01,3,2025,11,KOKV,0.0,0.0,0.0,0.0,10
2025-03-29,29,2025-03-29 12:55,12:55,EDT,W  9,10.0,Partly Cloudy,SCT120,73.4,44.6,36.0,,,30.08,0.0,0.0,0.0,0.0,2025-04-01,3,2025,12,KOKV,0.0,0.0,0.0,0.0,9
2025-03-29,29,2025-03-29 13:55,13:55,EDT,W  8,10.0,Overcast,SCT075 SCT080 OVC110,77.0,46.4,34.0,,78.0,30.06,0.0,0.0,0.0,0.0,2025-04-01,3,2025,13,KOKV,0.0,0.0,0.0,0.0,8
2025-03-29,29,2025-03-29 14:55,14:55,EDT,W  10,10.0,Mostly Cloudy,BKN110,77.0,44.6,32.0,,78.0,30.04,0.0,0.0,0.0,0.0,2025-04-01,3,2025,14,KOKV,0.0,0.0,0.0,0.0,10
2025-03-29,29,2025-03-29 15:55,15:55,EDT,S  5,10.0,Fair,CLR,77.0,44.6,32.0,,78.0,30.03,0.0,0.0,0.0,0.0,2025-04-01,3,2025,15,KOKV,0.0,0.0,0.0,0.0,5
2025-03-29,29,2025-03-29 16:55,16:55,EDT,Calm,10.0,Partly Cloudy,SCT100,77.0,44.6,32.0,,78.0,30.02,0.0,0.0,0.0,0.0,2025-04-01,3,2025,16,KOKV,0.0,0.0,0.0,0.0,0
2025-03-29,29,2025-03-29 17:55,17:55,EDT,SW  3,10.0,Fair,CLR,77.0,46.4,34.0,,78.0,30.01,0.0,0.0,0.0,0.0,2025-04-01,3,2025,17,KOKV,0.0,0.0,0.0,0.0,3
2025-03-29,29,2025-03-29 18:55,18:55,EDT,SE  6,10.0,Fair,CLR,73.4,46.4,38.0,,,30.01,0.0,0.0,0.0,0.0,2025-04-01,3,2025,18,KOKV,0.0,0.0,0.0,0.0,6
2025-03-29,29,2025-03-29 19:55,19:55,EDT,Calm,10.0,Fair,CLR,69.8,44.6,40.0,,,30.02,0.0,0.0,0.0,0.0,2025-04-01,3,2025,19,KOKV,0.0,0.0,0.0,0.0,0
2025-03-29,29,2025-03-29 20:55,20:55,EDT,S  5,10.0,Fair,CLR,69.8,44.6,40.0,,,30.02,0.0,0.0,0.0,0.0,2025-04-01,3,2025,20,KOKV,0.0,0.0,0.0,0.0,5
2025-03-29,29,2025-03-29 21:55,21:55,EDT,S  3,10.0,Fair,CLR,64.4,46.4,52.0,,,30.02,0.0,0.0,0.0,0.0,2025-04-01,3,2025,21,KOKV,0.0,0.0,0.0,0.0,3
2025-03-29,29,2025-03-29 22:55,22:55,EDT,Calm,10.0,Fair,CLR,59.0,46.4,63.0,,,30.03,0.0,0.0,0.0,0.0,2025-04-01,3,2025,22,KOKV,0.0,0.0,0.0,0.0,0
2025-03-29,29,2025-03-29 23:55,23:55,EDT,Calm,10.0,Fair,CLR,62.6,46.4,56.0,,,30.03,0.0,0.0,0.0,0.0,2025-04-01,3,2025,23,KOKV,0.0,0.0,0.0,0.0,0
2025-03-30,30,2025-03-30 00:55,00:55,EDT,SW  5,10.0,Fair,CLR,62.6,46.4,56.0,,,30.02,0.0,0.0,0.0,0.0,2025-04-02,3,2025,0,KOKV,0.0,0.0,0.0,0.0,5
2025-03-30,30,2025-03-30 01:55,01:55,EDT,S  3,10.0,Fair,CLR,64.4,46.4,52.0,,,30.01,0.0,0.0,0.0,0.0,2025-04-02,3,2025,1,KOKV,0.0,0.0,0.0,0.0,3
2025-03-30,30,2025-03-30 02:55,02:55,EDT,SW  8,10.0,Fair,CLR,64.4,46.4,52.0,,,30.0,0.0,0.0,0.0,0.0,2025-04-02,3,2025,2,KOKV,0.0,0.0,0.0,0.0,8
2025-03-30,30,2025-03-30 03:55,03:55,EDT,Calm,10.0,Fair,CLR,60.8,46.4,59.0,,,29.99,0.0,0.0,0.0,0.0,2025-04-02,3,2025,3,KOKV,0.0,0.0,0.0,0.0,0
2025-03-30,30,2025-03-30 04:55,04:55,EDT,SW  5,10.0,Fair,CLR,62.6,46.4,56.0,,,29.99,0.0,0.0,0.0,0.0,2025-04-02,3,2025,4,KOKV,0.0,0.0,0.0,0.0,5
2025-03-30,30,2025-03-30 05:55,05:55,EDT,Calm,10.0,Fair,CLR,62.6,46.4,56.0,,,30.0,0.0,0.0,0.0,0.0,2025-04-02,3,2025,5,KOKV,0.0,0.0,0.0,0.0,0
2025-03-30,30,2025-03-30 06:55,06:55,EDT,SW  3,10.0,Fair,CLR,59.0,46.4,63.0,,,30.01,0.0,0.0,0.0,0.0,2025-04-02,3,2025,6,KOKV,0.0,0.0,0.0,0.0,3
2025-03-30,30,2025-03-30 07:55,07:55,EDT,SW  5,10.0,Fair,CLR,60.8,48.2,63.0,,,30.02,0.0,0.0,0.0,0.0,2025-04-02,3,2025,7,KOKV,0.0,0.0,0.0,0.0,5
2025-03-30,30,2025-03-30 08:55,08:55,EDT,SW  5,10.0,Fair,CLR,62.6,50.0,64.0,,,30.02,0.0,0.0,0.0,0.0,2025-04-02,3,2025,8,KOKV,0.0,0.0,0.0,0.0,5
2025-03-30,30,2025-03-30 09:55,09:55,EDT,SW  9,10.0,Fair,CLR,69.8,50.0,50.0,,,30.01,0.0,0.0,0.0,0.0,2025-04-02,3,2025,9,KOKV,0.0,0.0,0.0,0.0,9
2025-03-30,30,2025-03-30 10:55,10:55,EDT,SW  12  G 16,10.0,Fair,CLR,71.6,50.0,47.0,,,30.01,0.0,0.0,0.0,0.0,2025-04-02,3,2025,10,KOKV,0.0,0.0,0.0,0.0,12
2025-03-30,30,2025-03-30 11:55,11:55,EDT,S  9,10.0,Fair,CLR,75.2,51.8,44.0,,78.0,29.98,0.0,0.0,0.0,0.0,2025-04-02,3,2025,11,KOKV,0.0,0.0,0.0,0.0,9
2025-03-30,30,2025-03-30 12:55,12:55,EDT,SW  9,10.0,Partly Cloudy,SCT065,77.0,50.0,39.0,,78.0,29.97,0.0,0.0,0.0,0.0,2025-04-02,3,2025,12,KOKV,0.0,0.0,0.0,0.0,9
2025-03-30,30,2025-03-30 13:55,13:55,EDT,S  13  G 17,10.0,Mostly Cloudy,SCT065 BKN120,75.2,50.0,41.0,,78.0,29.95,0.0,0.0,0.0,0.0,2025-04-02,3,2025,13,KOKV,0.0,0.0,0.0,0.0,13
2025-03-30,30,2025-03-30 14:55,14:55,EDT,S  9  G 17,10.0,Overcast,BKN080 OVC090,77.0,48.2,36.0,,78.0,29.94,0.0,0.0,0.0,0.0,2025-04-02,3,2025,14,KOKV,0.0,0.0,0.0,0.0,9
2025-03-30,30,2025-03-30 15:55,15:55,EDT,SW  7,10.0,Overcast,SCT034 BKN070 OVC100,73.4,51.8,47.0,,,29.92,0.0,0.0,0.0,0.0,2025-04-02,3,2025,15,KOKV,0.0,0.0,0.0,0.0,7
2025-03-30,30,2025-03-30 16:55,16:55,EDT,SW  6,10.0,Overcast,BKN070 OVC090,73.4,51.8,47.0,,,29.91,0.0,0.0,0.0,0.0,2025-04-02,3,2025,16,KOKV,0.0,0.0,0.0,0.0,6
2025-03-30,30,2025-03-30 17:55,17:55,EDT,Calm,10.0,Overcast,BKN065 OVC075,71.6,51.8,50.0,,,29.9,0.0,0.0,0.0,0.0,2025-04-02,3,2025,17,KOKV,0.0,0.0,0.0,0.0,0
2025-03-30,30,2025-03-30 18:55,18:55,EDT,SE  3,10.0,Overcast,BKN055 BKN070 OVC080,68.0,55.4,64.0,,,29.9,0.0,0.0,0.0,0.0,2025-04-02,3,2025,18,KOKV,0.0,0.0,0.0,0.0,3
2025-03-30,30,2025-03-30 19:55,19:55,EDT,Calm,10.0,Light Drizzle,BKN070 OVC085,68.0,55.4,64.0,,,29.87,0.0,0.0,0.0,0.0,2025-04-02,3,2025,19,KOKV,0.0,0.0,0.0,0.0,0
2025-03-30,30,2025-03-30 20:55,20:55,EDT,Calm,10.0,Overcast,OVC060,64.4,55.4,73.0,,,29.86,0.0,0.0,0.0,0.0,2025-04-02,3,2025,20,KOKV,0.0,0.0,0.0,0.0,0
2025-03-30,30,2025-03-30 21:55,21:55,EDT,Calm,10.0,Overcast,OVC060,62.6,55.4,77.0,,,29.84,0.0,0.0,0.0,0.0,2025-04-02,3,2025,21,KOKV,0.0,0.0,0.0,0.0,0
2025-03-30,30,2025-03-30 22:55,22:55,EDT,S  5,10.0,Mostly Cloudy,BKN120,62.6,53.6,73.0,,,29.82,0.0,0.0,0.0,0.0,2025-04-02,3,2025,22,KOKV,0.0,0.0,0.0,0.0,5
2025-03-30,30,2025-03-30 23:55,23:55,EDT,S  5,10.0,Fair,CLR,66.2,51.8,60.0,,,29.82,0.0,0.0,0.0,0.0,2025-04-02,3,2025,23,KOKV,0.0,0.0,0.0,0.0,5
2025-03-31,31,2025-03-31 00:55,00:55,EDT,SE  6,10.0,Fair,CLR,60.8,50.0,68.0,,,29.8,0.0,0.0,0.0,0.0,2025-04-03,3,2025,0,KOKV,0.0,0.0,0.0,0.0,6
2025-03-31,31,2025-03-31 01:55,01:55,EDT,S  7,10.0,Partly Cloudy,SCT120,62.6,51.8,68.0,,,29.77,0.0,0.0,0.0,0.0,2025-04-03,3,2025,1,KOKV,0.0,0.0,0.0,0.0,7
2025-03-31,31,2025-03-31 02:55,02:55,EDT,S  12,10.0,Fair,CLR,64.4,51.8,64.0,,,29.75,0.0,0.0,0.0,0.0,2025-04-03,3,2025,2,KOKV,0.0,0.0,0.0,0.0,12
2025-03-31,31,2025-03-31 03:55,03:55,EDT,S  7,10.0,Partly Cloudy,SCT120,64.4,53.6,68.0,,,29.74,0.0,0.0,0.0,0.0,2025-04-03,3,2025,3,KOKV,0.0,0.0,0.0,0.0,7
2025-03-31,31,2025-03-31 04:55,04:55,EDT,S  10  G 17,10.0,Fair,CLR,64.4,53.6,68.0,,,29.73,0.0,0.0,0.0,0.0,2025-04-03,3,2025,4,KOKV,0.0,0.0,0.0,0.0,10
2025-03-31,31,2025-03-31 05:55,05:55,EDT,S  8,10.0,Partly Cloudy,SCT120,64.4,53.6,68.0,,,29.73,0.0,0.0,0.0,0.0,2025-04-03,3,2025,5,KOKV,0.0,0.0,0.0,0.0,8
2025-03-31,31,2025-03-31 06:55,06:55,EDT,W  10  G 32,5.0,Light Rain,SCT025 BKN038 OVC048,60.8,55.4,83.0,,,29.78,0.0,0.0,0.0,0.0,2025-04-03,3,2025,6,KOKV,0.0,0.0,0.0,0.0,10
2025-03-31,31,2025-03-31 07:55,07:55,EDT,Calm,10.0,Light Rain,BKN110,59.0,55.4,88.0,,,29.75,0.0,0.0,0.0,0.0,2025-04-03,3,2025,7,KOKV,0.0,0.0,0.0,0.0,0
2025-03-31,31,2025-03-31 08:55,08:55,EDT,S  3,10.0,Fair,CLR,60.8,57.2,88.0,,,29.73,0.0,0.0,0.0,0.0,2025-04-03,3,2025,8,KOKV,0.0,0.0,0.0,0.0,3
2025-03-31,31,2025-03-31 09:35,09:35,EDT,SW  5,10.0,Fair,CLR,64.4,59.0,83.0,,,29.73,0.0,0.0,0.0,0.0,2025-04-03,3,2025,9,KOKV,0.0,0.0,0.0,0.0,5
2025-03-31,31,2025-03-31 10:55,10:55,EDT,S  8,10.0,Partly Cloudy,SCT120,69.8,55.4,60.0,,,29.71,0.0,0.0,0.0,0.0,2025-04-03,3,2025,10,KOKV,0.0,0.0,0.0,0.0,8
2025-03-31,31,2025-03-31 11:55,11:55,EDT,S  9,10.0,Fair,CLR,71.6,53.6,53.0,,,29.7,0.0,0.0,0.0,0.0,2025-04-03,3,2025,11,KOKV,0.0,0.0,0.0,0.0,9
2025-03-31,31,2025-03-31 12:55,12:55,EDT,W  7,10.0,Fair,CLR,75.2,53.6,47.0,,78.0,29.67,0.0,0.0,0.0,0.0,2025-04-03,3,2025,12,KOKV,0.0,0.0,0.0,0.0,7
2025-03-31,31,2025-03-31 13:55,13:55,EDT,S  9,10.0,Partly Cloudy,SCT060 SCT075,78.8,53.6,42.0,,79.0,29.64,0.0,0.0,0.0,0.0,2025-04-03,3,2025,13,KOKV,0.0,0.0,0.0,0.0,9
2025-03-31,31,2025-03-31 14:55,14:55,EDT,SW  9,10.0,Mostly Cloudy,SCT065 BKN090,77.0,53.6,44.0,,78.0,29.61,0.0,0.0,0.0,0.0,2025-04-03,3,2025,14,KOKV,0.0,0.0,0.0,0.0,9
2025-03-31,31,2025-03-31 15:55,15:55,EDT,NW  8,10.0,Overcast,BKN065 OVC075,75.2,51.8,44.0,,78.0,29.6,0.0,0.0,0.0,0.0,2025-04-03,3,2025,15,KOKV,0.0,0.0,0.0,0.0,8
2025-03-31,31,2025-03-31 16:55,16:55,EDT,NW  10  G 17,10.0,Rain,BKN065 OVC075,69.8,55.4,60.0,,,29.59,0.0,0.0,0.0,0.0,2025-04-03,3,2025,16,KOKV,0.0,0.0,0.0,0.0,10
2025-03-31,31,2025-03-31 17:55,17:55,EDT,NW  13  G 17,5.0,Heavy Rain,SCT032 OVC060,62.6,59.0,88.0,,,29.61,0.0,0.0,0.0,0.0,2025-04-03,3,2025,17,KOKV,0.0,0.0,0.0,0.0,13
2025-03-31,31,2025-03-31 18:55,18:55,EDT,Calm,7.0,Light Rain,SCT043 SCT065 OVC080,60.8,59.0,94.0,,,29.61,0.0,0.0,0.0,0.0,2025-04-03,3,2025,18,KOKV,0.0,0.0,0.0,0.0,0
2025-03-31,31,2025-03-31 19:55,19:55,EDT,Calm,10.0,Light Rain,SCT016 SCT036 OVC060,60.8,59.0,94.0,,,29.62,0.0,0.0,0.0,0.0,2025-04-03,3,2025,19,KOKV,0.0,0.0,0.0,0.0,0
2025-03-31,31,2025-03-31 20:55,20:55,EDT,Calm,10.0,Drizzle,SCT018 BKN028 OVC043,59.0,59.0,100.0,,,29.62,0.0,0.0,0.0,0.0,2025-04-03,3,2025,20,KOKV,0.0,0.0,0.0,0.0,0
2025-03-31,31,2025-03-31 21:55,21:55,EDT,NW  8,10.0,Light Rain,SCT040 OVC047,59.0,55.4,88.0,,,29.63,0.0,0.0,0.0,0.0,2025-04-03,3,2025,21,KOKV,0.0,0.0,0.0,0.0,8
2025-03-31,31,2025-03-31 22:55,22:55,EDT,NW  17,10.0,Overcast,SCT023 SCT065 OVC090,55.4,50.0,82.0,,,29.67,0.0,0.0,0.0,0.0,2025-04-03,3,2025,22,KOKV,0.0,0.0,0.0,0.0,17
2025-03-31,31,2025-03-31 23:55,23:55,EDT,NW  15  G 23,10.0,Overcast,BKN030 OVC035,53.6,46.4,77.0,,,29.72,0.0,0.0,0.0,0.0,2025-04-03,3,2025,23,KOKV,0.0,0.0,0.0,0.0,15
2025-04-01,1,2025-04-01 00:55,00:55,EDT,NW  23  G 26,10.0,Overcast and Breezy,BKN026 BKN031 OVC036,48.2,41.0,76.0,41.0,,29.76,0.0,0.0,0.0,0.0,2025-04-04,4,2025,0,KOKV,0.0,0.0,0.0,0.0,23
2025-04-01,1,2025-04-01 01:55,01:55,EDT,NW  12  G 17,10.0,Mostly Cloudy,BKN029 BKN034 BKN050,46.4,37.4,71.0,42.0,,29.78,0.0,0.0,0.0,0.0,2025-04-04,4,2025,1,KOKV,0.0,0.0,0.0,0.0,12
2025-04-01,1,2025-04-01 02:55,02:55,EDT,NW  18  G 28,10.0,Overcast,OVC026,42.8,35.6,76.0,35.0,,29.82,0.0,0.0,0.0,0.0,2025-04-04,4,2025,2,KOKV,0.0,0.0,0.0,0.0,18
2025-04-01,1,2025-04-01 03:55,03:55,EDT,NW  18  G 25,10.0,Overcast,OVC028,42.8,33.8,71.0,35.0,,29.84,0.0,0.0,0.0,0.0,2025-04-04,4,2025,3,KOKV,0.0,0.0,0.0,0.0,18
2025-04-01,1,2025-04-01 04:35,04:35,EDT,Calm,0.0,,,41.0,32.0,70.0,,,0.0,0.0,0.0,0.0,0.0,2025-04-04,4,2025,4,KOKV,0.0,0.0,0.0,0.0,0
2025-04-01,1,2025-04-01 07:55,07:55,EDT,NW  10  G 16,10.0,Mostly Cloudy,BKN031,39.2,30.2,70.0,33.0,,29.99,0.0,0.0,0.0,0.0,2025-04-04,4,2025,7,KOKV,0.0,0.0,0.0,0.0,10
2025-04-01,1,2025-04-01 08:55,08:55,EDT,NW  12  G 20,10.0,Mostly Cloudy,BKN031,39.2,30.2,70.0,33.0,,30.01,0.0,0.0,0.0,0.0,2025-04-04,4,2025,8,KOKV,0.0,0.0,0.0,0.0,12
2025-04-01,1,2025-04-01 09:35,09:35,EDT,N  12  G 17,10.0,Overcast,OVC031,41.0,30.2,66.0,35.0,,30.03,0.0,0.0,0.0,0.0,2025-04-04,4,2025,9,KOKV,0.0,0.0,0.0,0.0,12
2025-04-01,1,2025-04-01 10:55,10:55,EDT,NW  13  G 18,10.0,Fair,CLR,42.8,30.2,61.0,37.0,,30.07,0.0,0.0,0.0,0.0,2025-04-04,4,2025,10,KOKV,0.0,0.0,0.0,0.0,13
2025-04-01,1,2025-04-01 11:55,11:55,EDT,NW  21  G 26,10.0,Fair and Breezy,CLR,46.4,32.0,57.0,39.0,,30.08,0.0,0.0,0.0,0.0,2025-04-04,4,2025,11,KOKV,0.0,0.0,0.0,0.0,21
2025-04-01,1,2025-04-01 12:55,12:55,EDT,NW  14  G 22,10.0,Partly Cloudy,SCT040,46.4,30.2,53.0,41.0,,30.11,0.0,0.0,0.0,0.0,2025-04-04,4,2025,12,KOKV,0.0,0.0,0.0,0.0,14
2025-04-01,1,2025-04-01 13:55,13:55,EDT,NW  13  G 22,10.0,Fair,CLR,48.2,30.2,50.0,43.0,,30.1,0.0,0.0,0.0,0.0,2025-04-04,4,2025,13,KOKV,0.0,0.0,0.0,0.0,13
2025-04-01,1,2025-04-01 14:55,14:55,EDT,NW  14  G 20,10.0,Fair,CLR,50.0,30.2,47.0,45.0,,30.09,0.0,0.0,0.0,0.0,2025-04-04,4,2025,14,KOKV,0.0,0.0,0.0,0.0,14
2025-04-01,1,2025-04-01 15:55,15:55,EDT,W  14,10.0,Fair,CLR,51.8,30.2,44.0,,,30.09,0.0,0.0,0.0,0.0,2025-04-04,4,2025,15,KOKV,0.0,0.0,0.0,0.0,14
2025-04-01,1,2025-04-01 16:55,16:55,EDT,NW  7,10.0,Fair,CLR,51.8,28.4,41.0,,,30.1,0.0,0.0,0.0,0.0,2025-04-04,4,2025,16,KOKV,0.0,0.0,0.0,0.0,7
2025-04-01,1,2025-04-01 17:55,17:55,EDT,N  5,10.0,Fair,CLR,51.8,26.6,38.0,,,30.11,0.0,0.0,0.0,0.0,2025-04-04,4,2025,17,KOKV,0.0,0.0,0.0,0.0,5
2025-04-01,1,2025-04-01 18:55,18:55,EDT,NW  3,10.0,Fair,CLR,50.0,26.6,40.0,,,30.14,0.0,0.0,0.0,0.0,2025-04-04,4,2025,18,KOKV,0.0,0.0,0.0,0.0,3
2025-04-01,1,2025-04-01 19:55,19:55,EDT,N  3,10.0,Fair,CLR,46.4,26.6,46.0,,,30.15,0.0,0.0,0.0,0.0,2025-04-04,4,2025,19,KOKV,0.0,0.0,0.0,0.0,3
2025-04-01,1,2025-04-01 20:55,20:55,EDT,N  5,10.0,Fair,CLR,42.8,28.4,57.0,41.0,,30.2,0.0,0.0,0.0,0.0,2025-04-04,4,2025,20,KOKV,0.0,0.0,0.0,0.0,5
2025-04-01,1,2025-04-01 21:55,21:55,EDT,Calm,10.0,Fair,CLR,42.8,28.4,57.0,,,30.21,0.0,0.0,0.0,0.0,2025-04-04,4,2025,21,KOKV,0.0,0.0,0.0,0.0,0
2025-04-01,1,2025-04-01 22:55,22:55,EDT,Calm,10.0,Fair,CLR,35.6,28.4,75.0,,,30.22,0.0,0.0,0.0,0.0,2025-04-04,4,2025,22,KOKV,0.0,0.0,0.0,0.0,0
2025-04-01,1,2025-04-01 23:55,23:55,EDT,Calm,10.0,Fair,CLR,35.6,28.4,75.0,,,30.24,0.0,0.0,0.0,0.0,2025-04-04,4,2025,23,KOKV,0.0,0.0,0.0,0.0,0
2025-04-02,2,2025-04-02 00:55,00:55,EDT,Calm,10.0,Fair,CLR,35.6,28.4,75.0,,,30.26,0.0,0.0,0.0,0.0,2025-04-05,4,2025,0,KOKV,0.0,0.0,0.0,0.0,0
2025-04-02,2,2025-04-02 01:55,01:55,EDT,Calm,10.0,Fair,CLR,35.6,28.4,75.0,,,30.28,0.0,0.0,0.0,0.0,2025-04-05,4,2025,1,KOKV,0.0,0.0,0.0,0.0,0
2025-04-02,2,2025-04-02 02:55,02:55,EDT,Calm,10.0,Fair,CLR,33.8,28.4,81.0,,,30.27,0.0,0.0,0.0,0.0,2025-04-05,4,2025,2,KOKV,0.0,0.0,0.0,0.0,0
2025-04-02,2,2025-04-02 03:55,03:55,EDT,Calm,10.0,Fair,CLR,33.8,30.2,87.0,,,30.28,0.0,0.0,0.0,0.0,2025-04-05,4,2025,3,KOKV,0.0,0.0,0.0,0.0,0
2025-04-02,2,2025-04-02 04:35,04:35,EDT,NE  3,10.0,Fair,CLR,32.0,28.4,87.0,,,30.28,0.0,0.0,0.0,0.0,2025-04-05,4,2025,4,KOKV,0.0,0.0,0.0,0.0,3
2025-04-02,2,2025-04-02 05:55,05:55,EDT,Calm,10.0,Fair,CLR,35.6,28.4,75.0,,,30.3,0.0,0.0,0.0,0.0,2025-04-05,4,2025,5,KOKV,0.0,0.0,0.0,0.0,0
2025-04-02,2,2025-04-02 06:55,06:55,EDT,NE  3,10.0,Fair,CLR,35.6,28.4,75.0,,,30.33,0.0,0.0,0.0,0.0,2025-04-05,4,2025,6,KOKV,0.0,0.0,0.0,0.0,3
2025-04-02,2,2025-04-02 07:55,07:55,EDT,NE  3,10.0,Overcast,OVC048,35.6,30.2,81.0,,,30.34,0.0,0.0,0.0,0.0,2025-04-05,4,2025,7,KOKV,0.0,0.0,0.0,0.0,3
2025-04-02,2,2025-04-02 08:55,08:55,EDT,E  5,10.0,Overcast,OVC046,41.0,32.0,70.0,38.0,,30.34,0.0,0.0,0.0,0.0,2025-04-05,4,2025,8,KOKV,0.0,0.0,0.0,0.0,5
2025-04-02,2,2025-04-02 09:55,09:55,EDT,SE  14  G 18,10.0,Partly Cloudy,SCT046,44.6,33.8,66.0,39.0,,30.33,0.0,0.0,0.0,0.0,2025-04-05,4,2025,9,KOKV,0.0,0.0,0.0,0.0,14
2025-04-02,2,2025-04-02 10:55,10:55,EDT,SE  12,10.0,Overcast,OVC044,46.4,33.8,62.0,42.0,,30.32,0.0,0.0,0.0,0.0,2025-04-05,4,2025,10,KOKV,0.0,0.0,0.0,0.0,12
2025-04-02,2,2025-04-02 11:55,11:55,EDT,SE  15  G 23,10.0,Overcast,OVC046,50.0,33.8,54.0,45.0,,30.31,0.0,0.0,0.0,0.0,2025-04-05,4,2025,11,KOKV,0.0,0.0,0.0,0.0,15
2025-04-02,2,2025-04-02 12:55,12:55,EDT,S  17  G 26,10.0,Partly Cloudy,SCT033 SCT046,53.6,37.4,54.0,,,30.26,0.0,0.0,0.0,0.0,2025-04-05,4,2025,12,KOKV,0.0,0.0,0.0,0.0,17
2025-04-02,2,2025-04-02 13:55,13:55,EDT,SE  14  G 17,10.0,Overcast,OVC041,51.8,37.4,58.0,,,30.28,0.0,0.0,0.0,0.0,2025-04-05,4,2025,13,KOKV,0.0,0.0,0.0,0.0,14
2025-04-02,2,2025-04-02 14:55,14:55,EDT,SE  13,10.0,Overcast,OVC037,51.8,35.6,54.0,,,30.25,0.0,0.0,0.0,0.0,2025-04-05,4,2025,14,KOKV,0.0,0.0,0.0,0.0,13
2025-04-02,2,2025-04-02 15:55,15:55,EDT,SE  13  G 17,10.0,Overcast,OVC035,51.8,35.6,54.0,,,30.23,0.0,0.0,0.0,0.0,2025-04-05,4,2025,15,KOKV,0.0,0.0,0.0,0.0,13
2025-04-02,2,2025-04-02 16:55,16:55,EDT,S  12  G 16,10.0,Thunderstorm in Vicinity,OVC035,51.8,37.4,58.0,,,30.22,0.0,0.0,0.0,0.0,2025-04-05,4,2025,16,KOKV,0.0,0.0,0.0,0.0,12
2025-04-02,2,2025-04-02 17:55,17:55,EDT,S  9,10.0,Overcast,OVC033,51.8,39.2,62.0,,,30.22,0.0,0.0,0.0,0.0,2025-04-05,4,2025,17,KOKV,0.0,0.0,0.0,0.0,9
2025-04-02,2,2025-04-02 18:55,18:55,EDT,S  12  G 17,10.0,Overcast,BKN027 OVC035,51.8,42.8,72.0,,,30.23,0.0,0.0,0.0,0.0,2025-04-05,4,2025,18,KOKV,0.0,0.0,0.0,0.0,12
2025-04-02,2,2025-04-02 19:55,19:55,EDT,S  9,10.0,Overcast,OVC037,51.8,42.8,72.0,,,30.22,0.0,0.0,0.0,0.0,2025-04-05,4,2025,19,KOKV,0.0,0.0,0.0,0.0,9
2025-04-02,2,2025-04-02 20:55,20:55,EDT,SE  12  G 20,10.0,Overcast,OVC037,51.8,42.8,72.0,,,30.2,0.0,0.0,0.0,0.0,2025-04-05,4,2025,20,KOKV,0.0,0.0,0.0,0.0,12
2025-04-02,2,2025-04-02 21:55,21:55,EDT,SE  9,10.0,Overcast,OVC037,51.8,42.8,72.0,,,30.21,0.0,0.0,0.0,0.0,2025-04-05,4,2025,21,KOKV,0.0,0.0,0.0,0.0,9
2025-04-02,2,2025-04-02 22:55,22:55,EDT,SE  10,10.0,Overcast,OVC033,51.8,41.0,67.0,,,30.19,0.0,0.0,0.0,0.0,2025-04-05,4,2025,22,KOKV,0.0,0.0,0.0,0.0,10
2025-04-02,2,2025-04-02 23:55,23:55,EDT,SE  9,10.0,Overcast,OVC033,51.8,41.0,67.0,,,30.13,0.0,0.0,0.0,0.0,2025-04-05,4,2025,23,KOKV,0.0,0.0,0.0,0.0,9
2025-04-03,3,2025-04-03 00:55,00:55,EDT,S  5,10.0,Overcast,OVC029,51.8,41.0,67.0,,,30.14,0.0,0.0,0.0,0.0,2025-04-06,4,2025,0,KOKV,0.0,0.0,0.0,0.0,5
2025-04-03,3,2025-04-03 01:55,01:55,EDT,S  7,10.0,Overcast,OVC027,51.8,42.8,72.0,,,30.11,0.0,0.0,0.0,0.0,2025-04-06,4,2025,1,KOKV,0.0,0.0,0.0,0.0,7
2025-04-03,3,2025-04-03 02:55,02:55,EDT,S  5,10.0,Overcast,OVC025,51.8,44.6,77.0,,,30.09,0.0,0.0,0.0,0.0,2025-04-06,4,2025,2,KOKV,0.0,0.0,0.0,0.0,5
2025-04-03,3,2025-04-03 03:55,03:55,EDT,Calm,10.0,Overcast,OVC023,50.0,44.6,82.0,,,30.08,0.0,0.0,0.0,0.0,2025-04-06,4,2025,3,KOKV,0.0,0.0,0.0,0.0,0
2025-04-03,3,2025-04-03 04:55,04:55,EDT,S  5,10.0,Overcast,BKN023 OVC035,51.8,46.4,82.0,,,30.07,0.0,0.0,0.0,0.0,2025-04-06,4,2025,4,KOKV,0.0,0.0,0.0,0.0,5
2025-04-03,3,2025-04-03 05:55,05:55,EDT,S  5,10.0,Mostly Cloudy,BKN028 BKN033,51.8,48.2,88.0,,,30.04,0.0,0.0,0.0,0.0,2025-04-06,4,2025,5,KOKV,0.0,0.0,0.0,0.0,5
2025-04-03,3,2025-04-03 06:55,06:55,EDT,SW  5,10.0,Fair,CLR,51.8,50.0,94.0,,,30.04,0.0,0.0,0.0,0.0,2025-04-06,4,2025,6,KOKV,0.0,0.0,0.0,0.0,5
2025-04-03,3,2025-04-03 07:55,07:55,EDT,N  6,10.0,Partly Cloudy,SCT095,55.4,50.0,82.0,,,30.09,0.0,0.0,0.0,0.0,2025-04-06,4,2025,7,KOKV,0.0,0.0,0.0,0.0,6
2025-04-03,3,2025-04-03 08:55,08:55,EDT,Calm,0.0,Overcast,SCT038 BKN046 OVC070,62.6,57.2,83.0,,,0.0,0.0,0.0,0.0,0.0,2025-04-06,4,2025,8,KOKV,0.0,0.0,0.0,0.0,0
2025-04-03,3,2025-04-03 09:15,09:15,EDT,Calm,0.0,,,62.6,57.2,83.0,,,0.0,0.0,0.0,0.0,0.0,2025-04-06,4,2025,9,KOKV,0.0,0.0,0.0,0.0,0
2025-04-03,3,2025-04-03 14:55,14:55,EDT,SW  12  G 17,10.0,Fair,CLR,73.4,59.0,61.0,,,30.04,0.0,0.0,0.0,0.0,2025-04-06,4,2025,14,KOKV,0.0,0.0,0.0,0.0,12
2025-04-03,3,2025-04-03 15:55,15:55,EDT,SW  7,10.0,Fair,CLR,73.4,60.8,65.0,,,30.03,0.0,0.0,0.0,0.0,2025-04-06,4,2025,15,KOKV,0.0,0.0,0.0,0.0,7
2025-04-03,3,2025-04-03 16:55,16:55,EDT,SW  8,10.0,Fair,CLR,73.4,60.8,65.0,,,30.0,0.0,0.0,0.0,0.0,2025-04-06,4,2025,16,KOKV,0.0,0.0,0.0,0.0,8
2025-04-03,3,2025-04-03 17:55,17:55,EDT,SW  8,10.0,Fair,CLR,73.4,60.8,65.0,,,30.02,0.0,0.0,0.0,0.0,2025-04-06,4,2025,17,KOKV,0.0,0.0,0.0,0.0,8
2025-04-03,3,2025-04-03 18:55,18:55,EDT,Calm,10.0,Partly Cloudy,SCT065 SCT075 SCT085,71.6,60.8,69.0,,,30.04,0.0,0.0,0.0,0.0,2025-04-06,4,2025,18,KOKV,0.0,0.0,0.0,0.0,0
2025-04-03,3,2025-04-03 19:55,19:55,EDT,SW  6,10.0,Light Rain,BKN065 BKN085,73.4,60.8,65.0,,,30.06,0.0,0.0,0.0,0.0,2025-04-06,4,2025,19,KOKV,0.0,0.0,0.0,0.0,6
2025-04-03,3,2025-04-03 20:55,20:55,EDT,SW  5,10.0,Partly Cloudy,SCT120,71.6,60.8,69.0,,,30.05,0.0,0.0,0.0,0.0,2025-04-06,4,2025,20,KOKV,0.0,0.0,0.0,0.0,5
2025-04-03,3,2025-04-03 21:55,21:55,EDT,Calm,10.0,Partly Cloudy,SCT050 SCT120,69.8,60.8,73.0,,,30.04,0.0,0.0,0.0,0.0,2025-04-06,4,2025,21,KOKV,0.0,0.0,0.0,0.0,0
2025-04-03,3,2025-04-03 22:35,22:35,EDT,Calm,10.0,Partly Cloudy,SCT120,69.8,60.8,73.0,,,30.05,0.0,0.0,0.0,0.0,2025-04-06,4,2025,22,KOKV,0.0,0.0,0.0,0.0,0
2025-04-03,3,2025-04-03 23:55,23:55,EDT,Calm,10.0,Mostly Cloudy,BKN110,66.2,60.8,83.0,,,30.05,0.0,0.0,0.0,0.0,2025-04-06,4,2025,23,KOKV,0.0,0.0,0.0,0.0,0
2025-04-04,4,2025-04-04 00:35,00:35,EDT,Calm,10.0,Mostly Cloudy,SCT038 BKN090,64.4,60.8,88.0,,,30.04,0.0,0.0,0.0,0.0,2025-04-07,4,2025,0,KOKV,0.0,0.0,0.0,0.0,0
2025-04-04,4,2025-04-04 01:55,01:55,EDT,Calm,10.0,Fair,CLR,64.4,60.8,88.0,,,30.03,0.0,0.0,0.0,0.0,2025-04-07,4,2025,1,KOKV,0.0,0.0,0.0,0.0,0
2025-04-04,4,2025-04-04 02:55,02:55,EDT,S  7,10.0,Partly Cloudy,SCT100,68.0,60.8,78.0,,,30.03,0.0,0.0,0.0,0.0,2025-04-07,4,2025,2,KOKV,0.0,0.0,0.0,0.0,7
2025-04-04,4,2025-04-04 03:35,03:35,EDT,SW  6,10.0,Partly Cloudy,SCT110,68.0,60.8,78.0,,,30.02,0.0,0.0,0.0,0.0,2025-04-07,4,2025,3,KOKV,0.0,0.0,0.0,0.0,6
2025-04-04,4,2025-04-04 04:35,04:35,EDT,NW  12,10.0,Mostly Cloudy,SCT080 SCT095 BKN120,68.0,62.6,83.0,,,30.06,0.0,0.0,0.0,0.0,2025-04-07,4,2025,4,KOKV,0.0,0.0,0.0,0.0,12
2025-04-04,4,2025-04-04 05:55,05:55,EDT,S  3,10.0,Mostly Cloudy,BKN120,60.8,59.0,94.0,,,30.1,0.0,0.0,0.0,0.0,2025-04-07,4,2025,5,KOKV,0.0,0.0,0.0,0.0,3
2025-04-04,4,2025-04-04 06:55,06:55,EDT,S  5,10.0,Partly Cloudy,SCT075 SCT090 SCT120,60.8,59.0,94.0,,,30.1,0.0,0.0,0.0,0.0,2025-04-07,4,2025,6,KOKV,0.0,0.0,0.0,0.0,5
2025-04-04,4,2025-04-04 07:55,07:55,EDT,NE  5,10.0,Fair,CLR,60.8,59.0,94.0,,,30.13,0.0,0.0,0.0,0.0,2025-04-07,4,2025,7,KOKV,0.0,0.0,0.0,0.0,5
2025-04-04,4,2025-04-04 08:55,08:55,EDT,Calm,10.0,Partly Cloudy,SCT065 SCT090,62.6,59.0,88.0,,,30.18,0.0,0.0,0.0,0.0,2025-04-07,4,2025,8,KOKV,0.0,0.0,0.0,0.0,0
2025-04-04,4,2025-04-04 09:55,09:55,EDT,NE  3,10.0,Light Rain,SCT040 SCT065 OVC110,62.6,59.0,88.0,,,30.2,0.0,0.0,0.0,0.0,2025-04-07,4,2025,9,KOKV,0.0,0.0,0.0,0.0,3
2025-04-04,4,2025-04-04 10:55,10:55,EDT,NE  6,10.0,Partly Cloudy,SCT006 SCT046 SCT055,57.2,55.4,94.0,,,30.21,0.0,0.0,0.0,0.0,2025-04-07,4,2025,10,KOKV,0.0,0.0,0.0,0.0,6
2025-04-04,4,2025-04-04 11:55,11:55,EDT,N  3,10.0,Partly Cloudy,SCT015,59.0,53.6,82.0,,,30.23,0.0,0.0,0.0,0.0,2025-04-07,4,2025,11,KOKV,0.0,0.0,0.0,0.0,3
2025-04-04,4,2025-04-04 12:15,12:15,EDT,NE  3,10.0,Mostly Cloudy,BKN017,60.8,51.8,72.0,,,30.23,0.0,0.0,0.0,0.0,2025-04-07,4,2025,12,KOKV,0.0,0.0,0.0,0.0,3
2025-04-04,4,2025-04-04 13:55,13:55,EDT,N  6,10.0,Mostly Cloudy,BKN023 BKN050 BKN055,62.6,51.8,68.0,,,30.23,0.0,0.0,0.0,0.0,2025-04-07,4,2025,13,KOKV,0.0,0.0,0.0,0.0,6
2025-04-04,4,2025-04-04 14:55,14:55,EDT,NW  6,10.0,Partly Cloudy,SCT025,64.4,51.8,64.0,,,30.24,0.0,0.0,0.0,0.0,2025-04-07,4,2025,14,KOKV,0.0,0.0,0.0,0.0,6
2025-04-04,4,2025-04-04 15:55,15:55,EDT,N  6,10.0,Mostly Cloudy,SCT024 BKN055,62.6,51.8,68.0,,,30.22,0.0,0.0,0.0,0.0,2025-04-07,4,2025,15,KOKV,0.0,0.0,0.0,0.0,6
2025-04-04,4,2025-04-04 16:55,16:55,EDT,N  6,10.0,Partly Cloudy,SCT026 SCT060,64.4,51.8,64.0,,,30.22,0.0,0.0,0.0,0.0,2025-04-07,4,2025,16,KOKV,0.0,0.0,0.0,0.0,6
2025-04-04,4,2025-04-04 17:55,17:55,EDT,N  5,10.0,Mostly Cloudy,BKN065,62.6,51.8,68.0,,,30.24,0.0,0.0,0.0,0.0,2025-04-07,4,2025,17,KOKV,0.0,0.0,0.0,0.0,5
2025-04-04,4,2025-04-04 18:55,18:55,EDT,N  3,10.0,Mostly Cloudy,SCT028 BKN055 BKN065,62.6,51.8,68.0,,,30.24,0.0,0.0,0.0,0.0,2025-04-07,4,2025,18,KOKV,0.0,0.0,0.0,0.0,3
2025-04-04,4,2025-04-04 19:55,19:55,EDT,Calm,10.0,Overcast,OVC046,60.8,51.8,72.0,,,30.26,0.0,0.0,0.0,0.0,2025-04-07,4,2025,19,KOKV,0.0,0.0,0.0,0.0,0
2025-04-04,4,2025-04-04 20:55,20:55,EDT,Calm,10.0,Overcast,OVC049,59.0,51.8,77.0,,,30.27,0.0,0.0,0.0,0.0,2025-04-07,4,2025,20,KOKV,0.0,0.0,0.0,0.0,0
2025-04-04,4,2025-04-04 21:55,21:55,EDT,Calm,10.0,Overcast,OVC047,59.0,51.8,77.0,,,30.27,0.0,0.0,0.0,0.0,2025-04-07,4,2025,21,KOKV,0.0,0.0,0.0,0.0,0
2025-04-04,4,2025-04-04 22:55,22:55,EDT,Calm,10.0,Mostly Cloudy,BKN048,55.4,51.8,88.0,,,30.25,0.0,0.0,0.0,0.0,2025-04-07,4,2025,22,KOKV,0.0,0.0,0.0,0.0,0
2025-04-04,4,2025-04-04 23:55,23:55,EDT,Calm,10.0,Mostly Cloudy,SCT029 BKN050,55.4,51.8,88.0,,,30.25,0.0,0.0,0.0,0.0,2025-04-07,4,2025,23,KOKV,0.0,0.0,0.0,0.0,0
2025-04-05,5,2025-04-05 00:55,00:55,EDT,Calm,10.0,Partly Cloudy,SCT050,53.6,51.8,94.0,,,30.24,0.0,0.0,0.0,0.0,2025-04-08,4,2025,0,KOKV,0.0,0.0,0.0,0.0,0
2025-04-05,5,2025-04-05 01:55,01:55,EDT,Calm,10.0,Partly Cloudy,SCT120,51.8,51.8,100.0,,,30.22,0.0,0.0,0.0,0.0,2025-04-08,4,2025,1,KOKV,0.0,0.0,0.0,0.0,0
2025-04-05,5,2025-04-05 02:55,02:55,EDT,Calm,10.0,Partly Cloudy,SCT050 SCT100,53.6,51.8,94.0,,,30.2,0.0,0.0,0.0,0.0,2025-04-08,4,2025,2,KOKV,0.0,0.0,0.0,0.0,0
2025-04-05,5,2025-04-05 03:55,03:55,EDT,Calm,10.0,Mostly Cloudy,BKN030 BKN100,53.6,51.8,94.0,,,30.19,0.0,0.0,0.0,0.0,2025-04-08,4,2025,3,KOKV,0.0,0.0,0.0,0.0,0
2025-04-05,5,2025-04-05 04:55,04:55,EDT,Calm,10.0,Overcast,OVC028,53.6,51.8,94.0,,,30.17,0.0,0.0,0.0,0.0,2025-04-08,4,2025,4,KOKV,0.0,0.0,0.0,0.0,0
2025-04-05,5,2025-04-05 05:55,05:55,EDT,SE  3,10.0,Overcast,OVC026,57.2,50.0,77.0,,,30.15,0.0,0.0,0.0,0.0,2025-04-08,4,2025,5,KOKV,0.0,0.0,0.0,0.0,3
2025-04-05,5,2025-04-05 06:55,06:55,EDT,SE  6,10.0,Overcast,OVC024,59.0,50.0,72.0,,,30.15,0.0,0.0,0.0,0.0,2025-04-08,4,2025,6,KOKV,0.0,0.0,0.0,0.0,6
2025-04-05,5,2025-04-05 07:55,07:55,EDT,SE  3,10.0,Overcast,OVC020,59.0,51.8,77.0,,,30.14,0.0,0.0,0.0,0.0,2025-04-08,4,2025,7,KOKV,0.0,0.0,0.0,0.0,3
2025-04-05,5,2025-04-05 08:55,08:55,EDT,SE  6,10.0,Mostly Cloudy,BKN024,60.8,53.6,77.0,,,30.11,0.0,0.0,0.0,0.0,2025-04-08,4,2025,8,KOKV,0.0,0.0,0.0,0.0,6
2025-04-05,5,2025-04-05 09:55,09:55,EDT,S  9,10.0,Overcast,OVC020,62.6,55.4,77.0,,,30.1,0.0,0.0,0.0,0.0,2025-04-08,4,2025,9,KOKV,0.0,0.0,0.0,0.0,9
2025-04-05,5,2025-04-05 10:55,10:55,EDT,S  7,10.0,Overcast,BKN020 OVC029,62.6,55.4,77.0,,,30.09,0.0,0.0,0.0,0.0,2025-04-08,4,2025,10,KOKV,0.0,0.0,0.0,0.0,7
2025-04-05,5,2025-04-05 11:55,11:55,EDT,S  7,10.0,Partly Cloudy,SCT029,64.4,55.4,73.0,,,30.07,0.0,0.0,0.0,0.0,2025-04-08,4,2025,11,KOKV,0.0,0.0,0.0,0.0,7
2025-04-05,5,2025-04-05 12:55,12:55,EDT,S  7,10.0,Fair,CLR,66.2,57.2,73.0,,,30.02,0.0,0.0,0.0,0.0,2025-04-08,4,2025,12,KOKV,0.0,0.0,0.0,0.0,7
2025-04-05,5,2025-04-05 13:55,13:55,EDT,S  3,10.0,Mostly Cloudy,BKN110,68.0,59.0,73.0,,,29.99,0.0,0.0,0.0,0.0,2025-04-08,4,2025,13,KOKV,0.0,0.0,0.0,0.0,3
2025-04-05,5,2025-04-05 14:55,14:55,EDT,Calm,10.0,Fair,CLR,71.6,59.0,65.0,,,29.96,0.0,0.0,0.0,0.0,2025-04-08,4,2025,14,KOKV,0.0,0.0,0.0,0.0,0
2025-04-05,5,2025-04-05 15:55,15:55,EDT,E  5,10.0,Fair,CLR,73.4,60.8,65.0,,,29.92,0.0,0.0,0.0,0.0,2025-04-08,4,2025,15,KOKV,0.0,0.0,0.0,0.0,5
2025-04-05,5,2025-04-05 16:55,16:55,EDT,E  5,10.0,Mostly Cloudy,SCT070 BKN080,75.2,60.8,61.0,,77.0,29.91,0.0,0.0,0.0,0.0,2025-04-08,4,2025,16,KOKV,0.0,0.0,0.0,0.0,5
2025-04-05,5,2025-04-05 17:55,17:55,EDT,NE  3,10.0,Mostly Cloudy,BKN060 BKN075,73.4,60.8,65.0,,,29.9,0.0,0.0,0.0,0.0,2025-04-08,4,2025,17,KOKV,0.0,0.0,0.0,0.0,3
2025-04-05,5,2025-04-05 18:55,18:55,EDT,NE  6,10.0,Light Drizzle,SCT038 SCT060 BKN070,71.6,62.6,73.0,,,29.9,0.0,0.0,0.0,0.0,2025-04-08,4,2025,18,KOKV,0.0,0.0,0.0,0.0,6
2025-04-05,5,2025-04-05 19:55,19:55,EDT,N  5,7.0,Light Rain,SCT031 OVC055,64.4,62.6,94.0,,,29.88,0.0,0.0,0.0,0.0,2025-04-08,4,2025,19,KOKV,0.0,0.0,0.0,0.0,5
2025-04-05,5,2025-04-05 20:55,20:55,EDT,NE  5,5.0,Fog/Mist,SCT075,60.8,60.8,100.0,,,0.0,0.0,0.0,0.0,0.0,2025-04-08,4,2025,20,KOKV,0.0,0.0,0.0,0.0,5
2025-04-05,5,2025-04-05 21:55,21:55,EDT,NW  8,4.0,Rain,OVC005,59.0,59.0,100.0,,,0.0,0.0,0.0,0.0,0.0,2025-04-08,4,2025,21,KOKV,0.0,0.0,0.0,0.0,8
2025-04-05,5,2025-04-05 22:55,22:55,EDT,N  3,3.0,Fog/Mist,OVC003,59.0,57.2,94.0,,,0.0,0.0,0.0,0.0,0.0,2025-04-08,4,2025,22,KOKV,0.0,0.0,0.0,0.0,3
2025-04-05,5,2025-04-05 23:55,23:55,EDT,NE  3,1.75,Fog/Mist,OVC003,57.2,55.4,94.0,,,0.0,0.0,0.0,0.0,0.0,2025-04-08,4,2025,23,KOKV,0.0,0.0,0.0,0.0,3
2025-04-06,6,2025-04-06 00:55,00:55,EDT,Calm,1.25,Fog/Mist,OVC003,55.4,55.4,100.0,,,0.0,0.0,0.0,0.0,0.0,2025-04-09,4,2025,0,KOKV,0.0,0.0,0.0,0.0,0
2025-04-06,6,2025-04-06 01:55,01:55,EDT,Calm,0.5,Fog,OVC003,55.4,55.4,100.0,,,0.0,0.0,0.0,0.0,0.0,2025-04-09,4,2025,1,KOKV,0.0,0.0,0.0,0.0,0
2025-04-06,6,2025-04-06 02:55,02:55,EDT,Calm,0.5,Fog,OVC003,55.4,53.6,94.0,,,29.78,0.0,0.0,0.0,0.0,2025-04-09,4,2025,2,KOKV,0.0,0.0,0.0,0.0,0
2025-04-06,6,2025-04-06 03:55,03:55,EDT,Calm,0.25,Fog,OVC003,55.4,53.6,94.0,,,29.75,0.0,0.0,0.0,0.0,2025-04-09,4,2025,3,KOKV,0.0,0.0,0.0,0.0,0
2025-04-06,6,2025-04-06 04:55,04:55,EDT,Calm,0.25,Fog,OVC003,53.6,53.6,100.0,,,29.72,0.0,0.0,0.0,0.0,2025-04-09,4,2025,4,KOKV,0.0,0.0,0.0,0.0,0
2025-04-06,6,2025-04-06 05:55,05:55,EDT,Calm,0.5,Fog,OVC003,53.6,53.6,100.0,,,0.0,0.0,0.0,0.0,0.0,2025-04-09,4,2025,5,KOKV,0.0,0.0,0.0,0.0,0
2025-04-06,6,2025-04-06 06:55,06:55,EDT,Calm,0.75,Fog/Mist,OVC003,53.6,53.6,100.0,,,0.0,0.0,0.0,0.0,0.0,2025-04-09,4,2025,6,KOKV,0.0,0.0,0.0,0.0,0
2025-04-06,6,2025-04-06 07:55,07:55,EDT,Calm,0.75,Rain,OVC003,53.6,53.6,100.0,,,0.0,0.0,0.0,0.0,0.0,2025-04-09,4,2025,7,KOKV,0.0,0.0,0.0,0.0,0
2025-04-06,6,2025-04-06 08:55,08:55,EDT,Calm,1.25,Light Rain,OVC003,53.6,53.6,100.0,,,0.0,0.0,0.0,0.0,0.0,2025-04-09,4,2025,8,KOKV,0.0,0.0,0.0,0.0,0
2025-04-06,6,2025-04-06 09:55,09:55,EDT,E  3,1.0,Fog/Mist,OVC003,53.6,53.6,100.0,,,29.75,0.0,0.0,0.0,0.0,2025-04-09,4,2025,9,KOKV,0.0,0.0,0.0,0.0,3
2025-04-06,6,2025-04-06 10:55,10:55,EDT,N  6,0.75,Drizzle,OVC003,53.6,53.6,100.0,,,0.0,0.0,0.0,0.0,0.0,2025-04-09,4,2025,10,KOKV,0.0,0.0,0.0,0.0,6
2025-04-06,6,2025-04-06 11:55,11:55,EDT,N  6,10.0,Overcast,BKN009 BKN014 OVC027,51.8,51.8,100.0,,,29.87,0.0,0.0,0.0,0.0,2025-04-09,4,2025,11,KOKV,0.0,0.0,0.0,0.0,6
2025-04-06,6,2025-04-06 12:55,12:55,EDT,N  6  G 16,10.0,Overcast,SCT012 OVC029,50.0,48.2,94.0,48.0,,29.9,0.0,0.0,0.0,0.0,2025-04-09,4,2025,12,KOKV,0.0,0.0,0.0,0.0,6
2025-04-06,6,2025-04-06 13:55,13:55,EDT,N  3,10.0,Overcast,SCT012 SCT030 OVC038,50.0,48.2,94.0,,,29.88,0.0,0.0,0.0,0.0,2025-04-09,4,2025,13,KOKV,0.0,0.0,0.0,0.0,3
2025-04-06,6,2025-04-06 14:55,14:55,EDT,NW  6,10.0,Overcast,OVC014,51.8,48.2,88.0,,,29.88,0.0,0.0,0.0,0.0,2025-04-09,4,2025,14,KOKV,0.0,0.0,0.0,0.0,6
2025-04-06,6,2025-04-06 15:55,15:55,EDT,Calm,10.0,Overcast,BKN014 OVC020,51.8,46.4,82.0,,,29.87,0.0,0.0,0.0,0.0,2025-04-09,4,2025,15,KOKV,0.0,0.0,0.0,0.0,0
2025-04-06,6,2025-04-06 16:55,16:55,EDT,NE  3,10.0,Overcast,BKN018 BKN085 OVC110,53.6,46.4,77.0,,,29.86,0.0,0.0,0.0,0.0,2025-04-09,4,2025,16,KOKV,0.0,0.0,0.0,0.0,3
2025-04-06,6,2025-04-06 17:55,17:55,EDT,N  3,10.0,Overcast,BKN015 OVC020,51.8,46.4,82.0,,,29.87,0.0,0.0,0.0,0.0,2025-04-09,4,2025,17,KOKV,0.0,0.0,0.0,0.0,3
2025-04-06,6,2025-04-06 18:55,18:55,EDT,NE  3,10.0,Overcast,OVC019,51.8,46.4,82.0,,,29.87,0.0,0.0,0.0,0.0,2025-04-09,4,2025,18,KOKV,0.0,0.0,0.0,0.0,3
2025-04-06,6,2025-04-06 19:55,19:55,EDT,Calm,10.0,Light Drizzle,OVC021,51.8,46.4,82.0,,,29.87,0.0,0.0,0.0,0.0,2025-04-09,4,2025,19,KOKV,0.0,0.0,0.0,0.0,0
2025-04-06,6,2025-04-06 20:55,20:55,EDT,NW  3,10.0,Light Rain,OVC025,50.0,46.4,88.0,,,29.91,0.0,0.0,0.0,0.0,2025-04-09,4,2025,20,KOKV,0.0,0.0,0.0,0.0,3
2025-04-06,6,2025-04-06 21:55,21:55,EDT,N  5,10.0,Light Rain,OVC025,48.2,44.6,87.0,47.0,,29.89,0.0,0.0,0.0,0.0,2025-04-09,4,2025,21,KOKV,0.0,0.0,0.0,0.0,5
2025-04-06,6,2025-04-06 22:55,22:55,EDT,N  3,5.0,Rain,OVC022,46.4,44.6,93.0,,,29.88,0.0,0.0,0.0,0.0,2025-04-09,4,2025,22,KOKV,0.0,0.0,0.0,0.0,3
2025-04-06,6,2025-04-06 23:55,23:55,EDT,Calm,7.0,Light Drizzle,SCT009 OVC022,46.4,44.6,93.0,,,29.87,0.0,0.0,0.0,0.0,2025-04-09,4,2025,23,KOKV,0.0,0.0,0.0,0.0,0
2025-04-07,7,2025-04-07 00:55,00:55,EDT,Calm,5.0,Drizzle,OVC006,44.6,44.6,100.0,,,29.86,0.0,0.0,0.0,0.0,2025-04-10,4,2025,0,KOKV,0.0,0.0,0.0,0.0,0
2025-04-07,7,2025-04-07 01:55,01:55,EDT,NE  5,5.0,Drizzle,SCT004 BKN010 OVC016,44.6,42.8,93.0,43.0,,29.82,0.0,0.0,0.0,0.0,2025-04-10,4,2025,1,KOKV,0.0,0.0,0.0,0.0,5
2025-04-07,7,2025-04-07 02:55,02:55,EDT,N  3,3.0,Fog/Mist,OVC004,42.8,42.8,100.0,,,29.82,0.0,0.0,0.0,0.0,2025-04-10,4,2025,2,KOKV,0.0,0.0,0.0,0.0,3
2025-04-07,7,2025-04-07 03:55,03:55,EDT,N  5,3.0,Heavy Drizzle,OVC004,42.8,42.8,100.0,41.0,,29.81,0.0,0.0,0.0,0.0,2025-04-10,4,2025,3,KOKV,0.0,0.0,0.0,0.0,5
2025-04-07,7,2025-04-07 04:55,04:55,EDT,N  5,5.0,Drizzle,BKN004 OVC009,42.8,41.0,93.0,41.0,,29.8,0.0,0.0,0.0,0.0,2025-04-10,4,2025,4,KOKV,0.0,0.0,0.0,0.0,5
2025-04-07,7,2025-04-07 05:55,05:55,EDT,N  5,7.0,Drizzle,OVC005,42.8,41.0,93.0,41.0,,29.78,0.0,0.0,0.0,0.0,2025-04-10,4,2025,5,KOKV,0.0,0.0,0.0,0.0,5
2025-04-07,7,2025-04-07 06:55,06:55,EDT,N  6,7.0,Overcast,OVC005,41.0,39.2,93.0,38.0,,29.78,0.0,0.0,0.0,0.0,2025-04-10,4,2025,6,KOKV,0.0,0.0,0.0,0.0,6
2025-04-07,7,2025-04-07 07:55,07:55,EDT,N  3,2.5,Drizzle,OVC005,39.2,37.4,93.0,,,29.79,0.0,0.0,0.0,0.0,2025-04-10,4,2025,7,KOKV,0.0,0.0,0.0,0.0,3
2025-04-07,7,2025-04-07 08:55,08:55,EDT,NE  5,5.0,Drizzle,BKN005 OVC040,39.2,39.2,100.0,36.0,,29.76,0.0,0.0,0.0,0.0,2025-04-10,4,2025,8,KOKV,0.0,0.0,0.0,0.0,5
2025-04-07,7,2025-04-07 09:55,09:55,EDT,N  5,5.0,Rain,OVC005,41.0,39.2,93.0,38.0,,29.77,0.0,0.0,0.0,0.0,2025-04-10,4,2025,9,KOKV,0.0,0.0,0.0,0.0,5
2025-04-07,7,2025-04-07 10:55,10:55,EDT,N  3,7.0,Light Drizzle,OVC005,41.0,41.0,100.0,,,29.76,0.0,0.0,0.0,0.0,2025-04-10,4,2025,10,KOKV,0.0,0.0,0.0,0.0,3
2025-04-07,7,2025-04-07 11:55,11:55,EDT,NE  5,10.0,Overcast,OVC005,41.0,39.2,93.0,38.0,,29.74,0.0,0.0,0.0,0.0,2025-04-10,4,2025,11,KOKV,0.0,0.0,0.0,0.0,5
2025-04-07,7,2025-04-07 12:55,12:55,EDT,N  5,7.0,Overcast,OVC005,41.0,39.2,93.0,38.0,,29.73,0.0,0.0,0.0,0.0,2025-04-10,4,2025,12,KOKV,0.0,0.0,0.0,0.0,5
2025-04-07,7,2025-04-07 13:55,13:55,EDT,N  6,7.0,Overcast,OVC005,41.0,39.2,93.0,38.0,,29.73,0.0,0.0,0.0,0.0,2025-04-10,4,2025,13,KOKV,0.0,0.0,0.0,0.0,6
2025-04-07,7,2025-04-07 14:55,14:55,EDT,NE  6,4.0,Fog/Mist,OVC005,41.0,39.2,93.0,38.0,,29.71,0.0,0.0,0.0,0.0,2025-04-10,4,2025,14,KOKV,0.0,0.0,0.0,0.0,6
2025-04-07,7,2025-04-07 15:55,15:55,EDT,NE  3,10.0,Overcast,OVC007,41.0,39.2,93.0,,,29.69,0.0,0.0,0.0,0.0,2025-04-10,4,2025,15,KOKV,0.0,0.0,0.0,0.0,3
2025-04-07,7,2025-04-07 16:55,16:55,EDT,NE  3,10.0,Overcast,OVC009,41.0,39.2,93.0,,,29.67,0.0,0.0,0.0,0.0,2025-04-10,4,2025,16,KOKV,0.0,0.0,0.0,0.0,3
2025-04-07,7,2025-04-07 17:55,17:55,EDT,N  5,10.0,Overcast,OVC009,42.8,39.2,87.0,41.0,,29.69,0.0,0.0,0.0,0.0,2025-04-10,4,2025,17,KOKV,0.0,0.0,0.0,0.0,5
2025-04-07,7,2025-04-07 18:55,18:55,EDT,Calm,10.0,Overcast,OVC009,42.8,39.2,87.0,,,29.71,0.0,0.0,0.0,0.0,2025-04-10,4,2025,18,KOKV,0.0,0.0,0.0,0.0,0
2025-04-07,7,2025-04-07 19:55,19:55,EDT,Calm,10.0,Overcast,SCT009 BKN022 OVC028,42.8,39.2,87.0,,,29.68,0.0,0.0,0.0,0.0,2025-04-10,4,2025,19,KOKV,0.0,0.0,0.0,0.0,0
2025-04-07,7,2025-04-07 20:55,20:55,EDT,Calm,10.0,Partly Cloudy,SCT007,41.0,39.2,93.0,,,29.68,0.0,0.0,0.0,0.0,2025-04-10,4,2025,20,KOKV,0.0,0.0,0.0,0.0,0
2025-04-07,7,2025-04-07 21:55,21:55,EDT,Calm,10.0,Fair,CLR,41.0,39.2,93.0,,,29.68,0.0,0.0,0.0,0.0,2025-04-10,4,2025,21,KOKV,0.0,0.0,0.0,0.0,0
2025-04-07,7,2025-04-07 22:55,22:55,EDT,Calm,7.0,Fair,CLR,41.0,39.2,93.0,,,29.67,0.0,0.0,0.0,0.0,2025-04-10,4,2025,22,KOKV,0.0,0.0,0.0,0.0,0
2025-04-07,7,2025-04-07 23:55,23:55,EDT,S  5,7.0,Fair,CLR,41.0,39.2,93.0,38.0,,29.67,0.0,0.0,0.0,0.0,2025-04-10,4,2025,23,KOKV,0.0,0.0,0.0,0.0,5
2025-04-08,8,2025-04-08 00:55,00:55,EDT,NW  6,7.0,Mostly Cloudy,SCT041 SCT047 BKN070,41.0,39.2,93.0,38.0,,29.67,0.0,0.0,0.0,0.0,2025-04-11,4,2025,0,KOKV,0.0,0.0,0.0,0.0,6
2025-04-08,8,2025-04-08 01:55,01:55,EDT,NW  15  G 26,10.0,Overcast,BKN034 BKN065 OVC075,41.0,32.0,70.0,34.0,,29.7,0.0,0.0,0.0,0.0,2025-04-11,4,2025,1,KOKV,0.0,0.0,0.0,0.0,15
2025-04-08,8,2025-04-08 02:55,02:55,EDT,NW  13  G 24,10.0,Overcast,OVC080,37.4,28.4,70.0,30.0,,29.71,0.0,0.0,0.0,0.0,2025-04-11,4,2025,2,KOKV,0.0,0.0,0.0,0.0,13
2025-04-08,8,2025-04-08 03:55,03:55,EDT,NW  24  G 28,10.0,Overcast and Breezy,OVC080,35.6,23.0,60.0,24.0,,29.74,0.0,0.0,0.0,0.0,2025-04-11,4,2025,3,KOKV,0.0,0.0,0.0,0.0,24
2025-04-08,8,2025-04-08 04:55,04:55,EDT,NW  16  G 25,10.0,Overcast,OVC080,33.8,19.4,56.0,24.0,,29.78,0.0,0.0,0.0,0.0,2025-04-11,4,2025,4,KOKV,0.0,0.0,0.0,0.0,16
2025-04-08,8,2025-04-08 05:55,05:55,EDT,NW  9,10.0,Overcast,OVC046,32.0,19.4,60.0,25.0,,29.82,0.0,0.0,0.0,0.0,2025-04-11,4,2025,5,KOKV,0.0,0.0,0.0,0.0,9
2025-04-08,8,2025-04-08 06:55,06:55,EDT,NW  7,10.0,Overcast,OVC048,32.0,19.4,60.0,26.0,,29.85,0.0,0.0,0.0,0.0,2025-04-11,4,2025,6,KOKV,0.0,0.0,0.0,0.0,7
2025-04-08,8,2025-04-08 07:55,07:55,EDT,NW  12  G 20,10.0,Overcast,BKN045 OVC050,32.0,19.4,60.0,24.0,,29.88,0.0,0.0,0.0,0.0,2025-04-11,4,2025,7,KOKV,0.0,0.0,0.0,0.0,12
2025-04-08,8,2025-04-08 08:55,08:55,EDT,NW  16  G 23,10.0,Mostly Cloudy,BKN050,33.8,19.4,56.0,24.0,,29.89,0.0,0.0,0.0,0.0,2025-04-11,4,2025,8,KOKV,0.0,0.0,0.0,0.0,16
2025-04-08,8,2025-04-08 09:55,09:55,EDT,NW  17  G 24,10.0,Mostly Cloudy,BKN050,35.6,19.4,52.0,26.0,,29.9,0.0,0.0,0.0,0.0,2025-04-11,4,2025,9,KOKV,0.0,0.0,0.0,0.0,17
2025-04-08,8,2025-04-08 10:55,10:55,EDT,W  16  G 22,10.0,Overcast,OVC055,37.4,19.4,48.0,29.0,,29.92,0.0,0.0,0.0,0.0,2025-04-11,4,2025,10,KOKV,0.0,0.0,0.0,0.0,16
2025-04-08,8,2025-04-08 11:55,11:55,EDT,NW  21  G 25,10.0,Mostly Cloudy and Breezy,BKN050 BKN065,37.4,19.4,48.0,28.0,,29.92,0.0,0.0,0.0,0.0,2025-04-11,4,2025,11,KOKV,0.0,0.0,0.0,0.0,21
2025-04-08,8,2025-04-08 12:55,12:55,EDT,NW  13  G 23,10.0,Mostly Cloudy,BKN060,39.2,19.4,45.0,32.0,,29.93,0.0,0.0,0.0,0.0,2025-04-11,4,2025,12,KOKV,0.0,0.0,0.0,0.0,13
2025-04-08,8,2025-04-08 13:55,13:55,EDT,NW  23  G 31,10.0,Partly Cloudy and Breezy,SCT060,41.0,17.6,39.0,32.0,,29.93,0.0,0.0,0.0,0.0,2025-04-11,4,2025,13,KOKV,0.0,0.0,0.0,0.0,23
2025-04-08,8,2025-04-08 14:55,14:55,EDT,NW  26  G 33,10.0,Partly Cloudy and Windy,SCT065,41.0,14.0,33.0,31.0,,29.93,0.0,0.0,0.0,0.0,2025-04-11,4,2025,14,KOKV,0.0,0.0,0.0,0.0,26
2025-04-08,8,2025-04-08 15:55,15:55,EDT,NW  20  G 33,10.0,Fair,CLR,42.8,17.6,36.0,35.0,,29.94,0.0,0.0,0.0,0.0,2025-04-11,4,2025,15,KOKV,0.0,0.0,0.0,0.0,20
2025-04-08,8,2025-04-08 16:55,16:55,EDT,NW  22  G 30,10.0,Fair and Breezy,CLR,41.0,15.8,36.0,32.0,,29.96,0.0,0.0,0.0,0.0,2025-04-11,4,2025,16,KOKV,0.0,0.0,0.0,0.0,22
2025-04-08,8,2025-04-08 17:55,17:55,EDT,NW  15  G 21,10.0,Fair,CLR,42.8,14.0,31.0,36.0,,29.98,0.0,0.0,0.0,0.0,2025-04-11,4,2025,17,KOKV,0.0,0.0,0.0,0.0,15
2025-04-08,8,2025-04-08 18:55,18:55,EDT,NW  12  G 20,10.0,Fair,CLR,39.2,12.2,33.0,33.0,,30.01,0.0,0.0,0.0,0.0,2025-04-11,4,2025,18,KOKV,0.0,0.0,0.0,0.0,12
2025-04-08,8,2025-04-08 19:55,19:55,EDT,NW  9  G 17,10.0,Fair,CLR,37.4,12.2,35.0,31.0,,30.04,0.0,0.0,0.0,0.0,2025-04-11,4,2025,19,KOKV,0.0,0.0,0.0,0.0,9
2025-04-08,8,2025-04-08 20:55,20:55,EDT,NW  3,10.0,Fair,CLR,33.8,14.0,44.0,,,30.08,0.0,0.0,0.0,0.0,2025-04-11,4,2025,20,KOKV,0.0,0.0,0.0,0.0,3
2025-04-08,8,2025-04-08 21:55,21:55,EDT,Calm,10.0,Fair,CLR,32.0,15.8,51.0,,,30.11,0.0,0.0,0.0,0.0,2025-04-11,4,2025,21,KOKV,0.0,0.0,0.0,0.0,0
2025-04-08,8,2025-04-08 22:55,22:55,EDT,Calm,10.0,Fair,CLR,30.2,17.6,59.0,,,30.13,0.0,0.0,0.0,0.0,2025-04-11,4,2025,22,KOKV,0.0,0.0,0.0,0.0,0
2025-04-08,8,2025-04-08 23:55,23:55,EDT,NW  3,10.0,Fair,CLR,32.0,14.0,47.0,,,30.15,0.0,0.0,0.0,0.0,2025-04-11,4,2025,23,KOKV,0.0,0.0,0.0,0.0,3
2025-04-09,9,2025-04-09 00:55,00:55,EDT,NW  6,10.0,Fair,CLR,32.0,14.0,47.0,27.0,,30.17,0.0,0.0,0.0,0.0,2025-04-12,4,2025,0,KOKV,0.0,0.0,0.0,0.0,6
2025-04-09,9,2025-04-09 01:55,01:55,EDT,Calm,10.0,Fair,CLR,28.4,17.6,64.0,,,30.19,0.0,0.0,0.0,0.0,2025-04-12,4,2025,1,KOKV,0.0,0.0,0.0,0.0,0
2025-04-09,9,2025-04-09 02:55,02:55,EDT,Calm,10.0,Fair,CLR,28.4,17.6,64.0,,,30.19,0.0,0.0,0.0,0.0,2025-04-12,4,2025,2,KOKV,0.0,0.0,0.0,0.0,0
2025-04-09,9,2025-04-09 03:55,03:55,EDT,Calm,10.0,Fair,CLR,26.6,17.6,69.0,,,30.2,0.0,0.0,0.0,0.0,2025-04-12,4,2025,3,KOKV,0.0,0.0,0.0,0.0,0
2025-04-09,9,2025-04-09 04:55,04:55,EDT,Calm,10.0,Fair,CLR,26.6,19.4,74.0,,,30.22,0.0,0.0,0.0,0.0,2025-04-12,4,2025,4,KOKV,0.0,0.0,0.0,0.0,0
2025-04-09,9,2025-04-09 05:55,05:55,EDT,Calm,10.0,Fair,CLR,26.6,19.4,74.0,,,30.23,0.0,0.0,0.0,0.0,2025-04-12,4,2025,5,KOKV,0.0,0.0,0.0,0.0,0
2025-04-09,9,2025-04-09 06:55,06:55,EDT,Calm,10.0,Fair,CLR,23.0,19.4,86.0,,,30.25,0.0,0.0,0.0,0.0,2025-04-12,4,2025,6,KOKV,0.0,0.0,0.0,0.0,0
2025-04-09,9,2025-04-09 07:55,07:55,EDT,SE  5,10.0,Fair,CLR,28.4,21.2,74.0,24.0,,30.27,0.0,0.0,0.0,0.0,2025-04-12,4,2025,7,KOKV,0.0,0.0,0.0,0.0,5
2025-04-09,9,2025-04-09 08:55,08:55,EDT,E  3,10.0,Fair,CLR,33.8,21.2,60.0,,,30.27,0.0,0.0,0.0,0.0,2025-04-12,4,2025,8,KOKV,0.0,0.0,0.0,0.0,3
2025-04-09,9,2025-04-09 09:55,09:55,EDT,S  3,10.0,Fair,CLR,37.4,19.4,48.0,,,30.28,0.0,0.0,0.0,0.0,2025-04-12,4,2025,9,KOKV,0.0,0.0,0.0,0.0,3
2025-04-09,9,2025-04-09 10:55,10:55,EDT,W  3,10.0,Fair,CLR,39.2,19.4,45.0,,,30.27,0.0,0.0,0.0,0.0,2025-04-12,4,2025,10,KOKV,0.0,0.0,0.0,0.0,3
2025-04-09,9,2025-04-09 11:55,11:55,EDT,NW  3,10.0,Fair,CLR,42.8,21.2,42.0,,,30.26,0.0,0.0,0.0,0.0,2025-04-12,4,2025,11,KOKV,0.0,0.0,0.0,0.0,3
2025-04-09,9,2025-04-09 12:35,12:35,EDT,NW  5,10.0,Fair,CLR,44.6,21.2,39.0,43.0,,30.25,0.0,0.0,0.0,0.0,2025-04-12,4,2025,12,KOKV,0.0,0.0,0.0,0.0,5
2025-04-09,9,2025-04-09 13:15,13:15,EDT,SW  6,10.0,Fair,CLR,44.6,19.4,37.0,42.0,,30.24,0.0,0.0,0.0,0.0,2025-04-12,4,2025,13,KOKV,0.0,0.0,0.0,0.0,6
2025-04-09,9,2025-04-09 14:55,14:55,EDT,S  6,10.0,Fair,CLR,50.0,21.2,32.0,48.0,,30.19,0.0,0.0,0.0,0.0,2025-04-12,4,2025,14,KOKV,0.0,0.0,0.0,0.0,6
2025-04-09,9,2025-04-09 15:55,15:55,EDT,S  6,10.0,Fair,CLR,51.8,21.2,30.0,,,30.17,0.0,0.0,0.0,0.0,2025-04-12,4,2025,15,KOKV,0.0,0.0,0.0,0.0,6
2025-04-09,9,2025-04-09 16:55,16:55,EDT,SW  12  G 16,10.0,Fair,CLR,51.8,21.2,30.0,,,30.15,0.0,0.0,0.0,0.0,2025-04-12,4,2025,16,KOKV,0.0,0.0,0.0,0.0,12
2025-04-09,9,2025-04-09 17:55,17:55,EDT,S  6,10.0,Fair,CLR,51.8,21.2,30.0,,,30.15,0.0,0.0,0.0,0.0,2025-04-12,4,2025,17,KOKV,0.0,0.0,0.0,0.0,6
2025-04-09,9,2025-04-09 18:35,18:35,EDT,SE  8,10.0,Fair,CLR,51.8,23.0,32.0,,,30.16,0.0,0.0,0.0,0.0,2025-04-12,4,2025,18,KOKV,0.0,0.0,0.0,0.0,8
2025-04-09,9,2025-04-09 19:55,19:55,EDT,SE  5,10.0,Fair,CLR,44.6,26.6,49.0,43.0,,30.16,0.0,0.0,0.0,0.0,2025-04-12,4,2025,19,KOKV,0.0,0.0,0.0,0.0,5
2025-04-09,9,2025-04-09 20:35,20:35,EDT,SE  5,10.0,Fair,CLR,44.6,23.0,43.0,43.0,,30.16,0.0,0.0,0.0,0.0,2025-04-12,4,2025,20,KOKV,0.0,0.0,0.0,0.0,5
2025-04-09,9,2025-04-09 21:55,21:55,EDT,S  5,10.0,Overcast,OVC085,44.6,24.8,46.0,43.0,,30.18,0.0,0.0,0.0,0.0,2025-04-12,4,2025,21,KOKV,0.0,0.0,0.0,0.0,5
2025-04-09,9,2025-04-09 22:55,22:55,EDT,SE  6,10.0,Overcast,OVC085,48.2,23.0,37.0,46.0,,30.18,0.0,0.0,0.0,0.0,2025-04-12,4,2025,22,KOKV,0.0,0.0,0.0,0.0,6
2025-04-09,9,2025-04-09 23:55,23:55,EDT,SE  7,10.0,Overcast,OVC085,44.6,26.6,49.0,41.0,,30.2,0.0,0.0,0.0,0.0,2025-04-12,4,2025,23,KOKV,0.0,0.0,0.0,0.0,7
2025-04-10,10,2025-04-10 00:55,00:55,EDT,SE  5,10.0,Overcast,OVC075,44.6,28.4,53.0,43.0,,30.2,0.0,0.0,0.0,0.0,2025-04-13,4,2025,0,KOKV,0.0,0.0,0.0,0.0,5
2025-04-10,10,2025-04-10 01:55,01:55,EDT,SE  8,10.0,Overcast,OVC085,44.6,28.4,53.0,41.0,,30.19,0.0,0.0,0.0,0.0,2025-04-13,4,2025,1,KOKV,0.0,0.0,0.0,0.0,8
2025-04-10,10,2025-04-10 02:55,02:55,EDT,SE  7,10.0,Overcast,OVC075,44.6,28.4,53.0,41.0,,30.17,0.0,0.0,0.0,0.0,2025-04-13,4,2025,2,KOKV,0.0,0.0,0.0,0.0,7
2025-04-10,10,2025-04-10 03:55,03:55,EDT,SE  6,10.0,Overcast,SCT065 BKN095 OVC110,42.8,30.2,61.0,40.0,,30.16,0.0,0.0,0.0,0.0,2025-04-13,4,2025,3,KOKV,0.0,0.0,0.0,0.0,6
2025-04-10,10,2025-04-10 04:55,04:55,EDT,S  3,10.0,Overcast,SCT055 BKN065 OVC090,42.8,30.2,61.0,,,30.17,0.0,0.0,0.0,0.0,2025-04-13,4,2025,4,KOKV,0.0,0.0,0.0,0.0,3
2025-04-10,10,2025-04-10 05:55,05:55,EDT,E  3,10.0,Overcast,SCT055 OVC070,42.8,32.0,66.0,,,30.17,0.0,0.0,0.0,0.0,2025-04-13,4,2025,5,KOKV,0.0,0.0,0.0,0.0,3
2025-04-10,10,2025-04-10 06:55,06:55,EDT,E  3,10.0,Light Rain,SCT060 OVC070,39.2,33.8,81.0,,,30.17,0.0,0.0,0.0,0.0,2025-04-13,4,2025,6,KOKV,0.0,0.0,0.0,0.0,3
2025-04-10,10,2025-04-10 07:55,07:55,EDT,SE  3,10.0,Light Rain,OVC060,41.0,35.6,81.0,,,30.19,0.0,0.0,0.0,0.0,2025-04-13,4,2025,7,KOKV,0.0,0.0,0.0,0.0,3
2025-04-10,10,2025-04-10 08:35,08:35,EDT,SE  5,10.0,Light Drizzle,BKN070 OVC080,41.0,35.6,81.0,38.0,,30.18,0.0,0.0,0.0,0.0,2025-04-13,4,2025,8,KOKV,0.0,0.0,0.0,0.0,5
2025-04-10,10,2025-04-10 09:55,09:55,EDT,SE  7,10.0,Mostly Cloudy,SCT060 SCT075 BKN120,42.8,35.6,76.0,39.0,,30.16,0.0,0.0,0.0,0.0,2025-04-13,4,2025,9,KOKV,0.0,0.0,0.0,0.0,7
2025-04-10,10,2025-04-10 10:55,10:55,EDT,S  8,10.0,Overcast,SCT060 BKN070 OVC090,44.6,35.6,71.0,41.0,,30.16,0.0,0.0,0.0,0.0,2025-04-13,4,2025,10,KOKV,0.0,0.0,0.0,0.0,8
2025-04-10,10,2025-04-10 11:55,11:55,EDT,SE  12  G 20,10.0,Overcast,OVC075,46.4,37.4,71.0,42.0,,30.15,0.0,0.0,0.0,0.0,2025-04-13,4,2025,11,KOKV,0.0,0.0,0.0,0.0,12
2025-04-10,10,2025-04-10 12:55,12:55,EDT,SE  10,10.0,Overcast,BKN075 OVC090,48.2,37.4,66.0,44.0,,30.13,0.0,0.0,0.0,0.0,2025-04-13,4,2025,12,KOKV,0.0,0.0,0.0,0.0,10
2025-04-10,10,2025-04-10 13:55,13:55,EDT,S  8,10.0,Drizzle,OVC036,48.2,41.0,76.0,45.0,,30.13,0.0,0.0,0.0,0.0,2025-04-13,4,2025,13,KOKV,0.0,0.0,0.0,0.0,8
2025-04-10,10,2025-04-10 14:55,14:55,EDT,S  7,10.0,Light Rain,SCT034 OVC042,46.4,42.8,87.0,43.0,,30.11,0.0,0.0,0.0,0.0,2025-04-13,4,2025,14,KOKV,0.0,0.0,0.0,0.0,7
2025-04-10,10,2025-04-10 15:55,15:55,EDT,Calm,10.0,Light Rain,BKN037 OVC045,46.4,44.6,93.0,,,30.08,0.0,0.0,0.0,0.0,2025-04-13,4,2025,15,KOKV,0.0,0.0,0.0,0.0,0
2025-04-10,10,2025-04-10 16:35,16:35,EDT,SE  6,7.0,Light Rain,SCT027 OVC037,46.4,44.6,93.0,44.0,,30.08,0.0,0.0,0.0,0.0,2025-04-13,4,2025,16,KOKV,0.0,0.0,0.0,0.0,6
2025-04-10,10,2025-04-10 17:55,17:55,EDT,S  5,10.0,Drizzle,BKN036 OVC044,46.4,44.6,93.0,45.0,,30.07,0.0,0.0,0.0,0.0,2025-04-13,4,2025,17,KOKV,0.0,0.0,0.0,0.0,5
2025-04-10,10,2025-04-10 18:55,18:55,EDT,Calm,10.0,Light Rain,OVC036,46.4,44.6,93.0,,,30.06,0.0,0.0,0.0,0.0,2025-04-13,4,2025,18,KOKV,0.0,0.0,0.0,0.0,0
2025-04-10,10,2025-04-10 19:55,19:55,EDT,Calm,10.0,Drizzle,OVC034,46.4,44.6,93.0,,,30.07,0.0,0.0,0.0,0.0,2025-04-13,4,2025,19,KOKV,0.0,0.0,0.0,0.0,0
2025-04-10,10,2025-04-10 20:55,20:55,EDT,Calm,10.0,Light Rain,OVC030,46.4,46.4,100.0,,,30.07,0.0,0.0,0.0,0.0,2025-04-13,4,2025,20,KOKV,0.0,0.0,0.0,0.0,0
2025-04-10,10,2025-04-10 21:55,21:55,EDT,SE  3,10.0,Overcast,BKN035 BKN050 OVC070,46.4,44.6,93.0,,,30.07,0.0,0.0,0.0,0.0,2025-04-13,4,2025,21,KOKV,0.0,0.0,0.0,0.0,3
2025-04-10,10,2025-04-10 22:55,22:55,EDT,SE  6,10.0,Overcast,BKN015 OVC021,46.4,44.6,93.0,44.0,,30.08,0.0,0.0,0.0,0.0,2025-04-13,4,2025,22,KOKV,0.0,0.0,0.0,0.0,6
2025-04-10,10,2025-04-10 23:55,23:55,EDT,E  6,10.0,Overcast,BKN021 BKN026 OVC047,44.6,44.6,100.0,42.0,,30.08,0.0,0.0,0.0,0.0,2025-04-13,4,2025,23,KOKV,0.0,0.0,0.0,0.0,6
2025-04-11,11,2025-04-11 00:55,00:55,EDT,SE  6,10.0,Overcast,BKN027 OVC050,44.6,42.8,93.0,42.0,,30.06,0.0,0.0,0.0,0.0,2025-04-14,4,2025,0,KOKV,0.0,0.0,0.0,0.0,6
2025-04-11,11,2025-04-11 01:55,01:55,EDT,SE  6,10.0,Overcast,OVC023,44.6,42.8,93.0,42.0,,30.04,0.0,0.0,0.0,0.0,2025-04-14,4,2025,1,KOKV,0.0,0.0,0.0,0.0,6
2025-04-11,11,2025-04-11 02:55,02:55,EDT,E  6,10.0,Overcast,OVC014,44.6,42.8,93.0,42.0,,30.03,0.0,0.0,0.0,0.0,2025-04-14,4,2025,2,KOKV,0.0,0.0,0.0,0.0,6
2025-04-11,11,2025-04-11 03:55,03:55,EDT,Calm,10.0,Overcast,OVC010,44.6,42.8,93.0,,,30.02,0.0,0.0,0.0,0.0,2025-04-14,4,2025,3,KOKV,0.0,0.0,0.0,0.0,0
2025-04-11,11,2025-04-11 04:55,04:55,EDT,NE  3,10.0,Overcast,OVC008,44.6,42.8,93.0,,,30.01,0.0,0.0,0.0,0.0,2025-04-14,4,2025,4,KOKV,0.0,0.0,0.0,0.0,3
2025-04-11,11,2025-04-11 05:55,05:55,EDT,NE  3,7.0,Overcast,OVC008,42.8,41.0,93.0,,,30.01,0.0,0.0,0.0,0.0,2025-04-14,4,2025,5,KOKV,0.0,0.0,0.0,0.0,3
2025-04-11,11,2025-04-11 06:55,06:55,EDT,NE  5,7.0,Overcast,OVC006,42.8,41.0,93.0,41.0,,30.02,0.0,0.0,0.0,0.0,2025-04-14,4,2025,6,KOKV,0.0,0.0,0.0,0.0,5
2025-04-11,11,2025-04-11 07:55,07:55,EDT,NE  5,4.0,Fog/Mist,OVC006,41.0,41.0,100.0,38.0,,30.04,0.0,0.0,0.0,0.0,2025-04-14,4,2025,7,KOKV,0.0,0.0,0.0,0.0,5
2025-04-11,11,2025-04-11 08:55,08:55,EDT,NE  7,5.0,Fog/Mist,OVC006,41.0,41.0,100.0,37.0,,30.03,0.0,0.0,0.0,0.0,2025-04-14,4,2025,8,KOKV,0.0,0.0,0.0,0.0,7
2025-04-11,11,2025-04-11 09:55,09:55,EDT,E  3,5.0,Fog/Mist,OVC006,42.8,41.0,93.0,,,30.03,0.0,0.0,0.0,0.0,2025-04-14,4,2025,9,KOKV,0.0,0.0,0.0,0.0,3
2025-04-11,11,2025-04-11 10:55,10:55,EDT,E  3,5.0,Fog/Mist,OVC004,41.0,41.0,100.0,,,30.04,0.0,0.0,0.0,0.0,2025-04-14,4,2025,10,KOKV,0.0,0.0,0.0,0.0,3
2025-04-11,11,2025-04-11 11:55,11:55,EDT,NE  7,7.0,Overcast,OVC004,42.8,41.0,93.0,39.0,,30.02,0.0,0.0,0.0,0.0,2025-04-14,4,2025,11,KOKV,0.0,0.0,0.0,0.0,7
2025-04-11,11,2025-04-11 12:55,12:55,EDT,NE  3,10.0,Overcast,OVC006,42.8,41.0,93.0,,,30.03,0.0,0.0,0.0,0.0,2025-04-14,4,2025,12,KOKV,0.0,0.0,0.0,0.0,3
2025-04-11,11,2025-04-11 13:55,13:55,EDT,NE  3,1.75,Light Drizzle,OVC006,42.8,41.0,93.0,,,30.02,0.0,0.0,0.0,0.0,2025-04-14,4,2025,13,KOKV,0.0,0.0,0.0,0.0,3
2025-04-11,11,2025-04-11 14:55,14:55,EDT,NE  6,7.0,Overcast,OVC006,42.8,41.0,93.0,40.0,,30.02,0.0,0.0,0.0,0.0,2025-04-14,4,2025,14,KOKV,0.0,0.0,0.0,0.0,6
2025-04-11,11,2025-04-11 15:55,15:55,EDT,N  3,3.0,Light Drizzle,OVC006,42.8,41.0,93.0,,,29.99,0.0,0.0,0.0,0.0,2025-04-14,4,2025,15,KOKV,0.0,0.0,0.0,0.0,3
2025-04-11,11,2025-04-11 16:55,16:55,EDT,N  6,2.0,Drizzle,OVC006,42.8,41.0,93.0,40.0,,29.99,0.0,0.0,0.0,0.0,2025-04-14,4,2025,16,KOKV,0.0,0.0,0.0,0.0,6
2025-04-11,11,2025-04-11 17:55,17:55,EDT,N  5,5.0,Light Drizzle,OVC006,42.8,41.0,93.0,41.0,,29.98,0.0,0.0,0.0,0.0,2025-04-14,4,2025,17,KOKV,0.0,0.0,0.0,0.0,5
2025-04-11,11,2025-04-11 18:55,18:55,EDT,N  3,7.0,Drizzle,OVC008,42.8,41.0,93.0,,,29.99,0.0,0.0,0.0,0.0,2025-04-14,4,2025,18,KOKV,0.0,0.0,0.0,0.0,3
2025-04-11,11,2025-04-11 19:55,19:55,EDT,N  5,7.0,Drizzle,OVC008,42.8,41.0,93.0,41.0,,29.98,0.0,0.0,0.0,0.0,2025-04-14,4,2025,19,KOKV,0.0,0.0,0.0,0.0,5
2025-04-11,11,2025-04-11 20:55,20:55,EDT,N  5,7.0,Drizzle,OVC008,41.0,41.0,100.0,38.0,,30.0,0.0,0.0,0.0,0.0,2025-04-14,4,2025,20,KOKV,0.0,0.0,0.0,0.0,5
2025-04-11,11,2025-04-11 21:55,21:55,EDT,N  3,5.0,Drizzle,OVC012,41.0,41.0,100.0,,,30.01,0.0,0.0,0.0,0.0,2025-04-14,4,2025,21,KOKV,0.0,0.0,0.0,0.0,3
2025-04-11,11,2025-04-11 22:55,22:55,EDT,N  5,5.0,Drizzle,OVC010,42.8,41.0,93.0,41.0,,30.01,0.0,0.0,0.0,0.0,2025-04-14,4,2025,22,KOKV,0.0,0.0,0.0,0.0,5
2025-04-11,11,2025-04-11 23:55,23:55,EDT,N  5,7.0,Drizzle,OVC008,42.8,41.0,93.0,41.0,,30.0,0.0,0.0,0.0,0.0,2025-04-14,4,2025,23,KOKV,0.0,0.0,0.0,0.0,5
2025-04-12,12,2025-04-12 00:55,00:55,EDT,NW  5,7.0,Light Drizzle,OVC008,41.0,41.0,100.0,38.0,,29.99,0.0,0.0,0.0,0.0,2025-04-15,4,2025,0,KOKV,0.0,0.0,0.0,0.0,5
2025-04-12,12,2025-04-12 01:55,01:55,EDT,NW  6,10.0,Light Rain,BKN008 OVC013,41.0,41.0,100.0,38.0,,29.98,0.0,0.0,0.0,0.0,2025-04-15,4,2025,1,KOKV,0.0,0.0,0.0,0.0,6
2025-04-12,12,2025-04-12 02:55,02:55,EDT,N  5,10.0,Overcast,SCT010 OVC021,41.0,41.0,100.0,38.0,,29.97,0.0,0.0,0.0,0.0,2025-04-15,4,2025,2,KOKV,0.0,0.0,0.0,0.0,5
2025-04-12,12,2025-04-12 03:55,03:55,EDT,NW  5,10.0,Overcast,BKN022 OVC045,41.0,39.2,93.0,38.0,,29.97,0.0,0.0,0.0,0.0,2025-04-15,4,2025,3,KOKV,0.0,0.0,0.0,0.0,5
2025-04-12,12,2025-04-12 04:55,04:55,EDT,NW  5,10.0,Overcast,BKN009 OVC024,41.0,39.2,93.0,38.0,,29.97,0.0,0.0,0.0,0.0,2025-04-15,4,2025,4,KOKV,0.0,0.0,0.0,0.0,5
2025-04-12,12,2025-04-12 05:55,05:55,EDT,NW  6,10.0,Overcast,BKN011 OVC017,41.0,39.2,93.0,38.0,,29.97,0.0,0.0,0.0,0.0,2025-04-15,4,2025,5,KOKV,0.0,0.0,0.0,0.0,6
2025-04-12,12,2025-04-12 06:55,06:55,EDT,N  3,10.0,Overcast,OVC010,41.0,39.2,93.0,,,29.99,0.0,0.0,0.0,0.0,2025-04-15,4,2025,6,KOKV,0.0,0.0,0.0,0.0,3
2025-04-12,12,2025-04-12 07:55,07:55,EDT,NW  3,7.0,Light Rain,OVC008,41.0,41.0,100.0,,,30.0,0.0,0.0,0.0,0.0,2025-04-15,4,2025,7,KOKV,0.0,0.0,0.0,0.0,3
2025-04-12,12,2025-04-12 08:55,08:55,EDT,NW  10,10.0,Light Drizzle,OVC018,41.0,37.4,87.0,35.0,,30.0,0.0,0.0,0.0,0.0,2025-04-15,4,2025,8,KOKV,0.0,0.0,0.0,0.0,10
2025-04-12,12,2025-04-12 09:55,09:55,EDT,NW  9,10.0,Overcast,OVC018,42.8,37.4,81.0,38.0,,30.0,0.0,0.0,0.0,0.0,2025-04-15,4,2025,9,KOKV,0.0,0.0,0.0,0.0,9
2025-04-12,12,2025-04-12 10:55,10:55,EDT,NW  12,10.0,Light Drizzle,OVC018,42.8,37.4,81.0,37.0,,30.02,0.0,0.0,0.0,0.0,2025-04-15,4,2025,10,KOKV,0.0,0.0,0.0,0.0,12
2025-04-12,12,2025-04-12 11:55,11:55,EDT,NW  9,10.0,Overcast,OVC020,42.8,37.4,81.0,38.0,,30.02,0.0,0.0,0.0,0.0,2025-04-15,4,2025,11,KOKV,0.0,0.0,0.0,0.0,9
2025-04-12,12,2025-04-12 12:55,12:55,EDT,NW  10,10.0,Overcast,OVC026,46.4,37.4,71.0,42.0,,30.0,0.0,0.0,0.0,0.0,2025-04-15,4,2025,12,KOKV,0.0,0.0,0.0,0.0,10
2025-04-12,12,2025-04-12 13:55,13:55,EDT,NW  13  G 16,10.0,Overcast,OVC028,46.4,35.6,66.0,41.0,,29.99,0.0,0.0,0.0,0.0,2025-04-15,4,2025,13,KOKV,0.0,0.0,0.0,0.0,13
2025-04-12,12,2025-04-12 14:55,14:55,EDT,NW  16  G 21,10.0,Overcast,OVC028,46.4,37.4,71.0,40.0,,29.98,0.0,0.0,0.0,0.0,2025-04-15,4,2025,14,KOKV,0.0,0.0,0.0,0.0,16
2025-04-12,12,2025-04-12 15:55,15:55,EDT,NW  13  G 22,10.0,Overcast,OVC031,46.4,37.4,71.0,41.0,,29.97,0.0,0.0,0.0,0.0,2025-04-15,4,2025,15,KOKV,0.0,0.0,0.0,0.0,13
2025-04-12,12,2025-04-12 16:55,16:55,EDT,NW  14,10.0,Overcast,OVC031,46.4,35.6,66.0,41.0,,29.97,0.0,0.0,0.0,0.0,2025-04-15,4,2025,16,KOKV,0.0,0.0,0.0,0.0,14
2025-04-12,12,2025-04-12 17:55,17:55,EDT,NW  14,10.0,Overcast,OVC035,46.4,35.6,66.0,41.0,,29.98,0.0,0.0,0.0,0.0,2025-04-15,4,2025,17,KOKV,0.0,0.0,0.0,0.0,14
2025-04-12,12,2025-04-12 18:55,18:55,EDT,NW  16  G 21,10.0,Overcast,SCT037 OVC044,46.4,33.8,62.0,40.0,,29.99,0.0,0.0,0.0,0.0,2025-04-15,4,2025,18,KOKV,0.0,0.0,0.0,0.0,16
2025-04-12,12,2025-04-12 19:55,19:55,EDT,NW  14,10.0,Overcast,BKN044 OVC070,44.6,33.8,66.0,39.0,,30.0,0.0,0.0,0.0,0.0,2025-04-15,4,2025,19,KOKV,0.0,0.0,0.0,0.0,14
2025-04-12,12,2025-04-12 20:55,20:55,EDT,W  13  G 17,10.0,Overcast,BKN046 OVC060,44.6,33.8,66.0,39.0,,30.0,0.0,0.0,0.0,0.0,2025-04-15,4,2025,20,KOKV,0.0,0.0,0.0,0.0,13
2025-04-12,12,2025-04-12 21:55,21:55,EDT,NW  15,10.0,Overcast,OVC046,44.6,33.8,66.0,38.0,,30.01,0.0,0.0,0.0,0.0,2025-04-15,4,2025,21,KOKV,0.0,0.0,0.0,0.0,15
2025-04-12,12,2025-04-12 22:55,22:55,EDT,NW  14  G 25,10.0,Overcast,OVC044,44.6,33.8,66.0,39.0,,30.01,0.0,0.0,0.0,0.0,2025-04-15,4,2025,22,KOKV,0.0,0.0,0.0,0.0,14
2025-04-12,12,2025-04-12 23:55,23:55,EDT,NW  14  G 18,10.0,Mostly Cloudy,BKN050,44.6,33.8,66.0,39.0,,30.01,0.0,0.0,0.0,0.0,2025-04-15,4,2025,23,KOKV,0.0,0.0,0.0,0.0,14
2025-04-13,13,2025-04-13 00:55,00:55,EDT,NW  14  G 18,10.0,Overcast,OVC055,44.6,33.8,66.0,39.0,,30.02,0.0,0.0,0.0,0.0,2025-04-16,4,2025,0,KOKV,0.0,0.0,0.0,0.0,14
2025-04-13,13,2025-04-13 01:55,01:55,EDT,NW  17  G 23,10.0,Overcast,OVC050,44.6,33.8,66.0,38.0,,30.02,0.0,0.0,0.0,0.0,2025-04-16,4,2025,1,KOKV,0.0,0.0,0.0,0.0,17
2025-04-13,13,2025-04-13 02:55,02:55,EDT,NW  12  G 17,10.0,Overcast,OVC050,42.8,33.8,71.0,37.0,,30.02,0.0,0.0,0.0,0.0,2025-04-16,4,2025,2,KOKV,0.0,0.0,0.0,0.0,12
2025-04-13,13,2025-04-13 03:55,03:55,EDT,NW  14  G 20,10.0,Overcast,OVC050,42.8,33.8,71.0,36.0,,30.01,0.0,0.0,0.0,0.0,2025-04-16,4,2025,3,KOKV,0.0,0.0,0.0,0.0,14
2025-04-13,13,2025-04-13 04:55,04:55,EDT,NW  8,10.0,Fair,CLR,41.0,32.0,70.0,36.0,,30.03,0.0,0.0,0.0,0.0,2025-04-16,4,2025,4,KOKV,0.0,0.0,0.0,0.0,8
2025-04-13,13,2025-04-13 05:55,05:55,EDT,NW  12,10.0,Fair,CLR,39.2,32.0,75.0,33.0,,30.04,0.0,0.0,0.0,0.0,2025-04-16,4,2025,5,KOKV,0.0,0.0,0.0,0.0,12
2025-04-13,13,2025-04-13 06:55,06:55,EDT,NW  12,10.0,Fair,CLR,41.0,32.0,70.0,35.0,,30.05,0.0,0.0,0.0,0.0,2025-04-16,4,2025,6,KOKV,0.0,0.0,0.0,0.0,12
2025-04-13,13,2025-04-13 07:55,07:55,EDT,NW  12  G 16,10.0,Fair,CLR,41.0,32.0,70.0,35.0,,30.06,0.0,0.0,0.0,0.0,2025-04-16,4,2025,7,KOKV,0.0,0.0,0.0,0.0,12
2025-04-13,13,2025-04-13 08:55,08:55,EDT,NW  18  G 23,10.0,Partly Cloudy,SCT030,44.6,32.0,61.0,37.0,,30.07,0.0,0.0,0.0,0.0,2025-04-16,4,2025,8,KOKV,0.0,0.0,0.0,0.0,18
2025-04-13,13,2025-04-13 09:55,09:55,EDT,NW  16  G 25,10.0,Partly Cloudy,SCT030,44.6,33.8,66.0,38.0,,30.08,0.0,0.0,0.0,0.0,2025-04-16,4,2025,9,KOKV,0.0,0.0,0.0,0.0,16
2025-04-13,13,2025-04-13 10:55,10:55,EDT,NW  14  G 22,10.0,Overcast,OVC032,44.6,32.0,61.0,39.0,,30.09,0.0,0.0,0.0,0.0,2025-04-16,4,2025,10,KOKV,0.0,0.0,0.0,0.0,14
2025-04-13,13,2025-04-13 11:55,11:55,EDT,NW  12  G 22,10.0,Overcast,OVC038,50.0,33.8,54.0,46.0,,30.09,0.0,0.0,0.0,0.0,2025-04-16,4,2025,11,KOKV,0.0,0.0,0.0,0.0,12
2025-04-13,13,2025-04-13 12:55,12:55,EDT,NW  17,10.0,Overcast,OVC042,51.8,35.6,54.0,,,30.06,0.0,0.0,0.0,0.0,2025-04-16,4,2025,12,KOKV,0.0,0.0,0.0,0.0,17
2025-04-13,13,2025-04-13 13:55,13:55,EDT,W  8  G 20,10.0,Mostly Cloudy,BKN046,53.6,35.6,51.0,,,30.04,0.0,0.0,0.0,0.0,2025-04-16,4,2025,13,KOKV,0.0,0.0,0.0,0.0,8
2025-04-13,13,2025-04-13 14:55,14:55,EDT,W  9,10.0,Partly Cloudy,SCT055,53.6,33.8,47.0,,,30.01,0.0,0.0,0.0,0.0,2025-04-16,4,2025,14,KOKV,0.0,0.0,0.0,0.0,9
2025-04-13,13,2025-04-13 15:55,15:55,EDT,NW  9,10.0,Fair,CLR,57.2,33.8,41.0,,,29.99,0.0,0.0,0.0,0.0,2025-04-16,4,2025,15,KOKV,0.0,0.0,0.0,0.0,9
2025-04-13,13,2025-04-13 16:55,16:55,EDT,NW  8,10.0,Fair,CLR,59.0,33.8,39.0,,,29.97,0.0,0.0,0.0,0.0,2025-04-16,4,2025,16,KOKV,0.0,0.0,0.0,0.0,8
2025-04-13,13,2025-04-13 17:55,17:55,EDT,NW  9,10.0,Fair,CLR,59.0,32.0,36.0,,,29.97,0.0,0.0,0.0,0.0,2025-04-16,4,2025,17,KOKV,0.0,0.0,0.0,0.0,9
2025-04-13,13,2025-04-13 18:55,18:55,EDT,NW  8,10.0,Fair,CLR,59.0,32.0,36.0,,,29.97,0.0,0.0,0.0,0.0,2025-04-16,4,2025,18,KOKV,0.0,0.0,0.0,0.0,8
2025-04-13,13,2025-04-13 19:55,19:55,EDT,Calm,10.0,Fair,CLR,50.0,33.8,54.0,,,29.97,0.0,0.0,0.0,0.0,2025-04-16,4,2025,19,KOKV,0.0,0.0,0.0,0.0,0
2025-04-13,13,2025-04-13 20:55,20:55,EDT,Calm,10.0,Fair,CLR,46.4,35.6,66.0,,,29.97,0.0,0.0,0.0,0.0,2025-04-16,4,2025,20,KOKV,0.0,0.0,0.0,0.0,0
2025-04-13,13,2025-04-13 21:55,21:55,EDT,Calm,10.0,Fair,CLR,46.4,35.6,66.0,,,29.98,0.0,0.0,0.0,0.0,2025-04-16,4,2025,21,KOKV,0.0,0.0,0.0,0.0,0
2025-04-13,13,2025-04-13 22:55,22:55,EDT,W  5,10.0,Fair,CLR,44.6,33.8,66.0,43.0,,29.98,0.0,0.0,0.0,0.0,2025-04-16,4,2025,22,KOKV,0.0,0.0,0.0,0.0,5
2025-04-13,13,2025-04-13 23:55,23:55,EDT,Calm,10.0,Fair,CLR,44.6,33.8,66.0,,,29.97,0.0,0.0,0.0,0.0,2025-04-16,4,2025,23,KOKV,0.0,0.0,0.0,0.0,0
2025-04-14,14,2025-04-14 00:55,00:55,EDT,Calm,10.0,Fair,CLR,42.8,35.6,76.0,,,29.95,0.0,0.0,0.0,0.0,2025-04-17,4,2025,0,KOKV,0.0,0.0,0.0,0.0,0
2025-04-14,14,2025-04-14 01:55,01:55,EDT,Calm,10.0,Overcast,OVC110,44.6,37.4,76.0,,,29.96,0.0,0.0,0.0,0.0,2025-04-17,4,2025,1,KOKV,0.0,0.0,0.0,0.0,0
2025-04-14,14,2025-04-14 02:55,02:55,EDT,Calm,10.0,Overcast,OVC100,44.6,41.0,87.0,,,29.95,0.0,0.0,0.0,0.0,2025-04-17,4,2025,2,KOKV,0.0,0.0,0.0,0.0,0
2025-04-14,14,2025-04-14 03:55,03:55,EDT,Calm,10.0,Overcast,OVC090,44.6,39.2,81.0,,,29.92,0.0,0.0,0.0,0.0,2025-04-17,4,2025,3,KOKV,0.0,0.0,0.0,0.0,0
2025-04-14,14,2025-04-14 04:55,04:55,EDT,NW  5,10.0,Overcast,SCT075 OVC090,44.6,41.0,87.0,43.0,,29.94,0.0,0.0,0.0,0.0,2025-04-17,4,2025,4,KOKV,0.0,0.0,0.0,0.0,5
2025-04-14,14,2025-04-14 05:55,05:55,EDT,Calm,10.0,Overcast,OVC100,44.6,41.0,87.0,,,29.92,0.0,0.0,0.0,0.0,2025-04-17,4,2025,5,KOKV,0.0,0.0,0.0,0.0,0
2025-04-14,14,2025-04-14 06:55,06:55,EDT,Calm,10.0,Overcast,OVC100,44.6,41.0,87.0,,,29.9,0.0,0.0,0.0,0.0,2025-04-17,4,2025,6,KOKV,0.0,0.0,0.0,0.0,0
2025-04-14,14,2025-04-14 07:55,07:55,EDT,Calm,10.0,Overcast,OVC110,46.4,39.2,76.0,,,29.88,0.0,0.0,0.0,0.0,2025-04-17,4,2025,7,KOKV,0.0,0.0,0.0,0.0,0
2025-04-14,14,2025-04-14 08:55,08:55,EDT,SW  3,10.0,Overcast,OVC095,50.0,37.4,62.0,,,29.88,0.0,0.0,0.0,0.0,2025-04-17,4,2025,8,KOKV,0.0,0.0,0.0,0.0,3
2025-04-14,14,2025-04-14 09:55,09:55,EDT,SW  6,10.0,Overcast,SCT070 OVC085,55.4,37.4,51.0,,,29.85,0.0,0.0,0.0,0.0,2025-04-17,4,2025,9,KOKV,0.0,0.0,0.0,0.0,6
2025-04-14,14,2025-04-14 10:55,10:55,EDT,SW  6,10.0,Overcast,SCT075 OVC080,59.0,39.2,48.0,,,29.84,0.0,0.0,0.0,0.0,2025-04-17,4,2025,10,KOKV,0.0,0.0,0.0,0.0,6
2025-04-14,14,2025-04-14 11:55,11:55,EDT,SW  7,10.0,Partly Cloudy,BKN075 SCT085,62.6,39.2,42.0,,,29.81,0.0,0.0,0.0,0.0,2025-04-17,4,2025,11,KOKV,0.0,0.0,0.0,0.0,7
2025-04-14,14,2025-04-14 12:55,12:55,EDT,S  3,10.0,Fair,CLR,68.0,41.0,38.0,,,29.78,0.0,0.0,0.0,0.0,2025-04-17,4,2025,12,KOKV,0.0,0.0,0.0,0.0,3
2025-04-14,14,2025-04-14 13:55,13:55,EDT,SE  8,10.0,Fair,CLR,71.6,42.8,36.0,,,29.76,0.0,0.0,0.0,0.0,2025-04-17,4,2025,13,KOKV,0.0,0.0,0.0,0.0,8
2025-04-14,14,2025-04-14 14:55,14:55,EDT,S  7  G 16,10.0,Fair,CLR,73.4,44.6,36.0,,,29.74,0.0,0.0,0.0,0.0,2025-04-17,4,2025,14,KOKV,0.0,0.0,0.0,0.0,7
2025-04-14,14,2025-04-14 15:55,15:55,EDT,SE  9,10.0,Fair,CLR,75.2,46.4,36.0,,77.0,29.72,0.0,0.0,0.0,0.0,2025-04-17,4,2025,15,KOKV,0.0,0.0,0.0,0.0,9
2025-04-14,14,2025-04-14 16:55,16:55,EDT,S  10,10.0,Fair,CLR,75.2,48.2,39.0,,77.0,29.68,0.0,0.0,0.0,0.0,2025-04-17,4,2025,16,KOKV,0.0,0.0,0.0,0.0,10
2025-04-14,14,2025-04-14 17:55,17:55,EDT,SE  9,10.0,Fair,CLR,75.2,48.2,39.0,,77.0,29.65,0.0,0.0,0.0,0.0,2025-04-17,4,2025,17,KOKV,0.0,0.0,0.0,0.0,9
2025-04-14,14,2025-04-14 18:55,18:55,EDT,S  6,10.0,Fair,CLR,71.6,48.2,44.0,,,29.66,0.0,0.0,0.0,0.0,2025-04-17,4,2025,18,KOKV,0.0,0.0,0.0,0.0,6
2025-04-14,14,2025-04-14 19:55,19:55,EDT,E  3,10.0,Light Rain,SCT060 BKN090 BKN120,62.6,55.4,77.0,,,29.65,0.0,0.0,0.0,0.0,2025-04-17,4,2025,19,KOKV,0.0,0.0,0.0,0.0,3
2025-04-14,14,2025-04-14 20:55,20:55,EDT,NW  8,10.0,Thunderstorm Light Rain in Vicinity,OVC100,60.8,57.2,88.0,,,29.72,0.0,0.0,0.0,0.0,2025-04-17,4,2025,20,KOKV,0.0,0.0,0.0,0.0,8
2025-04-14,14,2025-04-14 21:55,21:55,EDT,W  6,10.0,Light Rain,BKN100 OVC110,60.8,55.4,83.0,,,29.76,0.0,0.0,0.0,0.0,2025-04-17,4,2025,21,KOKV,0.0,0.0,0.0,0.0,6
2025-04-14,14,2025-04-14 22:55,22:55,EDT,S  6,7.0,Light Rain,OVC100,59.0,55.4,88.0,,,29.72,0.0,0.0,0.0,0.0,2025-04-17,4,2025,22,KOKV,0.0,0.0,0.0,0.0,6
2025-04-14,14,2025-04-14 23:55,23:55,EDT,SW  3,10.0,Overcast,BKN100 OVC120,59.0,55.4,88.0,,,29.71,0.0,0.0,0.0,0.0,2025-04-17,4,2025,23,KOKV,0.0,0.0,0.0,0.0,3
2025-04-15,15,2025-04-15 00:55,00:55,EDT,SW  6,10.0,Partly Cloudy,SCT120,59.0,55.4,88.0,,,29.67,0.0,0.0,0.0,0.0,2025-04-18,4,2025,0,KOKV,0.0,0.0,0.0,0.0,6
2025-04-15,15,2025-04-15 01:55,01:55,EDT,SW  8,10.0,Mostly Cloudy,BKN090,59.0,55.4,88.0,,,29.67,0.0,0.0,0.0,0.0,2025-04-18,4,2025,1,KOKV,0.0,0.0,0.0,0.0,8
2025-04-15,15,2025-04-15 02:55,02:55,EDT,S  6,10.0,Fair,CLR,57.2,53.6,88.0,,,29.66,0.0,0.0,0.0,0.0,2025-04-18,4,2025,2,KOKV,0.0,0.0,0.0,0.0,6
2025-04-15,15,2025-04-15 03:55,03:55,EDT,SW  6,10.0,Fair,CLR,57.2,53.6,88.0,,,29.66,0.0,0.0,0.0,0.0,2025-04-18,4,2025,3,KOKV,0.0,0.0,0.0,0.0,6
2025-04-15,15,2025-04-15 04:55,04:55,EDT,SW  6,10.0,Fair,CLR,57.2,53.6,88.0,,,29.64,0.0,0.0,0.0,0.0,2025-04-18,4,2025,4,KOKV,0.0,0.0,0.0,0.0,6
2025-04-15,15,2025-04-15 05:55,05:55,EDT,SW  3,10.0,Fair,CLR,57.2,51.8,82.0,,,29.64,0.0,0.0,0.0,0.0,2025-04-18,4,2025,5,KOKV,0.0,0.0,0.0,0.0,3
2025-04-15,15,2025-04-15 06:55,06:55,EDT,Calm,10.0,Fair,CLR,53.6,51.8,94.0,,,29.63,0.0,0.0,0.0,0.0,2025-04-18,4,2025,6,KOKV,0.0,0.0,0.0,0.0,0
2025-04-15,15,2025-04-15 07:55,07:55,EDT,W  8,10.0,Partly Cloudy,SCT055,53.6,51.8,94.0,,,0.0,0.0,0.0,0.0,0.0,2025-04-18,4,2025,7,KOKV,0.0,0.0,0.0,0.0,8
2025-04-15,15,2025-04-15 08:55,08:55,EDT,W  20  G 25,10.0,Mostly Cloudy,BKN110,55.4,39.2,55.0,,,29.66,0.0,0.0,0.0,0.0,2025-04-18,4,2025,8,KOKV,0.0,0.0,0.0,0.0,20
2025-04-15,15,2025-04-15 09:55,09:55,EDT,W  13  G 21,10.0,Mostly Cloudy,BKN060 BKN110,55.4,35.6,47.0,,,29.64,0.0,0.0,0.0,0.0,2025-04-18,4,2025,9,KOKV,0.0,0.0,0.0,0.0,13
2025-04-15,15,2025-04-15 10:55,10:55,EDT,W  18  G 24,10.0,Mostly Cloudy,BKN060 BKN080,59.0,35.6,42.0,,,29.64,0.0,0.0,0.0,0.0,2025-04-18,4,2025,10,KOKV,0.0,0.0,0.0,0.0,18
2025-04-15,15,2025-04-15 11:55,11:55,EDT,W  21  G 28,10.0,Mostly Cloudy and Breezy,BKN080 BKN090,60.8,33.8,36.0,,,29.61,0.0,0.0,0.0,0.0,2025-04-18,4,2025,11,KOKV,0.0,0.0,0.0,0.0,21
2025-04-15,15,2025-04-15 12:55,12:55,EDT,NW  25  G 33,10.0,Overcast and Breezy,OVC070,55.4,37.4,51.0,,,29.63,0.0,0.0,0.0,0.0,2025-04-18,4,2025,12,KOKV,0.0,0.0,0.0,0.0,25
2025-04-15,15,2025-04-15 13:55,13:55,EDT,W  23  G 28,10.0,Overcast and Breezy,SCT060 BKN070 OVC095,53.6,32.0,44.0,,,29.65,0.0,0.0,0.0,0.0,2025-04-18,4,2025,13,KOKV,0.0,0.0,0.0,0.0,23
2025-04-15,15,2025-04-15 14:55,14:55,EDT,W  20  G 26,10.0,Partly Cloudy,SCT060 SCT090 SCT110,55.4,37.4,51.0,,,29.65,0.0,0.0,0.0,0.0,2025-04-18,4,2025,14,KOKV,0.0,0.0,0.0,0.0,20
2025-04-15,15,2025-04-15 15:55,15:55,EDT,NW  18  G 26,10.0,Mostly Cloudy,SCT042 SCT065 BKN090,55.4,32.0,41.0,,,29.64,0.0,0.0,0.0,0.0,2025-04-18,4,2025,15,KOKV,0.0,0.0,0.0,0.0,18
2025-04-15,15,2025-04-15 16:55,16:55,EDT,W  28  G 36,10.0,Partly Cloudy and Windy,SCT050 SCT075 SCT100,53.6,32.0,44.0,,,29.69,0.0,0.0,0.0,0.0,2025-04-18,4,2025,16,KOKV,0.0,0.0,0.0,0.0,28
2025-04-15,15,2025-04-15 17:55,17:55,EDT,W  23  G 31,10.0,Overcast and Breezy,SCT070 OVC080,53.6,28.4,38.0,,,29.71,0.0,0.0,0.0,0.0,2025-04-18,4,2025,17,KOKV,0.0,0.0,0.0,0.0,23
2025-04-15,15,2025-04-15 18:55,18:55,EDT,W  21  G 30,10.0,Overcast and Breezy,OVC065,51.8,30.2,44.0,,,29.73,0.0,0.0,0.0,0.0,2025-04-18,4,2025,18,KOKV,0.0,0.0,0.0,0.0,21
2025-04-15,15,2025-04-15 19:55,19:55,EDT,W  24  G 37,10.0,Overcast and Breezy,OVC060,50.0,30.2,47.0,43.0,,29.76,0.0,0.0,0.0,0.0,2025-04-18,4,2025,19,KOKV,0.0,0.0,0.0,0.0,24
2025-04-15,15,2025-04-15 20:55,20:55,EDT,W  20  G 39,10.0,Mostly Cloudy,BKN050 BKN060,46.4,32.0,57.0,40.0,,29.77,0.0,0.0,0.0,0.0,2025-04-18,4,2025,20,KOKV,0.0,0.0,0.0,0.0,20
2025-04-15,15,2025-04-15 21:55,21:55,EDT,W  21  G 28,10.0,Overcast and Breezy,BKN046 OVC065,46.4,32.0,57.0,39.0,,29.8,0.0,0.0,0.0,0.0,2025-04-18,4,2025,21,KOKV,0.0,0.0,0.0,0.0,21
2025-04-15,15,2025-04-15 22:55,22:55,EDT,W  13  G 18,10.0,Overcast,OVC050,46.4,30.2,53.0,41.0,,29.82,0.0,0.0,0.0,0.0,2025-04-18,4,2025,22,KOKV,0.0,0.0,0.0,0.0,13
2025-04-15,15,2025-04-15 23:55,23:55,EDT,W  16  G 29,10.0,Mostly Cloudy,BKN065,46.4,32.0,57.0,40.0,,29.82,0.0,0.0,0.0,0.0,2025-04-18,4,2025,23,KOKV,0.0,0.0,0.0,0.0,16
2025-04-16,16,2025-04-16 00:55,00:55,EDT,W  21  G 37,10.0,Overcast and Breezy,SCT048 OVC050,46.4,32.0,57.0,39.0,,29.82,0.0,0.0,0.0,0.0,2025-04-19,4,2025,0,KOKV,0.0,0.0,0.0,0.0,21
2025-04-16,16,2025-04-16 01:55,01:55,EDT,W  18  G 29,10.0,Partly Cloudy,SCT047 SCT060,44.6,30.2,57.0,37.0,,29.83,0.0,0.0,0.0,0.0,2025-04-19,4,2025,1,KOKV,0.0,0.0,0.0,0.0,18
2025-04-16,16,2025-04-16 02:55,02:55,EDT,W  18  G 24,10.0,Partly Cloudy,SCT050,42.8,30.2,61.0,35.0,,29.82,0.0,0.0,0.0,0.0,2025-04-19,4,2025,2,KOKV,0.0,0.0,0.0,0.0,18
2025-04-16,16,2025-04-16 03:55,03:55,EDT,W  16  G 31,10.0,Partly Cloudy,SCT050,42.8,28.4,57.0,36.0,,29.82,0.0,0.0,0.0,0.0,2025-04-19,4,2025,3,KOKV,0.0,0.0,0.0,0.0,16
2025-04-16,16,2025-04-16 04:55,04:55,EDT,NW  18  G 26,10.0,Fair,CLR,42.8,28.4,57.0,35.0,,29.82,0.0,0.0,0.0,0.0,2025-04-19,4,2025,4,KOKV,0.0,0.0,0.0,0.0,18
2025-04-16,16,2025-04-16 05:55,05:55,EDT,NW  14  G 26,10.0,Partly Cloudy,SCT050,42.8,28.4,57.0,36.0,,29.84,0.0,0.0,0.0,0.0,2025-04-19,4,2025,5,KOKV,0.0,0.0,0.0,0.0,14
2025-04-16,16,2025-04-16 06:55,06:55,EDT,W  16  G 23,10.0,Fair,CLR,42.8,28.4,57.0,36.0,,29.85,0.0,0.0,0.0,0.0,2025-04-19,4,2025,6,KOKV,0.0,0.0,0.0,0.0,16
2025-04-16,16,2025-04-16 07:55,07:55,EDT,NW  12  G 18,10.0,Partly Cloudy,SCT055,44.6,28.4,53.0,39.0,,29.89,0.0,0.0,0.0,0.0,2025-04-19,4,2025,7,KOKV,0.0,0.0,0.0,0.0,12
2025-04-16,16,2025-04-16 08:55,08:55,EDT,W  20  G 24,10.0,Mostly Cloudy,BKN050 BKN065,46.4,28.4,50.0,40.0,,29.9,0.0,0.0,0.0,0.0,2025-04-19,4,2025,8,KOKV,0.0,0.0,0.0,0.0,20
2025-04-16,16,2025-04-16 09:55,09:55,EDT,NW  16  G 23,10.0,Mostly Cloudy,BKN050,46.4,28.4,50.0,40.0,,29.91,0.0,0.0,0.0,0.0,2025-04-19,4,2025,9,KOKV,0.0,0.0,0.0,0.0,16
2025-04-16,16,2025-04-16 10:55,10:55,EDT,NW  18  G 28,10.0,Mostly Cloudy,BKN055 BKN080,48.2,26.6,43.0,42.0,,29.92,0.0,0.0,0.0,0.0,2025-04-19,4,2025,10,KOKV,0.0,0.0,0.0,0.0,18
2025-04-16,16,2025-04-16 11:55,11:55,EDT,W  23  G 26,10.0,Partly Cloudy and Breezy,SCT060 SCT080,51.8,30.2,44.0,,,29.92,0.0,0.0,0.0,0.0,2025-04-19,4,2025,11,KOKV,0.0,0.0,0.0,0.0,23
2025-04-16,16,2025-04-16 12:55,12:55,EDT,NW  16  G 23,10.0,Overcast,BKN065 OVC075,51.8,26.6,38.0,,,29.92,0.0,0.0,0.0,0.0,2025-04-19,4,2025,12,KOKV,0.0,0.0,0.0,0.0,16
2025-04-16,16,2025-04-16 13:55,13:55,EDT,NW  17  G 26,10.0,Mostly Cloudy,SCT075 BKN085,53.6,26.6,35.0,,,29.91,0.0,0.0,0.0,0.0,2025-04-19,4,2025,13,KOKV,0.0,0.0,0.0,0.0,17
2025-04-16,16,2025-04-16 14:55,14:55,EDT,NW  21  G 30,10.0,Mostly Cloudy and Breezy,BKN085,55.4,26.6,33.0,,,29.91,0.0,0.0,0.0,0.0,2025-04-19,4,2025,14,KOKV,0.0,0.0,0.0,0.0,21
2025-04-16,16,2025-04-16 15:55,15:55,EDT,W  18  G 28,10.0,Partly Cloudy,SCT080,55.4,24.8,31.0,,,29.9,0.0,0.0,0.0,0.0,2025-04-19,4,2025,15,KOKV,0.0,0.0,0.0,0.0,18
2025-04-16,16,2025-04-16 16:35,16:35,EDT,NW  21  G 28,10.0,Partly Cloudy and Breezy,SCT080,55.4,26.6,33.0,,,29.91,0.0,0.0,0.0,0.0,2025-04-19,4,2025,16,KOKV,0.0,0.0,0.0,0.0,21
2025-04-16,16,2025-04-16 17:55,17:55,EDT,NW  14  G 25,10.0,Partly Cloudy,SCT080,55.4,26.6,33.0,,,29.93,0.0,0.0,0.0,0.0,2025-04-19,4,2025,17,KOKV,0.0,0.0,0.0,0.0,14
2025-04-16,16,2025-04-16 18:55,18:55,EDT,NW  10  G 17,10.0,Mostly Cloudy,BKN090,53.6,24.8,33.0,,,29.95,0.0,0.0,0.0,0.0,2025-04-19,4,2025,18,KOKV,0.0,0.0,0.0,0.0,10
2025-04-16,16,2025-04-16 19:55,19:55,EDT,NW  9,10.0,Partly Cloudy,SCT090,50.0,24.8,37.0,47.0,,0.0,0.0,0.0,0.0,0.0,2025-04-19,4,2025,19,KOKV,0.0,0.0,0.0,0.0,9
2025-04-16,16,2025-04-16 20:55,20:55,EDT,NW  5,10.0,Fair,CLR,46.4,24.8,43.0,45.0,,30.0,0.0,0.0,0.0,0.0,2025-04-19,4,2025,20,KOKV,0.0,0.0,0.0,0.0,5
2025-04-16,16,2025-04-16 21:55,21:55,EDT,N  3,10.0,Fair,CLR,46.4,23.0,40.0,,,30.04,0.0,0.0,0.0,0.0,2025-04-19,4,2025,21,KOKV,0.0,0.0,0.0,0.0,3
2025-04-16,16,2025-04-16 22:55,22:55,EDT,N  5,10.0,Fair,CLR,44.6,24.8,46.0,43.0,,30.06,0.0,0.0,0.0,0.0,2025-04-19,4,2025,22,KOKV,0.0,0.0,0.0,0.0,5
2025-04-16,16,2025-04-16 23:55,23:55,EDT,NW  7,10.0,Fair,CLR,42.8,26.6,53.0,39.0,,30.08,0.0,0.0,0.0,0.0,2025-04-20,4,2025,23,KOKV,0.0,0.0,0.0,0.0,7
2025-04-17,17,2025-04-17 00:55,00:55,EDT,NW  6,10.0,Fair,CLR,37.4,26.6,65.0,33.0,,30.11,0.0,0.0,0.0,0.0,2025-04-20,4,2025,0,KOKV,0.0,0.0,0.0,0.0,6
2025-04-17,17,2025-04-17 01:55,01:55,EDT,NW  6,10.0,Fair,CLR,39.2,26.6,61.0,36.0,,30.12,0.0,0.0,0.0,0.0,2025-04-20,4,2025,1,KOKV,0.0,0.0,0.0,0.0,6
2025-04-17,17,2025-04-17 02:55,02:55,EDT,N  3,10.0,Fair,CLR,37.4,28.4,70.0,,,30.14,0.0,0.0,0.0,0.0,2025-04-20,4,2025,2,KOKV,0.0,0.0,0.0,0.0,3
2025-04-17,17,2025-04-17 03:55,03:55,EDT,W  5,10.0,Fair,CLR,35.6,28.4,75.0,32.0,,30.15,0.0,0.0,0.0,0.0,2025-04-20,4,2025,3,KOKV,0.0,0.0,0.0,0.0,5
2025-04-17,17,2025-04-17 04:55,04:55,EDT,Calm,10.0,Fair,CLR,33.8,26.6,75.0,,,30.17,0.0,0.0,0.0,0.0,2025-04-20,4,2025,4,KOKV,0.0,0.0,0.0,0.0,0
2025-04-17,17,2025-04-17 05:55,05:55,EDT,Calm,10.0,Fair,CLR,32.0,26.6,80.0,,,30.19,0.0,0.0,0.0,0.0,2025-04-20,4,2025,5,KOKV,0.0,0.0,0.0,0.0,0
2025-04-17,17,2025-04-17 06:55,06:55,EDT,W  5,10.0,Fair,CLR,33.8,24.8,70.0,30.0,,30.2,0.0,0.0,0.0,0.0,2025-04-20,4,2025,6,KOKV,0.0,0.0,0.0,0.0,5
2025-04-17,17,2025-04-17 07:55,07:55,EDT,NW  5,10.0,Fair,CLR,41.0,28.4,61.0,38.0,,30.22,0.0,0.0,0.0,0.0,2025-04-20,4,2025,7,KOKV,0.0,0.0,0.0,0.0,5
2025-04-17,17,2025-04-17 08:55,08:55,EDT,NW  8,10.0,Fair,CLR,44.6,24.8,46.0,41.0,,30.23,0.0,0.0,0.0,0.0,2025-04-20,4,2025,8,KOKV,0.0,0.0,0.0,0.0,8
2025-04-17,17,2025-04-17 09:55,09:55,EDT,NW  5,10.0,Fair,CLR,46.4,23.0,40.0,45.0,,30.25,0.0,0.0,0.0,0.0,2025-04-20,4,2025,9,KOKV,0.0,0.0,0.0,0.0,5
2025-04-17,17,2025-04-17 10:55,10:55,EDT,N  8,10.0,Fair,CLR,50.0,23.0,35.0,47.0,,30.24,0.0,0.0,0.0,0.0,2025-04-20,4,2025,10,KOKV,0.0,0.0,0.0,0.0,8
2025-04-17,17,2025-04-17 11:55,11:55,EDT,NW  3,10.0,Fair,CLR,51.8,23.0,32.0,,,30.23,0.0,0.0,0.0,0.0,2025-04-20,4,2025,11,KOKV,0.0,0.0,0.0,0.0,3
2025-04-17,17,2025-04-17 12:55,12:55,EDT,N  5,10.0,Fair,CLR,53.6,23.0,30.0,,,30.24,0.0,0.0,0.0,0.0,2025-04-20,4,2025,12,KOKV,0.0,0.0,0.0,0.0,5
2025-04-17,17,2025-04-17 13:55,13:55,EDT,Calm,10.0,Fair,CLR,55.4,23.0,28.0,,,30.22,0.0,0.0,0.0,0.0,2025-04-20,4,2025,13,KOKV,0.0,0.0,0.0,0.0,0
2025-04-17,17,2025-04-17 14:55,14:55,EDT,NW  7,0.0,,,60.8,23.0,23.0,,,30.18,0.0,0.0,0.0,0.0,2025-04-20,4,2025,14,KOKV,0.0,0.0,0.0,0.0,7
2025-04-17,17,2025-04-17 15:55,15:55,EDT,S  3,10.0,Fair,CLR,60.8,19.4,20.0,,,30.15,0.0,0.0,0.0,0.0,2025-04-20,4,2025,15,KOKV,0.0,0.0,0.0,0.0,3
2025-04-17,17,2025-04-17 16:55,16:55,EDT,SE  6,10.0,Fair,CLR,60.8,24.8,25.0,,,30.16,0.0,0.0,0.0,0.0,2025-04-20,4,2025,16,KOKV,0.0,0.0,0.0,0.0,6
2025-04-17,17,2025-04-17 17:55,17:55,EDT,E  3,10.0,Fair,CLR,62.6,24.8,24.0,,,30.15,0.0,0.0,0.0,0.0,2025-04-20,4,2025,17,KOKV,0.0,0.0,0.0,0.0,3
2025-04-17,17,2025-04-17 18:55,18:55,EDT,SE  8,10.0,Fair,CLR,59.0,28.4,31.0,,,30.15,0.0,0.0,0.0,0.0,2025-04-20,4,2025,18,KOKV,0.0,0.0,0.0,0.0,8
2025-04-17,17,2025-04-17 19:55,19:55,EDT,SE  5,10.0,Fair,CLR,50.0,30.2,47.0,49.0,,30.15,0.0,0.0,0.0,0.0,2025-04-20,4,2025,19,KOKV,0.0,0.0,0.0,0.0,5
2025-04-17,17,2025-04-17 20:55,20:55,EDT,SE  3,10.0,Fair,CLR,50.0,28.4,43.0,,,30.16,0.0,0.0,0.0,0.0,2025-04-20,4,2025,20,KOKV,0.0,0.0,0.0,0.0,3
2025-04-17,17,2025-04-17 21:55,21:55,EDT,Calm,10.0,Fair,CLR,46.4,30.2,53.0,,,30.17,0.0,0.0,0.0,0.0,2025-04-20,4,2025,21,KOKV,0.0,0.0,0.0,0.0,0
2025-04-17,17,2025-04-17 22:55,22:55,EDT,Calm,10.0,Fair,CLR,46.4,30.2,53.0,,,30.18,0.0,0.0,0.0,0.0,2025-04-20,4,2025,22,KOKV,0.0,0.0,0.0,0.0,0
2025-04-17,17,2025-04-17 23:55,23:55,EDT,Calm,10.0,Fair,CLR,44.6,30.2,57.0,,,30.19,0.0,0.0,0.0,0.0,2025-04-20,4,2025,23,KOKV,0.0,0.0,0.0,0.0,0
2025-04-18,18,2025-04-18 00:55,00:55,EDT,Calm,10.0,Fair,CLR,44.6,32.0,61.0,,,30.18,0.0,0.0,0.0,0.0,2025-04-21,4,2025,0,KOKV,0.0,0.0,0.0,0.0,0
2025-04-18,18,2025-04-18 01:55,01:55,EDT,Calm,10.0,Fair,CLR,44.6,32.0,61.0,,,30.17,0.0,0.0,0.0,0.0,2025-04-21,4,2025,1,KOKV,0.0,0.0,0.0,0.0,0
2025-04-18,18,2025-04-18 02:55,02:55,EDT,Calm,10.0,Fair,CLR,41.0,32.0,70.0,,,30.17,0.0,0.0,0.0,0.0,2025-04-21,4,2025,2,KOKV,0.0,0.0,0.0,0.0,0
2025-04-18,18,2025-04-18 03:55,03:55,EDT,Calm,10.0,Fair,CLR,39.2,32.0,75.0,,,30.17,0.0,0.0,0.0,0.0,2025-04-21,4,2025,3,KOKV,0.0,0.0,0.0,0.0,0
2025-04-18,18,2025-04-18 04:55,04:55,EDT,Calm,10.0,Fair,CLR,37.4,32.0,81.0,,,30.16,0.0,0.0,0.0,0.0,2025-04-21,4,2025,4,KOKV,0.0,0.0,0.0,0.0,0
2025-04-18,18,2025-04-18 05:55,05:55,EDT,Calm,10.0,Fair,CLR,37.4,32.0,81.0,,,30.18,0.0,0.0,0.0,0.0,2025-04-21,4,2025,5,KOKV,0.0,0.0,0.0,0.0,0
2025-04-18,18,2025-04-18 06:55,06:55,EDT,Calm,10.0,Fair,CLR,37.4,32.0,81.0,,,30.19,0.0,0.0,0.0,0.0,2025-04-21,4,2025,6,KOKV,0.0,0.0,0.0,0.0,0
2025-04-18,18,2025-04-18 07:55,07:55,EDT,Calm,10.0,Partly Cloudy,SCT120,46.4,39.2,76.0,,,30.19,0.0,0.0,0.0,0.0,2025-04-21,4,2025,7,KOKV,0.0,0.0,0.0,0.0,0
2025-04-18,18,2025-04-18 08:55,08:55,EDT,S  5,10.0,Fair,CLR,53.6,35.6,51.0,,,30.19,0.0,0.0,0.0,0.0,2025-04-21,4,2025,8,KOKV,0.0,0.0,0.0,0.0,5
2025-04-18,18,2025-04-18 09:55,09:55,EDT,SW  6,10.0,Fair,CLR,59.0,35.6,42.0,,,30.17,0.0,0.0,0.0,0.0,2025-04-21,4,2025,9,KOKV,0.0,0.0,0.0,0.0,6
2025-04-18,18,2025-04-18 10:55,10:55,EDT,Calm,10.0,Fair,CLR,62.6,39.2,42.0,,,30.14,0.0,0.0,0.0,0.0,2025-04-21,4,2025,10,KOKV,0.0,0.0,0.0,0.0,0
2025-04-18,18,2025-04-18 11:55,11:55,EDT,S  9  G 17,10.0,Fair,CLR,69.8,39.2,33.0,,,30.11,0.0,0.0,0.0,0.0,2025-04-21,4,2025,11,KOKV,0.0,0.0,0.0,0.0,9
2025-04-18,18,2025-04-18 12:55,12:55,EDT,SE  16  G 20,10.0,Fair,CLR,71.6,41.0,33.0,,,30.08,0.0,0.0,0.0,0.0,2025-04-21,4,2025,12,KOKV,0.0,0.0,0.0,0.0,16
2025-04-18,18,2025-04-18 13:55,13:55,EDT,SE  17  G 24,10.0,Fair,CLR,73.4,41.0,31.0,,,30.06,0.0,0.0,0.0,0.0,2025-04-21,4,2025,13,KOKV,0.0,0.0,0.0,0.0,17
2025-04-18,18,2025-04-18 14:55,14:55,EDT,S  13  G 21,10.0,Fair,CLR,77.0,42.8,30.0,,78.0,30.03,0.0,0.0,0.0,0.0,2025-04-21,4,2025,14,KOKV,0.0,0.0,0.0,0.0,13
2025-04-18,18,2025-04-18 15:55,15:55,EDT,SE  17  G 22,10.0,Fair,CLR,78.8,44.6,30.0,,79.0,30.01,0.0,0.0,0.0,0.0,2025-04-21,4,2025,15,KOKV,0.0,0.0,0.0,0.0,17
2025-04-18,18,2025-04-18 16:55,16:55,EDT,S  12  G 21,10.0,Fair,CLR,78.8,44.6,30.0,,79.0,30.01,0.0,0.0,0.0,0.0,2025-04-21,4,2025,16,KOKV,0.0,0.0,0.0,0.0,12
2025-04-18,18,2025-04-18 17:55,17:55,EDT,S  13  G 24,10.0,Fair,CLR,78.8,42.8,28.0,,78.0,29.99,0.0,0.0,0.0,0.0,2025-04-21,4,2025,17,KOKV,0.0,0.0,0.0,0.0,13
2025-04-18,18,2025-04-18 18:55,18:55,EDT,S  8  G 17,10.0,Fair,CLR,77.0,44.6,32.0,,78.0,29.99,0.0,0.0,0.0,0.0,2025-04-21,4,2025,18,KOKV,0.0,0.0,0.0,0.0,8
2025-04-18,18,2025-04-18 19:55,19:55,EDT,S  10  G 18,10.0,Fair,CLR,73.4,44.6,36.0,,,29.99,0.0,0.0,0.0,0.0,2025-04-21,4,2025,19,KOKV,0.0,0.0,0.0,0.0,10
2025-04-18,18,2025-04-18 20:55,20:55,EDT,S  8,10.0,Fair,CLR,69.8,46.4,43.0,,,29.99,0.0,0.0,0.0,0.0,2025-04-21,4,2025,20,KOKV,0.0,0.0,0.0,0.0,8
2025-04-18,18,2025-04-18 21:55,21:55,EDT,S  7,10.0,Fair,CLR,68.0,46.4,46.0,,,30.01,0.0,0.0,0.0,0.0,2025-04-21,4,2025,21,KOKV,0.0,0.0,0.0,0.0,7
2025-04-18,18,2025-04-18 22:55,22:55,EDT,S  10  G 16,10.0,Fair,CLR,69.8,46.4,43.0,,,30.0,0.0,0.0,0.0,0.0,2025-04-21,4,2025,22,KOKV,0.0,0.0,0.0,0.0,10
2025-04-18,18,2025-04-18 23:55,23:55,EDT,SW  7,10.0,Fair,CLR,69.8,46.4,43.0,,,30.01,0.0,0.0,0.0,0.0,2025-04-21,4,2025,23,KOKV,0.0,0.0,0.0,0.0,7
2025-04-19,19,2025-04-19 00:55,00:55,EDT,SW  6,10.0,Fair,CLR,66.2,46.4,49.0,,,30.0,0.0,0.0,0.0,0.0,2025-04-22,4,2025,0,KOKV,0.0,0.0,0.0,0.0,6
2025-04-19,19,2025-04-19 01:55,01:55,EDT,SW  6,10.0,Fair,CLR,66.2,48.2,52.0,,,30.0,0.0,0.0,0.0,0.0,2025-04-22,4,2025,1,KOKV,0.0,0.0,0.0,0.0,6
2025-04-19,19,2025-04-19 02:55,02:55,EDT,SW  8,10.0,Fair,CLR,66.2,48.2,52.0,,,30.0,0.0,0.0,0.0,0.0,2025-04-22,4,2025,2,KOKV,0.0,0.0,0.0,0.0,8
2025-04-19,19,2025-04-19 03:55,03:55,EDT,SW  7,10.0,Fair,CLR,66.2,50.0,56.0,,,29.99,0.0,0.0,0.0,0.0,2025-04-22,4,2025,3,KOKV,0.0,0.0,0.0,0.0,7
2025-04-19,19,2025-04-19 04:55,04:55,EDT,SW  9,10.0,Fair,CLR,66.2,50.0,56.0,,,30.0,0.0,0.0,0.0,0.0,2025-04-22,4,2025,4,KOKV,0.0,0.0,0.0,0.0,9
2025-04-19,19,2025-04-19 05:55,05:55,EDT,SW  7,10.0,Fair,CLR,66.2,50.0,56.0,,,30.02,0.0,0.0,0.0,0.0,2025-04-22,4,2025,5,KOKV,0.0,0.0,0.0,0.0,7
2025-04-19,19,2025-04-19 06:55,06:55,EDT,SW  8,10.0,Fair,CLR,66.2,50.0,56.0,,,30.03,0.0,0.0,0.0,0.0,2025-04-22,4,2025,6,KOKV,0.0,0.0,0.0,0.0,8
2025-04-19,19,2025-04-19 07:55,07:55,EDT,SW  7,10.0,Fair,CLR,66.2,50.0,56.0,,,30.06,0.0,0.0,0.0,0.0,2025-04-22,4,2025,7,KOKV,0.0,0.0,0.0,0.0,7
2025-04-19,19,2025-04-19 08:55,08:55,EDT,SW  6,10.0,Fair,CLR,64.4,50.0,60.0,,,30.06,0.0,0.0,0.0,0.0,2025-04-22,4,2025,8,KOKV,0.0,0.0,0.0,0.0,6
2025-04-19,19,2025-04-19 09:55,09:55,EDT,SW  6,10.0,Fair,CLR,64.4,50.0,60.0,,,30.07,0.0,0.0,0.0,0.0,2025-04-22,4,2025,9,KOKV,0.0,0.0,0.0,0.0,6
2025-04-19,19,2025-04-19 10:55,10:55,EDT,SW  6,10.0,Fair,CLR,68.0,50.0,53.0,,,30.09,0.0,0.0,0.0,0.0,2025-04-22,4,2025,10,KOKV,0.0,0.0,0.0,0.0,6
2025-04-19,19,2025-04-19 11:55,11:55,EDT,SW  8,10.0,Fair,CLR,69.8,50.0,50.0,,,30.08,0.0,0.0,0.0,0.0,2025-04-22,4,2025,11,KOKV,0.0,0.0,0.0,0.0,8
2025-04-19,19,2025-04-19 12:55,12:55,EDT,S  7,10.0,Fair,CLR,71.6,51.8,50.0,,,30.07,0.0,0.0,0.0,0.0,2025-04-22,4,2025,12,KOKV,0.0,0.0,0.0,0.0,7
2025-04-19,19,2025-04-19 13:55,13:55,EDT,S  9,10.0,Fair,CLR,77.0,55.4,47.0,,79.0,30.05,0.0,0.0,0.0,0.0,2025-04-22,4,2025,13,KOKV,0.0,0.0,0.0,0.0,9
2025-04-19,19,2025-04-19 14:55,14:55,EDT,S  7,10.0,Fair,CLR,77.0,55.4,47.0,,79.0,30.04,0.0,0.0,0.0,0.0,2025-04-22,4,2025,14,KOKV,0.0,0.0,0.0,0.0,7
2025-04-19,19,2025-04-19 15:55,15:55,EDT,S  12,10.0,Fair,CLR,78.8,55.4,45.0,,79.0,30.01,0.0,0.0,0.0,0.0,2025-04-22,4,2025,15,KOKV,0.0,0.0,0.0,0.0,12
2025-04-19,19,2025-04-19 16:55,16:55,EDT,SE  10  G 14,10.0,Fair,CLR,80.6,59.0,48.0,,81.0,30.0,0.0,0.0,0.0,0.0,2025-04-22,4,2025,16,KOKV,0.0,0.0,0.0,0.0,10
2025-04-19,19,2025-04-19 17:55,17:55,EDT,S  8,10.0,Fair,CLR,80.6,59.0,48.0,,81.0,30.0,0.0,0.0,0.0,0.0,2025-04-22,4,2025,17,KOKV,0.0,0.0,0.0,0.0,8
2025-04-19,19,2025-04-19 18:55,18:55,EDT,S  6,10.0,Fair,CLR,78.8,59.0,51.0,,80.0,30.01,0.0,0.0,0.0,0.0,2025-04-22,4,2025,18,KOKV,0.0,0.0,0.0,0.0,6
2025-04-19,19,2025-04-19 19:55,19:55,EDT,Calm,10.0,Fair,CLR,73.4,57.2,57.0,,,30.03,0.0,0.0,0.0,0.0,2025-04-22,4,2025,19,KOKV,0.0,0.0,0.0,0.0,0
2025-04-19,19,2025-04-19 20:55,20:55,EDT,Calm,10.0,Fair,CLR,69.8,55.4,60.0,,,30.07,0.0,0.0,0.0,0.0,2025-04-22,4,2025,20,KOKV,0.0,0.0,0.0,0.0,0
2025-04-19,19,2025-04-19 21:55,21:55,EDT,W  7  G 17,10.0,Fair,CLR,80.6,46.4,30.0,,80.0,30.09,0.0,0.0,0.0,0.0,2025-04-22,4,2025,21,KOKV,0.0,0.0,0.0,0.0,7
2025-04-19,19,2025-04-19 22:55,22:55,EDT,W  3,10.0,Fair,CLR,75.2,46.4,36.0,,77.0,30.08,0.0,0.0,0.0,0.0,2025-04-22,4,2025,22,KOKV,0.0,0.0,0.0,0.0,3
2025-04-19,19,2025-04-19 23:55,23:55,EDT,Calm,10.0,Fair,CLR,69.8,51.8,53.0,,,30.1,0.0,0.0,0.0,0.0,2025-04-22,4,2025,23,KOKV,0.0,0.0,0.0,0.0,0
2025-04-20,20,2025-04-20 00:55,00:55,EDT,W  3,10.0,Fair,CLR,64.4,51.8,64.0,,,30.11,0.0,0.0,0.0,0.0,2025-04-23,4,2025,0,KOKV,0.0,0.0,0.0,0.0,3
2025-04-20,20,2025-04-20 01:55,01:55,EDT,W  3,10.0,Fair,CLR,69.8,53.6,57.0,,,30.1,0.0,0.0,0.0,0.0,2025-04-23,4,2025,1,KOKV,0.0,0.0,0.0,0.0,3
2025-04-20,20,2025-04-20 02:55,02:55,EDT,NW  5,10.0,Fair,CLR,68.0,53.6,60.0,,,30.12,0.0,0.0,0.0,0.0,2025-04-23,4,2025,2,KOKV,0.0,0.0,0.0,0.0,5
2025-04-20,20,2025-04-20 03:55,03:55,EDT,NW  6,10.0,Fair,CLR,69.8,53.6,57.0,,,30.15,0.0,0.0,0.0,0.0,2025-04-23,4,2025,3,KOKV,0.0,0.0,0.0,0.0,6
2025-04-20,20,2025-04-20 04:55,04:55,EDT,NW  6,10.0,Overcast,BKN040 OVC048,68.0,55.4,64.0,,,30.18,0.0,0.0,0.0,0.0,2025-04-23,4,2025,4,KOKV,0.0,0.0,0.0,0.0,6
2025-04-20,20,2025-04-20 05:55,05:55,EDT,NW  7,10.0,Overcast,OVC038,68.0,55.4,64.0,,,30.2,0.0,0.0,0.0,0.0,2025-04-23,4,2025,5,KOKV,0.0,0.0,0.0,0.0,7
2025-04-20,20,2025-04-20 06:55,06:55,EDT,N  5,10.0,Mostly Cloudy,SCT040 BKN070,66.2,53.6,64.0,,,30.23,0.0,0.0,0.0,0.0,2025-04-23,4,2025,6,KOKV,0.0,0.0,0.0,0.0,5
2025-04-20,20,2025-04-20 07:55,07:55,EDT,Calm,10.0,Partly Cloudy,SCT070,64.4,53.6,68.0,,,30.26,0.0,0.0,0.0,0.0,2025-04-23,4,2025,7,KOKV,0.0,0.0,0.0,0.0,0
2025-04-20,20,2025-04-20 08:55,08:55,EDT,NW  7,10.0,Fair,CLR,64.4,51.8,64.0,,,30.27,0.0,0.0,0.0,0.0,2025-04-23,4,2025,8,KOKV,0.0,0.0,0.0,0.0,7
2025-04-20,20,2025-04-20 09:55,09:55,EDT,NW  8,10.0,Fair,CLR,64.4,51.8,64.0,,,30.28,0.0,0.0,0.0,0.0,2025-04-23,4,2025,9,KOKV,0.0,0.0,0.0,0.0,8
2025-04-20,20,2025-04-20 10:55,10:55,EDT,N  7,10.0,Fair,CLR,64.4,51.8,64.0,,,30.29,0.0,0.0,0.0,0.0,2025-04-23,4,2025,10,KOKV,0.0,0.0,0.0,0.0,7
2025-04-20,20,2025-04-20 11:55,11:55,EDT,NW  6,10.0,Fair,CLR,66.2,50.0,56.0,,,30.3,0.0,0.0,0.0,0.0,2025-04-23,4,2025,11,KOKV,0.0,0.0,0.0,0.0,6
2025-04-20,20,2025-04-20 12:55,12:55,EDT,E  3,10.0,Fair,CLR,66.2,51.8,60.0,,,30.29,0.0,0.0,0.0,0.0,2025-04-23,4,2025,12,KOKV,0.0,0.0,0.0,0.0,3
2025-04-20,20,2025-04-20 13:55,13:55,EDT,NE  6,10.0,Fair,CLR,69.8,51.8,53.0,,,30.28,0.0,0.0,0.0,0.0,2025-04-23,4,2025,13,KOKV,0.0,0.0,0.0,0.0,6
2025-04-20,20,2025-04-20 14:55,14:55,EDT,NE  5,10.0,Fair,CLR,71.6,51.8,50.0,,,30.27,0.0,0.0,0.0,0.0,2025-04-23,4,2025,14,KOKV,0.0,0.0,0.0,0.0,5
2025-04-20,20,2025-04-20 15:55,15:55,EDT,E  6,10.0,Fair,CLR,71.6,48.2,44.0,,,30.26,0.0,0.0,0.0,0.0,2025-04-23,4,2025,15,KOKV,0.0,0.0,0.0,0.0,6
2025-04-20,20,2025-04-20 16:55,16:55,EDT,NE  3,10.0,Fair,CLR,69.8,46.4,43.0,,,30.26,0.0,0.0,0.0,0.0,2025-04-23,4,2025,16,KOKV,0.0,0.0,0.0,0.0,3
2025-04-20,20,2025-04-20 17:55,17:55,EDT,E  9,10.0,Fair,CLR,68.0,46.4,46.0,,,30.27,0.0,0.0,0.0,0.0,2025-04-23,4,2025,17,KOKV,0.0,0.0,0.0,0.0,9
2025-04-20,20,2025-04-20 18:55,18:55,EDT,E  3,10.0,Fair,CLR,68.0,44.6,43.0,,,30.27,0.0,0.0,0.0,0.0,2025-04-23,4,2025,18,KOKV,0.0,0.0,0.0,0.0,3
2025-04-20,20,2025-04-20 19:55,19:55,EDT,NE  3,10.0,Fair,CLR,64.4,42.8,46.0,,,30.27,0.0,0.0,0.0,0.0,2025-04-23,4,2025,19,KOKV,0.0,0.0,0.0,0.0,3
2025-04-20,20,2025-04-20 20:55,20:55,EDT,Calm,10.0,Fair,CLR,57.2,44.6,63.0,,,30.28,0.0,0.0,0.0,0.0,2025-04-23,4,2025,20,KOKV,0.0,0.0,0.0,0.0,0
2025-04-20,20,2025-04-20 21:55,21:55,EDT,Calm,10.0,Overcast,BKN070 OVC080,59.0,44.6,59.0,,,30.28,0.0,0.0,0.0,0.0,2025-04-23,4,2025,21,KOKV,0.0,0.0,0.0,0.0,0
2025-04-20,20,2025-04-20 22:55,22:55,EDT,E  5,10.0,Overcast,SCT060 OVC085,60.8,41.0,48.0,,,30.27,0.0,0.0,0.0,0.0,2025-04-23,4,2025,22,KOKV,0.0,0.0,0.0,0.0,5
2025-04-20,20,2025-04-20 23:55,23:55,EDT,SE  6,10.0,Overcast,BKN060 OVC080,60.8,42.8,52.0,,,30.27,0.0,0.0,0.0,0.0,2025-04-23,4,2025,23,KOKV,0.0,0.0,0.0,0.0,6
2025-04-21,21,2025-04-21 00:55,00:55,EDT,SE  3,10.0,Mostly Cloudy,SCT045 BKN080,57.2,41.0,55.0,,,30.26,0.0,0.0,0.0,0.0,2025-04-24,4,2025,0,KOKV,0.0,0.0,0.0,0.0,3
2025-04-21,21,2025-04-21 01:55,01:55,EDT,E  5,10.0,Overcast,BKN040 OVC048,57.2,42.8,59.0,,,30.24,0.0,0.0,0.0,0.0,2025-04-24,4,2025,1,KOKV,0.0,0.0,0.0,0.0,5
2025-04-21,21,2025-04-21 02:55,02:55,EDT,E  8,10.0,Overcast,OVC040,59.0,46.4,63.0,,,30.21,0.0,0.0,0.0,0.0,2025-04-24,4,2025,2,KOKV,0.0,0.0,0.0,0.0,8
2025-04-21,21,2025-04-21 03:55,03:55,EDT,SE  7,10.0,Fair,CLR,59.0,46.4,63.0,,,30.2,0.0,0.0,0.0,0.0,2025-04-24,4,2025,3,KOKV,0.0,0.0,0.0,0.0,7
2025-04-21,21,2025-04-21 04:55,04:55,EDT,SE  7,10.0,Fair,CLR,55.4,48.2,77.0,,,30.2,0.0,0.0,0.0,0.0,2025-04-24,4,2025,4,KOKV,0.0,0.0,0.0,0.0,7
2025-04-21,21,2025-04-21 05:55,05:55,EDT,SE  7,10.0,Mostly Cloudy,BKN050,55.4,46.4,72.0,,,30.2,0.0,0.0,0.0,0.0,2025-04-24,4,2025,5,KOKV,0.0,0.0,0.0,0.0,7
2025-04-21,21,2025-04-21 06:55,06:55,EDT,SE  10,10.0,Overcast,OVC033,55.4,46.4,72.0,,,30.2,0.0,0.0,0.0,0.0,2025-04-24,4,2025,6,KOKV,0.0,0.0,0.0,0.0,10
2025-04-21,21,2025-04-21 07:55,07:55,EDT,SE  7,10.0,Overcast,OVC029,55.4,46.4,72.0,,,30.21,0.0,0.0,0.0,0.0,2025-04-24,4,2025,7,KOKV,0.0,0.0,0.0,0.0,7
2025-04-21,21,2025-04-21 08:55,08:55,EDT,SE  6,10.0,Overcast,OVC029,57.2,44.6,63.0,,,30.2,0.0,0.0,0.0,0.0,2025-04-24,4,2025,8,KOKV,0.0,0.0,0.0,0.0,6
2025-04-21,21,2025-04-21 09:55,09:55,EDT,SE  8,10.0,Overcast,OVC027,59.0,46.4,63.0,,,30.17,0.0,0.0,0.0,0.0,2025-04-24,4,2025,9,KOKV,0.0,0.0,0.0,0.0,8
2025-04-21,21,2025-04-21 10:55,10:55,EDT,E  9,10.0,Overcast,OVC027,62.6,50.0,64.0,,,30.15,0.0,0.0,0.0,0.0,2025-04-24,4,2025,10,KOKV,0.0,0.0,0.0,0.0,9
2025-04-21,21,2025-04-21 11:55,11:55,EDT,E  10,10.0,Fair,CLR,66.2,51.8,60.0,,,30.12,0.0,0.0,0.0,0.0,2025-04-24,4,2025,11,KOKV,0.0,0.0,0.0,0.0,10
2025-04-21,21,2025-04-21 12:55,12:55,EDT,E  12,10.0,Fair,CLR,68.0,51.8,56.0,,,30.07,0.0,0.0,0.0,0.0,2025-04-24,4,2025,12,KOKV,0.0,0.0,0.0,0.0,12
2025-04-21,21,2025-04-21 13:55,13:55,EDT,E  13  G 16,10.0,Fair,CLR,69.8,53.6,57.0,,,30.03,0.0,0.0,0.0,0.0,2025-04-24,4,2025,13,KOKV,0.0,0.0,0.0,0.0,13
2025-04-21,21,2025-04-21 14:55,14:55,EDT,SE  14  G 21,10.0,Fair,CLR,71.6,51.8,50.0,,,30.0,0.0,0.0,0.0,0.0,2025-04-24,4,2025,14,KOKV,0.0,0.0,0.0,0.0,14
2025-04-21,21,2025-04-21 15:55,15:55,EDT,SE  15  G 21,10.0,Fair,CLR,71.6,53.6,53.0,,,29.97,0.0,0.0,0.0,0.0,2025-04-24,4,2025,15,KOKV,0.0,0.0,0.0,0.0,15
2025-04-21,21,2025-04-21 16:55,16:55,EDT,S  18  G 24,10.0,Fair,CLR,71.6,55.4,57.0,,,29.95,0.0,0.0,0.0,0.0,2025-04-24,4,2025,16,KOKV,0.0,0.0,0.0,0.0,18
2025-04-21,21,2025-04-21 17:55,17:55,EDT,S  12  G 23,10.0,Mostly Cloudy,BKN100,71.6,55.4,57.0,,,29.95,0.0,0.0,0.0,0.0,2025-04-24,4,2025,17,KOKV,0.0,0.0,0.0,0.0,12
2025-04-21,21,2025-04-21 18:55,18:55,EDT,S  5,10.0,Overcast,SCT080 BKN090 OVC110,71.6,55.4,57.0,,,29.96,0.0,0.0,0.0,0.0,2025-04-24,4,2025,18,KOKV,0.0,0.0,0.0,0.0,5
2025-04-21,21,2025-04-21 19:55,19:55,EDT,E  3,10.0,Light Rain,SCT037 BKN048 OVC080,64.4,60.8,88.0,,,29.99,0.0,0.0,0.0,0.0,2025-04-24,4,2025,19,KOKV,0.0,0.0,0.0,0.0,3
2025-04-21,21,2025-04-21 20:55,20:55,EDT,Calm,7.0,Mostly Cloudy,SCT075 SCT095 BKN120,62.6,60.8,94.0,,,30.0,0.0,0.0,0.0,0.0,2025-04-24,4,2025,20,KOKV,0.0,0.0,0.0,0.0,0
2025-04-21,21,2025-04-21 21:55,21:55,EDT,Calm,5.0,Fog/Mist,BKN060 BKN080,62.6,60.8,94.0,,,30.0,0.0,0.0,0.0,0.0,2025-04-24,4,2025,21,KOKV,0.0,0.0,0.0,0.0,0
2025-04-21,21,2025-04-21 22:55,22:55,EDT,SW  3,10.0,Overcast,SCT060 SCT075 OVC090,62.6,60.8,94.0,,,29.99,0.0,0.0,0.0,0.0,2025-04-24,4,2025,22,KOKV,0.0,0.0,0.0,0.0,3
2025-04-21,21,2025-04-21 23:55,23:55,EDT,SW  3,10.0,Fair,CLR,60.8,60.8,100.0,,,29.97,0.0,0.0,0.0,0.0,2025-04-24,4,2025,23,KOKV,0.0,0.0,0.0,0.0,3
2025-04-22,22,2025-04-22 00:55,00:55,EDT,SW  5,7.0,Partly Cloudy,SCT085,60.8,60.8,100.0,,,29.97,0.0,0.0,0.0,0.0,2025-04-25,4,2025,0,KOKV,0.0,0.0,0.0,0.0,5
2025-04-22,22,2025-04-22 01:55,01:55,EDT,W  6,7.0,Fair,CLR,60.8,59.0,94.0,,,29.97,0.0,0.0,0.0,0.0,2025-04-25,4,2025,1,KOKV,0.0,0.0,0.0,0.0,6
2025-04-22,22,2025-04-22 02:55,02:55,EDT,SW  7,10.0,Fair,CLR,60.8,59.0,94.0,,,29.96,0.0,0.0,0.0,0.0,2025-04-25,4,2025,2,KOKV,0.0,0.0,0.0,0.0,7
2025-04-22,22,2025-04-22 03:55,03:55,EDT,W  7,10.0,Fair,CLR,60.8,57.2,88.0,,,29.96,0.0,0.0,0.0,0.0,2025-04-25,4,2025,3,KOKV,0.0,0.0,0.0,0.0,7
2025-04-22,22,2025-04-22 04:55,04:55,EDT,Calm,10.0,Fair,CLR,59.0,57.2,94.0,,,29.97,0.0,0.0,0.0,0.0,2025-04-25,4,2025,4,KOKV,0.0,0.0,0.0,0.0,0
2025-04-22,22,2025-04-22 05:55,05:55,EDT,SW  3,10.0,Partly Cloudy,SCT050 SCT070,60.8,55.4,83.0,,,29.99,0.0,0.0,0.0,0.0,2025-04-25,4,2025,5,KOKV,0.0,0.0,0.0,0.0,3
2025-04-22,22,2025-04-22 06:55,06:55,EDT,NW  7,10.0,Overcast,OVC048,59.0,55.4,88.0,,,30.01,0.0,0.0,0.0,0.0,2025-04-25,4,2025,6,KOKV,0.0,0.0,0.0,0.0,7
2025-04-22,22,2025-04-22 07:55,07:55,EDT,NW  7,10.0,Fair,CLR,62.6,53.6,73.0,,,30.02,0.0,0.0,0.0,0.0,2025-04-25,4,2025,7,KOKV,0.0,0.0,0.0,0.0,7
2025-04-22,22,2025-04-22 08:55,08:55,EDT,NW  5,10.0,Fair,CLR,64.4,53.6,68.0,,,30.04,0.0,0.0,0.0,0.0,2025-04-25,4,2025,8,KOKV,0.0,0.0,0.0,0.0,5
2025-04-22,22,2025-04-22 09:55,09:55,EDT,NW  10  G 16,10.0,Fair,CLR,66.2,53.6,64.0,,,30.04,0.0,0.0,0.0,0.0,2025-04-25,4,2025,9,KOKV,0.0,0.0,0.0,0.0,10
2025-04-22,22,2025-04-22 10:55,10:55,EDT,NW  7,10.0,Fair,CLR,69.8,51.8,53.0,,,30.05,0.0,0.0,0.0,0.0,2025-04-25,4,2025,10,KOKV,0.0,0.0,0.0,0.0,7
2025-04-22,22,2025-04-22 11:55,11:55,EDT,NW  15,10.0,Fair,CLR,69.8,46.4,43.0,,,30.05,0.0,0.0,0.0,0.0,2025-04-25,4,2025,11,KOKV,0.0,0.0,0.0,0.0,15
2025-04-22,22,2025-04-22 12:55,12:55,EDT,NW  13  G 16,10.0,Fair,CLR,71.6,46.4,41.0,,,30.04,0.0,0.0,0.0,0.0,2025-04-25,4,2025,12,KOKV,0.0,0.0,0.0,0.0,13
2025-04-22,22,2025-04-22 13:55,13:55,EDT,W  9,10.0,Fair,CLR,73.4,46.4,38.0,,,30.03,0.0,0.0,0.0,0.0,2025-04-25,4,2025,13,KOKV,0.0,0.0,0.0,0.0,9
2025-04-22,22,2025-04-22 14:55,14:55,EDT,NW  10,10.0,Fair,CLR,71.6,44.6,38.0,,,30.04,0.0,0.0,0.0,0.0,2025-04-25,4,2025,14,KOKV,0.0,0.0,0.0,0.0,10
2025-04-22,22,2025-04-22 15:55,15:55,EDT,W  9,10.0,Fair,CLR,71.6,44.6,38.0,,,30.03,0.0,0.0,0.0,0.0,2025-04-25,4,2025,15,KOKV,0.0,0.0,0.0,0.0,9
2025-04-22,22,2025-04-22 16:55,16:55,EDT,NW  10,10.0,Fair,CLR,71.6,42.8,36.0,,,30.03,0.0,0.0,0.0,0.0,2025-04-25,4,2025,16,KOKV,0.0,0.0,0.0,0.0,10
2025-04-22,22,2025-04-22 17:55,17:55,EDT,Calm,10.0,Fair,CLR,71.6,42.8,36.0,,,30.04,0.0,0.0,0.0,0.0,2025-04-25,4,2025,17,KOKV,0.0,0.0,0.0,0.0,0
2025-04-22,22,2025-04-22 18:55,18:55,EDT,NW  8,10.0,Fair,CLR,69.8,37.4,31.0,,,30.04,0.0,0.0,0.0,0.0,2025-04-25,4,2025,18,KOKV,0.0,0.0,0.0,0.0,8
2025-04-22,22,2025-04-22 19:55,19:55,EDT,NW  5,10.0,Fair,CLR,68.0,39.2,35.0,,,30.06,0.0,0.0,0.0,0.0,2025-04-25,4,2025,19,KOKV,0.0,0.0,0.0,0.0,5
2025-04-22,22,2025-04-22 20:55,20:55,EDT,NW  9,10.0,Fair,CLR,64.4,37.4,37.0,,,30.08,0.0,0.0,0.0,0.0,2025-04-25,4,2025,20,KOKV,0.0,0.0,0.0,0.0,9
2025-04-22,22,2025-04-22 21:55,21:55,EDT,NW  6,10.0,Fair,CLR,62.6,37.4,39.0,,,30.1,0.0,0.0,0.0,0.0,2025-04-25,4,2025,21,KOKV,0.0,0.0,0.0,0.0,6
2025-04-22,22,2025-04-22 22:55,22:55,EDT,Calm,10.0,Fair,CLR,60.8,37.4,42.0,,,30.12,0.0,0.0,0.0,0.0,2025-04-25,4,2025,22,KOKV,0.0,0.0,0.0,0.0,0
2025-04-22,22,2025-04-22 23:55,23:55,EDT,NW  7,10.0,Fair,CLR,57.2,37.4,48.0,,,30.12,0.0,0.0,0.0,0.0,2025-04-25,4,2025,23,KOKV,0.0,0.0,0.0,0.0,7
2025-04-23,23,2025-04-23 00:55,00:55,EDT,Calm,10.0,Fair,CLR,55.4,37.4,51.0,,,30.13,0.0,0.0,0.0,0.0,2025-04-26,4,2025,0,KOKV,0.0,0.0,0.0,0.0,0
2025-04-23,23,2025-04-23 01:55,01:55,EDT,NW  6,10.0,Fair,CLR,51.8,37.4,58.0,,,30.13,0.0,0.0,0.0,0.0,2025-04-26,4,2025,1,KOKV,0.0,0.0,0.0,0.0,6
2025-04-23,23,2025-04-23 02:55,02:55,EDT,NW  3,10.0,Fair,CLR,51.8,39.2,62.0,,,30.13,0.0,0.0,0.0,0.0,2025-04-26,4,2025,2,KOKV,0.0,0.0,0.0,0.0,3
2025-04-23,23,2025-04-23 03:55,03:55,EDT,NW  3,10.0,Fair,CLR,48.2,39.2,71.0,,,30.15,0.0,0.0,0.0,0.0,2025-04-26,4,2025,3,KOKV,0.0,0.0,0.0,0.0,3
2025-04-23,23,2025-04-23 04:55,04:55,EDT,Calm,10.0,Fair,CLR,46.4,37.4,71.0,,,30.16,0.0,0.0,0.0,0.0,2025-04-26,4,2025,4,KOKV,0.0,0.0,0.0,0.0,0
2025-04-23,23,2025-04-23 05:55,05:55,EDT,Calm,10.0,Fair,CLR,44.6,39.2,81.0,,,30.18,0.0,0.0,0.0,0.0,2025-04-26,4,2025,5,KOKV,0.0,0.0,0.0,0.0,0
2025-04-23,23,2025-04-23 06:55,06:55,EDT,Calm,10.0,Fair,CLR,42.8,39.2,87.0,,,30.21,0.0,0.0,0.0,0.0,2025-04-26,4,2025,6,KOKV,0.0,0.0,0.0,0.0,0
2025-04-23,23,2025-04-23 07:55,07:55,EDT,Calm,10.0,Fair,CLR,51.8,44.6,77.0,,,30.23,0.0,0.0,0.0,0.0,2025-04-26,4,2025,7,KOKV,0.0,0.0,0.0,0.0,0
2025-04-23,23,2025-04-23 08:55,08:55,EDT,NE  5,10.0,Fair,CLR,60.8,37.4,42.0,,,30.25,0.0,0.0,0.0,0.0,2025-04-26,4,2025,8,KOKV,0.0,0.0,0.0,0.0,5
2025-04-23,23,2025-04-23 09:55,09:55,EDT,Calm,10.0,Fair,CLR,62.6,33.8,34.0,,,30.25,0.0,0.0,0.0,0.0,2025-04-26,4,2025,9,KOKV,0.0,0.0,0.0,0.0,0
2025-04-23,23,2025-04-23 10:55,10:55,EDT,E  3,10.0,Fair,CLR,64.4,32.0,30.0,,,30.26,0.0,0.0,0.0,0.0,2025-04-26,4,2025,10,KOKV,0.0,0.0,0.0,0.0,3
2025-04-23,23,2025-04-23 11:55,11:55,EDT,NW  5,10.0,Fair,CLR,68.0,35.6,30.0,,,30.25,0.0,0.0,0.0,0.0,2025-04-26,4,2025,11,KOKV,0.0,0.0,0.0,0.0,5
2025-04-23,23,2025-04-23 12:55,12:55,EDT,Calm,10.0,Fair,CLR,69.8,35.6,29.0,,,30.24,0.0,0.0,0.0,0.0,2025-04-26,4,2025,12,KOKV,0.0,0.0,0.0,0.0,0
2025-04-23,23,2025-04-23 13:55,13:55,EDT,Calm,10.0,Fair,CLR,71.6,37.4,29.0,,,30.23,0.0,0.0,0.0,0.0,2025-04-26,4,2025,13,KOKV,0.0,0.0,0.0,0.0,0
2025-04-23,23,2025-04-23 14:55,14:55,EDT,Calm,10.0,Fair,CLR,71.6,37.4,29.0,,,30.21,0.0,0.0,0.0,0.0,2025-04-26,4,2025,14,KOKV,0.0,0.0,0.0,0.0,0
2025-04-23,23,2025-04-23 15:55,15:55,EDT,SW  3,10.0,Fair,CLR,73.4,42.8,33.0,,,30.2,0.0,0.0,0.0,0.0,2025-04-26,4,2025,15,KOKV,0.0,0.0,0.0,0.0,3
2025-04-23,23,2025-04-23 16:55,16:55,EDT,Calm,10.0,Fair,CLR,73.4,41.0,31.0,,,30.18,0.0,0.0,0.0,0.0,2025-04-26,4,2025,16,KOKV,0.0,0.0,0.0,0.0,0
2025-04-23,23,2025-04-23 17:55,17:55,EDT,SE  3,10.0,Fair,CLR,73.4,41.0,31.0,,,30.19,0.0,0.0,0.0,0.0,2025-04-26,4,2025,17,KOKV,0.0,0.0,0.0,0.0,3
2025-04-23,23,2025-04-23 18:55,18:55,EDT,E  6,10.0,Fair,CLR,71.6,39.2,31.0,,,30.19,0.0,0.0,0.0,0.0,2025-04-26,4,2025,18,KOKV,0.0,0.0,0.0,0.0,6
2025-04-23,23,2025-04-23 19:55,19:55,EDT,E  3,10.0,Fair,CLR,68.0,39.2,35.0,,,30.2,0.0,0.0,0.0,0.0,2025-04-26,4,2025,19,KOKV,0.0,0.0,0.0,0.0,3
2025-04-23,23,2025-04-23 20:55,20:55,EDT,Calm,10.0,Fair,CLR,60.8,41.0,48.0,,,30.21,0.0,0.0,0.0,0.0,2025-04-26,4,2025,20,KOKV,0.0,0.0,0.0,0.0,0
2025-04-23,23,2025-04-23 21:55,21:55,EDT,Calm,10.0,Fair,CLR,57.2,42.8,59.0,,,30.22,0.0,0.0,0.0,0.0,2025-04-26,4,2025,21,KOKV,0.0,0.0,0.0,0.0,0
2025-04-23,23,2025-04-23 22:55,22:55,EDT,Calm,10.0,Fair,CLR,59.0,39.2,48.0,,,30.23,0.0,0.0,0.0,0.0,2025-04-26,4,2025,22,KOKV,0.0,0.0,0.0,0.0,0
2025-04-23,23,2025-04-23 23:55,23:55,EDT,S  3,10.0,Fair,CLR,59.0,39.2,48.0,,,30.23,0.0,0.0,0.0,0.0,2025-04-26,4,2025,23,KOKV,0.0,0.0,0.0,0.0,3
2025-04-24,24,2025-04-24 00:55,00:55,EDT,S  5,10.0,Fair,CLR,59.0,41.0,51.0,,,30.23,0.0,0.0,0.0,0.0,2025-04-27,4,2025,0,KOKV,0.0,0.0,0.0,0.0,5
2025-04-24,24,2025-04-24 01:35,01:35,EDT,Calm,10.0,Fair,CLR,53.6,41.0,63.0,,,30.22,0.0,0.0,0.0,0.0,2025-04-27,4,2025,1,KOKV,0.0,0.0,0.0,0.0,0
2025-04-24,24,2025-04-24 02:55,02:55,EDT,S  3,10.0,Fair,CLR,50.0,41.0,71.0,,,30.23,0.0,0.0,0.0,0.0,2025-04-27,4,2025,2,KOKV,0.0,0.0,0.0,0.0,3
2025-04-24,24,2025-04-24 03:55,03:55,EDT,Calm,10.0,Fair,CLR,50.0,41.0,71.0,,,30.23,0.0,0.0,0.0,0.0,2025-04-27,4,2025,3,KOKV,0.0,0.0,0.0,0.0,0
2025-04-24,24,2025-04-24 04:55,04:55,EDT,Calm,10.0,Fair,CLR,46.4,41.0,82.0,,,30.22,0.0,0.0,0.0,0.0,2025-04-27,4,2025,4,KOKV,0.0,0.0,0.0,0.0,0
2025-04-24,24,2025-04-24 05:55,05:55,EDT,Calm,10.0,Fair,CLR,48.2,41.0,76.0,,,30.23,0.0,0.0,0.0,0.0,2025-04-27,4,2025,5,KOKV,0.0,0.0,0.0,0.0,0
2025-04-24,24,2025-04-24 06:55,06:55,EDT,Calm,10.0,Fair,CLR,48.2,42.8,82.0,,,30.26,0.0,0.0,0.0,0.0,2025-04-27,4,2025,6,KOKV,0.0,0.0,0.0,0.0,0
2025-04-24,24,2025-04-24 07:55,07:55,EDT,Calm,10.0,Fair,CLR,53.6,42.8,67.0,,,30.28,0.0,0.0,0.0,0.0,2025-04-27,4,2025,7,KOKV,0.0,0.0,0.0,0.0,0
2025-04-24,24,2025-04-24 08:55,08:55,EDT,SW  6,10.0,Fair,CLR,59.0,44.6,59.0,,,30.28,0.0,0.0,0.0,0.0,2025-04-27,4,2025,8,KOKV,0.0,0.0,0.0,0.0,6
2025-04-24,24,2025-04-24 09:55,09:55,EDT,SW  3,10.0,Fair,CLR,64.4,46.4,52.0,,,30.28,0.0,0.0,0.0,0.0,2025-04-27,4,2025,9,KOKV,0.0,0.0,0.0,0.0,3
2025-04-24,24,2025-04-24 10:55,10:55,EDT,Calm,10.0,Fair,CLR,68.0,48.2,49.0,,,30.28,0.0,0.0,0.0,0.0,2025-04-27,4,2025,10,KOKV,0.0,0.0,0.0,0.0,0
2025-04-24,24,2025-04-24 11:55,11:55,EDT,SE  8,10.0,Fair,CLR,71.6,46.4,41.0,,,30.28,0.0,0.0,0.0,0.0,2025-04-27,4,2025,11,KOKV,0.0,0.0,0.0,0.0,8
2025-04-24,24,2025-04-24 12:55,12:55,EDT,SE  8,10.0,Fair,CLR,73.4,46.4,38.0,,,30.26,0.0,0.0,0.0,0.0,2025-04-27,4,2025,12,KOKV,0.0,0.0,0.0,0.0,8
2025-04-24,24,2025-04-24 13:55,13:55,EDT,S  6,10.0,Fair,CLR,77.0,48.2,36.0,,78.0,30.24,0.0,0.0,0.0,0.0,2025-04-27,4,2025,13,KOKV,0.0,0.0,0.0,0.0,6
2025-04-24,24,2025-04-24 14:55,14:55,EDT,S  10,10.0,Fair,CLR,75.2,46.4,36.0,,77.0,30.23,0.0,0.0,0.0,0.0,2025-04-27,4,2025,14,KOKV,0.0,0.0,0.0,0.0,10
2025-04-24,24,2025-04-24 15:55,15:55,EDT,SE  8,10.0,Fair,CLR,77.0,46.4,34.0,,78.0,30.2,0.0,0.0,0.0,0.0,2025-04-27,4,2025,15,KOKV,0.0,0.0,0.0,0.0,8
2025-04-24,24,2025-04-24 16:55,16:55,EDT,S  10  G 16,10.0,Fair,CLR,77.0,44.6,32.0,,78.0,30.2,0.0,0.0,0.0,0.0,2025-04-27,4,2025,16,KOKV,0.0,0.0,0.0,0.0,10
2025-04-24,24,2025-04-24 17:55,17:55,EDT,SE  12,10.0,Fair,CLR,77.0,42.8,30.0,,78.0,30.2,0.0,0.0,0.0,0.0,2025-04-27,4,2025,17,KOKV,0.0,0.0,0.0,0.0,12
2025-04-24,24,2025-04-24 18:55,18:55,EDT,SE  9,10.0,Fair,CLR,73.4,42.8,33.0,,,30.2,0.0,0.0,0.0,0.0,2025-04-27,4,2025,18,KOKV,0.0,0.0,0.0,0.0,9
2025-04-24,24,2025-04-24 19:55,19:55,EDT,S  6,10.0,Fair,CLR,69.8,41.0,35.0,,,30.21,0.0,0.0,0.0,0.0,2025-04-27,4,2025,19,KOKV,0.0,0.0,0.0,0.0,6
2025-04-24,24,2025-04-24 20:55,20:55,EDT,S  5,10.0,Fair,CLR,64.4,39.2,40.0,,,30.23,0.0,0.0,0.0,0.0,2025-04-27,4,2025,20,KOKV,0.0,0.0,0.0,0.0,5
2025-04-24,24,2025-04-24 21:55,21:55,EDT,SE  6,10.0,Fair,CLR,60.8,39.2,45.0,,,30.24,0.0,0.0,0.0,0.0,2025-04-27,4,2025,21,KOKV,0.0,0.0,0.0,0.0,6
2025-04-24,24,2025-04-24 22:55,22:55,EDT,S  5,10.0,Fair,CLR,60.8,41.0,48.0,,,30.23,0.0,0.0,0.0,0.0,2025-04-27,4,2025,22,KOKV,0.0,0.0,0.0,0.0,5
2025-04-24,24,2025-04-24 23:55,23:55,EDT,S  5,10.0,Fair,CLR,60.8,42.8,52.0,,,30.23,0.0,0.0,0.0,0.0,2025-04-27,4,2025,23,KOKV,0.0,0.0,0.0,0.0,5
2025-04-25,25,2025-04-25 00:55,00:55,EDT,S  6,10.0,Fair,CLR,59.0,41.0,51.0,,,30.21,0.0,0.0,0.0,0.0,2025-04-28,4,2025,0,KOKV,0.0,0.0,0.0,0.0,6
2025-04-25,25,2025-04-25 01:55,01:55,EDT,S  3,10.0,Fair,CLR,57.2,41.0,55.0,,,30.2,0.0,0.0,0.0,0.0,2025-04-28,4,2025,1,KOKV,0.0,0.0,0.0,0.0,3
2025-04-25,25,2025-04-25 02:55,02:55,EDT,Calm,10.0,Fair,CLR,50.0,41.0,71.0,,,30.2,0.0,0.0,0.0,0.0,2025-04-28,4,2025,2,KOKV,0.0,0.0,0.0,0.0,0
2025-04-25,25,2025-04-25 03:55,03:55,EDT,Calm,10.0,Fair,CLR,50.0,41.0,71.0,,,30.2,0.0,0.0,0.0,0.0,2025-04-28,4,2025,3,KOKV,0.0,0.0,0.0,0.0,0
2025-04-25,25,2025-04-25 04:55,04:55,EDT,Calm,10.0,Fair,CLR,46.4,41.0,82.0,,,30.19,0.0,0.0,0.0,0.0,2025-04-28,4,2025,4,KOKV,0.0,0.0,0.0,0.0,0
2025-04-25,25,2025-04-25 05:55,05:55,EDT,Calm,10.0,Fair,CLR,44.6,41.0,87.0,,,30.19,0.0,0.0,0.0,0.0,2025-04-28,4,2025,5,KOKV,0.0,0.0,0.0,0.0,0
2025-04-25,25,2025-04-25 06:55,06:55,EDT,Calm,10.0,Fair,CLR,44.6,41.0,87.0,,,30.2,0.0,0.0,0.0,0.0,2025-04-28,4,2025,6,KOKV,0.0,0.0,0.0,0.0,0
2025-04-25,25,2025-04-25 07:55,07:55,EDT,Calm,10.0,Fair,CLR,53.6,44.6,72.0,,,30.19,0.0,0.0,0.0,0.0,2025-04-28,4,2025,7,KOKV,0.0,0.0,0.0,0.0,0
2025-04-25,25,2025-04-25 08:55,08:55,EDT,SW  3,10.0,Fair,CLR,60.8,46.4,59.0,,,30.19,0.0,0.0,0.0,0.0,2025-04-28,4,2025,8,KOKV,0.0,0.0,0.0,0.0,3
2025-04-25,25,2025-04-25 09:35,09:35,EDT,S  5,10.0,Fair,CLR,62.6,50.0,64.0,,,30.18,0.0,0.0,0.0,0.0,2025-04-28,4,2025,9,KOKV,0.0,0.0,0.0,0.0,5
2025-04-25,25,2025-04-25 10:55,10:55,EDT,SW  6,10.0,Mostly Cloudy,BKN065 BKN120,64.4,50.0,60.0,,,30.17,0.0,0.0,0.0,0.0,2025-04-28,4,2025,10,KOKV,0.0,0.0,0.0,0.0,6
2025-04-25,25,2025-04-25 11:55,11:55,EDT,SW  5,10.0,Overcast,OVC110,66.2,50.0,56.0,,,30.16,0.0,0.0,0.0,0.0,2025-04-28,4,2025,11,KOKV,0.0,0.0,0.0,0.0,5
2025-04-25,25,2025-04-25 12:55,12:55,EDT,S  6,10.0,Overcast,OVC110,69.8,51.8,53.0,,,30.14,0.0,0.0,0.0,0.0,2025-04-28,4,2025,12,KOKV,0.0,0.0,0.0,0.0,6
2025-04-25,25,2025-04-25 13:55,13:55,EDT,S  3,10.0,Overcast,SCT034 SCT047 OVC110,68.0,53.6,60.0,,,30.12,0.0,0.0,0.0,0.0,2025-04-28,4,2025,13,KOKV,0.0,0.0,0.0,0.0,3
2025-04-25,25,2025-04-25 14:55,14:55,EDT,SE  13  G 16,10.0,Partly Cloudy,SCT110,71.6,59.0,65.0,,,30.09,0.0,0.0,0.0,0.0,2025-04-28,4,2025,14,KOKV,0.0,0.0,0.0,0.0,13
2025-04-25,25,2025-04-25 15:55,15:55,EDT,S  15  G 21,10.0,Partly Cloudy,SCT045 SCT110,73.4,59.0,61.0,,,30.05,0.0,0.0,0.0,0.0,2025-04-28,4,2025,15,KOKV,0.0,0.0,0.0,0.0,15
2025-04-25,25,2025-04-25 16:55,16:55,EDT,S  9,10.0,Partly Cloudy,SCT048 SCT120,73.4,59.0,61.0,,,30.03,0.0,0.0,0.0,0.0,2025-04-28,4,2025,16,KOKV,0.0,0.0,0.0,0.0,9
2025-04-25,25,2025-04-25 17:55,17:55,EDT,S  9,10.0,Fair,CLR,69.8,59.0,69.0,,,30.02,0.0,0.0,0.0,0.0,2025-04-28,4,2025,17,KOKV,0.0,0.0,0.0,0.0,9
2025-04-25,25,2025-04-25 18:55,18:55,EDT,S  9,10.0,Overcast,SCT049 SCT080 OVC085,69.8,59.0,69.0,,,30.02,0.0,0.0,0.0,0.0,2025-04-28,4,2025,18,KOKV,0.0,0.0,0.0,0.0,9
2025-04-25,25,2025-04-25 19:55,19:55,EDT,S  3,3.0,Rain,SCT030 BKN050 OVC070,64.4,62.6,94.0,,,30.03,0.0,0.0,0.0,0.0,2025-04-28,4,2025,19,KOKV,0.0,0.0,0.0,0.0,3
2025-04-25,25,2025-04-25 20:55,20:55,EDT,S  5,10.0,Light Rain,BKN041 BKN049 OVC100,64.4,62.6,94.0,,,30.02,0.0,0.0,0.0,0.0,2025-04-28,4,2025,20,KOKV,0.0,0.0,0.0,0.0,5
2025-04-25,25,2025-04-25 21:55,21:55,EDT,S  3,7.0,Thunderstorm Light Rain,SCT034 SCT050 OVC110,62.6,62.6,100.0,,,30.02,0.0,0.0,0.0,0.0,2025-04-28,4,2025,21,KOKV,0.0,0.0,0.0,0.0,3
2025-04-25,25,2025-04-25 22:55,22:55,EDT,S  3,7.0,Drizzle,SCT090 OVC120,62.6,62.6,100.0,,,29.99,0.0,0.0,0.0,0.0,2025-04-28,4,2025,22,KOKV,0.0,0.0,0.0,0.0,3
2025-04-25,25,2025-04-25 23:55,23:55,EDT,SW  3,10.0,Rain,BKN120,62.6,60.8,94.0,,,29.97,0.0,0.0,0.0,0.0,2025-04-28,4,2025,23,KOKV,0.0,0.0,0.0,0.0,3
2025-04-26,26,2025-04-26 00:55,00:55,EDT,SW  3,10.0,Mostly Cloudy,BKN110,62.6,60.8,94.0,,,29.95,0.0,0.0,0.0,0.0,2025-04-29,4,2025,0,KOKV,0.0,0.0,0.0,0.0,3
2025-04-26,26,2025-04-26 01:55,01:55,EDT,S  3,10.0,Overcast,OVC100,60.8,60.8,100.0,,,29.93,0.0,0.0,0.0,0.0,2025-04-29,4,2025,1,KOKV,0.0,0.0,0.0,0.0,3
2025-04-26,26,2025-04-26 02:55,02:55,EDT,S  3,7.0,Overcast,SCT090 OVC110,60.8,60.8,100.0,,,29.9,0.0,0.0,0.0,0.0,2025-04-29,4,2025,2,KOKV,0.0,0.0,0.0,0.0,3
2025-04-26,26,2025-04-26 03:55,03:55,EDT,SW  5,10.0,Overcast,SCT090 OVC110,60.8,60.8,100.0,,,29.87,0.0,0.0,0.0,0.0,2025-04-29,4,2025,3,KOKV,0.0,0.0,0.0,0.0,5
2025-04-26,26,2025-04-26 04:55,04:55,EDT,S  3,10.0,Overcast,OVC120,60.8,60.8,100.0,,,29.86,0.0,0.0,0.0,0.0,2025-04-29,4,2025,4,KOKV,0.0,0.0,0.0,0.0,3
2025-04-26,26,2025-04-26 05:55,05:55,EDT,S  3,7.0,Light Rain,OVC110,60.8,60.8,100.0,,,29.86,0.0,0.0,0.0,0.0,2025-04-29,4,2025,5,KOKV,0.0,0.0,0.0,0.0,3
2025-04-26,26,2025-04-26 06:55,06:55,EDT,SW  7,5.0,Drizzle,OVC090,62.6,60.8,94.0,,,29.87,0.0,0.0,0.0,0.0,2025-04-29,4,2025,6,KOKV,0.0,0.0,0.0,0.0,7
2025-04-26,26,2025-04-26 07:55,07:55,EDT,S  3,7.0,Light Rain,OVC110,62.6,60.8,94.0,,,29.87,0.0,0.0,0.0,0.0,2025-04-29,4,2025,7,KOKV,0.0,0.0,0.0,0.0,3
2025-04-26,26,2025-04-26 08:55,08:55,EDT,SW  3,10.0,Overcast,SCT050 SCT070 OVC110,62.6,60.8,94.0,,,29.86,0.0,0.0,0.0,0.0,2025-04-29,4,2025,8,KOKV,0.0,0.0,0.0,0.0,3
2025-04-26,26,2025-04-26 09:55,09:55,EDT,SW  7,10.0,Light Rain,SCT031 BKN070 OVC090,62.6,62.6,100.0,,,29.86,0.0,0.0,0.0,0.0,2025-04-29,4,2025,9,KOKV,0.0,0.0,0.0,0.0,7
2025-04-26,26,2025-04-26 10:55,10:55,EDT,SW  6,10.0,Overcast,BKN042 BKN070 OVC100,64.4,62.6,94.0,,,29.87,0.0,0.0,0.0,0.0,2025-04-29,4,2025,10,KOKV,0.0,0.0,0.0,0.0,6
2025-04-26,26,2025-04-26 11:55,11:55,EDT,SW  3,10.0,Overcast,SCT035 SCT044 OVC060,68.0,62.6,83.0,,,29.87,0.0,0.0,0.0,0.0,2025-04-29,4,2025,11,KOKV,0.0,0.0,0.0,0.0,3
2025-04-26,26,2025-04-26 12:55,12:55,EDT,W  12  G 22,10.0,Overcast,SCT042 BKN055 OVC070,71.6,55.4,57.0,,,29.86,0.0,0.0,0.0,0.0,2025-04-29,4,2025,12,KOKV,0.0,0.0,0.0,0.0,12
2025-04-26,26,2025-04-26 13:55,13:55,EDT,W  13  G 24,10.0,Partly Cloudy,SCT085,77.0,55.4,47.0,,79.0,29.84,0.0,0.0,0.0,0.0,2025-04-29,4,2025,13,KOKV,0.0,0.0,0.0,0.0,13
2025-04-26,26,2025-04-26 14:55,14:55,EDT,NW  14  G 22,10.0,Overcast,SCT050 SCT065 OVC095,71.6,55.4,57.0,,,29.85,0.0,0.0,0.0,0.0,2025-04-29,4,2025,14,KOKV,0.0,0.0,0.0,0.0,14
2025-04-26,26,2025-04-26 15:55,15:55,EDT,NW  24  G 35,10.0,Partly Cloudy and Breezy,SCT060 SCT095,69.8,53.6,57.0,,,29.87,0.0,0.0,0.0,0.0,2025-04-29,4,2025,15,KOKV,0.0,0.0,0.0,0.0,24
2025-04-26,26,2025-04-26 16:55,16:55,EDT,NW  17,10.0,Mostly Cloudy,BKN040 BKN060 BKN075,64.4,51.8,64.0,,,29.91,0.0,0.0,0.0,0.0,2025-04-29,4,2025,16,KOKV,0.0,0.0,0.0,0.0,17
2025-04-26,26,2025-04-26 17:55,17:55,EDT,NW  22  G 28,10.0,Partly Cloudy and Breezy,SCT042,62.6,46.4,56.0,,,29.97,0.0,0.0,0.0,0.0,2025-04-29,4,2025,17,KOKV,0.0,0.0,0.0,0.0,22
2025-04-26,26,2025-04-26 18:55,18:55,EDT,NW  23  G 29,10.0,Mostly Cloudy and Breezy,BKN037,57.2,44.6,63.0,,,30.0,0.0,0.0,0.0,0.0,2025-04-29,4,2025,18,KOKV,0.0,0.0,0.0,0.0,23
2025-04-26,26,2025-04-26 19:55,19:55,EDT,NW  20  G 28,10.0,Overcast,OVC035,53.6,41.0,63.0,,,30.05,0.0,0.0,0.0,0.0,2025-04-29,4,2025,19,KOKV,0.0,0.0,0.0,0.0,20
2025-04-26,26,2025-04-26 20:55,20:55,EDT,NW  21  G 24,10.0,Mostly Cloudy and Breezy,BKN043,51.8,37.4,58.0,,,30.07,0.0,0.0,0.0,0.0,2025-04-29,4,2025,20,KOKV,0.0,0.0,0.0,0.0,21
2025-04-26,26,2025-04-26 21:55,21:55,EDT,NW  20  G 29,10.0,Fair,CLR,51.8,35.6,54.0,,,30.1,0.0,0.0,0.0,0.0,2025-04-29,4,2025,21,KOKV,0.0,0.0,0.0,0.0,20
2025-04-26,26,2025-04-26 22:55,22:55,EDT,NW  15  G 26,10.0,Partly Cloudy,SCT050,51.8,33.8,50.0,,,30.12,0.0,0.0,0.0,0.0,2025-04-29,4,2025,22,KOKV,0.0,0.0,0.0,0.0,15
2025-04-26,26,2025-04-26 23:55,23:55,EDT,NW  15  G 20,10.0,Overcast,OVC048,50.0,33.8,54.0,45.0,,30.13,0.0,0.0,0.0,0.0,2025-04-29,4,2025,23,KOKV,0.0,0.0,0.0,0.0,15
2025-04-27,27,2025-04-27 00:55,00:55,EDT,NW  12,10.0,Overcast,OVC046,48.2,32.0,54.0,44.0,,30.14,0.0,0.0,0.0,0.0,2025-04-30,4,2025,0,KOKV,0.0,0.0,0.0,0.0,12
2025-04-27,27,2025-04-27 01:55,01:55,EDT,NW  12  G 22,10.0,Overcast,BKN044 OVC049,46.4,32.0,57.0,42.0,,30.14,0.0,0.0,0.0,0.0,2025-04-30,4,2025,1,KOKV,0.0,0.0,0.0,0.0,12
2025-04-27,27,2025-04-27 02:55,02:55,EDT,NW  7,10.0,Overcast,OVC043,46.4,32.0,57.0,43.0,,30.15,0.0,0.0,0.0,0.0,2025-04-30,4,2025,2,KOKV,0.0,0.0,0.0,0.0,7
2025-04-27,27,2025-04-27 03:55,03:55,EDT,NW  12  G 17,10.0,Overcast,OVC041,46.4,32.0,57.0,42.0,,30.15,0.0,0.0,0.0,0.0,2025-04-30,4,2025,3,KOKV,0.0,0.0,0.0,0.0,12
2025-04-27,27,2025-04-27 04:55,04:55,EDT,NW  13,10.0,Mostly Cloudy,BKN046,44.6,32.0,61.0,39.0,,30.15,0.0,0.0,0.0,0.0,2025-04-30,4,2025,4,KOKV,0.0,0.0,0.0,0.0,13
2025-04-27,27,2025-04-27 05:55,05:55,EDT,W  9,10.0,Fair,CLR,42.8,32.0,66.0,38.0,,30.16,0.0,0.0,0.0,0.0,2025-04-30,4,2025,5,KOKV,0.0,0.0,0.0,0.0,9
2025-04-27,27,2025-04-27 06:55,06:55,EDT,W  13  G 16,10.0,Fair,CLR,44.6,32.0,61.0,39.0,,30.18,0.0,0.0,0.0,0.0,2025-04-30,4,2025,6,KOKV,0.0,0.0,0.0,0.0,13
2025-04-27,27,2025-04-27 07:55,07:55,EDT,NW  16  G 21,10.0,Fair,CLR,46.4,32.0,57.0,40.0,,30.19,0.0,0.0,0.0,0.0,2025-04-30,4,2025,7,KOKV,0.0,0.0,0.0,0.0,16
2025-04-27,27,2025-04-27 08:55,08:55,EDT,NW  17  G 26,10.0,Fair,CLR,50.0,32.0,50.0,45.0,,30.2,0.0,0.0,0.0,0.0,2025-04-30,4,2025,8,KOKV,0.0,0.0,0.0,0.0,17
2025-04-27,27,2025-04-27 09:55,09:55,EDT,NW  22  G 31,10.0,Fair and Breezy,CLR,51.8,32.0,47.0,,,30.2,0.0,0.0,0.0,0.0,2025-04-30,4,2025,9,KOKV,0.0,0.0,0.0,0.0,22
2025-04-27,27,2025-04-27 10:55,10:55,EDT,NW  13  G 22,10.0,Fair,CLR,55.4,32.0,41.0,,,30.2,0.0,0.0,0.0,0.0,2025-04-30,4,2025,10,KOKV,0.0,0.0,0.0,0.0,13
2025-04-27,27,2025-04-27 11:55,11:55,EDT,NW  21  G 29,10.0,Fair and Breezy,CLR,59.0,30.2,34.0,,,30.19,0.0,0.0,0.0,0.0,2025-04-30,4,2025,11,KOKV,0.0,0.0,0.0,0.0,21
2025-04-27,27,2025-04-27 12:55,12:55,EDT,NW  12  G 23,10.0,Fair,CLR,60.8,28.4,29.0,,,30.19,0.0,0.0,0.0,0.0,2025-04-30,4,2025,12,KOKV,0.0,0.0,0.0,0.0,12
2025-04-27,27,2025-04-27 13:55,13:55,EDT,NW  20  G 24,10.0,Fair,CLR,62.6,30.2,30.0,,,30.17,0.0,0.0,0.0,0.0,2025-04-30,4,2025,13,KOKV,0.0,0.0,0.0,0.0,20
2025-04-27,27,2025-04-27 14:55,14:55,EDT,NW  16  G 26,10.0,Fair,CLR,64.4,30.2,28.0,,,30.16,0.0,0.0,0.0,0.0,2025-04-30,4,2025,14,KOKV,0.0,0.0,0.0,0.0,16
2025-04-27,27,2025-04-27 15:55,15:55,EDT,NW  18  G 26,10.0,Fair,CLR,66.2,30.2,26.0,,,30.15,0.0,0.0,0.0,0.0,2025-04-30,4,2025,15,KOKV,0.0,0.0,0.0,0.0,18
2025-04-27,27,2025-04-27 16:55,16:55,EDT,NW  15  G 29,10.0,Fair,CLR,64.4,28.4,26.0,,,30.15,0.0,0.0,0.0,0.0,2025-04-30,4,2025,16,KOKV,0.0,0.0,0.0,0.0,15
2025-04-27,27,2025-04-27 17:55,17:55,EDT,NW  15  G 24,10.0,Fair,CLR,64.4,30.2,28.0,,,30.16,0.0,0.0,0.0,0.0,2025-04-30,4,2025,17,KOKV,0.0,0.0,0.0,0.0,15
2025-04-27,27,2025-04-27 18:55,18:55,EDT,NW  15,10.0,Fair,CLR,62.6,30.2,30.0,,,30.16,0.0,0.0,0.0,0.0,2025-04-30,4,2025,18,KOKV,0.0,0.0,0.0,0.0,15
2025-04-27,27,2025-04-27 19:55,19:55,EDT,NW  9,10.0,Fair,CLR,60.8,28.4,29.0,,,30.17,0.0,0.0,0.0,0.0,2025-04-30,4,2025,19,KOKV,0.0,0.0,0.0,0.0,9
2025-04-27,27,2025-04-27 20:55,20:55,EDT,NW  3,10.0,Fair,CLR,55.4,30.2,38.0,,,30.21,0.0,0.0,0.0,0.0,2025-04-30,4,2025,20,KOKV,0.0,0.0,0.0,0.0,3
2025-04-27,27,2025-04-27 21:55,21:55,EDT,W  5,10.0,Fair,CLR,50.0,32.0,50.0,49.0,,30.23,0.0,0.0,0.0,0.0,2025-04-30,4,2025,21,KOKV,0.0,0.0,0.0,0.0,5
2025-04-27,27,2025-04-27 22:55,22:55,EDT,NW  6,10.0,Fair,CLR,50.0,32.0,50.0,48.0,,30.24,0.0,0.0,0.0,0.0,2025-04-30,4,2025,22,KOKV,0.0,0.0,0.0,0.0,6
2025-04-27,27,2025-04-27 23:55,23:55,EDT,Calm,10.0,Fair,CLR,50.0,30.2,47.0,,,30.25,0.0,0.0,0.0,0.0,2025-04-30,4,2025,23,KOKV,0.0,0.0,0.0,0.0,0
2025-04-28,28,2025-04-28 00:55,00:55,EDT,NW  5,10.0,Fair,CLR,48.2,30.2,50.0,47.0,,30.27,0.0,0.0,0.0,0.0,2025-05-01,4,2025,0,KOKV,0.0,0.0,0.0,0.0,5
2025-04-28,28,2025-04-28 01:55,01:55,EDT,Calm,10.0,Fair,CLR,41.0,32.0,70.0,,,30.29,0.0,0.0,0.0,0.0,2025-05-01,4,2025,1,KOKV,0.0,0.0,0.0,0.0,0
2025-04-28,28,2025-04-28 02:55,02:55,EDT,Calm,10.0,Fair,CLR,41.0,32.0,70.0,,,30.29,0.0,0.0,0.0,0.0,2025-05-01,4,2025,2,KOKV,0.0,0.0,0.0,0.0,0
2025-04-28,28,2025-04-28 03:55,03:55,EDT,Calm,10.0,Fair,CLR,41.0,32.0,70.0,,,30.29,0.0,0.0,0.0,0.0,2025-05-01,4,2025,3,KOKV,0.0,0.0,0.0,0.0,0
2025-04-28,28,2025-04-28 04:55,04:55,EDT,Calm,10.0,Fair,CLR,37.4,32.0,81.0,,,30.3,0.0,0.0,0.0,0.0,2025-05-01,4,2025,4,KOKV,0.0,0.0,0.0,0.0,0
2025-04-28,28,2025-04-28 05:55,05:55,EDT,Calm,10.0,Fair,CLR,35.6,32.0,87.0,,,30.32,0.0,0.0,0.0,0.0,2025-05-01,4,2025,5,KOKV,0.0,0.0,0.0,0.0,0
2025-04-28,28,2025-04-28 06:55,06:55,EDT,Calm,10.0,Fair,CLR,33.8,32.0,93.0,,,30.35,0.0,0.0,0.0,0.0,2025-05-01,4,2025,6,KOKV,0.0,0.0,0.0,0.0,0
2025-04-28,28,2025-04-28 07:55,07:55,EDT,Calm,10.0,Fair,CLR,44.6,33.8,66.0,,,30.36,0.0,0.0,0.0,0.0,2025-05-01,4,2025,7,KOKV,0.0,0.0,0.0,0.0,0
2025-04-28,28,2025-04-28 08:55,08:55,EDT,Calm,10.0,Fair,CLR,51.8,33.8,50.0,,,30.37,0.0,0.0,0.0,0.0,2025-05-01,4,2025,8,KOKV,0.0,0.0,0.0,0.0,0
2025-04-28,28,2025-04-28 09:55,09:55,EDT,Calm,10.0,Fair,CLR,59.0,32.0,36.0,,,30.37,0.0,0.0,0.0,0.0,2025-05-01,4,2025,9,KOKV,0.0,0.0,0.0,0.0,0
2025-04-28,28,2025-04-28 10:55,10:55,EDT,Calm,10.0,Fair,CLR,60.8,32.0,34.0,,,30.36,0.0,0.0,0.0,0.0,2025-05-01,4,2025,10,KOKV,0.0,0.0,0.0,0.0,0
2025-04-28,28,2025-04-28 11:55,11:55,EDT,S  3,10.0,Fair,CLR,64.4,32.0,30.0,,,30.35,0.0,0.0,0.0,0.0,2025-05-01,4,2025,11,KOKV,0.0,0.0,0.0,0.0,3
2025-04-28,28,2025-04-28 12:55,12:55,EDT,S  3,10.0,Fair,CLR,66.2,32.0,28.0,,,30.32,0.0,0.0,0.0,0.0,2025-05-01,4,2025,12,KOKV,0.0,0.0,0.0,0.0,3
2025-04-28,28,2025-04-28 13:55,13:55,EDT,SE  12,10.0,Fair,CLR,69.8,32.0,25.0,,,30.3,0.0,0.0,0.0,0.0,2025-05-01,4,2025,13,KOKV,0.0,0.0,0.0,0.0,12
2025-04-28,28,2025-04-28 14:55,14:55,EDT,SE  6,10.0,Fair,CLR,69.8,32.0,25.0,,,30.29,0.0,0.0,0.0,0.0,2025-05-01,4,2025,14,KOKV,0.0,0.0,0.0,0.0,6
2025-04-28,28,2025-04-28 15:55,15:55,EDT,S  9,10.0,Fair,CLR,71.6,35.6,27.0,,,30.27,0.0,0.0,0.0,0.0,2025-05-01,4,2025,15,KOKV,0.0,0.0,0.0,0.0,9
2025-04-28,28,2025-04-28 16:55,16:55,EDT,E  6  G 9,10.0,Fair,CLR,71.6,33.8,25.0,,,30.24,0.0,0.0,0.0,0.0,2025-05-01,4,2025,16,KOKV,0.0,0.0,0.0,0.0,6
2025-04-28,28,2025-04-28 17:55,17:55,EDT,S  10,10.0,Fair,CLR,71.6,35.6,27.0,,,30.25,0.0,0.0,0.0,0.0,2025-05-01,4,2025,17,KOKV,0.0,0.0,0.0,0.0,10
2025-04-28,28,2025-04-28 18:55,18:55,EDT,SE  7,10.0,Fair,CLR,69.8,35.6,29.0,,,30.23,0.0,0.0,0.0,0.0,2025-05-01,4,2025,18,KOKV,0.0,0.0,0.0,0.0,7
2025-04-28,28,2025-04-28 19:55,19:55,EDT,SE  6,10.0,Fair,CLR,64.4,35.6,34.0,,,30.23,0.0,0.0,0.0,0.0,2025-05-01,4,2025,19,KOKV,0.0,0.0,0.0,0.0,6
2025-04-28,28,2025-04-28 20:55,20:55,EDT,SE  6,10.0,Fair,CLR,59.0,35.6,42.0,,,30.24,0.0,0.0,0.0,0.0,2025-05-01,4,2025,20,KOKV,0.0,0.0,0.0,0.0,6
2025-04-28,28,2025-04-28 21:55,21:55,EDT,S  6,10.0,Fair,CLR,60.8,35.6,39.0,,,30.24,0.0,0.0,0.0,0.0,2025-05-01,4,2025,21,KOKV,0.0,0.0,0.0,0.0,6
2025-04-28,28,2025-04-28 22:55,22:55,EDT,S  3,10.0,Fair,CLR,59.0,35.6,42.0,,,30.22,0.0,0.0,0.0,0.0,2025-05-01,4,2025,22,KOKV,0.0,0.0,0.0,0.0,3
2025-04-28,28,2025-04-28 23:55,23:55,EDT,Calm,10.0,Fair,CLR,53.6,37.4,54.0,,,30.22,0.0,0.0,0.0,0.0,2025-05-01,4,2025,23,KOKV,0.0,0.0,0.0,0.0,0
2025-04-29,29,2025-04-29 00:55,00:55,EDT,Calm,10.0,Fair,CLR,51.8,37.4,58.0,,,30.21,0.0,0.0,0.0,0.0,2025-05-02,4,2025,0,KOKV,0.0,0.0,0.0,0.0,0
2025-04-29,29,2025-04-29 01:55,01:55,EDT,Calm,10.0,Fair,CLR,53.6,37.4,54.0,,,30.2,0.0,0.0,0.0,0.0,2025-05-02,4,2025,1,KOKV,0.0,0.0,0.0,0.0,0
2025-04-29,29,2025-04-29 02:55,02:55,EDT,Calm,10.0,Fair,CLR,53.6,37.4,54.0,,,30.18,0.0,0.0,0.0,0.0,2025-05-02,4,2025,2,KOKV,0.0,0.0,0.0,0.0,0
2025-04-29,29,2025-04-29 03:55,03:55,EDT,S  3,10.0,Fair,CLR,53.6,37.4,54.0,,,30.18,0.0,0.0,0.0,0.0,2025-05-02,4,2025,3,KOKV,0.0,0.0,0.0,0.0,3
2025-04-29,29,2025-04-29 04:55,04:55,EDT,S  3,10.0,Fair,CLR,51.8,39.2,62.0,,,30.18,0.0,0.0,0.0,0.0,2025-05-02,4,2025,4,KOKV,0.0,0.0,0.0,0.0,3
2025-04-29,29,2025-04-29 05:55,05:55,EDT,S  3,10.0,Partly Cloudy,SCT090,50.0,39.2,67.0,,,30.18,0.0,0.0,0.0,0.0,2025-05-02,4,2025,5,KOKV,0.0,0.0,0.0,0.0,3
2025-04-29,29,2025-04-29 06:55,06:55,EDT,S  3,10.0,Fair,CLR,50.0,41.0,71.0,,,30.18,0.0,0.0,0.0,0.0,2025-05-02,4,2025,6,KOKV,0.0,0.0,0.0,0.0,3
2025-04-29,29,2025-04-29 07:55,07:55,EDT,S  5,10.0,Fair,CLR,57.2,42.8,59.0,,,30.18,0.0,0.0,0.0,0.0,2025-05-02,4,2025,7,KOKV,0.0,0.0,0.0,0.0,5
2025-04-29,29,2025-04-29 08:55,08:55,EDT,SW  8  G 16,10.0,Fair,CLR,64.4,42.8,46.0,,,30.17,0.0,0.0,0.0,0.0,2025-05-02,4,2025,8,KOKV,0.0,0.0,0.0,0.0,8
2025-04-29,29,2025-04-29 09:55,09:55,EDT,SW  9,10.0,Fair,CLR,68.0,44.6,43.0,,,30.16,0.0,0.0,0.0,0.0,2025-05-02,4,2025,9,KOKV,0.0,0.0,0.0,0.0,9
2025-04-29,29,2025-04-29 10:55,10:55,EDT,S  9,10.0,Fair,CLR,71.6,48.2,44.0,,,30.14,0.0,0.0,0.0,0.0,2025-05-02,4,2025,10,KOKV,0.0,0.0,0.0,0.0,9
2025-04-29,29,2025-04-29 11:55,11:55,EDT,S  8,10.0,Fair,CLR,77.0,50.0,39.0,,78.0,30.12,0.0,0.0,0.0,0.0,2025-05-02,4,2025,11,KOKV,0.0,0.0,0.0,0.0,8
2025-04-29,29,2025-04-29 12:55,12:55,EDT,S  12  G 18,10.0,Fair,CLR,80.6,51.8,37.0,,80.0,30.08,0.0,0.0,0.0,0.0,2025-05-02,4,2025,12,KOKV,0.0,0.0,0.0,0.0,12
2025-04-29,29,2025-04-29 13:55,13:55,EDT,S  12  G 17,10.0,Fair,CLR,82.4,53.6,37.0,,81.0,30.05,0.0,0.0,0.0,0.0,2025-05-02,4,2025,13,KOKV,0.0,0.0,0.0,0.0,12
2025-04-29,29,2025-04-29 14:55,14:55,EDT,SE  15,10.0,Fair,CLR,82.4,53.6,37.0,,81.0,30.02,0.0,0.0,0.0,0.0,2025-05-02,4,2025,14,KOKV,0.0,0.0,0.0,0.0,15
2025-04-29,29,2025-04-29 15:55,15:55,EDT,SE  14  G 21,10.0,Fair,CLR,82.4,53.6,37.0,,81.0,29.99,0.0,0.0,0.0,0.0,2025-05-02,4,2025,15,KOKV,0.0,0.0,0.0,0.0,14
2025-04-29,29,2025-04-29 16:55,16:55,EDT,S  15  G 24,10.0,Fair,CLR,82.4,53.6,37.0,,81.0,29.97,0.0,0.0,0.0,0.0,2025-05-02,4,2025,16,KOKV,0.0,0.0,0.0,0.0,15
2025-04-29,29,2025-04-29 17:55,17:55,EDT,SE  15  G 21,10.0,Partly Cloudy,SCT085,80.6,53.6,39.0,,80.0,29.95,0.0,0.0,0.0,0.0,2025-05-02,4,2025,17,KOKV,0.0,0.0,0.0,0.0,15
2025-04-29,29,2025-04-29 18:55,18:55,EDT,S  12,10.0,Fair,CLR,78.8,55.4,45.0,,79.0,29.94,0.0,0.0,0.0,0.0,2025-05-02,4,2025,18,KOKV,0.0,0.0,0.0,0.0,12
2025-04-29,29,2025-04-29 19:55,19:55,EDT,S  7,10.0,Fair,CLR,77.0,55.4,47.0,,79.0,29.95,0.0,0.0,0.0,0.0,2025-05-02,4,2025,19,KOKV,0.0,0.0,0.0,0.0,7
2025-04-29,29,2025-04-29 20:55,20:55,EDT,Calm,10.0,Overcast,OVC090,73.4,55.4,53.0,,,29.97,0.0,0.0,0.0,0.0,2025-05-02,4,2025,20,KOKV,0.0,0.0,0.0,0.0,0
2025-04-29,29,2025-04-29 21:55,21:55,EDT,Calm,10.0,Fair,CLR,69.8,55.4,60.0,,,29.97,0.0,0.0,0.0,0.0,2025-05-02,4,2025,21,KOKV,0.0,0.0,0.0,0.0,0
2025-04-29,29,2025-04-29 22:55,22:55,EDT,S  3,10.0,Partly Cloudy,SCT090,64.4,55.4,73.0,,,29.96,0.0,0.0,0.0,0.0,2025-05-02,4,2025,22,KOKV,0.0,0.0,0.0,0.0,3
2025-04-29,29,2025-04-29 23:55,23:55,EDT,SW  8,10.0,Mostly Cloudy,BKN090,73.4,57.2,57.0,,,29.95,0.0,0.0,0.0,0.0,2025-05-02,4,2025,23,KOKV,0.0,0.0,0.0,0.0,8
2025-04-30,30,2025-04-30 00:55,00:55,EDT,SW  10,10.0,Partly Cloudy,SCT065 SCT075 SCT110,71.6,57.2,61.0,,,29.95,0.0,0.0,0.0,0.0,2025-05-03,4,2025,0,KOKV,0.0,0.0,0.0,0.0,10
2025-04-30,30,2025-04-30 01:55,01:55,EDT,W  9,10.0,Thunderstorm Light Rain in Vicinity,SCT060 BKN095 OVC110,64.4,60.8,88.0,,,30.02,0.0,0.0,0.0,0.0,2025-05-03,4,2025,1,KOKV,0.0,0.0,0.0,0.0,9
2025-04-30,30,2025-04-30 02:55,02:55,EDT,W  6,10.0,Light Rain,OVC110,62.6,60.8,94.0,,,30.0,0.0,0.0,0.0,0.0,2025-05-03,4,2025,2,KOKV,0.0,0.0,0.0,0.0,6
2025-04-30,30,2025-04-30 03:55,03:55,EDT,W  3,10.0,Fair,CLR,62.6,60.8,94.0,,,29.98,0.0,0.0,0.0,0.0,2025-05-03,4,2025,3,KOKV,0.0,0.0,0.0,0.0,3
2025-04-30,30,2025-04-30 04:55,04:55,EDT,W  5,10.0,Fair,CLR,64.4,59.0,83.0,,,29.98,0.0,0.0,0.0,0.0,2025-05-03,4,2025,4,KOKV,0.0,0.0,0.0,0.0,5
2025-04-30,30,2025-04-30 05:55,05:55,EDT,S  5,5.0,Fog/Mist,CLR,59.0,57.2,94.0,,,29.99,0.0,0.0,0.0,0.0,2025-05-03,4,2025,5,KOKV,0.0,0.0,0.0,0.0,5
2025-04-30,30,2025-04-30 06:55,06:55,EDT,SW  3,10.0,Partly Cloudy,SCT036,60.8,59.0,94.0,,,30.02,0.0,0.0,0.0,0.0,2025-05-03,4,2025,6,KOKV,0.0,0.0,0.0,0.0,3
2025-04-30,30,2025-04-30 07:55,07:55,EDT,W  7,10.0,Fair,CLR,68.0,59.0,73.0,,,30.02,0.0,0.0,0.0,0.0,2025-05-03,4,2025,7,KOKV,0.0,0.0,0.0,0.0,7
2025-04-30,30,2025-04-30 08:55,08:55,EDT,NW  15  G 21,10.0,Partly Cloudy,SCT036 SCT090,68.0,59.0,73.0,,,30.05,0.0,0.0,0.0,0.0,2025-05-03,4,2025,8,KOKV,0.0,0.0,0.0,0.0,15
2025-04-30,30,2025-04-30 09:55,09:55,EDT,NW  10,10.0,Fair,CLR,68.0,59.0,73.0,,,30.06,0.0,0.0,0.0,0.0,2025-05-03,4,2025,9,KOKV,0.0,0.0,0.0,0.0,10
2025-04-30,30,2025-04-30 10:55,10:55,EDT,NW  13  G 16,10.0,Partly Cloudy,SCT042 SCT050,68.0,59.0,73.0,,,30.06,0.0,0.0,0.0,0.0,2025-05-03,4,2025,10,KOKV,0.0,0.0,0.0,0.0,13
2025-04-30,30,2025-04-30 11:55,11:55,EDT,W  13  G 16,10.0,Mostly Cloudy,BKN038 BKN044,71.6,57.2,61.0,,,30.06,0.0,0.0,0.0,0.0,2025-05-03,4,2025,11,KOKV,0.0,0.0,0.0,0.0,13
2025-04-30,30,2025-04-30 12:55,12:55,EDT,NW  12  G 20,10.0,Mostly Cloudy,SCT045 BKN055,73.4,55.4,53.0,,,30.05,0.0,0.0,0.0,0.0,2025-05-03,4,2025,12,KOKV,0.0,0.0,0.0,0.0,12
2025-04-30,30,2025-04-30 13:55,13:55,EDT,NW  14  G 17,10.0,Partly Cloudy,SCT050 SCT065,77.0,55.4,47.0,,79.0,30.04,0.0,0.0,0.0,0.0,2025-05-03,4,2025,13,KOKV,0.0,0.0,0.0,0.0,14
2025-04-30,30,2025-04-30 14:55,14:55,EDT,W  16  G 23,10.0,Fair,CLR,78.8,53.6,42.0,,79.0,30.03,0.0,0.0,0.0,0.0,2025-05-03,4,2025,14,KOKV,0.0,0.0,0.0,0.0,16
2025-04-30,30,2025-04-30 15:55,15:55,EDT,NW  15  G 21,10.0,Fair,CLR,78.8,53.6,42.0,,79.0,30.01,0.0,0.0,0.0,0.0,2025-05-03,4,2025,15,KOKV,0.0,0.0,0.0,0.0,15
2025-04-30,30,2025-04-30 16:55,16:55,EDT,NW  12  G 18,10.0,Fair,CLR,78.8,51.8,39.0,,79.0,30.0,0.0,0.0,0.0,0.0,2025-05-03,4,2025,16,KOKV,0.0,0.0,0.0,0.0,12
2025-04-30,30,2025-04-30 17:55,17:55,EDT,NW  10,10.0,Fair,CLR,78.8,51.8,39.0,,79.0,30.01,0.0,0.0,0.0,0.0,2025-05-03,4,2025,17,KOKV,0.0,0.0,0.0,0.0,10
2025-04-30,30,2025-04-30 18:55,18:55,EDT,N  5,10.0,Fair,CLR,77.0,51.8,42.0,,78.0,30.02,0.0,0.0,0.0,0.0,2025-05-03,4,2025,18,KOKV,0.0,0.0,0.0,0.0,5
2025-04-30,30,2025-04-30 19:55,19:55,EDT,NW  5,10.0,Fair,CLR,73.4,50.0,44.0,,,30.03,0.0,0.0,0.0,0.0,2025-05-03,4,2025,19,KOKV,0.0,0.0,0.0,0.0,5
2025-04-30,30,2025-04-30 20:55,20:55,EDT,N  3,10.0,Fair,CLR,68.0,50.0,53.0,,,30.05,0.0,0.0,0.0,0.0,2025-05-03,4,2025,20,KOKV,0.0,0.0,0.0,0.0,3
2025-04-30,30,2025-04-30 21:55,21:55,EDT,Calm,10.0,Fair,CLR,62.6,50.0,64.0,,,30.06,0.0,0.0,0.0,0.0,2025-05-03,4,2025,21,KOKV,0.0,0.0,0.0,0.0,0
2025-04-30,30,2025-04-30 22:55,22:55,EDT,Calm,10.0,Fair,CLR,60.8,50.0,68.0,,,30.07,0.0,0.0,0.0,0.0,2025-05-03,4,2025,22,KOKV,0.0,0.0,0.0,0.0,0
2025-04-30,30,2025-04-30 23:55,23:55,EDT,N  3,10.0,Fair,CLR,62.6,48.2,60.0,,,30.07,0.0,0.0,0.0,0.0,2025-05-03,4,2025,23,KOKV,0.0,0.0,0.0,0.0,3
2025-05-01,1,2025-05-01 00:55,00:55,EDT,N  3,10.0,Fair,CLR,60.8,46.4,59.0,,,30.08,0.0,0.0,0.0,0.0,2025-05-04,5,2025,0,KOKV,0.0,0.0,0.0,0.0,3
2025-05-01,1,2025-05-01 01:35,01:35,EDT,Calm,10.0,Fair,CLR,59.0,46.4,63.0,,,30.08,0.0,0.0,0.0,0.0,2025-05-04,5,2025,1,KOKV,0.0,0.0,0.0,0.0,0
2025-05-01,1,2025-05-01 02:55,02:55,EDT,Calm,10.0,Fair,CLR,55.4,46.4,72.0,,,30.06,0.0,0.0,0.0,0.0,2025-05-04,5,2025,2,KOKV,0.0,0.0,0.0,0.0,0
2025-05-01,1,2025-05-01 03:55,03:55,EDT,Calm,10.0,Fair,CLR,53.6,46.4,77.0,,,30.05,0.0,0.0,0.0,0.0,2025-05-04,5,2025,3,KOKV,0.0,0.0,0.0,0.0,0
2025-05-01,1,2025-05-01 04:55,04:55,EDT,NW  3,10.0,Fair,CLR,53.6,46.4,77.0,,,30.05,0.0,0.0,0.0,0.0,2025-05-04,5,2025,4,KOKV,0.0,0.0,0.0,0.0,3
2025-05-01,1,2025-05-01 05:55,05:55,EDT,Calm,10.0,Fair,CLR,53.6,46.4,77.0,,,30.05,0.0,0.0,0.0,0.0,2025-05-04,5,2025,5,KOKV,0.0,0.0,0.0,0.0,0
2025-05-01,1,2025-05-01 06:55,06:55,EDT,N  3,10.0,Fair,CLR,55.4,44.6,67.0,,,30.07,0.0,0.0,0.0,0.0,2025-05-04,5,2025,6,KOKV,0.0,0.0,0.0,0.0,3
2025-05-01,1,2025-05-01 07:55,07:55,EDT,N  5,10.0,Fair,CLR,60.8,44.6,55.0,,,30.07,0.0,0.0,0.0,0.0,2025-05-04,5,2025,7,KOKV,0.0,0.0,0.0,0.0,5
2025-05-01,1,2025-05-01 08:55,08:55,EDT,Calm,10.0,Fair,CLR,62.6,46.4,56.0,,,30.07,0.0,0.0,0.0,0.0,2025-05-04,5,2025,8,KOKV,0.0,0.0,0.0,0.0,0
2025-05-01,1,2025-05-01 09:55,09:55,EDT,E  3,10.0,Fair,CLR,68.0,50.0,53.0,,,30.07,0.0,0.0,0.0,0.0,2025-05-04,5,2025,9,KOKV,0.0,0.0,0.0,0.0,3
2025-05-01,1,2025-05-01 10:55,10:55,EDT,E  3,10.0,Fair,CLR,71.6,53.6,53.0,,,30.05,0.0,0.0,0.0,0.0,2025-05-04,5,2025,10,KOKV,0.0,0.0,0.0,0.0,3
2025-05-01,1,2025-05-01 11:55,11:55,EDT,SE  9,10.0,Fair,CLR,73.4,55.4,53.0,,,30.04,0.0,0.0,0.0,0.0,2025-05-04,5,2025,11,KOKV,0.0,0.0,0.0,0.0,9
2025-05-01,1,2025-05-01 12:55,12:55,EDT,S  8,10.0,Fair,CLR,75.2,59.0,57.0,,78.0,30.01,0.0,0.0,0.0,0.0,2025-05-04,5,2025,12,KOKV,0.0,0.0,0.0,0.0,8
2025-05-01,1,2025-05-01 13:55,13:55,EDT,SE  12  G 16,10.0,Fair,CLR,77.0,60.8,57.0,,79.0,29.97,0.0,0.0,0.0,0.0,2025-05-04,5,2025,13,KOKV,0.0,0.0,0.0,0.0,12
2025-05-01,1,2025-05-01 14:55,14:55,EDT,SE  12  G 20,10.0,Fair,CLR,80.6,62.6,54.0,,82.0,29.93,0.0,0.0,0.0,0.0,2025-05-04,5,2025,14,KOKV,0.0,0.0,0.0,0.0,12
2025-05-01,1,2025-05-01 15:55,15:55,EDT,S  10  G 20,10.0,Fair,CLR,78.8,62.6,58.0,,80.0,29.91,0.0,0.0,0.0,0.0,2025-05-04,5,2025,15,KOKV,0.0,0.0,0.0,0.0,10
2025-05-01,1,2025-05-01 16:55,16:55,EDT,SE  12  G 21,10.0,Fair,CLR,80.6,62.6,54.0,,82.0,29.87,0.0,0.0,0.0,0.0,2025-05-04,5,2025,16,KOKV,0.0,0.0,0.0,0.0,12
2025-05-01,1,2025-05-01 17:55,17:55,EDT,SE  14  G 20,10.0,Fair,CLR,78.8,62.6,58.0,,80.0,29.86,0.0,0.0,0.0,0.0,2025-05-04,5,2025,17,KOKV,0.0,0.0,0.0,0.0,14
2025-05-01,1,2025-05-01 18:55,18:55,EDT,SE  9,10.0,Fair,CLR,78.8,62.6,58.0,,80.0,29.84,0.0,0.0,0.0,0.0,2025-05-04,5,2025,18,KOKV,0.0,0.0,0.0,0.0,9
2025-05-01,1,2025-05-01 19:55,19:55,EDT,S  9  G 21,10.0,Fair,CLR,77.0,57.2,51.0,,79.0,29.84,0.0,0.0,0.0,0.0,2025-05-04,5,2025,19,KOKV,0.0,0.0,0.0,0.0,9
2025-05-01,1,2025-05-01 20:55,20:55,EDT,S  10,10.0,Fair,CLR,75.2,55.4,50.0,,78.0,29.84,0.0,0.0,0.0,0.0,2025-05-04,5,2025,20,KOKV,0.0,0.0,0.0,0.0,10
2025-05-01,1,2025-05-01 21:55,21:55,EDT,S  8,10.0,Fair,CLR,73.4,57.2,57.0,,,29.85,0.0,0.0,0.0,0.0,2025-05-04,5,2025,21,KOKV,0.0,0.0,0.0,0.0,8
2025-05-01,1,2025-05-01 22:55,22:55,EDT,SW  9,10.0,Rain,BKN110,73.4,57.2,57.0,,,29.87,0.0,0.0,0.0,0.0,2025-05-04,5,2025,22,KOKV,0.0,0.0,0.0,0.0,9
2025-05-01,1,2025-05-01 23:55,23:55,EDT,S  8,10.0,Mostly Cloudy,SCT070 BKN090 BKN120,71.6,59.0,65.0,,,29.86,0.0,0.0,0.0,0.0,2025-05-04,5,2025,23,KOKV,0.0,0.0,0.0,0.0,8
2025-05-02,2,2025-05-02 00:55,00:55,EDT,W  12,10.0,Mostly Cloudy,BKN050,69.8,59.0,69.0,,,29.89,0.0,0.0,0.0,0.0,2025-05-05,5,2025,0,KOKV,0.0,0.0,0.0,0.0,12
2025-05-02,2,2025-05-02 01:55,01:55,EDT,W  8,10.0,Mostly Cloudy,SCT048 SCT080 BKN100,69.8,55.4,60.0,,,29.9,0.0,0.0,0.0,0.0,2025-05-05,5,2025,1,KOKV,0.0,0.0,0.0,0.0,8
2025-05-02,2,2025-05-02 02:55,02:55,EDT,S  3,10.0,Overcast,BKN060 BKN070 OVC110,68.0,55.4,64.0,,,29.88,0.0,0.0,0.0,0.0,2025-05-05,5,2025,2,KOKV,0.0,0.0,0.0,0.0,3
2025-05-02,2,2025-05-02 03:55,03:55,EDT,Calm,10.0,Mostly Cloudy,BKN110,62.6,55.4,77.0,,,29.87,0.0,0.0,0.0,0.0,2025-05-05,5,2025,3,KOKV,0.0,0.0,0.0,0.0,0
2025-05-02,2,2025-05-02 04:55,04:55,EDT,Calm,10.0,Fair,CLR,62.6,55.4,77.0,,,29.89,0.0,0.0,0.0,0.0,2025-05-05,5,2025,4,KOKV,0.0,0.0,0.0,0.0,0
2025-05-02,2,2025-05-02 05:55,05:55,EDT,SW  5,10.0,Fair,CLR,62.6,55.4,77.0,,,29.89,0.0,0.0,0.0,0.0,2025-05-05,5,2025,5,KOKV,0.0,0.0,0.0,0.0,5
2025-05-02,2,2025-05-02 06:55,06:55,EDT,SW  7,10.0,Overcast,OVC100,64.4,55.4,73.0,,,29.9,0.0,0.0,0.0,0.0,2025-05-05,5,2025,6,KOKV,0.0,0.0,0.0,0.0,7
2025-05-02,2,2025-05-02 07:55,07:55,EDT,SW  7,10.0,Partly Cloudy,SCT080,66.2,57.2,73.0,,,29.92,0.0,0.0,0.0,0.0,2025-05-05,5,2025,7,KOKV,0.0,0.0,0.0,0.0,7
2025-05-02,2,2025-05-02 08:55,08:55,EDT,SW  5,10.0,Mostly Cloudy,BKN110,68.0,59.0,73.0,,,29.92,0.0,0.0,0.0,0.0,2025-05-05,5,2025,8,KOKV,0.0,0.0,0.0,0.0,5
2025-05-02,2,2025-05-02 09:55,09:55,EDT,SW  9,10.0,Overcast,OVC110,73.4,57.2,57.0,,,29.92,0.0,0.0,0.0,0.0,2025-05-05,5,2025,9,KOKV,0.0,0.0,0.0,0.0,9
2025-05-02,2,2025-05-02 10:55,10:55,EDT,SW  8,10.0,Partly Cloudy,SCT048 SCT120,75.2,59.0,57.0,,78.0,29.93,0.0,0.0,0.0,0.0,2025-05-05,5,2025,10,KOKV,0.0,0.0,0.0,0.0,8
2025-05-02,2,2025-05-02 11:15,11:15,EDT,W  12,10.0,Overcast,BKN048 OVC060,73.4,55.4,53.0,,,29.92,0.0,0.0,0.0,0.0,2025-05-05,5,2025,11,KOKV,0.0,0.0,0.0,0.0,12
2025-05-02,2,2025-05-02 12:55,12:55,EDT,SW  8,10.0,Partly Cloudy,SCT055,80.6,59.0,48.0,,81.0,29.9,0.0,0.0,0.0,0.0,2025-05-05,5,2025,12,KOKV,0.0,0.0,0.0,0.0,8
2025-05-02,2,2025-05-02 13:55,13:55,EDT,W  5,10.0,Mostly Cloudy,SCT065 BKN075 BKN095,78.8,53.6,42.0,,79.0,29.9,0.0,0.0,0.0,0.0,2025-05-05,5,2025,13,KOKV,0.0,0.0,0.0,0.0,5
2025-05-02,2,2025-05-02 14:55,14:55,EDT,S  9,10.0,Thunderstorm in Vicinity,SCT065 BKN085 BKN120,80.6,53.6,39.0,,80.0,29.87,0.0,0.0,0.0,0.0,2025-05-05,5,2025,14,KOKV,0.0,0.0,0.0,0.0,9
2025-05-02,2,2025-05-02 15:55,15:55,EDT,S  9,10.0,Partly Cloudy,SCT110,82.4,53.6,37.0,,81.0,29.85,0.0,0.0,0.0,0.0,2025-05-05,5,2025,15,KOKV,0.0,0.0,0.0,0.0,9
2025-05-02,2,2025-05-02 16:35,16:35,EDT,SE  8,10.0,Mostly Cloudy,SCT075 BKN085 BKN110,80.6,57.2,45.0,,81.0,29.85,0.0,0.0,0.0,0.0,2025-05-05,5,2025,16,KOKV,0.0,0.0,0.0,0.0,8
2025-05-02,2,2025-05-02 17:55,17:55,EDT,SE  7,10.0,Partly Cloudy,SCT085,78.8,55.4,45.0,,79.0,29.84,0.0,0.0,0.0,0.0,2025-05-05,5,2025,17,KOKV,0.0,0.0,0.0,0.0,7
2025-05-02,2,2025-05-02 18:55,18:55,EDT,SE  5,10.0,Mostly Cloudy,BKN095,77.0,59.0,54.0,,79.0,29.83,0.0,0.0,0.0,0.0,2025-05-05,5,2025,18,KOKV,0.0,0.0,0.0,0.0,5
2025-05-02,2,2025-05-02 19:55,19:55,EDT,NE  3,4.0,Thunderstorm Heavy Rain in Vicinity,SCT023 BKN095 OVC120,71.6,60.8,69.0,,,29.84,0.0,0.0,0.0,0.0,2025-05-05,5,2025,19,KOKV,0.0,0.0,0.0,0.0,3
2025-05-02,2,2025-05-02 20:55,20:55,EDT,Calm,10.0,Overcast,BKN090 OVC110,60.8,60.8,100.0,,,29.86,0.0,0.0,0.0,0.0,2025-05-05,5,2025,20,KOKV,0.0,0.0,0.0,0.0,0
2025-05-02,2,2025-05-02 21:55,21:55,EDT,NW  5,10.0,Light Rain,OVC080,62.6,60.8,94.0,,,29.88,0.0,0.0,0.0,0.0,2025-05-05,5,2025,21,KOKV,0.0,0.0,0.0,0.0,5
2025-05-02,2,2025-05-02 22:55,22:55,EDT,NW  3,7.0,Partly Cloudy,SCT090,60.8,60.8,100.0,,,29.87,0.0,0.0,0.0,0.0,2025-05-05,5,2025,22,KOKV,0.0,0.0,0.0,0.0,3
2025-05-02,2,2025-05-02 23:55,23:55,EDT,Calm,7.0,Partly Cloudy,SCT110,60.8,59.0,94.0,,,29.87,0.0,0.0,0.0,0.0,2025-05-05,5,2025,23,KOKV,0.0,0.0,0.0,0.0,0
2025-05-03,3,2025-05-03 00:55,00:55,EDT,Calm,7.0,Partly Cloudy,SCT110,60.8,59.0,94.0,,,29.88,0.0,0.0,0.0,0.0,2025-05-06,5,2025,0,KOKV,0.0,0.0,0.0,0.0,0
2025-05-03,3,2025-05-03 01:55,01:55,EDT,Calm,10.0,Fair,CLR,59.0,55.4,88.0,,,29.87,0.0,0.0,0.0,0.0,2025-05-06,5,2025,1,KOKV,0.0,0.0,0.0,0.0,0
2025-05-03,3,2025-05-03 02:55,02:55,EDT,W  3,7.0,Mostly Cloudy,BKN100,57.2,55.4,94.0,,,29.85,0.0,0.0,0.0,0.0,2025-05-06,5,2025,2,KOKV,0.0,0.0,0.0,0.0,3
2025-05-03,3,2025-05-03 03:55,03:55,EDT,Calm,10.0,Fair,CLR,57.2,55.4,94.0,,,29.84,0.0,0.0,0.0,0.0,2025-05-06,5,2025,3,KOKV,0.0,0.0,0.0,0.0,0
2025-05-03,3,2025-05-03 04:55,04:55,EDT,Calm,10.0,Overcast,OVC110,59.0,55.4,88.0,,,29.85,0.0,0.0,0.0,0.0,2025-05-06,5,2025,4,KOKV,0.0,0.0,0.0,0.0,0
2025-05-03,3,2025-05-03 05:55,05:55,EDT,Calm,10.0,Partly Cloudy,SCT100,55.4,55.4,100.0,,,29.86,0.0,0.0,0.0,0.0,2025-05-06,5,2025,5,KOKV,0.0,0.0,0.0,0.0,0
2025-05-03,3,2025-05-03 06:55,06:55,EDT,Calm,10.0,Fair,CLR,55.4,55.4,100.0,,,29.87,0.0,0.0,0.0,0.0,2025-05-06,5,2025,6,KOKV,0.0,0.0,0.0,0.0,0
2025-05-03,3,2025-05-03 07:55,07:55,EDT,Calm,10.0,Partly Cloudy,SCT070 SCT120,60.8,55.4,83.0,,,29.9,0.0,0.0,0.0,0.0,2025-05-06,5,2025,7,KOKV,0.0,0.0,0.0,0.0,0
2025-05-03,3,2025-05-03 08:55,08:55,EDT,Calm,10.0,Partly Cloudy,SCT075 SCT095,62.6,57.2,83.0,,,29.89,0.0,0.0,0.0,0.0,2025-05-06,5,2025,8,KOKV,0.0,0.0,0.0,0.0,0
2025-05-03,3,2025-05-03 09:55,09:55,EDT,S  3,10.0,Fair,CLR,66.2,59.0,78.0,,,29.9,0.0,0.0,0.0,0.0,2025-05-06,5,2025,9,KOKV,0.0,0.0,0.0,0.0,3
2025-05-03,3,2025-05-03 10:55,10:55,EDT,SE  6,10.0,Partly Cloudy,SCT110,68.0,55.4,64.0,,,29.9,0.0,0.0,0.0,0.0,2025-05-06,5,2025,10,KOKV,0.0,0.0,0.0,0.0,6
2025-05-03,3,2025-05-03 11:55,11:55,EDT,S  3,10.0,Mostly Cloudy,SCT035 SCT050 BKN065,69.8,57.2,64.0,,,29.9,0.0,0.0,0.0,0.0,2025-05-06,5,2025,11,KOKV,0.0,0.0,0.0,0.0,3
2025-05-03,3,2025-05-03 12:55,12:55,EDT,Calm,10.0,Mostly Cloudy,SCT032 SCT044 BKN110,69.8,59.0,69.0,,,29.89,0.0,0.0,0.0,0.0,2025-05-06,5,2025,12,KOKV,0.0,0.0,0.0,0.0,0
2025-05-03,3,2025-05-03 13:55,13:55,EDT,SE  3,10.0,Fair,CLR,73.4,59.0,61.0,,,29.87,0.0,0.0,0.0,0.0,2025-05-06,5,2025,13,KOKV,0.0,0.0,0.0,0.0,3
2025-05-03,3,2025-05-03 14:55,14:55,EDT,Calm,10.0,Partly Cloudy,SCT044 SCT065,77.0,59.0,54.0,,79.0,29.84,0.0,0.0,0.0,0.0,2025-05-06,5,2025,14,KOKV,0.0,0.0,0.0,0.0,0
2025-05-03,3,2025-05-03 15:55,15:55,EDT,SE  3,10.0,Partly Cloudy,SCT055 SCT110,78.8,59.0,51.0,,80.0,29.81,0.0,0.0,0.0,0.0,2025-05-06,5,2025,15,KOKV,0.0,0.0,0.0,0.0,3
2025-05-03,3,2025-05-03 16:55,16:55,EDT,NW  7,10.0,Thunderstorm in Vicinity,SCT048 OVC055,66.2,59.0,78.0,,,29.81,0.0,0.0,0.0,0.0,2025-05-06,5,2025,16,KOKV,0.0,0.0,0.0,0.0,7
2025-05-03,3,2025-05-03 17:55,17:55,EDT,Calm,10.0,Partly Cloudy,SCT095 SCT120,64.4,62.6,94.0,,,29.83,0.0,0.0,0.0,0.0,2025-05-06,5,2025,17,KOKV,0.0,0.0,0.0,0.0,0
2025-05-03,3,2025-05-03 18:55,18:55,EDT,Calm,10.0,Mostly Cloudy,SCT070 BKN100,64.4,60.8,88.0,,,29.82,0.0,0.0,0.0,0.0,2025-05-06,5,2025,18,KOKV,0.0,0.0,0.0,0.0,0
2025-05-03,3,2025-05-03 19:55,19:55,EDT,SW  6,5.0,Rain,SCT017 BKN047 OVC060,62.6,60.8,94.0,,,29.86,0.0,0.0,0.0,0.0,2025-05-06,5,2025,19,KOKV,0.0,0.0,0.0,0.0,6
2025-05-03,3,2025-05-03 20:55,20:55,EDT,Calm,10.0,Light Rain,OVC090,62.6,60.8,94.0,,,29.87,0.0,0.0,0.0,0.0,2025-05-06,5,2025,20,KOKV,0.0,0.0,0.0,0.0,0
2025-05-03,3,2025-05-03 21:55,21:55,EDT,NE  3,7.0,Rain,SCT065 SCT080 OVC090,60.8,60.8,100.0,,,29.84,0.0,0.0,0.0,0.0,2025-05-06,5,2025,21,KOKV,0.0,0.0,0.0,0.0,3
2025-05-03,3,2025-05-03 22:55,22:55,EDT,Calm,10.0,Rain,SCT002 SCT022 OVC100,60.8,60.8,100.0,,,29.84,0.0,0.0,0.0,0.0,2025-05-06,5,2025,22,KOKV,0.0,0.0,0.0,0.0,0
2025-05-03,3,2025-05-03 23:55,23:55,EDT,Calm,7.0,Light Rain,SCT005 BKN045 OVC100,60.8,60.8,100.0,,,29.83,0.0,0.0,0.0,0.0,2025-05-06,5,2025,23,KOKV,0.0,0.0,0.0,0.0,0
2025-05-04,4,2025-05-04 00:55,00:55,EDT,SE  5,5.0,Rain,BKN005 BKN023 OVC049,60.8,60.8,100.0,,,29.85,0.0,0.0,0.0,0.0,2025-05-07,5,2025,0,KOKV,0.0,0.0,0.0,0.0,5
2025-05-04,4,2025-05-04 01:55,01:55,EDT,SE  3,10.0,Light Rain,SCT011 BKN037 OVC060,59.0,59.0,100.0,,,29.84,0.0,0.0,0.0,0.0,2025-05-07,5,2025,1,KOKV,0.0,0.0,0.0,0.0,3
2025-05-04,4,2025-05-04 02:55,02:55,EDT,E  5,10.0,Light Drizzle,SCT016 SCT048 OVC110,59.0,59.0,100.0,,,29.81,0.0,0.0,0.0,0.0,2025-05-07,5,2025,2,KOKV,0.0,0.0,0.0,0.0,5
2025-05-04,4,2025-05-04 03:55,03:55,EDT,E  5,10.0,Light Rain,SCT003 SCT031 OVC080,59.0,59.0,100.0,,,29.81,0.0,0.0,0.0,0.0,2025-05-07,5,2025,3,KOKV,0.0,0.0,0.0,0.0,5
2025-05-04,4,2025-05-04 04:55,04:55,EDT,E  3,10.0,Light Drizzle,SCT003 BKN075 OVC085,59.0,59.0,100.0,,,29.8,0.0,0.0,0.0,0.0,2025-05-07,5,2025,4,KOKV,0.0,0.0,0.0,0.0,3
2025-05-04,4,2025-05-04 05:55,05:55,EDT,E  5,10.0,Drizzle,OVC065,59.0,59.0,100.0,,,29.79,0.0,0.0,0.0,0.0,2025-05-07,5,2025,5,KOKV,0.0,0.0,0.0,0.0,5
2025-05-04,4,2025-05-04 06:55,06:55,EDT,E  6,10.0,Light Rain,SCT031 BKN100 OVC120,59.0,59.0,100.0,,,29.8,0.0,0.0,0.0,0.0,2025-05-07,5,2025,6,KOKV,0.0,0.0,0.0,0.0,6
2025-05-04,4,2025-05-04 07:55,07:55,EDT,E  5,10.0,Light Drizzle,OVC019,60.8,59.0,94.0,,,29.8,0.0,0.0,0.0,0.0,2025-05-07,5,2025,7,KOKV,0.0,0.0,0.0,0.0,5
2025-05-04,4,2025-05-04 08:55,08:55,EDT,SE  5,10.0,Overcast,BKN014 BKN018 OVC032,60.8,60.8,100.0,,,29.81,0.0,0.0,0.0,0.0,2025-05-07,5,2025,8,KOKV,0.0,0.0,0.0,0.0,5
2025-05-04,4,2025-05-04 09:55,09:55,EDT,E  5,5.0,Light Rain,OVC020,60.8,60.8,100.0,,,29.81,0.0,0.0,0.0,0.0,2025-05-07,5,2025,9,KOKV,0.0,0.0,0.0,0.0,5
2025-05-04,4,2025-05-04 10:55,10:55,EDT,E  5,10.0,Overcast,SCT008 SCT014 OVC020,62.6,60.8,94.0,,,29.8,0.0,0.0,0.0,0.0,2025-05-07,5,2025,10,KOKV,0.0,0.0,0.0,0.0,5
2025-05-04,4,2025-05-04 11:55,11:55,EDT,S  3,10.0,Overcast,SCT010 BKN016 OVC020,62.6,60.8,94.0,,,29.8,0.0,0.0,0.0,0.0,2025-05-07,5,2025,11,KOKV,0.0,0.0,0.0,0.0,3
2025-05-04,4,2025-05-04 12:55,12:55,EDT,S  10,10.0,Partly Cloudy,SCT016 SCT050,68.0,60.8,78.0,,,29.79,0.0,0.0,0.0,0.0,2025-05-07,5,2025,12,KOKV,0.0,0.0,0.0,0.0,10
2025-05-04,4,2025-05-04 13:55,13:55,EDT,S  10  G 16,10.0,Partly Cloudy,SCT023 SCT046,69.8,59.0,69.0,,,29.79,0.0,0.0,0.0,0.0,2025-05-07,5,2025,13,KOKV,0.0,0.0,0.0,0.0,10
2025-05-04,4,2025-05-04 14:55,14:55,EDT,S  13  G 17,10.0,Fair,CLR,71.6,59.0,65.0,,,29.78,0.0,0.0,0.0,0.0,2025-05-07,5,2025,14,KOKV,0.0,0.0,0.0,0.0,13
2025-05-04,4,2025-05-04 15:55,15:55,EDT,SE  16,10.0,Fair,CLR,73.4,57.2,57.0,,,29.78,0.0,0.0,0.0,0.0,2025-05-07,5,2025,15,KOKV,0.0,0.0,0.0,0.0,16
2025-05-04,4,2025-05-04 16:55,16:55,EDT,S  15  G 20,10.0,Partly Cloudy,SCT043,73.4,55.4,53.0,,,29.77,0.0,0.0,0.0,0.0,2025-05-07,5,2025,16,KOKV,0.0,0.0,0.0,0.0,15
2025-05-04,4,2025-05-04 17:55,17:55,EDT,S  8  G 16,10.0,Fair,CLR,71.6,55.4,57.0,,,29.78,0.0,0.0,0.0,0.0,2025-05-07,5,2025,17,KOKV,0.0,0.0,0.0,0.0,8
2025-05-04,4,2025-05-04 18:55,18:55,EDT,SE  8,10.0,Fair,CLR,69.8,55.4,60.0,,,29.79,0.0,0.0,0.0,0.0,2025-05-07,5,2025,18,KOKV,0.0,0.0,0.0,0.0,8
2025-05-04,4,2025-05-04 19:55,19:55,EDT,SE  6,10.0,Fair,CLR,68.0,57.2,69.0,,,29.81,0.0,0.0,0.0,0.0,2025-05-07,5,2025,19,KOKV,0.0,0.0,0.0,0.0,6
2025-05-04,4,2025-05-04 20:55,20:55,EDT,SE  6,10.0,Fair,CLR,62.6,55.4,77.0,,,29.83,0.0,0.0,0.0,0.0,2025-05-07,5,2025,20,KOKV,0.0,0.0,0.0,0.0,6
2025-05-04,4,2025-05-04 21:55,21:55,EDT,SE  3,10.0,Fair,CLR,60.8,55.4,83.0,,,29.85,0.0,0.0,0.0,0.0,2025-05-07,5,2025,21,KOKV,0.0,0.0,0.0,0.0,3
2025-05-04,4,2025-05-04 22:55,22:55,EDT,S  8,10.0,Fair,CLR,62.6,57.2,83.0,,,29.87,0.0,0.0,0.0,0.0,2025-05-07,5,2025,22,KOKV,0.0,0.0,0.0,0.0,8
2025-05-04,4,2025-05-04 23:55,23:55,EDT,SE  6,10.0,Fair,CLR,60.8,59.0,94.0,,,29.88,0.0,0.0,0.0,0.0,2025-05-07,5,2025,23,KOKV,0.0,0.0,0.0,0.0,6
2025-05-05,5,2025-05-05 00:55,00:55,EDT,Calm,10.0,Fair,CLR,59.0,57.2,94.0,,,29.91,0.0,0.0,0.0,0.0,2025-05-08,5,2025,0,KOKV,0.0,0.0,0.0,0.0,0
2025-05-05,5,2025-05-05 01:55,01:55,EDT,Calm,5.0,Fog/Mist,SCT070,55.4,55.4,100.0,,,29.9,0.0,0.0,0.0,0.0,2025-05-08,5,2025,1,KOKV,0.0,0.0,0.0,0.0,0
2025-05-05,5,2025-05-05 02:55,02:55,EDT,NE  3,10.0,Overcast,OVC060,57.2,57.2,100.0,,,29.91,0.0,0.0,0.0,0.0,2025-05-08,5,2025,2,KOKV,0.0,0.0,0.0,0.0,3
2025-05-05,5,2025-05-05 03:55,03:55,EDT,Calm,10.0,Overcast,OVC060,55.4,55.4,100.0,,,29.91,0.0,0.0,0.0,0.0,2025-05-08,5,2025,3,KOKV,0.0,0.0,0.0,0.0,0
2025-05-05,5,2025-05-05 04:55,04:55,EDT,Calm,5.0,Fog/Mist,BKN006 BKN045 OVC060,55.4,53.6,94.0,,,29.92,0.0,0.0,0.0,0.0,2025-05-08,5,2025,4,KOKV,0.0,0.0,0.0,0.0,0
2025-05-05,5,2025-05-05 05:55,05:55,EDT,Calm,0.75,Fog/Mist,OVC007,53.6,51.8,94.0,,,29.92,0.0,0.0,0.0,0.0,2025-05-08,5,2025,5,KOKV,0.0,0.0,0.0,0.0,0
2025-05-05,5,2025-05-05 06:55,06:55,EDT,Calm,0.25,Fog,OVC002,53.6,53.6,100.0,,,29.95,0.0,0.0,0.0,0.0,2025-05-08,5,2025,6,KOKV,0.0,0.0,0.0,0.0,0
2025-05-05,5,2025-05-05 07:55,07:55,EDT,Calm,10.0,Partly Cloudy,SCT002 SCT014,59.0,59.0,100.0,,,29.95,0.0,0.0,0.0,0.0,2025-05-08,5,2025,7,KOKV,0.0,0.0,0.0,0.0,0
2025-05-05,5,2025-05-05 08:55,08:55,EDT,E  3,10.0,Overcast,OVC007,60.8,60.8,100.0,,,29.98,0.0,0.0,0.0,0.0,2025-05-08,5,2025,8,KOKV,0.0,0.0,0.0,0.0,3
2025-05-05,5,2025-05-05 09:55,09:55,EDT,E  9,10.0,Overcast,SCT011 BKN035 OVC065,64.4,60.8,88.0,,,29.99,0.0,0.0,0.0,0.0,2025-05-08,5,2025,9,KOKV,0.0,0.0,0.0,0.0,9
2025-05-05,5,2025-05-05 10:55,10:55,EDT,E  5,10.0,Overcast,BKN018 OVC047,62.6,59.0,88.0,,,29.99,0.0,0.0,0.0,0.0,2025-05-08,5,2025,10,KOKV,0.0,0.0,0.0,0.0,5
2025-05-05,5,2025-05-05 11:55,11:55,EDT,E  7,10.0,Overcast,BKN014 OVC047,64.4,59.0,83.0,,,29.99,0.0,0.0,0.0,0.0,2025-05-08,5,2025,11,KOKV,0.0,0.0,0.0,0.0,7
2025-05-05,5,2025-05-05 12:55,12:55,EDT,Calm,10.0,Light Drizzle,BKN016 BKN024 OVC050,66.2,60.8,83.0,,,29.96,0.0,0.0,0.0,0.0,2025-05-08,5,2025,12,KOKV,0.0,0.0,0.0,0.0,0
2025-05-05,5,2025-05-05 13:55,13:55,EDT,E  3,7.0,Overcast,SCT012 BKN044 OVC050,62.6,60.8,94.0,,,29.95,0.0,0.0,0.0,0.0,2025-05-08,5,2025,13,KOKV,0.0,0.0,0.0,0.0,3
2025-05-05,5,2025-05-05 14:55,14:55,EDT,NE  3,10.0,Overcast,SCT009 BKN021 OVC060,66.2,60.8,83.0,,,29.93,0.0,0.0,0.0,0.0,2025-05-08,5,2025,14,KOKV,0.0,0.0,0.0,0.0,3
2025-05-05,5,2025-05-05 15:55,15:55,EDT,NW  6,1.5,Thunderstorm Heavy Rain,BKN018 OVC027,62.6,60.8,94.0,,,29.91,0.0,0.0,0.0,0.0,2025-05-08,5,2025,15,KOKV,0.0,0.0,0.0,0.0,6
2025-05-05,5,2025-05-05 16:55,16:55,EDT,E  6,10.0,Fair,CLR,66.2,62.6,88.0,,,29.9,0.0,0.0,0.0,0.0,2025-05-08,5,2025,16,KOKV,0.0,0.0,0.0,0.0,6
2025-05-05,5,2025-05-05 17:55,17:55,EDT,E  5,10.0,Fair,CLR,64.4,62.6,94.0,,,29.91,0.0,0.0,0.0,0.0,2025-05-08,5,2025,17,KOKV,0.0,0.0,0.0,0.0,5
2025-05-05,5,2025-05-05 18:55,18:55,EDT,Calm,10.0,Thunderstorm in Vicinity,SCT110,64.4,62.6,94.0,,,29.9,0.0,0.0,0.0,0.0,2025-05-08,5,2025,18,KOKV,0.0,0.0,0.0,0.0,0
2025-05-05,5,2025-05-05 19:55,19:55,EDT,Calm,10.0,Thunderstorm in Vicinity,SCT085,62.6,60.8,94.0,,,29.91,0.0,0.0,0.0,0.0,2025-05-08,5,2025,19,KOKV,0.0,0.0,0.0,0.0,0
2025-05-05,5,2025-05-05 20:55,20:55,EDT,E  7,10.0,Thunderstorm in Vicinity,OVC090,59.0,53.6,82.0,,,29.93,0.0,0.0,0.0,0.0,2025-05-08,5,2025,20,KOKV,0.0,0.0,0.0,0.0,7
2025-05-05,5,2025-05-05 21:55,21:55,EDT,Calm,10.0,Overcast,SCT070 OVC080,59.0,55.4,88.0,,,29.95,0.0,0.0,0.0,0.0,2025-05-08,5,2025,21,KOKV,0.0,0.0,0.0,0.0,0
2025-05-05,5,2025-05-05 22:55,22:55,EDT,E  3,10.0,Light Rain,SCT075 BKN095 OVC110,57.2,57.2,100.0,,,29.96,0.0,0.0,0.0,0.0,2025-05-08,5,2025,22,KOKV,0.0,0.0,0.0,0.0,3
2025-05-05,5,2025-05-05 23:55,23:55,EDT,NW  5,10.0,Mostly Cloudy,SCT039 BKN120,55.4,55.4,100.0,,,29.97,0.0,0.0,0.0,0.0,2025-05-08,5,2025,23,KOKV,0.0,0.0,0.0,0.0,5
2025-05-06,6,2025-05-06 00:55,00:55,EDT,NW  7,10.0,Mostly Cloudy,SCT043 BKN048,55.4,55.4,100.0,,,29.99,0.0,0.0,0.0,0.0,2025-05-09,5,2025,0,KOKV,0.0,0.0,0.0,0.0,7
2025-05-06,6,2025-05-06 01:55,01:55,EDT,Calm,0.5,Fog,BKN002,55.4,53.6,94.0,,,29.97,0.0,0.0,0.0,0.0,2025-05-09,5,2025,1,KOKV,0.0,0.0,0.0,0.0,0
2025-05-06,6,2025-05-06 02:55,02:55,EDT,Calm,0.75,Fog/Mist,OVC002,53.6,53.6,100.0,,,29.97,0.0,0.0,0.0,0.0,2025-05-09,5,2025,2,KOKV,0.0,0.0,0.0,0.0,0
2025-05-06,6,2025-05-06 03:55,03:55,EDT,Calm,0.5,Fog,BKN002,51.8,51.8,100.0,,,29.97,0.0,0.0,0.0,0.0,2025-05-09,5,2025,3,KOKV,0.0,0.0,0.0,0.0,0
2025-05-06,6,2025-05-06 04:55,04:55,EDT,Calm,0.15,Fog,OVC002,50.0,50.0,100.0,,,29.98,0.0,0.0,0.0,0.0,2025-05-09,5,2025,4,KOKV,0.0,0.0,0.0,0.0,0
2025-05-06,6,2025-05-06 05:55,05:55,EDT,Calm,0.5,Fog,OVC002,48.2,48.2,100.0,,,29.98,0.0,0.0,0.0,0.0,2025-05-09,5,2025,5,KOKV,0.0,0.0,0.0,0.0,0
2025-05-06,6,2025-05-06 06:55,06:55,EDT,Calm,0.5,Fog,BKN002,48.2,48.2,100.0,,,30.0,0.0,0.0,0.0,0.0,2025-05-09,5,2025,6,KOKV,0.0,0.0,0.0,0.0,0
2025-05-06,6,2025-05-06 07:55,07:55,EDT,Calm,10.0,Fair,CLR,53.6,53.6,100.0,,,30.03,0.0,0.0,0.0,0.0,2025-05-09,5,2025,7,KOKV,0.0,0.0,0.0,0.0,0
2025-05-06,6,2025-05-06 08:55,08:55,EDT,Calm,10.0,Partly Cloudy,SCT075,55.4,55.4,100.0,,,30.03,0.0,0.0,0.0,0.0,2025-05-09,5,2025,8,KOKV,0.0,0.0,0.0,0.0,0
2025-05-06,6,2025-05-06 09:55,09:55,EDT,NW  3,10.0,Overcast,BKN019 BKN024 OVC085,59.0,50.0,72.0,,,30.03,0.0,0.0,0.0,0.0,2025-05-09,5,2025,9,KOKV,0.0,0.0,0.0,0.0,3
2025-05-06,6,2025-05-06 10:55,10:55,EDT,NW  6,10.0,Overcast,SCT036 OVC090,60.8,48.2,63.0,,,30.03,0.0,0.0,0.0,0.0,2025-05-09,5,2025,10,KOKV,0.0,0.0,0.0,0.0,6
2025-05-06,6,2025-05-06 11:55,11:55,EDT,W  5,10.0,Overcast,SCT036 SCT043 OVC100,60.8,50.0,68.0,,,30.02,0.0,0.0,0.0,0.0,2025-05-09,5,2025,11,KOKV,0.0,0.0,0.0,0.0,5
2025-05-06,6,2025-05-06 12:55,12:55,EDT,N  8,10.0,Overcast,SCT032 BKN065 OVC100,60.8,48.2,63.0,,,30.0,0.0,0.0,0.0,0.0,2025-05-09,5,2025,12,KOKV,0.0,0.0,0.0,0.0,8
2025-05-06,6,2025-05-06 13:55,13:55,EDT,N  5,7.0,Rain,SCT023 BKN055 OVC065,53.6,51.8,94.0,,,30.02,0.0,0.0,0.0,0.0,2025-05-09,5,2025,13,KOKV,0.0,0.0,0.0,0.0,5
2025-05-06,6,2025-05-06 14:55,14:55,EDT,W  5,10.0,Fair,CLR,60.8,50.0,68.0,,,29.99,0.0,0.0,0.0,0.0,2025-05-09,5,2025,14,KOKV,0.0,0.0,0.0,0.0,5
2025-05-06,6,2025-05-06 15:55,15:55,EDT,W  7,10.0,Partly Cloudy,SCT042 SCT050 SCT065,64.4,50.0,60.0,,,29.95,0.0,0.0,0.0,0.0,2025-05-09,5,2025,15,KOKV,0.0,0.0,0.0,0.0,7
2025-05-06,6,2025-05-06 16:55,16:55,EDT,W  13  G 16,10.0,Partly Cloudy,SCT075 SCT085,66.2,44.6,46.0,,,29.95,0.0,0.0,0.0,0.0,2025-05-09,5,2025,16,KOKV,0.0,0.0,0.0,0.0,13
2025-05-06,6,2025-05-06 17:55,17:55,EDT,W  10,10.0,Fair,CLR,64.4,44.6,49.0,,,29.96,0.0,0.0,0.0,0.0,2025-05-09,5,2025,17,KOKV,0.0,0.0,0.0,0.0,10
2025-05-06,6,2025-05-06 18:55,18:55,EDT,NW  10,10.0,Overcast,BKN070 OVC085,62.6,44.6,52.0,,,29.96,0.0,0.0,0.0,0.0,2025-05-09,5,2025,18,KOKV,0.0,0.0,0.0,0.0,10
2025-05-06,6,2025-05-06 19:55,19:55,EDT,W  12,10.0,Drizzle,BKN070 OVC090,59.0,46.4,63.0,,,30.0,0.0,0.0,0.0,0.0,2025-05-09,5,2025,19,KOKV,0.0,0.0,0.0,0.0,12
2025-05-06,6,2025-05-06 20:55,20:55,EDT,NW  5,10.0,Light Rain,OVC070,55.4,46.4,72.0,,,30.0,0.0,0.0,0.0,0.0,2025-05-09,5,2025,20,KOKV,0.0,0.0,0.0,0.0,5
2025-05-06,6,2025-05-06 21:55,21:55,EDT,Calm,10.0,Light Rain,OVC070,53.6,50.0,88.0,,,30.02,0.0,0.0,0.0,0.0,2025-05-09,5,2025,21,KOKV,0.0,0.0,0.0,0.0,0
2025-05-06,6,2025-05-06 22:55,22:55,EDT,Calm,10.0,Light Rain,OVC070,53.6,51.8,94.0,,,30.01,0.0,0.0,0.0,0.0,2025-05-09,5,2025,22,KOKV,0.0,0.0,0.0,0.0,0
2025-05-06,6,2025-05-06 23:55,23:55,EDT,Calm,10.0,Light Rain,OVC070,53.6,51.8,94.0,,,30.0,0.0,0.0,0.0,0.0,2025-05-09,5,2025,23,KOKV,0.0,0.0,0.0,0.0,0
2025-05-07,7,2025-05-07 00:55,00:55,EDT,SW  3,10.0,Overcast,BKN075 OVC090,53.6,51.8,94.0,,,29.99,0.0,0.0,0.0,0.0,2025-05-10,5,2025,0,KOKV,0.0,0.0,0.0,0.0,3
2025-05-07,7,2025-05-07 01:55,01:55,EDT,Calm,10.0,Overcast,OVC065,53.6,51.8,94.0,,,29.97,0.0,0.0,0.0,0.0,2025-05-10,5,2025,1,KOKV,0.0,0.0,0.0,0.0,0
2025-05-07,7,2025-05-07 02:55,02:55,EDT,SW  3,10.0,Light Drizzle,BKN065 OVC085,53.6,50.0,88.0,,,29.97,0.0,0.0,0.0,0.0,2025-05-10,5,2025,2,KOKV,0.0,0.0,0.0,0.0,3
2025-05-07,7,2025-05-07 03:55,03:55,EDT,NW  3,10.0,Light Rain,SCT048 BKN065 OVC090,53.6,51.8,94.0,,,29.99,0.0,0.0,0.0,0.0,2025-05-10,5,2025,3,KOKV,0.0,0.0,0.0,0.0,3
2025-05-07,7,2025-05-07 04:55,04:55,EDT,W  6,10.0,Overcast,OVC085,53.6,51.8,94.0,,,29.99,0.0,0.0,0.0,0.0,2025-05-10,5,2025,4,KOKV,0.0,0.0,0.0,0.0,6
2025-05-07,7,2025-05-07 05:55,05:55,EDT,Calm,10.0,Mostly Cloudy,SCT050 SCT065 BKN080,53.6,51.8,94.0,,,30.0,0.0,0.0,0.0,0.0,2025-05-10,5,2025,5,KOKV,0.0,0.0,0.0,0.0,0
2025-05-07,7,2025-05-07 06:55,06:55,EDT,S  3,10.0,Overcast,SCT031 BKN038 OVC050,53.6,51.8,94.0,,,30.02,0.0,0.0,0.0,0.0,2025-05-10,5,2025,6,KOKV,0.0,0.0,0.0,0.0,3
2025-05-07,7,2025-05-07 07:55,07:55,EDT,NW  6,10.0,Fair,CLR,59.0,51.8,77.0,,,30.04,0.0,0.0,0.0,0.0,2025-05-10,5,2025,7,KOKV,0.0,0.0,0.0,0.0,6
2025-05-07,7,2025-05-07 08:55,08:55,EDT,W  10,10.0,Fair,CLR,59.0,50.0,72.0,,,30.05,0.0,0.0,0.0,0.0,2025-05-10,5,2025,8,KOKV,0.0,0.0,0.0,0.0,10
2025-05-07,7,2025-05-07 09:55,09:55,EDT,NW  10,10.0,Overcast,SCT028 BKN049 OVC055,62.6,51.8,68.0,,,30.06,0.0,0.0,0.0,0.0,2025-05-10,5,2025,9,KOKV,0.0,0.0,0.0,0.0,10
2025-05-07,7,2025-05-07 10:55,10:55,EDT,W  10,10.0,Partly Cloudy,SCT033 SCT041 SCT047,64.4,50.0,60.0,,,30.06,0.0,0.0,0.0,0.0,2025-05-10,5,2025,10,KOKV,0.0,0.0,0.0,0.0,10
2025-05-07,7,2025-05-07 11:55,11:55,EDT,W  10  G 20,10.0,Partly Cloudy,SCT037 SCT043,64.4,50.0,60.0,,,30.07,0.0,0.0,0.0,0.0,2025-05-10,5,2025,11,KOKV,0.0,0.0,0.0,0.0,10
2025-05-07,7,2025-05-07 12:55,12:55,EDT,NW  10,10.0,Mostly Cloudy,SCT043 BKN050 BKN060,66.2,50.0,56.0,,,30.05,0.0,0.0,0.0,0.0,2025-05-10,5,2025,12,KOKV,0.0,0.0,0.0,0.0,10
2025-05-07,7,2025-05-07 13:55,13:55,EDT,NW  7,10.0,Fair,CLR,68.0,50.0,53.0,,,30.04,0.0,0.0,0.0,0.0,2025-05-10,5,2025,13,KOKV,0.0,0.0,0.0,0.0,7
2025-05-07,7,2025-05-07 14:55,14:55,EDT,W  8,10.0,Fair,CLR,68.0,50.0,53.0,,,30.02,0.0,0.0,0.0,0.0,2025-05-10,5,2025,14,KOKV,0.0,0.0,0.0,0.0,8
2025-05-07,7,2025-05-07 15:55,15:55,EDT,NW  7,10.0,Partly Cloudy,SCT050,69.8,50.0,50.0,,,30.01,0.0,0.0,0.0,0.0,2025-05-10,5,2025,15,KOKV,0.0,0.0,0.0,0.0,7
2025-05-07,7,2025-05-07 16:55,16:55,EDT,NW  8,10.0,Partly Cloudy,SCT060,69.8,50.0,50.0,,,30.01,0.0,0.0,0.0,0.0,2025-05-10,5,2025,16,KOKV,0.0,0.0,0.0,0.0,8
2025-05-07,7,2025-05-07 17:55,17:55,EDT,NW  5,10.0,Fair,CLR,69.8,50.0,50.0,,,29.99,0.0,0.0,0.0,0.0,2025-05-10,5,2025,17,KOKV,0.0,0.0,0.0,0.0,5
2025-05-07,7,2025-05-07 18:55,18:55,EDT,Calm,10.0,Fair,CLR,68.0,50.0,53.0,,,29.97,0.0,0.0,0.0,0.0,2025-05-10,5,2025,18,KOKV,0.0,0.0,0.0,0.0,0
2025-05-07,7,2025-05-07 19:55,19:55,EDT,Calm,10.0,Fair,CLR,62.6,51.8,68.0,,,29.99,0.0,0.0,0.0,0.0,2025-05-10,5,2025,19,KOKV,0.0,0.0,0.0,0.0,0
2025-05-07,7,2025-05-07 20:55,20:55,EDT,Calm,10.0,Partly Cloudy,SCT075,60.8,51.8,72.0,,,30.02,0.0,0.0,0.0,0.0,2025-05-10,5,2025,20,KOKV,0.0,0.0,0.0,0.0,0
2025-05-07,7,2025-05-07 21:55,21:55,EDT,Calm,10.0,Partly Cloudy,SCT075,57.2,51.8,82.0,,,30.03,0.0,0.0,0.0,0.0,2025-05-10,5,2025,21,KOKV,0.0,0.0,0.0,0.0,0
2025-05-07,7,2025-05-07 22:55,22:55,EDT,Calm,10.0,Mostly Cloudy,BKN065,55.4,51.8,88.0,,,30.04,0.0,0.0,0.0,0.0,2025-05-10,5,2025,22,KOKV,0.0,0.0,0.0,0.0,0
2025-05-07,7,2025-05-07 23:55,23:55,EDT,Calm,10.0,Overcast,SCT065 OVC075,57.2,53.6,88.0,,,30.04,0.0,0.0,0.0,0.0,2025-05-10,5,2025,23,KOKV,0.0,0.0,0.0,0.0,0
2025-05-08,8,2025-05-08 00:55,00:55,EDT,Calm,10.0,Partly Cloudy,SCT085,55.4,51.8,88.0,,,30.04,0.0,0.0,0.0,0.0,2025-05-11,5,2025,0,KOKV,0.0,0.0,0.0,0.0,0
2025-05-08,8,2025-05-08 01:35,01:35,EDT,Calm,10.0,Fair,CLR,55.4,51.8,88.0,,,30.03,0.0,0.0,0.0,0.0,2025-05-11,5,2025,1,KOKV,0.0,0.0,0.0,0.0,0
2025-05-08,8,2025-05-08 02:55,02:55,EDT,Calm,10.0,Fair,CLR,55.4,51.8,88.0,,,30.02,0.0,0.0,0.0,0.0,2025-05-11,5,2025,2,KOKV,0.0,0.0,0.0,0.0,0
2025-05-08,8,2025-05-08 03:15,03:15,EDT,SE  3,10.0,Partly Cloudy,SCT070,51.8,50.0,94.0,,,30.01,0.0,0.0,0.0,0.0,2025-05-11,5,2025,3,KOKV,0.0,0.0,0.0,0.0,3
2025-05-08,8,2025-05-08 04:55,04:55,EDT,W  3,10.0,Overcast,OVC070,53.6,51.8,94.0,,,30.01,0.0,0.0,0.0,0.0,2025-05-11,5,2025,4,KOKV,0.0,0.0,0.0,0.0,3
2025-05-08,8,2025-05-08 05:55,05:55,EDT,Calm,10.0,Overcast,OVC070,55.4,51.8,88.0,,,30.02,0.0,0.0,0.0,0.0,2025-05-11,5,2025,5,KOKV,0.0,0.0,0.0,0.0,0
2025-05-08,8,2025-05-08 06:55,06:55,EDT,Calm,10.0,Overcast,OVC080,55.4,51.8,88.0,,,30.03,0.0,0.0,0.0,0.0,2025-05-11,5,2025,6,KOKV,0.0,0.0,0.0,0.0,0
2025-05-08,8,2025-05-08 07:55,07:55,EDT,Calm,10.0,Partly Cloudy,SCT080,59.0,51.8,77.0,,,30.04,0.0,0.0,0.0,0.0,2025-05-11,5,2025,7,KOKV,0.0,0.0,0.0,0.0,0
2025-05-08,8,2025-05-08 08:55,08:55,EDT,Calm,10.0,Fair,CLR,62.6,53.6,73.0,,,30.05,0.0,0.0,0.0,0.0,2025-05-11,5,2025,8,KOKV,0.0,0.0,0.0,0.0,0
2025-05-08,8,2025-05-08 09:55,09:55,EDT,NW  3,10.0,Fair,CLR,68.0,50.0,53.0,,,30.04,0.0,0.0,0.0,0.0,2025-05-11,5,2025,9,KOKV,0.0,0.0,0.0,0.0,3
2025-05-08,8,2025-05-08 10:55,10:55,EDT,N  6,10.0,Fair,CLR,69.8,50.0,50.0,,,30.03,0.0,0.0,0.0,0.0,2025-05-11,5,2025,10,KOKV,0.0,0.0,0.0,0.0,6
2025-05-08,8,2025-05-08 11:55,11:55,EDT,W  5,10.0,Partly Cloudy,SCT055,71.6,50.0,47.0,,,30.01,0.0,0.0,0.0,0.0,2025-05-11,5,2025,11,KOKV,0.0,0.0,0.0,0.0,5
2025-05-08,8,2025-05-08 12:55,12:55,EDT,N  3,10.0,Partly Cloudy,SCT070 SCT080,71.6,50.0,47.0,,,30.0,0.0,0.0,0.0,0.0,2025-05-11,5,2025,12,KOKV,0.0,0.0,0.0,0.0,3
2025-05-08,8,2025-05-08 13:55,13:55,EDT,Calm,10.0,Mostly Cloudy,SCT060 SCT075 BKN085,71.6,48.2,44.0,,,29.99,0.0,0.0,0.0,0.0,2025-05-11,5,2025,13,KOKV,0.0,0.0,0.0,0.0,0
2025-05-08,8,2025-05-08 14:55,14:55,EDT,NW  6,10.0,Overcast,SCT060 OVC095,73.4,50.0,44.0,,,29.97,0.0,0.0,0.0,0.0,2025-05-11,5,2025,14,KOKV,0.0,0.0,0.0,0.0,6
2025-05-08,8,2025-05-08 15:55,15:55,EDT,SW  5,10.0,Partly Cloudy,SCT110,75.2,50.0,41.0,,78.0,29.94,0.0,0.0,0.0,0.0,2025-05-11,5,2025,15,KOKV,0.0,0.0,0.0,0.0,5
2025-05-08,8,2025-05-08 16:55,16:55,EDT,SE  5,10.0,Mostly Cloudy,BKN100,73.4,50.0,44.0,,,29.92,0.0,0.0,0.0,0.0,2025-05-11,5,2025,16,KOKV,0.0,0.0,0.0,0.0,5
2025-05-08,8,2025-05-08 17:55,17:55,EDT,SE  7,10.0,Fair,CLR,73.4,51.8,47.0,,,29.92,0.0,0.0,0.0,0.0,2025-05-11,5,2025,17,KOKV,0.0,0.0,0.0,0.0,7
2025-05-08,8,2025-05-08 18:55,18:55,EDT,S  6,10.0,Mostly Cloudy,BKN120,69.8,55.4,60.0,,,29.92,0.0,0.0,0.0,0.0,2025-05-11,5,2025,18,KOKV,0.0,0.0,0.0,0.0,6
2025-05-08,8,2025-05-08 19:55,19:55,EDT,Calm,10.0,Overcast,OVC120,68.0,55.4,64.0,,,29.92,0.0,0.0,0.0,0.0,2025-05-11,5,2025,19,KOKV,0.0,0.0,0.0,0.0,0
2025-05-08,8,2025-05-08 20:55,20:55,EDT,Calm,10.0,Mostly Cloudy,BKN110,64.4,55.4,73.0,,,29.93,0.0,0.0,0.0,0.0,2025-05-11,5,2025,20,KOKV,0.0,0.0,0.0,0.0,0
2025-05-08,8,2025-05-08 21:55,21:55,EDT,N  8  G 18,10.0,Overcast,SCT050 BKN070 OVC095,62.6,53.6,73.0,,,29.96,0.0,0.0,0.0,0.0,2025-05-11,5,2025,21,KOKV,0.0,0.0,0.0,0.0,8
2025-05-08,8,2025-05-08 22:55,22:55,EDT,N  3,10.0,Overcast,SCT044 BKN050 OVC110,60.8,53.6,77.0,,,29.97,0.0,0.0,0.0,0.0,2025-05-11,5,2025,22,KOKV,0.0,0.0,0.0,0.0,3
2025-05-08,8,2025-05-08 23:55,23:55,EDT,NW  10  G 16,10.0,Rain,BKN034 OVC041,59.0,53.6,82.0,,,29.98,0.0,0.0,0.0,0.0,2025-05-11,5,2025,23,KOKV,0.0,0.0,0.0,0.0,10
2025-05-09,9,2025-05-09 00:55,00:55,EDT,N  5,10.0,Overcast,BKN008 BKN022 OVC031,55.4,53.6,94.0,,,29.97,0.0,0.0,0.0,0.0,2025-05-12,5,2025,0,KOKV,0.0,0.0,0.0,0.0,5
2025-05-09,9,2025-05-09 01:55,01:55,EDT,N  5,10.0,Overcast,SCT007 OVC037,55.4,53.6,94.0,,,29.95,0.0,0.0,0.0,0.0,2025-05-12,5,2025,1,KOKV,0.0,0.0,0.0,0.0,5
2025-05-09,9,2025-05-09 02:55,02:55,EDT,N  3,10.0,Overcast,OVC007,55.4,53.6,94.0,,,29.93,0.0,0.0,0.0,0.0,2025-05-12,5,2025,2,KOKV,0.0,0.0,0.0,0.0,3
2025-05-09,9,2025-05-09 03:55,03:55,EDT,N  5,10.0,Overcast,OVC009,53.6,53.6,100.0,,,29.93,0.0,0.0,0.0,0.0,2025-05-12,5,2025,3,KOKV,0.0,0.0,0.0,0.0,5
2025-05-09,9,2025-05-09 04:55,04:55,EDT,N  5,10.0,Overcast,OVC009,53.6,51.8,94.0,,,29.91,0.0,0.0,0.0,0.0,2025-05-12,5,2025,4,KOKV,0.0,0.0,0.0,0.0,5
2025-05-09,9,2025-05-09 05:55,05:55,EDT,N  3,10.0,Overcast,OVC009,53.6,51.8,94.0,,,29.91,0.0,0.0,0.0,0.0,2025-05-12,5,2025,5,KOKV,0.0,0.0,0.0,0.0,3
2025-05-09,9,2025-05-09 06:55,06:55,EDT,N  3,10.0,Overcast,OVC009,53.6,51.8,94.0,,,29.92,0.0,0.0,0.0,0.0,2025-05-12,5,2025,6,KOKV,0.0,0.0,0.0,0.0,3
2025-05-09,9,2025-05-09 07:55,07:55,EDT,NW  6,10.0,Overcast,OVC007,51.8,51.8,100.0,,,29.93,0.0,0.0,0.0,0.0,2025-05-12,5,2025,7,KOKV,0.0,0.0,0.0,0.0,6
2025-05-09,9,2025-05-09 08:55,08:55,EDT,Calm,7.0,Rain,OVC007,51.8,50.0,94.0,,,29.94,0.0,0.0,0.0,0.0,2025-05-12,5,2025,8,KOKV,0.0,0.0,0.0,0.0,0
2025-05-09,9,2025-05-09 09:55,09:55,EDT,NW  8,10.0,Overcast,OVC007,51.8,50.0,94.0,,,29.95,0.0,0.0,0.0,0.0,2025-05-12,5,2025,9,KOKV,0.0,0.0,0.0,0.0,8
2025-05-09,9,2025-05-09 10:55,10:55,EDT,NW  5,5.0,Rain,OVC016,50.0,48.2,94.0,49.0,,29.96,0.0,0.0,0.0,0.0,2025-05-12,5,2025,10,KOKV,0.0,0.0,0.0,0.0,5
2025-05-09,9,2025-05-09 11:55,11:55,EDT,N  5,10.0,Overcast,SCT012 BKN027 OVC032,50.0,46.4,88.0,49.0,,29.98,0.0,0.0,0.0,0.0,2025-05-12,5,2025,11,KOKV,0.0,0.0,0.0,0.0,5
2025-05-09,9,2025-05-09 12:55,12:55,EDT,NW  9,10.0,Overcast,SCT016 BKN038 OVC085,53.6,48.2,82.0,,,29.97,0.0,0.0,0.0,0.0,2025-05-12,5,2025,12,KOKV,0.0,0.0,0.0,0.0,9
2025-05-09,9,2025-05-09 13:55,13:55,EDT,N  8,10.0,Mostly Cloudy,SCT025 BKN037 BKN095,57.2,48.2,72.0,,,29.97,0.0,0.47,0.0,0.0,2025-05-12,5,2025,13,KOKV,0.47,0.47,0.47,0.47,8
2025-05-09,9,2025-05-09 14:55,14:55,EDT,N  10,10.0,Mostly Cloudy,SCT029 BKN034 BKN043,60.8,46.4,59.0,,,29.95,0.0,0.0,0.0,0.0,2025-05-12,5,2025,14,KOKV,0.47,0.47,0.47,0.47,10
2025-05-09,9,2025-05-09 15:55,15:55,EDT,NW  12,10.0,Overcast,SCT039 BKN046 OVC065,62.6,44.6,52.0,,,29.95,0.0,0.0,0.0,0.0,2025-05-12,5,2025,15,KOKV,0.47,0.47,0.47,0.47,12
2025-05-09,9,2025-05-09 16:55,16:55,EDT,NW  14  G 22,10.0,Partly Cloudy,SCT055 SCT070,60.8,41.0,48.0,,,29.95,0.0,0.0,0.0,0.0,2025-05-12,5,2025,16,KOKV,0.0,0.47,0.47,0.47,14
2025-05-09,9,2025-05-09 17:55,17:55,EDT,NW  15  G 24,10.0,Partly Cloudy,SCT065,60.8,37.4,42.0,,,29.97,0.0,0.0,0.0,0.0,2025-05-12,5,2025,17,KOKV,0.0,0.47,0.47,0.47,15
2025-05-09,9,2025-05-09 18:55,18:55,EDT,NW  13  G 24,10.0,Mostly Cloudy,BKN065,59.0,35.6,42.0,,,30.0,0.0,0.0,0.0,0.0,2025-05-12,5,2025,18,KOKV,0.0,0.47,0.47,0.47,13
2025-05-09,9,2025-05-09 19:55,19:55,EDT,NW  12,10.0,Partly Cloudy,SCT065,55.4,33.8,44.0,,,30.01,0.0,0.0,0.0,0.0,2025-05-12,5,2025,19,KOKV,0.0,0.0,0.47,0.47,12
2025-05-09,9,2025-05-09 20:55,20:55,EDT,NW  6,10.0,Partly Cloudy,SCT070,51.8,35.6,54.0,,,30.04,0.0,0.0,0.0,0.0,2025-05-12,5,2025,20,KOKV,0.0,0.0,0.47,0.47,6
2025-05-09,9,2025-05-09 21:55,21:55,EDT,Calm,10.0,Partly Cloudy,SCT070,51.8,37.4,58.0,,,30.07,0.0,0.0,0.0,0.0,2025-05-12,5,2025,21,KOKV,0.0,0.0,0.47,0.47,0
2025-05-09,9,2025-05-09 22:55,22:55,EDT,W  6,10.0,Overcast,OVC070,51.8,35.6,54.0,,,30.07,0.0,0.0,0.0,0.0,2025-05-12,5,2025,22,KOKV,0.0,0.0,0.47,0.47,6
2025-05-09,9,2025-05-09 23:55,23:55,EDT,W  9,10.0,Fair,CLR,51.8,33.8,50.0,,,30.08,0.0,0.0,0.0,0.0,2025-05-12,5,2025,23,KOKV,0.0,0.0,0.47,0.47,9
2025-05-10,10,2025-05-10 00:55,00:55,EDT,W  3,10.0,Fair,CLR,46.4,33.8,62.0,,,30.07,0.0,0.0,0.0,0.0,2025-05-13,5,2025,0,KOKV,0.0,0.0,0.47,0.47,3
2025-05-10,10,2025-05-10 01:55,01:55,EDT,Calm,10.0,Fair,CLR,41.0,35.6,81.0,,,30.08,0.0,0.0,0.0,0.0,2025-05-13,5,2025,1,KOKV,0.0,0.0,0.0,0.47,0
2025-05-10,10,2025-05-10 02:55,02:55,EDT,Calm,10.0,Fair,CLR,42.8,33.8,71.0,,,30.09,0.0,0.0,0.0,0.0,2025-05-13,5,2025,2,KOKV,0.0,0.0,0.0,0.47,0
2025-05-10,10,2025-05-10 03:55,03:55,EDT,NW  10  G 18,10.0,Fair,CLR,48.2,32.0,54.0,44.0,,30.09,0.0,0.0,0.0,0.0,2025-05-13,5,2025,3,KOKV,0.0,0.0,0.0,0.47,10
2025-05-10,10,2025-05-10 04:55,04:55,EDT,NW  8,10.0,Fair,CLR,46.4,32.0,57.0,43.0,,30.09,0.0,0.0,0.0,0.0,2025-05-13,5,2025,4,KOKV,0.0,0.0,0.0,0.47,8
2025-05-10,10,2025-05-10 05:55,05:55,EDT,NW  9,10.0,Fair,CLR,48.2,32.0,54.0,45.0,,30.1,0.0,0.0,0.0,0.0,2025-05-13,5,2025,5,KOKV,0.0,0.0,0.0,0.47,9
2025-05-10,10,2025-05-10 06:55,06:55,EDT,S  5,10.0,Fair,CLR,46.4,33.8,62.0,45.0,,30.12,0.0,0.0,0.0,0.0,2025-05-13,5,2025,6,KOKV,0.0,0.0,0.0,0.47,5
2025-05-10,10,2025-05-10 07:55,07:55,EDT,W  12,10.0,Fair,CLR,51.8,33.8,50.0,,,30.13,0.0,0.0,0.0,0.0,2025-05-13,5,2025,7,KOKV,0.0,0.0,0.0,0.47,12
2025-05-10,10,2025-05-10 08:55,08:55,EDT,W  15,10.0,Fair,CLR,55.4,32.0,41.0,,,30.13,0.0,0.0,0.0,0.0,2025-05-13,5,2025,8,KOKV,0.0,0.0,0.0,0.47,15
2025-05-10,10,2025-05-10 09:55,09:55,EDT,NW  18  G 24,10.0,Fair,CLR,59.0,32.0,36.0,,,30.14,0.0,0.0,0.0,0.0,2025-05-13,5,2025,9,KOKV,0.0,0.0,0.0,0.47,18
2025-05-10,10,2025-05-10 10:55,10:55,EDT,NW  13  G 22,10.0,Fair,CLR,60.8,33.8,36.0,,,30.15,0.0,0.0,0.0,0.0,2025-05-13,5,2025,10,KOKV,0.0,0.0,0.0,0.47,13
2025-05-10,10,2025-05-10 11:55,11:55,EDT,NW  12  G 18,10.0,Fair,CLR,62.6,33.8,34.0,,,30.14,0.0,0.0,0.0,0.0,2025-05-13,5,2025,11,KOKV,0.0,0.0,0.0,0.47,12
2025-05-10,10,2025-05-10 12:55,12:55,EDT,NW  13,10.0,Fair,CLR,66.2,35.6,32.0,,,30.12,0.0,0.0,0.0,0.0,2025-05-13,5,2025,12,KOKV,0.0,0.0,0.0,0.47,13
2025-05-10,10,2025-05-10 13:55,13:55,EDT,NW  13,10.0,Fair,CLR,68.0,33.8,28.0,,,30.12,0.0,0.0,0.0,0.0,2025-05-13,5,2025,13,KOKV,0.0,0.0,0.0,0.0,13
2025-05-10,10,2025-05-10 14:55,14:55,EDT,W  14  G 17,10.0,Fair,CLR,69.8,33.8,27.0,,,30.11,0.0,0.0,0.0,0.0,2025-05-13,5,2025,14,KOKV,0.0,0.0,0.0,0.0,14
2025-05-10,10,2025-05-10 15:55,15:55,EDT,W  13  G 20,10.0,Fair,CLR,71.6,35.6,27.0,,,30.09,0.0,0.0,0.0,0.0,2025-05-13,5,2025,15,KOKV,0.0,0.0,0.0,0.0,13
2025-05-10,10,2025-05-10 16:55,16:55,EDT,NW  12,10.0,Fair,CLR,71.6,37.4,29.0,,,30.07,0.0,0.0,0.0,0.0,2025-05-13,5,2025,16,KOKV,0.0,0.0,0.0,0.0,12
2025-05-10,10,2025-05-10 17:55,17:55,EDT,W  6,10.0,Fair,CLR,71.6,37.4,29.0,,,30.09,0.0,0.0,0.0,0.0,2025-05-13,5,2025,17,KOKV,0.0,0.0,0.0,0.0,6
2025-05-10,10,2025-05-10 18:55,18:55,EDT,W  7,10.0,Fair,CLR,71.6,37.4,29.0,,,30.1,0.0,0.0,0.0,0.0,2025-05-13,5,2025,18,KOKV,0.0,0.0,0.0,0.0,7
2025-05-10,10,2025-05-10 19:55,19:55,EDT,Calm,10.0,Fair,CLR,66.2,42.8,43.0,,,30.12,0.0,0.0,0.0,0.0,2025-05-13,5,2025,19,KOKV,0.0,0.0,0.0,0.0,0
2025-05-10,10,2025-05-10 20:55,20:55,EDT,Calm,10.0,Fair,CLR,59.0,44.6,59.0,,,30.14,0.0,0.0,0.0,0.0,2025-05-13,5,2025,20,KOKV,0.0,0.0,0.0,0.0,0
2025-05-10,10,2025-05-10 21:55,21:55,EDT,Calm,10.0,Fair,CLR,55.4,44.6,67.0,,,30.15,0.0,0.0,0.0,0.0,2025-05-13,5,2025,21,KOKV,0.0,0.0,0.0,0.0,0
2025-05-10,10,2025-05-10 22:55,22:55,EDT,Calm,10.0,Fair,CLR,55.4,44.6,67.0,,,30.16,0.0,0.0,0.0,0.0,2025-05-13,5,2025,22,KOKV,0.0,0.0,0.0,0.0,0
2025-05-10,10,2025-05-10 23:55,23:55,EDT,Calm,10.0,Fair,CLR,55.4,44.6,67.0,,,30.16,0.0,0.0,0.0,0.0,2025-05-13,5,2025,23,KOKV,0.0,0.0,0.0,0.0,0
2025-05-11,11,2025-05-11 00:55,00:55,EDT,Calm,10.0,Fair,CLR,55.4,42.8,63.0,,,30.18,0.0,0.0,0.0,0.0,2025-05-13,5,2025,0,KOKV,0.0,0.0,0.0,0.0,0
2025-05-11,11,2025-05-11 01:55,01:55,EDT,Calm,10.0,Fair,CLR,51.8,44.6,77.0,,,30.18,0.0,0.0,0.0,0.0,2025-05-13,5,2025,1,KOKV,0.0,0.0,0.0,0.0,0
2025-05-11,11,2025-05-11 02:55,02:55,EDT,SW  5,10.0,Fair,CLR,53.6,44.6,72.0,,,30.18,0.0,0.0,0.0,0.0,2025-05-13,5,2025,2,KOKV,0.0,0.0,0.0,0.0,5
2025-05-11,11,2025-05-11 03:55,03:55,EDT,Calm,10.0,Fair,CLR,53.6,42.8,67.0,,,30.19,0.0,0.0,0.0,0.0,2025-05-13,5,2025,3,KOKV,0.0,0.0,0.0,0.0,0
2025-05-11,11,2025-05-11 04:55,04:55,EDT,Calm,10.0,Fair,CLR,51.8,42.8,72.0,,,30.19,0.0,0.0,0.0,0.0,2025-05-13,5,2025,4,KOKV,0.0,0.0,0.0,0.0,0
2025-05-11,11,2025-05-11 05:55,05:55,EDT,Calm,10.0,Fair,CLR,48.2,42.8,82.0,,,30.2,0.0,0.0,0.0,0.0,2025-05-13,5,2025,5,KOKV,0.0,0.0,0.0,0.0,0
2025-05-11,11,2025-05-11 06:55,06:55,EDT,S  5,10.0,Fair,CLR,50.0,44.6,82.0,49.0,,30.21,0.0,0.0,0.0,0.0,2025-05-13,5,2025,6,KOKV,0.0,0.0,0.0,0.0,5
2025-05-11,11,2025-05-11 07:55,07:55,EDT,Calm,10.0,Fair,CLR,53.6,44.6,72.0,,,30.23,0.0,0.0,0.0,0.0,2025-05-13,5,2025,7,KOKV,0.0,0.0,0.0,0.0,0
2025-05-11,11,2025-05-11 08:55,08:55,EDT,SW  3,10.0,Fair,CLR,60.8,46.4,59.0,,,30.24,0.0,0.0,0.0,0.0,2025-05-13,5,2025,8,KOKV,0.0,0.0,0.0,0.0,3
2025-05-11,11,2025-05-11 09:55,09:55,EDT,SW  3,10.0,Fair,CLR,64.4,46.4,52.0,,,30.25,0.0,0.0,0.0,0.0,2025-05-14,5,2025,9,KOKV,0.0,0.0,0.0,0.0,3
2025-05-11,11,2025-05-11 10:55,10:55,EDT,Calm,10.0,Fair,CLR,69.8,44.6,40.0,,,30.26,0.0,0.0,0.0,0.0,2025-05-14,5,2025,10,KOKV,0.0,0.0,0.0,0.0,0
2025-05-11,11,2025-05-11 11:55,11:55,EDT,Calm,10.0,Fair,CLR,71.6,46.4,41.0,,,30.25,0.0,0.0,0.0,0.0,2025-05-14,5,2025,11,KOKV,0.0,0.0,0.0,0.0,0
2025-05-11,11,2025-05-11 12:55,12:55,EDT,E  3,10.0,Fair,CLR,73.4,44.6,36.0,,,30.26,0.0,0.0,0.0,0.0,2025-05-14,5,2025,12,KOKV,0.0,0.0,0.0,0.0,3
2025-05-11,11,2025-05-11 13:55,13:55,EDT,Calm,10.0,Fair,CLR,75.2,46.4,36.0,,77.0,30.24,0.0,0.0,0.0,0.0,2025-05-14,5,2025,13,KOKV,0.0,0.0,0.0,0.0,0
2025-05-11,11,2025-05-11 14:55,14:55,EDT,SE  6,10.0,Fair,CLR,77.0,46.4,34.0,,78.0,30.23,0.0,0.0,0.0,0.0,2025-05-14,5,2025,14,KOKV,0.0,0.0,0.0,0.0,6
2025-05-11,11,2025-05-11 15:55,15:55,EDT,S  5,10.0,Fair,CLR,77.0,48.2,36.0,,78.0,30.21,0.0,0.0,0.0,0.0,2025-05-14,5,2025,15,KOKV,0.0,0.0,0.0,0.0,5
2025-05-11,11,2025-05-11 16:55,16:55,EDT,SE  6,10.0,Fair,CLR,77.0,50.0,39.0,,78.0,30.2,0.0,0.0,0.0,0.0,2025-05-14,5,2025,16,KOKV,0.0,0.0,0.0,0.0,6
2025-05-11,11,2025-05-11 17:55,17:55,EDT,SE  8,10.0,Fair,CLR,77.0,50.0,39.0,,78.0,30.21,0.0,0.0,0.0,0.0,2025-05-14,5,2025,17,KOKV,0.0,0.0,0.0,0.0,8
2025-05-11,11,2025-05-11 18:55,18:55,EDT,S  5,10.0,Fair,CLR,73.4,51.8,47.0,,,30.21,0.0,0.0,0.0,0.0,2025-05-14,5,2025,18,KOKV,0.0,0.0,0.0,0.0,5
2025-05-11,11,2025-05-11 19:55,19:55,EDT,SE  5,10.0,Fair,CLR,68.0,51.8,56.0,,,30.22,0.0,0.0,0.0,0.0,2025-05-14,5,2025,19,KOKV,0.0,0.0,0.0,0.0,5
2025-05-11,11,2025-05-11 20:55,20:55,EDT,Calm,10.0,Fair,CLR,62.6,51.8,68.0,,,30.23,0.0,0.0,0.0,0.0,2025-05-14,5,2025,20,KOKV,0.0,0.0,0.0,0.0,0
2025-05-11,11,2025-05-11 21:55,21:55,EDT,Calm,10.0,Fair,CLR,60.8,50.0,68.0,,,30.25,0.0,0.0,0.0,0.0,2025-05-14,5,2025,21,KOKV,0.0,0.0,0.0,0.0,0
2025-05-11,11,2025-05-11 22:55,22:55,EDT,Calm,10.0,Fair,CLR,59.0,50.0,72.0,,,30.25,0.0,0.0,0.0,0.0,2025-05-14,5,2025,22,KOKV,0.0,0.0,0.0,0.0,0
2025-05-11,11,2025-05-11 23:55,23:55,EDT,Calm,10.0,Fair,CLR,55.4,50.0,82.0,,,30.24,0.0,0.0,0.0,0.0,2025-05-14,5,2025,23,KOKV,0.0,0.0,0.0,0.0,0
2025-05-12,12,2025-05-12 00:55,00:55,EDT,Calm,10.0,Fair,CLR,55.4,50.0,82.0,,,30.25,0.0,0.0,0.0,0.0,2025-05-15,5,2025,0,KOKV,0.0,0.0,0.0,0.0,0
2025-05-12,12,2025-05-12 01:55,01:55,EDT,Calm,10.0,Fair,CLR,51.8,50.0,94.0,,,30.25,0.0,0.0,0.0,0.0,2025-05-15,5,2025,1,KOKV,0.0,0.0,0.0,0.0,0
2025-05-12,12,2025-05-12 02:55,02:55,EDT,Calm,10.0,Fair,CLR,50.0,48.2,94.0,,,30.25,0.0,0.0,0.0,0.0,2025-05-15,5,2025,2,KOKV,0.0,0.0,0.0,0.0,0
2025-05-12,12,2025-05-12 03:55,03:55,EDT,Calm,10.0,Fair,CLR,51.8,50.0,94.0,,,30.25,0.0,0.0,0.0,0.0,2025-05-15,5,2025,3,KOKV,0.0,0.0,0.0,0.0,0
2025-05-12,12,2025-05-12 04:55,04:55,EDT,Calm,10.0,Fair,CLR,51.8,50.0,94.0,,,30.25,0.0,0.0,0.0,0.0,2025-05-15,5,2025,4,KOKV,0.0,0.0,0.0,0.0,0
2025-05-12,12,2025-05-12 05:55,05:55,EDT,Calm,10.0,Fair,CLR,48.2,46.4,94.0,,,30.25,0.0,0.0,0.0,0.0,2025-05-15,5,2025,5,KOKV,0.0,0.0,0.0,0.0,0
2025-05-12,12,2025-05-12 06:55,06:55,EDT,Calm,10.0,Fair,CLR,50.0,48.2,94.0,,,30.28,0.0,0.0,0.0,0.0,2025-05-15,5,2025,6,KOKV,0.0,0.0,0.0,0.0,0
2025-05-12,12,2025-05-12 07:55,07:55,EDT,Calm,10.0,Fair,CLR,55.4,46.4,72.0,,,30.29,0.0,0.0,0.0,0.0,2025-05-15,5,2025,7,KOKV,0.0,0.0,0.0,0.0,0
2025-05-12,12,2025-05-12 08:55,08:55,EDT,Calm,10.0,Partly Cloudy,SCT110,62.6,50.0,64.0,,,30.28,0.0,0.0,0.0,0.0,2025-05-15,5,2025,8,KOKV,0.0,0.0,0.0,0.0,0
2025-05-12,12,2025-05-12 09:55,09:55,EDT,SE  6,10.0,Partly Cloudy,SCT110,68.0,53.6,60.0,,,30.27,0.0,0.0,0.0,0.0,2025-05-15,5,2025,9,KOKV,0.0,0.0,0.0,0.0,6
2025-05-12,12,2025-05-12 10:55,10:55,EDT,S  7,10.0,Fair,CLR,69.8,51.8,53.0,,,30.26,0.0,0.0,0.0,0.0,2025-05-15,5,2025,10,KOKV,0.0,0.0,0.0,0.0,7
2025-05-12,12,2025-05-12 11:55,11:55,EDT,S  3,10.0,Fair,CLR,71.6,53.6,53.0,,,30.25,0.0,0.0,0.0,0.0,2025-05-15,5,2025,11,KOKV,0.0,0.0,0.0,0.0,3
2025-05-12,12,2025-05-12 12:55,12:55,EDT,S  7,10.0,Overcast,OVC041,71.6,55.4,57.0,,,30.24,0.0,0.0,0.0,0.0,2025-05-15,5,2025,12,KOKV,0.0,0.0,0.0,0.0,7
2025-05-12,12,2025-05-12 13:55,13:55,EDT,S  10,10.0,Overcast,OVC037,71.6,57.2,61.0,,,30.23,0.0,0.0,0.0,0.0,2025-05-15,5,2025,13,KOKV,0.0,0.0,0.0,0.0,10
2025-05-12,12,2025-05-12 14:55,14:55,EDT,S  8,10.0,Mostly Cloudy,BKN042 BKN050 BKN120,71.6,55.4,57.0,,,30.21,0.0,0.0,0.0,0.0,2025-05-15,5,2025,14,KOKV,0.0,0.0,0.0,0.0,8
2025-05-12,12,2025-05-12 15:55,15:55,EDT,S  6,10.0,Overcast,OVC037,69.8,57.2,64.0,,,30.19,0.0,0.0,0.0,0.0,2025-05-15,5,2025,15,KOKV,0.0,0.0,0.0,0.0,6
2025-05-12,12,2025-05-12 16:55,16:55,EDT,S  7,10.0,Overcast,BKN035 OVC046,69.8,57.2,64.0,,,30.17,0.0,0.0,0.0,0.0,2025-05-15,5,2025,16,KOKV,0.0,0.0,0.0,0.0,7
2025-05-12,12,2025-05-12 17:55,17:55,EDT,SE  3,10.0,Mostly Cloudy,SCT036 BKN060 BKN075,68.0,57.2,69.0,,,30.15,0.0,0.0,0.0,0.0,2025-05-15,5,2025,17,KOKV,0.0,0.0,0.0,0.0,3
2025-05-12,12,2025-05-12 18:55,18:55,EDT,SE  6,10.0,Overcast,BKN036 OVC060,66.2,57.2,73.0,,,30.15,0.0,0.0,0.0,0.0,2025-05-15,5,2025,18,KOKV,0.0,0.0,0.0,0.0,6
2025-05-12,12,2025-05-12 19:55,19:55,EDT,E  5,10.0,Mostly Cloudy,SCT028 SCT042 BKN050,64.4,59.0,83.0,,,30.13,0.0,0.0,0.0,0.0,2025-05-15,5,2025,19,KOKV,0.0,0.0,0.0,0.0,5
2025-05-12,12,2025-05-12 20:55,20:55,EDT,Calm,10.0,Light Drizzle,OVC017,62.6,59.0,88.0,,,30.14,0.0,0.0,0.0,0.0,2025-05-15,5,2025,20,KOKV,0.0,0.0,0.0,0.0,0
2025-05-12,12,2025-05-12 21:55,21:55,EDT,E  3,10.0,Overcast,BKN015 OVC021,62.6,60.8,94.0,,,30.13,0.0,0.0,0.0,0.0,2025-05-15,5,2025,21,KOKV,0.0,0.0,0.0,0.0,3
2025-05-12,12,2025-05-12 22:55,22:55,EDT,E  3,10.0,Overcast,SCT026 BKN060 OVC090,62.6,60.8,94.0,,,30.12,0.0,0.0,0.0,0.0,2025-05-15,5,2025,22,KOKV,0.0,0.0,0.0,0.0,3
2025-05-12,12,2025-05-12 23:55,23:55,EDT,E  5,10.0,Light Rain,OVC016,62.6,60.8,94.0,,,30.11,0.0,0.0,0.0,0.0,2025-05-16,5,2025,23,KOKV,0.0,0.0,0.0,0.0,5
2025-05-13,13,2025-05-13 00:55,00:55,EDT,SE  8,10.0,Drizzle,OVC012,62.6,60.8,94.0,,,30.1,0.0,0.0,0.0,0.0,2025-05-16,5,2025,0,KOKV,0.0,0.0,0.0,0.0,8
2025-05-13,13,2025-05-13 01:55,01:55,EDT,SE  8,10.0,Light Drizzle,BKN010 OVC014,62.6,60.8,94.0,,,30.09,0.0,0.0,0.0,0.0,2025-05-16,5,2025,1,KOKV,0.0,0.0,0.0,0.0,8
2025-05-13,13,2025-05-13 02:55,02:55,EDT,E  5,10.0,Overcast,OVC008,62.6,60.8,94.0,,,30.07,0.0,0.0,0.0,0.0,2025-05-16,5,2025,2,KOKV,0.0,0.0,0.0,0.0,5
2025-05-13,13,2025-05-13 03:55,03:55,EDT,E  6,7.0,Drizzle,BKN010 BKN016 OVC032,62.6,60.8,94.0,,,30.06,0.0,0.01,0.0,0.0,2025-05-16,5,2025,3,KOKV,0.01,0.01,0.01,0.01,6
2025-05-13,13,2025-05-13 04:55,04:55,EDT,E  3,10.0,Drizzle,BKN005 BKN033 OVC090,62.6,60.8,94.0,,,30.04,0.0,0.02,0.0,0.0,2025-05-16,5,2025,4,KOKV,0.03,0.03,0.03,0.03,3
2025-05-13,13,2025-05-13 05:55,05:55,EDT,Calm,10.0,Light Rain,SCT006 OVC013,62.6,60.8,94.0,,,30.03,0.0,0.04,0.0,0.0,2025-05-16,5,2025,5,KOKV,0.07,0.07,0.07,0.07,0
2025-05-13,13,2025-05-13 06:55,06:55,EDT,Calm,4.0,Rain,BKN004 BKN013 OVC018,62.6,60.8,94.0,,,30.04,0.0,0.1,0.0,0.0,2025-05-16,5,2025,6,KOKV,0.16,0.17,0.17,0.17,0
2025-05-13,13,2025-05-13 07:55,07:55,EDT,E  5,7.0,Rain,SCT004 BKN011 OVC038,62.6,62.6,100.0,,,30.03,0.0,0.07,0.0,0.0,2025-05-16,5,2025,7,KOKV,0.21000000000000002,0.24000000000000002,0.24000000000000002,0.24000000000000002,5
2025-05-13,13,2025-05-13 08:55,08:55,EDT,E  9,7.0,Drizzle,BKN008 OVC014,62.6,62.6,100.0,,,30.02,0.0,0.02,0.0,0.0,2025-05-16,5,2025,8,KOKV,0.19,0.26,0.26,0.26,9
2025-05-13,13,2025-05-13 09:55,09:55,EDT,E  8,7.0,Light Rain,BKN006 OVC013,62.6,62.6,100.0,,,30.02,0.0,0.05,0.0,0.0,2025-05-16,5,2025,9,KOKV,0.14,0.30000000000000004,0.31000000000000005,0.31000000000000005,8
2025-05-13,13,2025-05-13 10:55,10:55,EDT,E  8,4.0,Heavy Rain,OVC010,62.6,62.6,100.0,,,30.0,0.0,0.23,0.0,0.0,2025-05-16,5,2025,10,KOKV,0.30000000000000004,0.51,0.54,0.54,8
2025-05-13,13,2025-05-13 11:55,11:55,EDT,E  7,3.0,Light Rain,BKN008 OVC012,62.6,62.6,100.0,,,29.99,0.0,0.12,0.0,0.0,2025-05-16,5,2025,11,KOKV,0.4,0.5900000000000001,0.66,0.66,7
2025-05-13,13,2025-05-13 12:55,12:55,EDT,SE  15  G 25,2.5,Rain,OVC006,62.6,62.6,100.0,,,29.99,0.0,0.09,0.0,0.0,2025-05-16,5,2025,12,KOKV,0.44,0.5800000000000001,0.75,0.75,15
2025-05-13,13,2025-05-13 13:55,13:55,EDT,SE  14  G 18,10.0,Overcast,BKN016 OVC021,62.6,60.8,94.0,,,29.98,0.0,0.0,0.0,0.0,2025-05-16,5,2025,13,KOKV,0.21,0.51,0.75,0.75,14
2025-05-13,13,2025-05-13 14:55,14:55,EDT,E  13  G 20,2.0,Light Rain,OVC010,62.6,60.8,94.0,,,29.96,0.0,0.0,0.0,0.0,2025-05-16,5,2025,14,KOKV,0.09,0.49,0.75,0.75,13
2025-05-13,13,2025-05-13 15:55,15:55,EDT,E  8  G 16,7.0,Light Rain,SCT008 OVC013,62.6,60.8,94.0,,,29.94,0.0,0.0,0.0,0.0,2025-05-16,5,2025,15,KOKV,0.0,0.43999999999999995,0.74,0.75,8
2025-05-13,13,2025-05-13 16:55,16:55,EDT,E  12  G 21,7.0,Rain,OVC012,62.6,60.8,94.0,,,29.92,0.0,0.07,0.0,0.0,2025-05-16,5,2025,16,KOKV,0.07,0.28,0.79,0.8200000000000001,12
2025-05-13,13,2025-05-13 17:55,17:55,EDT,E  9,5.0,Rain,OVC010,62.6,60.8,94.0,,,29.91,0.0,0.06,0.0,0.0,2025-05-16,5,2025,17,KOKV,0.13,0.22,0.81,0.88,9
2025-05-13,13,2025-05-13 18:55,18:55,EDT,E  9  G 17,3.0,Drizzle,OVC008,62.6,60.8,94.0,,,29.89,0.0,0.09,0.0,0.0,2025-05-16,5,2025,18,KOKV,0.22,0.22,0.8,0.97,9
2025-05-13,13,2025-05-13 19:55,19:55,EDT,SE  10  G 17,10.0,Overcast,OVC008,62.6,60.8,94.0,,,29.9,0.0,0.03,0.0,0.0,2025-05-16,5,2025,19,KOKV,0.18,0.25,0.76,1.0,10
2025-05-13,13,2025-05-13 20:55,20:55,EDT,W  7,2.5,Heavy Rain,BKN006 OVC020,62.6,60.8,94.0,,,29.92,0.0,0.35,0.0,0.0,2025-05-16,5,2025,20,KOKV,0.47,0.6,1.0899999999999999,1.35,7
2025-05-13,13,2025-05-13 21:55,21:55,EDT,E  3,4.0,Rain,OVC041,60.8,59.0,94.0,,,29.93,0.0,0.58,0.0,0.0,2025-05-16,5,2025,21,KOKV,0.96,1.18,1.6199999999999999,1.93,3
2025-05-13,13,2025-05-13 22:55,22:55,EDT,Calm,0.75,Heavy Rain,BKN012 OVC019,59.0,59.0,100.0,,,29.94,0.0,0.63,0.0,0.0,2025-05-16,5,2025,22,KOKV,1.56,1.7399999999999998,2.02,2.56,0
2025-05-13,13,2025-05-13 23:55,23:55,EDT,NE  3,5.0,Rain,SCT017 BKN048 OVC090,59.0,59.0,100.0,,,29.92,0.0,0.17,0.0,0.0,2025-05-16,5,2025,23,KOKV,1.38,1.8499999999999999,2.07,2.73,3
2025-05-14,14,2025-05-14 00:55,00:55,EDT,E  3,10.0,Overcast,BKN004 BKN018 OVC039,59.0,59.0,100.0,,,29.9,0.0,0.05,0.0,0.0,2025-05-17,5,2025,0,KOKV,0.85,1.81,2.03,2.78,3
2025-05-14,14,2025-05-14 01:55,01:55,EDT,E  5,10.0,Overcast,OVC004,60.8,59.0,94.0,,,29.9,0.0,0.0,0.0,0.0,2025-05-17,5,2025,1,KOKV,0.22000000000000003,1.78,2.03,2.78,5
2025-05-14,14,2025-05-14 02:55,02:55,EDT,E  5,10.0,Overcast,OVC006,59.0,59.0,100.0,,,29.88,0.0,0.0,0.0,0.0,2025-05-17,5,2025,2,KOKV,0.05,1.4300000000000002,2.03,2.78,5
2025-05-14,14,2025-05-14 03:55,03:55,EDT,Calm,10.0,Overcast,OVC008,59.0,59.0,100.0,,,29.88,0.0,0.0,0.0,0.0,2025-05-17,5,2025,3,KOKV,0.0,0.85,2.03,2.77,0
2025-05-14,14,2025-05-14 04:55,04:55,EDT,Calm,10.0,Overcast,OVC008,59.0,59.0,100.0,,,29.88,0.0,0.0,0.0,0.0,2025-05-17,5,2025,4,KOKV,0.0,0.22000000000000003,1.96,2.75,0
2025-05-14,14,2025-05-14 05:55,05:55,EDT,Calm,10.0,Overcast,OVC004,59.0,59.0,100.0,,,29.9,0.0,0.0,0.0,0.0,2025-05-17,5,2025,5,KOKV,0.0,0.05,1.9,2.71,0
2025-05-14,14,2025-05-14 06:55,06:55,EDT,Calm,7.0,Overcast,OVC004,59.0,59.0,100.0,,,29.92,0.0,0.0,0.0,0.0,2025-05-17,5,2025,6,KOKV,0.0,0.0,1.81,2.61,0
2025-05-14,14,2025-05-14 07:55,07:55,EDT,NE  5,10.0,Overcast,OVC004,59.0,59.0,100.0,,,29.92,0.0,0.0,0.0,0.0,2025-05-17,5,2025,7,KOKV,0.0,0.0,1.78,2.5399999999999996,5
2025-05-14,14,2025-05-14 08:55,08:55,EDT,E  3,10.0,Overcast,OVC006,60.8,59.0,94.0,,,29.94,0.0,0.0,0.0,0.0,2025-05-17,5,2025,8,KOKV,0.0,0.0,1.4300000000000002,2.5199999999999996,3
2025-05-14,14,2025-05-14 09:55,09:55,EDT,NE  3,10.0,Overcast,OVC010,62.6,59.0,88.0,,,29.94,0.0,0.0,0.0,0.0,2025-05-17,5,2025,9,KOKV,0.0,0.0,0.85,2.4699999999999998,3
2025-05-14,14,2025-05-14 10:55,10:55,EDT,NE  3,10.0,Overcast,OVC010,62.6,59.0,88.0,,,29.94,0.0,0.0,0.0,0.0,2025-05-17,5,2025,10,KOKV,0.0,0.0,0.22000000000000003,2.2399999999999998,3
2025-05-14,14,2025-05-14 11:55,11:55,EDT,Calm,10.0,Overcast,OVC014,64.4,59.0,83.0,,,29.94,0.0,0.0,0.0,0.0,2025-05-17,5,2025,11,KOKV,0.0,0.0,0.05,2.1199999999999997,0
2025-05-14,14,2025-05-14 12:55,12:55,EDT,NW  3,10.0,Overcast,BKN016 OVC022,64.4,59.0,83.0,,,29.92,0.0,0.0,0.0,0.0,2025-05-17,5,2025,12,KOKV,0.0,0.0,0.0,2.03,3
2025-05-14,14,2025-05-14 13:55,13:55,EDT,NE  5,10.0,Overcast,SCT027 OVC033,68.0,60.8,78.0,,,29.92,0.0,0.0,0.0,0.0,2025-05-17,5,2025,13,KOKV,0.0,0.0,0.0,2.03,5
2025-05-14,14,2025-05-14 14:55,14:55,EDT,E  6,10.0,Overcast,SCT034 BKN041 OVC050,68.0,60.8,78.0,,,29.9,0.0,0.0,0.0,0.0,2025-05-17,5,2025,14,KOKV,0.0,0.0,0.0,2.03,6
2025-05-14,14,2025-05-14 15:55,15:55,EDT,E  5,10.0,Overcast,BKN016 BKN021 OVC034,69.8,60.8,73.0,,,29.89,0.0,0.0,0.0,0.0,2025-05-17,5,2025,15,KOKV,0.0,0.0,0.0,2.03,5
2025-05-14,14,2025-05-14 16:55,16:55,EDT,NE  5,10.0,Mostly Cloudy,SCT018 BKN029 BKN038,69.8,60.8,73.0,,,29.87,0.0,0.0,0.0,0.0,2025-05-17,5,2025,16,KOKV,0.0,0.0,0.0,1.96,5
2025-05-14,14,2025-05-14 17:55,17:55,EDT,NE  3,10.0,Mostly Cloudy,SCT022 BKN034,69.8,60.8,73.0,,,29.86,0.0,0.0,0.0,0.0,2025-05-17,5,2025,17,KOKV,0.0,0.0,0.0,1.9,3
2025-05-14,14,2025-05-14 18:55,18:55,EDT,NE  7,10.0,Overcast,SCT021 BKN027 OVC120,68.0,60.8,78.0,,,29.87,0.0,0.0,0.0,0.0,2025-05-17,5,2025,18,KOKV,0.0,0.0,0.0,1.81,7
2025-05-14,14,2025-05-14 19:55,19:55,EDT,Calm,10.0,Overcast,SCT041 SCT065 OVC095,64.4,60.8,88.0,,,29.88,0.0,0.0,0.0,0.0,2025-05-17,5,2025,19,KOKV,0.0,0.0,0.0,1.78,0
2025-05-14,14,2025-05-14 20:55,20:55,EDT,Calm,3.0,Heavy Rain,BKN013 BKN020 OVC040,64.4,60.8,88.0,,,29.9,0.0,0.1,0.0,0.0,2025-05-17,5,2025,20,KOKV,0.1,0.1,0.1,1.53,0
2025-05-14,14,2025-05-14 21:55,21:55,EDT,Calm,5.0,Light Rain,BKN009 OVC015,62.6,60.8,94.0,,,29.9,0.0,0.09,0.0,0.0,2025-05-17,5,2025,21,KOKV,0.19,0.19,0.19,1.04,0
2025-05-14,14,2025-05-14 22:55,22:55,EDT,Calm,5.0,Drizzle,OVC013,62.6,60.8,94.0,,,29.91,0.0,0.01,0.0,0.0,2025-05-17,5,2025,22,KOKV,0.2,0.2,0.2,0.42000000000000004,0
2025-05-14,14,2025-05-14 23:55,23:55,EDT,Calm,3.0,Rain,BKN004 BKN019 OVC095,62.6,60.8,94.0,,,29.9,0.0,0.14,0.0,0.0,2025-05-17,5,2025,23,KOKV,0.24000000000000002,0.34,0.34,0.39,0
2025-05-15,15,2025-05-15 00:55,00:55,EDT,Calm,4.0,Light Rain,BKN004 OVC014,60.8,60.8,100.0,,,29.89,0.0,0.05,0.0,0.0,2025-05-17,5,2025,0,KOKV,0.2,0.39,0.39,0.39,0
2025-05-15,15,2025-05-15 01:55,01:55,EDT,Calm,4.0,Fog/Mist,OVC004,60.8,60.8,100.0,,,29.87,0.0,0.0,0.0,0.0,2025-05-17,5,2025,1,KOKV,0.19,0.39,0.39,0.39,0
2025-05-15,15,2025-05-15 02:55,02:55,EDT,Calm,4.0,Fog/Mist,BKN004 OVC008,60.8,60.8,100.0,,,29.87,0.0,0.0,0.0,0.0,2025-05-17,5,2025,2,KOKV,0.05,0.29000000000000004,0.39,0.39,0
2025-05-15,15,2025-05-15 03:55,03:55,EDT,Calm,4.0,Drizzle,OVC004,60.8,60.8,100.0,,,29.87,0.0,0.0,0.0,0.0,2025-05-17,5,2025,3,KOKV,0.0,0.2,0.39,0.39,0
2025-05-15,15,2025-05-15 04:55,04:55,EDT,Calm,3.0,Fog/Mist,OVC004,60.8,60.8,100.0,,,29.87,0.0,0.0,0.0,0.0,2025-05-17,5,2025,4,KOKV,0.0,0.19,0.39,0.39,0
2025-05-15,15,2025-05-15 05:55,05:55,EDT,Calm,3.0,Light Drizzle,OVC004,60.8,60.8,100.0,,,29.87,0.0,0.0,0.0,0.0,2025-05-17,5,2025,5,KOKV,0.0,0.05,0.39,0.39,0
2025-05-15,15,2025-05-15 06:55,06:55,EDT,Calm,1.75,Fog/Mist,OVC004,60.8,60.8,100.0,,,29.87,0.0,0.0,0.0,0.0,2025-05-17,5,2025,6,KOKV,0.0,0.0,0.39,0.39,0
2025-05-15,15,2025-05-15 07:55,07:55,EDT,Calm,3.0,Fog/Mist,OVC004,60.8,60.8,100.0,,,29.89,0.0,0.01,0.0,0.0,2025-05-17,5,2025,7,KOKV,0.01,0.01,0.4,0.4,0
2025-05-15,15,2025-05-15 08:55,08:55,EDT,Calm,5.0,Fog/Mist,SCT004 BKN015 OVC021,62.6,60.8,94.0,,,29.9,0.0,0.0,0.0,0.0,2025-05-17,5,2025,8,KOKV,0.01,0.01,0.30000000000000004,0.4,0
2025-05-15,15,2025-05-15 09:55,09:55,EDT,SW  3,10.0,Overcast,SCT007 BKN013 OVC020,64.4,60.8,88.0,,,29.89,0.0,0.0,0.0,0.0,2025-05-17,5,2025,9,KOKV,0.01,0.01,0.21000000000000002,0.4,3
2025-05-15,15,2025-05-15 10:55,10:55,EDT,SW  3,10.0,Overcast,SCT009 BKN021 OVC026,64.4,60.8,88.0,,,29.89,0.0,0.0,0.0,0.0,2025-05-17,5,2025,10,KOKV,0.0,0.01,0.2,0.4,3
2025-05-15,15,2025-05-15 11:55,11:55,EDT,SW  5,10.0,Overcast,OVC026,68.0,60.8,78.0,,,29.89,0.0,0.0,0.0,0.0,2025-05-17,5,2025,11,KOKV,0.0,0.01,0.060000000000000005,0.4,5
2025-05-15,15,2025-05-15 12:55,12:55,EDT,S  5,10.0,Overcast,OVC030,69.8,60.8,73.0,,,29.87,0.0,0.0,0.0,0.0,2025-05-17,5,2025,12,KOKV,0.0,0.01,0.01,0.4,5
2025-05-15,15,2025-05-15 13:55,13:55,EDT,S  3,10.0,Overcast,OVC031,71.6,60.8,69.0,,,29.85,0.0,0.0,0.0,0.0,2025-05-17,5,2025,13,KOKV,0.0,0.0,0.01,0.4,3
2025-05-15,15,2025-05-15 14:55,14:55,EDT,S  3,10.0,Fair,CLR,73.4,60.8,65.0,,,29.84,0.0,0.0,0.0,0.0,2025-05-17,5,2025,14,KOKV,0.0,0.0,0.01,0.4,3
2025-05-15,15,2025-05-15 15:55,15:55,EDT,S  3,10.0,Partly Cloudy,SCT032,73.4,60.8,65.0,,,29.82,0.0,0.0,0.0,0.0,2025-05-17,5,2025,15,KOKV,0.0,0.0,0.01,0.4,3
2025-05-15,15,2025-05-15 16:55,16:55,EDT,SW  5,10.0,Partly Cloudy,SCT036,77.0,60.8,57.0,,79.0,29.81,0.0,0.0,0.0,0.0,2025-05-17,5,2025,16,KOKV,0.0,0.0,0.01,0.4,5
2025-05-15,15,2025-05-15 17:55,17:55,EDT,SE  7,10.0,Partly Cloudy,SCT042,77.0,62.6,61.0,,79.0,29.8,0.0,0.0,0.0,0.0,2025-05-17,5,2025,17,KOKV,0.0,0.0,0.01,0.4,7
2025-05-15,15,2025-05-15 18:55,18:55,EDT,SE  6,10.0,Fair,CLR,75.2,62.6,65.0,,77.0,29.79,0.0,0.0,0.0,0.0,2025-05-17,5,2025,18,KOKV,0.0,0.0,0.01,0.4,6
2025-05-15,15,2025-05-15 19:55,19:55,EDT,S  3,10.0,Fair,CLR,73.4,62.6,69.0,,,29.8,0.0,0.0,0.0,0.0,2025-05-17,5,2025,19,KOKV,0.0,0.0,0.0,0.4,3
2025-05-15,15,2025-05-15 20:55,20:55,EDT,SE  3,10.0,Fair,CLR,68.0,64.4,88.0,,,29.8,0.0,0.0,0.0,0.0,2025-05-17,5,2025,20,KOKV,0.0,0.0,0.0,0.30000000000000004,3
2025-05-15,15,2025-05-15 21:55,21:55,EDT,Calm,10.0,Fair,CLR,64.4,62.6,94.0,,,29.82,0.0,0.0,0.0,0.0,2025-05-17,5,2025,21,KOKV,0.0,0.0,0.0,0.21,0
2025-05-15,15,2025-05-15 22:55,22:55,EDT,S  3,10.0,Fair,CLR,64.4,62.6,94.0,,,29.8,0.0,0.0,0.0,0.0,2025-05-17,5,2025,22,KOKV,0.0,0.0,0.0,0.2,3
2025-05-15,15,2025-05-15 23:55,23:55,EDT,Calm,10.0,Partly Cloudy,SCT100,66.2,62.6,88.0,,,29.8,0.0,0.0,0.0,0.0,2025-05-17,5,2025,23,KOKV,0.0,0.0,0.0,0.060000000000000005,0
2025-05-16,16,2025-05-16 00:55,00:55,EDT,Calm,10.0,Mostly Cloudy,BKN100,64.4,62.6,94.0,,,29.8,0.0,0.0,0.0,0.0,2025-05-17,5,2025,0,KOKV,0.0,0.0,0.0,0.01,0
2025-05-16,16,2025-05-16 01:55,01:55,EDT,Calm,10.0,Overcast,BKN060 BKN070 OVC100,64.4,62.6,94.0,,,29.8,0.0,0.0,0.0,0.0,2025-05-17,5,2025,1,KOKV,0.0,0.0,0.0,0.01,0
2025-05-16,16,2025-05-16 02:55,02:55,EDT,Calm,10.0,Mostly Cloudy,BKN060,62.6,62.6,100.0,,,29.79,0.0,0.0,0.0,0.0,2025-05-17,5,2025,2,KOKV,0.0,0.0,0.0,0.01,0
2025-05-16,16,2025-05-16 03:55,03:55,EDT,Calm,10.0,Partly Cloudy,SCT060,64.4,62.6,94.0,,,29.77,0.0,0.0,0.0,0.0,2025-05-17,5,2025,3,KOKV,0.0,0.0,0.0,0.01,0
2025-05-16,16,2025-05-16 04:55,04:55,EDT,Calm,5.0,Fog/Mist,CLR,60.8,60.8,100.0,,,29.75,0.0,0.0,0.0,0.0,2025-05-17,5,2025,4,KOKV,0.0,0.0,0.0,0.01,0
2025-05-16,16,2025-05-16 05:55,05:55,EDT,Calm,10.0,Fair,CLR,62.6,62.6,100.0,,,29.76,0.0,0.0,0.0,0.0,2025-05-17,5,2025,5,KOKV,0.0,0.0,0.0,0.01,0
2025-05-16,16,2025-05-16 06:55,06:55,EDT,Calm,7.0,Mostly Cloudy,BKN080,62.6,62.6,100.0,,,29.77,0.0,0.0,0.0,0.0,2025-05-17,5,2025,6,KOKV,0.0,0.0,0.0,0.01,0
2025-05-16,16,2025-05-16 07:55,07:55,EDT,SW  6,10.0,Overcast,SCT048 BKN050 OVC070,68.0,64.4,88.0,,,29.79,0.0,0.0,0.0,0.0,2025-05-17,5,2025,7,KOKV,0.0,0.0,0.0,0.0,6
2025-05-16,16,2025-05-16 08:55,08:55,EDT,SW  7,10.0,Fair,CLR,71.6,66.2,83.0,,,29.78,0.0,0.0,0.0,0.0,2025-05-17,5,2025,8,KOKV,0.0,0.0,0.0,0.0,7
2025-05-16,16,2025-05-16 09:55,09:55,EDT,SW  8,10.0,Fair,CLR,77.0,66.2,69.0,,79.0,29.78,0.0,0.0,0.0,0.0,2025-05-17,5,2025,9,KOKV,0.0,0.0,0.0,0.0,8
2025-05-16,16,2025-05-16 10:55,10:55,EDT,S  7,10.0,Partly Cloudy,SCT046 SCT050,78.8,66.2,65.0,,81.0,29.77,0.0,0.0,0.0,0.0,2025-05-17,5,2025,10,KOKV,0.0,0.0,0.0,0.0,7
2025-05-16,16,2025-05-16 11:55,11:55,EDT,Calm,10.0,Partly Cloudy,SCT048 SCT060,80.6,64.4,58.0,,82.0,29.76,0.0,0.0,0.0,0.0,2025-05-17,5,2025,11,KOKV,0.0,0.0,0.0,0.0,0
2025-05-16,16,2025-05-16 12:55,12:55,EDT,W  8,10.0,Mostly Cloudy,BKN050,82.4,62.6,51.0,,83.0,29.75,0.0,0.0,0.0,0.0,2025-05-17,5,2025,12,KOKV,0.0,0.0,0.0,0.0,8
2025-05-16,16,2025-05-16 13:55,13:55,EDT,S  6,10.0,Partly Cloudy,SCT070,82.4,66.2,58.0,,85.0,29.76,0.0,0.0,0.0,0.0,2025-05-17,5,2025,13,KOKV,0.0,0.0,0.0,0.0,6
2025-05-16,16,2025-05-16 14:55,14:55,EDT,SW  6,10.0,Mostly Cloudy,BKN060,82.4,64.4,55.0,,84.0,29.75,0.0,0.0,0.0,0.0,2025-05-17,5,2025,14,KOKV,0.0,0.0,0.0,0.0,6
2025-05-16,16,2025-05-16 15:55,15:55,EDT,SW  7,10.0,Thunderstorm in Vicinity,SCT085,82.4,66.2,58.0,,85.0,29.76,0.0,0.0,0.0,0.0,2025-05-17,5,2025,15,KOKV,0.0,0.0,0.0,0.0,7
2025-05-16,16,2025-05-16 16:55,16:55,EDT,W  10  G 17,10.0,Mostly Cloudy,SCT050 SCT085 BKN110,71.6,62.6,73.0,,,29.77,0.0,0.25,0.0,0.0,2025-05-17,5,2025,16,KOKV,0.25,0.25,0.25,0.25,10
2025-05-16,16,2025-05-16 17:55,17:55,EDT,W  6,10.0,Fair,CLR,73.4,60.8,65.0,,,29.72,0.0,0.0,0.0,0.0,2025-05-17,5,2025,17,KOKV,0.25,0.25,0.25,0.25,6
2025-05-16,16,2025-05-16 18:55,18:55,EDT,W  5,10.0,Fair,CLR,73.4,62.6,69.0,,,29.7,0.0,0.0,0.0,0.0,2025-05-17,5,2025,18,KOKV,0.25,0.25,0.25,0.25,5
2025-05-16,16,2025-05-16 19:55,19:55,EDT,SW  6,10.0,Fair,CLR,73.4,62.6,69.0,,,29.72,0.0,0.0,0.0,0.0,2025-05-17,5,2025,19,KOKV,0.0,0.25,0.25,0.25,6
2025-05-16,16,2025-05-16 20:55,20:55,EDT,Calm,10.0,Fair,CLR,66.2,60.8,83.0,,,29.72,0.0,0.0,0.0,0.0,2025-05-17,5,2025,20,KOKV,0.0,0.25,0.25,0.25,0
2025-05-16,16,2025-05-16 21:55,21:55,EDT,S  3,10.0,Fair,CLR,68.0,59.0,73.0,,,29.75,0.0,0.0,0.0,0.0,2025-05-17,5,2025,21,KOKV,0.0,0.25,0.25,0.25,3
2025-05-16,16,2025-05-16 22:55,22:55,EDT,S  3,10.0,Fair,CLR,66.2,59.0,78.0,,,29.75,0.0,0.0,0.0,0.0,2025-05-17,5,2025,22,KOKV,0.0,0.0,0.25,0.25,3
2025-05-16,16,2025-05-16 23:55,23:55,EDT,S  5,10.0,Fair,CLR,64.4,59.0,83.0,,,29.75,0.0,0.0,0.0,0.0,2025-05-17,5,2025,23,KOKV,0.0,0.0,0.25,0.25,5
2025-05-17,17,2025-05-17 00:55,00:55,EDT,S  5,10.0,Fair,CLR,62.6,59.0,88.0,,,29.74,0.0,0.0,0.0,0.0,2025-05-17,5,2025,0,KOKV,0.0,0.0,0.25,0.25,5
2025-06-17,17,2025-06-17 22:55,22:55,EDT,Calm,10.0,Partly Cloudy,SCT120,71.6,69.8,94.0,,,29.96,0.0,0.0,0.0,0.0,2025-06-20,6,2025,22,KOKV,0.0,0.0,0.25,0.25,0
2025-06-17,17,2025-06-17 23:55,23:55,EDT,Calm,7.0,Mostly Cloudy,BKN120,69.8,69.8,100.0,,,29.95,0.0,0.0,0.0,0.0,2025-06-20,6,2025,23,KOKV,0.0,0.0,0.25,0.25,0
2025-06-18,18,2025-06-18 00:55,00:55,EDT,NW  6,3.0,Thunderstorm Rain,SCT019 BKN035 OVC050,69.8,68.0,94.0,,,29.95,0.0,0.08,0.0,0.0,2025-06-20,6,2025,0,KOKV,0.08,0.08,0.33,0.33,6
2025-06-18,18,2025-06-18 01:55,01:55,EDT,SE  3,10.0,Thunderstorm in Vicinity,SCT070,68.0,68.0,100.0,,,29.94,0.0,0.01,0.0,0.0,2025-06-20,6,2025,1,KOKV,0.09,0.09,0.09,0.34,3
2025-06-18,18,2025-06-18 02:35,02:35,EDT,SW  7,10.0,Thunderstorm,SCT029 BKN070 OVC085,68.0,68.0,100.0,,,29.96,0.0,0.0,0.0,0.0,2025-06-20,6,2025,2,KOKV,0.09,0.09,0.09,0.34,7
2025-06-18,18,2025-06-18 03:55,03:55,EDT,Calm,2.0,Fog/Mist,SCT110,68.0,68.0,100.0,,,29.92,0.0,0.01,0.0,0.0,2025-06-20,6,2025,3,KOKV,0.02,0.1,0.1,0.35,0
2025-06-18,18,2025-06-18 04:55,04:55,EDT,Calm,0.25,Fog,VV002,66.2,66.2,100.0,,,29.91,0.0,0.0,0.0,0.0,2025-06-20,6,2025,4,KOKV,0.01,0.1,0.1,0.35,0
2025-06-18,18,2025-06-18 05:55,05:55,EDT,Calm,0.25,Fog,BKN002,64.4,64.4,100.0,,,29.91,0.0,0.0,0.0,0.0,2025-06-20,6,2025,5,KOKV,0.01,0.1,0.1,0.35,0
2025-06-18,18,2025-06-18 06:55,06:55,EDT,Calm,10.0,Fair,CLR,68.0,68.0,100.0,,,29.92,0.0,0.0,0.0,0.0,2025-06-20,6,2025,6,KOKV,0.0,0.02,0.1,0.35,0
2025-06-18,18,2025-06-18 07:55,07:55,EDT,Calm,10.0,Fair,CLR,69.8,69.8,100.0,,,29.94,0.0,0.0,0.0,0.0,2025-06-20,6,2025,7,KOKV,0.0,0.01,0.1,0.35,0
2025-06-18,18,2025-06-18 08:55,08:55,EDT,SW  3,10.0,Mostly Cloudy,BKN065,73.4,71.6,94.0,,,29.95,0.0,0.0,0.0,0.0,2025-06-20,6,2025,8,KOKV,0.0,0.01,0.1,0.35,3
2025-06-18,18,2025-06-18 09:55,09:55,EDT,SW  5,10.0,Mostly Cloudy,BKN065,77.0,71.6,83.0,,78.0,29.94,0.0,0.01,0.0,0.0,2025-06-20,6,2025,9,KOKV,0.01,0.01,0.11,0.36,5
2025-06-18,18,2025-06-18 10:55,10:55,EDT,Calm,10.0,Mostly Cloudy,SCT050 BKN070 BKN100,80.6,71.6,74.0,,85.0,29.94,0.0,0.0,0.0,0.0,2025-06-20,6,2025,10,KOKV,0.01,0.01,0.11,0.36,0
2025-06-18,18,2025-06-18 11:55,11:55,EDT,SW  5,7.0,Light Rain,SCT025 BKN041 OVC110,80.6,71.6,74.0,,85.0,29.93,0.0,0.0,0.0,0.0,2025-06-20,6,2025,11,KOKV,0.01,0.01,0.11,0.36,5
2025-06-18,18,2025-06-18 12:55,12:55,EDT,SW  5,10.0,Thunderstorm in Vicinity,SCT023 SCT031 SCT043,80.6,71.6,74.0,,85.0,29.93,0.0,0.0,0.0,0.0,2025-06-20,6,2025,12,KOKV,0.0,0.01,0.03,0.36,5
2025-06-18,18,2025-06-18 13:55,13:55,EDT,SW  16  G 24,10.0,Overcast,SCT022 BKN042 OVC080,80.6,69.8,70.0,,84.0,29.94,0.0,0.0,0.0,0.0,2025-06-20,6,2025,13,KOKV,0.0,0.01,0.019999999999999997,0.11,16
2025-06-18,18,2025-06-18 14:55,14:55,EDT,SW  9  G 16,10.0,Partly Cloudy,SCT055 SCT075,80.6,71.6,74.0,,85.0,29.9,0.0,0.08,0.0,0.0,2025-06-20,6,2025,14,KOKV,0.08,0.09,0.1,0.19,9
2025-06-18,18,2025-06-18 15:55,15:55,EDT,W  8,10.0,Mostly Cloudy,SCT041 SCT060 BKN070,84.2,69.8,62.0,,88.0,29.88,0.0,0.0,0.0,0.0,2025-06-20,6,2025,15,KOKV,0.08,0.08,0.09,0.19,8
2025-06-18,18,2025-06-18 16:55,16:55,EDT,W  10  G 17,10.0,Overcast,BKN045 OVC060,82.4,69.8,66.0,,86.0,29.88,0.0,0.0,0.0,0.0,2025-06-20,6,2025,16,KOKV,0.08,0.08,0.09,0.19,10
2025-06-18,18,2025-06-18 17:55,17:55,EDT,W  12,10.0,Mostly Cloudy,SCT049 BKN065 BKN090,82.4,69.8,66.0,,86.0,29.88,0.0,0.0,0.0,0.0,2025-06-20,6,2025,17,KOKV,0.0,0.08,0.09,0.19,12
2025-06-18,18,2025-06-18 18:55,18:55,EDT,W  9,10.0,Partly Cloudy,SCT075,84.2,68.0,58.0,,87.0,29.88,0.0,0.0,0.0,0.0,2025-06-20,6,2025,18,KOKV,0.0,0.08,0.09,0.19,9
2025-06-18,18,2025-06-18 19:55,19:55,EDT,W  3,10.0,Fair,CLR,82.4,68.0,62.0,,85.0,29.91,0.0,0.0,0.0,0.0,2025-06-20,6,2025,19,KOKV,0.0,0.08,0.09,0.19,3
2025-06-18,18,2025-06-18 20:55,20:55,EDT,Calm,10.0,Fair,CLR,75.2,69.8,83.0,,75.0,29.92,0.0,0.0,0.0,0.0,2025-06-20,6,2025,20,KOKV,0.0,0.0,0.09,0.19,0
2025-06-18,18,2025-06-18 21:55,21:55,EDT,SW  3,10.0,Fair,CLR,77.0,68.0,74.0,,79.0,29.94,0.0,0.0,0.0,0.0,2025-06-20,6,2025,21,KOKV,0.0,0.0,0.07999999999999999,0.19,3
2025-06-18,18,2025-06-18 22:55,22:55,EDT,Calm,10.0,Fair,CLR,71.6,68.0,88.0,,,29.91,0.0,0.0,0.0,0.0,2025-06-20,6,2025,22,KOKV,0.0,0.0,0.07999999999999999,0.19,0
2025-06-18,18,2025-06-18 23:55,23:55,EDT,SW  3,10.0,Fair,CLR,73.4,68.0,83.0,,,29.9,0.0,0.0,0.0,0.0,2025-06-20,6,2025,23,KOKV,0.0,0.0,0.07999999999999999,0.19,3
2025-06-19,19,2025-06-19 00:55,00:55,EDT,S  6,10.0,Fair,CLR,71.6,68.0,88.0,,,29.91,0.0,0.0,0.0,0.0,2025-06-20,6,2025,0,KOKV,0.0,0.0,0.07999999999999999,0.11,6
2025-06-19,19,2025-06-19 01:55,01:55,EDT,SW  6,10.0,Fair,CLR,73.4,68.0,83.0,,,29.92,0.0,0.0,0.0,0.0,2025-06-20,6,2025,1,KOKV,0.0,0.0,0.07999999999999999,0.1,6
2025-06-19,19,2025-06-19 02:55,02:55,EDT,SW  9,10.0,Fair,CLR,73.4,68.0,83.0,,,29.91,0.0,0.0,0.0,0.0,2025-06-20,6,2025,2,KOKV,0.0,0.0,0.0,0.1,9
2025-06-19,19,2025-06-19 03:55,03:55,EDT,SW  6,10.0,Fair,CLR,71.6,68.0,88.0,,,29.89,0.0,0.0,0.0,0.0,2025-06-20,6,2025,3,KOKV,0.0,0.0,0.0,0.09,6
2025-06-19,19,2025-06-19 04:55,04:55,EDT,SW  3,10.0,Fair,CLR,71.6,68.0,88.0,,,29.89,0.0,0.0,0.0,0.0,2025-06-20,6,2025,4,KOKV,0.0,0.0,0.0,0.09,3
2025-06-19,19,2025-06-19 05:55,05:55,EDT,S  6,10.0,Fair,CLR,69.8,66.2,88.0,,,29.89,0.0,0.0,0.0,0.0,2025-06-20,6,2025,5,KOKV,0.0,0.0,0.0,0.09,6
2025-06-19,19,2025-06-19 06:55,06:55,EDT,SW  7,10.0,Fair,CLR,71.6,68.0,88.0,,,29.89,0.0,0.0,0.0,0.0,2025-06-20,6,2025,6,KOKV,0.0,0.0,0.0,0.09,7
2025-06-19,19,2025-06-19 07:55,07:55,EDT,W  5,10.0,Fair,CLR,73.4,68.0,83.0,,,29.9,0.0,0.0,0.0,0.0,2025-06-20,6,2025,7,KOKV,0.0,0.0,0.0,0.09,5
2025-06-19,19,2025-06-19 08:55,08:55,EDT,SW  8,10.0,Fair,CLR,77.0,68.0,74.0,,79.0,29.9,0.0,0.0,0.0,0.0,2025-06-20,6,2025,8,KOKV,0.0,0.0,0.0,0.09,8
2025-06-19,19,2025-06-19 09:55,09:55,EDT,SW  8,10.0,Fair,CLR,78.8,68.0,70.0,,81.0,29.89,0.0,0.0,0.0,0.0,2025-06-20,6,2025,9,KOKV,0.0,0.0,0.0,0.08,8
2025-06-19,19,2025-06-19 10:55,10:55,EDT,SW  8,10.0,Fair,CLR,82.4,68.0,62.0,,85.0,29.88,0.0,0.0,0.0,0.0,2025-06-20,6,2025,10,KOKV,0.0,0.0,0.0,0.08,8
2025-06-19,19,2025-06-19 11:55,11:55,EDT,SW  10,10.0,Partly Cloudy,SCT043 SCT060 SCT070,82.4,68.0,62.0,,85.0,29.86,0.0,0.0,0.0,0.0,2025-06-20,6,2025,11,KOKV,0.0,0.0,0.0,0.08,10
2025-06-19,19,2025-06-19 12:55,12:55,EDT,SW  8,10.0,Partly Cloudy,SCT070,86.0,66.2,52.0,,88.0,29.84,0.0,0.0,0.0,0.0,2025-06-20,6,2025,12,KOKV,0.0,0.0,0.0,0.08,8
2025-06-19,19,2025-06-19 13:55,13:55,EDT,S  9,10.0,Partly Cloudy,SCT070 SCT080,86.0,68.0,55.0,,89.0,29.81,0.0,0.0,0.0,0.0,2025-06-20,6,2025,13,KOKV,0.0,0.0,0.0,0.08,9
2025-06-19,19,2025-06-19 14:55,14:55,EDT,W  3,5.0,Heavy Rain,SCT013 BKN050 OVC090,69.8,64.4,83.0,,,29.82,0.0,0.5,0.0,0.0,2025-06-20,6,2025,14,KOKV,0.5,0.5,0.5,0.5,3
2025-06-19,19,2025-06-19 15:55,15:55,EDT,SW  6,10.0,Thunderstorm,SCT070 SCT080 SCT110,69.8,64.4,83.0,,,29.79,0.0,0.01,0.0,0.0,2025-06-20,6,2025,15,KOKV,0.51,0.51,0.51,0.51,6
2025-06-19,19,2025-06-19 16:55,16:55,EDT,SW  8,10.0,Mostly Cloudy,SCT050 BKN060 BKN075,73.4,66.2,78.0,,,29.8,0.0,0.0,0.0,0.0,2025-06-20,6,2025,16,KOKV,0.51,0.51,0.51,0.51,8
2025-06-19,19,2025-06-19 17:55,17:55,EDT,SW  10,10.0,Overcast,OVC110,73.4,68.0,83.0,,,29.81,0.0,0.0,0.0,0.0,2025-06-20,6,2025,17,KOKV,0.01,0.51,0.51,0.51,10
2025-06-19,19,2025-06-19 18:55,18:55,EDT,SW  6,10.0,Overcast,OVC110,71.6,62.6,73.0,,,29.82,0.0,0.01,0.0,0.0,2025-06-20,6,2025,18,KOKV,0.01,0.52,0.52,0.52,6
2025-06-19,19,2025-06-19 19:55,19:55,EDT,W  9,10.0,Partly Cloudy,SCT060 SCT075 SCT085,71.6,59.0,65.0,,,29.83,0.0,0.0,0.0,0.0,2025-06-20,6,2025,19,KOKV,0.01,0.52,0.52,0.52,9
2025-06-19,19,2025-06-19 20:55,20:55,EDT,W  5,10.0,Fair,CLR,71.6,59.0,65.0,,,29.85,0.0,0.0,0.0,0.0,2025-06-20,6,2025,20,KOKV,0.01,0.02,0.52,0.52,5
2025-06-19,19,2025-06-19 21:55,21:55,EDT,W  10,10.0,Overcast,BKN044 OVC050,71.6,60.8,69.0,,,29.87,0.0,0.0,0.0,0.0,2025-06-20,6,2025,21,KOKV,0.0,0.01,0.52,0.52,10
2025-06-19,19,2025-06-19 22:55,22:55,EDT,NW  14,10.0,Overcast,SCT032 BKN045 OVC050,68.0,59.0,73.0,,,29.92,0.0,0.0,0.0,0.0,2025-06-20,6,2025,22,KOKV,0.0,0.01,0.52,0.52,14
2025-06-19,19,2025-06-19 23:55,23:55,EDT,NW  10,10.0,Partly Cloudy,SCT032,64.4,55.4,73.0,,,29.94,0.0,0.0,0.0,0.0,2025-06-20,6,2025,23,KOKV,0.0,0.01,0.52,0.52,10
2025-06-20,20,2025-06-20 00:55,00:55,EDT,NW  12,10.0,Fair,CLR,64.4,55.4,73.0,,,29.95,0.0,0.0,0.0,0.0,2025-06-20,6,2025,0,KOKV,0.0,0.0,0.52,0.52,12
2025-06-20,20,2025-06-20 01:55,01:55,EDT,W  9,10.0,Fair,CLR,62.6,53.6,73.0,,,29.97,0.0,0.0,0.0,0.0,2025-06-20,6,2025,1,KOKV,0.0,0.0,0.52,0.52,9
2025-06-20,20,2025-06-20 02:55,02:55,EDT,W  5,10.0,Partly Cloudy,SCT036,62.6,53.6,73.0,,,30.0,0.0,0.0,0.0,0.0,2025-06-20,6,2025,2,KOKV,0.0,0.0,0.02,0.52,5
2025-06-20,20,2025-06-20 03:55,03:55,EDT,W  5,10.0,Fair,CLR,62.6,53.6,73.0,,,29.99,0.0,0.0,0.0,0.0,2025-06-20,6,2025,3,KOKV,0.0,0.0,0.01,0.52,5
2025-06-20,20,2025-06-20 04:55,04:55,EDT,Calm,10.0,Fair,CLR,57.2,53.6,88.0,,,30.0,0.0,0.0,0.0,0.0,2025-06-20,6,2025,4,KOKV,0.0,0.0,0.01,0.52,0
2025-06-20,20,2025-06-20 05:55,05:55,EDT,W  12,10.0,Fair,CLR,62.6,53.6,73.0,,,30.0,0.0,0.0,0.0,0.0,2025-06-20,6,2025,5,KOKV,0.0,0.0,0.01,0.52,12
2025-06-20,20,2025-06-20 06:55,06:55,EDT,S  6,10.0,Fair,CLR,60.8,53.6,77.0,,,30.02,0.0,0.0,0.0,0.0,2025-06-20,6,2025,6,KOKV,0.0,0.0,0.0,0.52,6
2025-06-20,20,2025-06-20 07:55,07:55,EDT,SW  6,10.0,Fair,CLR,64.4,55.4,73.0,,,30.04,0.0,0.0,0.0,0.0,2025-06-20,6,2025,7,KOKV,0.0,0.0,0.0,0.52,6
2025-06-20,20,2025-06-20 08:55,08:55,EDT,SW  5,10.0,Fair,CLR,68.0,57.2,69.0,,,30.05,0.0,0.0,0.0,0.0,2025-06-20,6,2025,8,KOKV,0.0,0.0,0.0,0.52,5
2025-06-20,20,2025-06-20 09:55,09:55,EDT,SW  7,10.0,Fair,CLR,71.6,57.2,61.0,,,30.06,0.0,0.0,0.0,0.0,2025-06-20,6,2025,9,KOKV,0.0,0.0,0.0,0.52,7
2025-06-20,20,2025-06-20 10:55,10:55,EDT,W  7,10.0,Fair,CLR,75.2,59.0,57.0,,78.0,30.06,0.0,0.0,0.0,0.0,2025-06-20,6,2025,10,KOKV,0.0,0.0,0.0,0.52,7
2025-06-20,20,2025-06-20 11:55,11:55,EDT,W  9  G 18,10.0,Partly Cloudy,SCT048 SCT055,77.0,59.0,54.0,,79.0,30.05,0.0,0.0,0.0,0.0,2025-06-20,6,2025,11,KOKV,0.0,0.0,0.0,0.52,9
2025-06-20,20,2025-06-20 12:55,12:55,EDT,W  12  G 16,10.0,Partly Cloudy,SCT065,78.8,59.0,51.0,,80.0,30.05,0.0,0.0,0.0,0.0,2025-06-20,6,2025,12,KOKV,0.0,0.0,0.0,0.52,12
2025-06-20,20,2025-06-20 13:55,13:55,EDT,W  10,10.0,Partly Cloudy,SCT060 SCT070,80.6,57.2,45.0,,81.0,30.04,0.0,0.0,0.0,0.0,2025-06-20,6,2025,13,KOKV,0.0,0.0,0.0,0.52,10
2025-06-20,20,2025-06-20 14:55,14:55,EDT,W  8,10.0,Mostly Cloudy,SCT070 BKN080,80.6,57.2,45.0,,81.0,30.04,0.0,0.0,0.0,0.0,2025-06-20,6,2025,14,KOKV,0.0,0.0,0.0,0.02,8
2025-06-20,20,2025-06-20 15:55,15:55,EDT,W  13  G 17,10.0,Partly Cloudy,SCT070,82.4,59.0,45.0,,82.0,30.04,0.0,0.0,0.0,0.0,2025-06-20,6,2025,15,KOKV,0.0,0.0,0.0,0.01,13
2025-06-20,20,2025-06-20 16:55,16:55,EDT,W  8,10.0,Partly Cloudy,SCT080,82.4,59.0,45.0,,82.0,30.04,0.0,0.0,0.0,0.0,2025-06-20,6,2025,16,KOKV,0.0,0.0,0.0,0.01,8
2025-06-20,20,2025-06-20 17:55,17:55,EDT,W  9,10.0,Partly Cloudy,SCT080,80.6,57.2,45.0,,81.0,30.05,0.0,0.0,0.0,0.0,2025-06-20,6,2025,17,KOKV,0.0,0.0,0.0,0.01,9
2025-06-20,20,2025-06-20 18:55,18:55,EDT,W  6,10.0,Fair,CLR,78.8,57.2,48.0,,80.0,30.05,0.0,0.0,0.0,0.0,2025-06-20,6,2025,18,KOKV,0.0,0.0,0.0,0.0,6
2025-06-20,20,2025-06-20 19:55,19:55,EDT,W  5,10.0,Fair,CLR,78.8,59.0,51.0,,80.0,30.07,0.0,0.0,0.0,0.0,2025-06-20,6,2025,19,KOKV,0.0,0.0,0.0,0.0,5
2025-06-20,20,2025-06-20 20:55,20:55,EDT,Calm,10.0,Mostly Cloudy,BKN110,71.6,62.6,73.0,,,30.08,0.0,0.0,0.0,0.0,2025-06-20,6,2025,20,KOKV,0.0,0.0,0.0,0.0,0
2025-06-20,20,2025-06-20 21:55,21:55,EDT,Calm,10.0,Mostly Cloudy,BKN100,69.8,62.6,78.0,,,30.1,0.0,0.0,0.0,0.0,2025-06-20,6,2025,21,KOKV,0.0,0.0,0.0,0.0,0
2025-06-20,20,2025-06-20 22:35,22:35,EDT,Calm,10.0,Overcast,OVC100,69.8,62.6,78.0,,,30.11,0.0,0.0,0.0,0.0,2025-06-20,6,2025,22,KOKV,0.0,0.0,0.0,0.0,0
