Date,Day,Date/Time,Time,Time Zone,Wind (mph),Vis. (mi.),Weather,Sky Cond.,Temp,Dew Point,Relative Humidity,Wind Chill (°F),Heat Index (°F),Altimeter (in.),sea level (mb),1-Hour Precip,3-Hour Precip,6-Hour Precip,Data Retrieval Date,Obs_Month,Obs_Year,Hour,Station,Rolling 3-Hour Precip,Rolling 6-Hour Precip,Rolling 12-Hour Precip,Rolling 24-Hour Precip,Windspeed
2024-10-31,31,2024-10-31 02:53,02:53,EST,S  7,10.0,Fair,CLR,59.0,55.0,87.0,,,30.24,1023.5,0.0,0.0,0.0,2024-11-03,10,2024,2,KCHO,,,,,7
2024-10-31,31,2024-10-31 03:53,03:53,EST,S  3,10.0,Fair,CLR,60.1,55.9,86.0,,,30.23,1023.1,0.0,0.0,0.0,2024-11-03,10,2024,3,KCHO,,,,,3
2024-10-31,31,2024-10-31 05:53,05:53,EST,S  7,10.0,Fair,CLR,57.0,54.0,90.0,,,30.23,1023.1,0.0,0.0,0.0,2024-11-03,10,2024,5,KCHO,0.0,,,,7
2024-10-31,31,2024-10-31 06:53,06:53,EST,S  6,10.0,Fair,CLR,55.9,54.0,93.0,,,30.24,1023.5,0.0,0.0,0.0,2024-11-03,10,2024,6,KCHO,0.0,,,,6
2024-10-31,31,2024-10-31 07:53,07:53,EST,S  6,10.0,Fair,CLR,55.0,54.0,96.0,,,30.24,1023.5,0.0,0.0,0.0,2024-11-03,10,2024,7,KCHO,0.0,,,,6
2024-10-31,31,2024-10-31 08:53,08:53,EST,S  7,10.0,Fair,CLR,60.1,55.9,86.0,,,30.24,1023.5,0.0,0.0,0.0,2024-11-03,10,2024,8,KCHO,0.0,0.0,,,7
2024-10-31,31,2024-10-31 09:53,09:53,EST,Calm,10.0,Fair,CLR,64.0,57.0,78.0,,,30.24,1023.6,0.0,0.0,0.0,2024-11-03,10,2024,9,KCHO,0.0,0.0,,,0
2024-10-31,31,2024-10-31 10:53,10:53,EST,S  6,10.0,Fair,CLR,71.1,57.9,63.0,,,30.23,1023.1,0.0,0.0,0.0,2024-11-03,10,2024,10,KCHO,0.0,0.0,,,6
2024-10-31,31,2024-10-31 11:53,11:53,EST,S  10,10.0,Fair,CLR,75.0,57.9,55.0,,78.0,30.21,1022.5,0.0,0.0,0.0,2024-11-03,10,2024,11,KCHO,0.0,0.0,,,10
2024-10-31,31,2024-10-31 12:53,12:53,EST,S  10,10.0,Fair,CLR,78.1,57.9,50.0,,79.0,30.18,1021.4,0.0,0.0,0.0,2024-11-03,10,2024,12,KCHO,0.0,0.0,,,10
2024-10-31,31,2024-10-31 13:53,13:53,EST,S  16,10.0,Fair,CLR,79.0,57.0,47.0,,80.0,30.15,1020.4,0.0,0.0,0.0,2024-11-03,10,2024,13,KCHO,0.0,0.0,,,16
2024-10-31,31,2024-10-31 14:53,14:53,EST,S  17,10.0,Fair,CLR,80.1,57.0,45.0,,80.0,30.12,1019.4,0.0,0.0,0.0,2024-11-03,10,2024,14,KCHO,0.0,0.0,0.0,,17
2024-10-31,31,2024-10-31 15:53,15:53,EST,S  13  G 23,10.0,Fair,CLR,79.0,55.9,45.0,,80.0,30.11,1019.0,0.0,0.0,0.0,2024-11-03,10,2024,15,KCHO,0.0,0.0,0.0,,13
2024-10-31,31,2024-10-31 16:53,16:53,EST,S  16  G 23,10.0,Fair,CLR,78.1,55.9,47.0,,79.0,30.1,1018.6,0.0,0.0,0.0,2024-11-03,10,2024,16,KCHO,0.0,0.0,0.0,,16
2024-10-31,31,2024-10-31 17:53,17:53,EST,S  10  G 22,10.0,Fair,CLR,75.0,57.0,54.0,,78.0,30.1,1018.8,0.0,0.0,0.0,2024-11-03,10,2024,17,KCHO,0.0,0.0,0.0,,10
2024-10-31,31,2024-10-31 18:53,18:53,EST,S  10  G 21,10.0,Fair,CLR,72.0,55.9,57.0,,,30.11,1019.1,0.0,0.0,0.0,2024-11-03,10,2024,18,KCHO,0.0,0.0,0.0,,10
2024-10-31,31,2024-10-31 19:53,19:53,EST,S  12,10.0,Fair,CLR,71.1,55.0,57.0,,,30.11,1019.2,0.0,0.0,0.0,2024-11-03,10,2024,19,KCHO,0.0,0.0,0.0,,12
2024-10-31,31,2024-10-31 20:53,20:53,EST,S  10,10.0,Fair,CLR,69.1,55.0,61.0,,,30.1,1018.9,0.0,0.0,0.0,2024-11-03,10,2024,20,KCHO,0.0,0.0,0.0,,10
2024-10-31,31,2024-10-31 21:53,21:53,EST,S  8,10.0,Fair,CLR,66.0,55.0,68.0,,,30.1,1018.6,0.0,0.0,0.0,2024-11-03,10,2024,21,KCHO,0.0,0.0,0.0,,8
2024-10-31,31,2024-10-31 22:53,22:53,EST,S  8,10.0,Fair,CLR,66.0,55.9,70.0,,,30.09,1018.5,0.0,0.0,0.0,2024-11-03,10,2024,22,KCHO,0.0,0.0,0.0,,8
2024-10-31,31,2024-10-31 23:53,23:53,EST,S  9,10.0,Fair,CLR,68.0,55.0,63.0,,,30.08,1018.1,0.0,0.0,0.0,2024-11-03,10,2024,23,KCHO,0.0,0.0,0.0,,9
2024-11-01,1,2024-11-01 00:53,00:53,EST,S  13,10.0,Fair,CLR,66.9,55.0,66.0,,,30.08,1017.9,0.0,0.0,0.0,2024-11-03,11,2024,0,KCHO,0.0,0.0,0.0,,13
2024-11-01,1,2024-11-01 01:53,01:53,EST,S  10,10.0,Fair,CLR,64.9,55.0,70.0,,,30.07,1017.5,0.0,0.0,0.0,2024-11-03,11,2024,1,KCHO,0.0,0.0,0.0,,10
2024-11-01,1,2024-11-01 02:53,02:53,EST,S  8,10.0,Fair,CLR,63.0,55.0,76.0,,,30.05,1016.9,0.0,0.0,0.0,2024-11-03,11,2024,2,KCHO,0.0,0.0,0.0,0.0,8
2024-11-01,1,2024-11-01 03:53,03:53,EST,S  9,10.0,Fair,CLR,63.0,55.0,76.0,,,30.04,1016.6,0.0,0.0,0.0,2024-11-03,11,2024,3,KCHO,0.0,0.0,0.0,0.0,9
2024-11-01,1,2024-11-01 04:53,04:53,EST,S  9,10.0,Fair,CLR,63.0,55.0,76.0,,,30.04,1016.7,0.0,0.0,0.0,2024-11-03,11,2024,4,KCHO,0.0,0.0,0.0,0.0,9
2024-11-01,1,2024-11-01 05:53,05:53,EST,S  10,10.0,Fair,CLR,63.0,55.0,76.0,,,30.06,1017.2,0.0,0.0,0.0,2024-11-03,11,2024,5,KCHO,0.0,0.0,0.0,0.0,10
2024-11-01,1,2024-11-01 06:53,06:53,EST,S  10,10.0,Fair,CLR,63.0,55.0,76.0,,,30.06,1017.3,0.0,0.0,0.0,2024-11-03,11,2024,6,KCHO,0.0,0.0,0.0,0.0,10
2024-11-01,1,2024-11-01 07:53,07:53,EST,SW  6,10.0,A Few Clouds,FEW110,64.0,55.0,73.0,,,30.07,1017.7,0.0,0.0,0.0,2024-11-03,11,2024,7,KCHO,0.0,0.0,0.0,0.0,6
2024-11-01,1,2024-11-01 08:53,08:53,EST,S  7,10.0,Light Rain,FEW070 OVC110,64.0,55.9,75.0,,,30.09,1018.5,0.0,0.0,0.0,2024-11-03,11,2024,8,KCHO,0.0,0.0,0.0,0.0,7
2024-11-01,1,2024-11-01 09:53,09:53,EST,S  12,10.0,Mostly Cloudy,BKN110,64.0,57.0,78.0,,,30.11,1019.1,0.0,0.0,0.0,2024-11-03,11,2024,9,KCHO,0.0,0.0,0.0,0.0,12
2024-11-01,1,2024-11-01 10:53,10:53,EST,SW  6,10.0,A Few Clouds,FEW110,66.0,55.9,70.0,,,30.12,1019.3,0.0,0.0,0.0,2024-11-03,11,2024,10,KCHO,0.0,0.0,0.0,0.0,6
2024-11-01,1,2024-11-01 11:53,11:53,EST,S  10,10.0,Fair,CLR,71.1,57.9,63.0,,,30.12,1019.2,0.0,0.0,0.0,2024-11-03,11,2024,11,KCHO,0.0,0.0,0.0,0.0,10
2024-11-01,1,2024-11-01 12:53,12:53,EST,S  9,10.0,Fair,CLR,75.9,57.9,54.0,,78.0,30.11,1018.9,0.0,0.0,0.0,2024-11-03,11,2024,12,KCHO,0.0,0.0,0.0,0.0,9
2024-11-01,1,2024-11-01 13:53,13:53,EST,Calm,10.0,Overcast,OVC065,77.0,55.0,47.0,,78.0,30.09,1018.2,0.0,0.0,0.0,2024-11-03,11,2024,13,KCHO,0.0,0.0,0.0,0.0,0
2024-11-01,1,2024-11-01 14:53,14:53,EST,W  7,10.0,Partly Cloudy,FEW070 SCT080,79.0,54.0,42.0,,79.0,30.08,1017.8,0.0,0.0,0.0,2024-11-03,11,2024,14,KCHO,0.0,0.0,0.0,0.0,7
2024-11-01,1,2024-11-01 15:53,15:53,EST,W  8,10.0,Partly Cloudy,SCT070,79.0,51.1,38.0,,79.0,30.08,1018.1,0.0,0.0,0.0,2024-11-03,11,2024,15,KCHO,0.0,0.0,0.0,0.0,8
2024-11-01,1,2024-11-01 16:53,16:53,EST,W  6  G 18,10.0,Fair,CLR,77.0,48.9,37.0,,78.0,30.09,1018.5,0.0,0.0,0.0,2024-11-03,11,2024,16,KCHO,0.0,0.0,0.0,0.0,6
2024-11-01,1,2024-11-01 17:53,17:53,EST,NW  8,10.0,A Few Clouds,FEW060,73.9,48.0,40.0,,,30.11,1019.2,0.0,0.0,0.0,2024-11-03,11,2024,17,KCHO,0.0,0.0,0.0,0.0,8
2024-11-01,1,2024-11-01 18:53,18:53,EST,W  3,10.0,Fair,CLR,70.0,46.9,44.0,,,30.14,1020.0,0.0,0.0,0.0,2024-11-03,11,2024,18,KCHO,0.0,0.0,0.0,0.0,3
2024-11-01,1,2024-11-01 19:53,19:53,EST,N  3,10.0,Fair,CLR,66.9,46.9,49.0,,,30.16,1020.7,0.0,0.0,0.0,2024-11-03,11,2024,19,KCHO,0.0,0.0,0.0,0.0,3
2024-11-01,1,2024-11-01 20:53,20:53,EST,S  5,10.0,Fair,CLR,63.0,46.0,54.0,,,30.16,1020.8,0.0,0.0,0.0,2024-11-03,11,2024,20,KCHO,0.0,0.0,0.0,0.0,5
2024-11-01,1,2024-11-01 21:53,21:53,EST,Vrbl  3,10.0,Fair,CLR,66.0,45.0,47.0,,,30.17,1021.2,0.0,0.0,0.0,2024-11-03,11,2024,21,KCHO,0.0,0.0,0.0,0.0,3
2024-11-01,1,2024-11-01 22:53,22:53,EST,W  3,10.0,Fair,CLR,63.0,44.1,50.0,,,30.19,1021.8,0.0,0.0,0.0,2024-11-03,11,2024,22,KCHO,0.0,0.0,0.0,0.0,3
2024-11-01,1,2024-11-01 23:53,23:53,EST,Calm,10.0,Fair,CLR,55.9,43.0,62.0,,,30.21,1022.5,0.0,0.0,0.0,2024-11-03,11,2024,23,KCHO,0.0,0.0,0.0,0.0,0
2024-11-02,2,2024-11-02 00:53,00:53,EST,SE  5,10.0,Fair,CLR,57.0,37.9,49.0,,,30.22,1022.9,0.0,0.0,0.0,2024-11-03,11,2024,0,KCHO,0.0,0.0,0.0,0.0,5
2024-11-02,2,2024-11-02 01:53,01:53,EST,Calm,10.0,Fair,CLR,57.0,36.0,45.0,,,30.23,1023.3,0.0,0.0,0.0,2024-11-03,11,2024,1,KCHO,0.0,0.0,0.0,0.0,0
2024-11-02,2,2024-11-02 02:53,02:53,EST,NE  3,10.0,Fair,CLR,53.1,37.0,55.0,,,30.25,1023.9,0.0,0.0,0.0,2024-11-03,11,2024,2,KCHO,0.0,0.0,0.0,0.0,3
2024-11-02,2,2024-11-02 03:53,03:53,EST,NE  3,10.0,Fair,CLR,52.0,37.9,59.0,,,30.27,1024.5,0.0,0.0,0.0,2024-11-03,11,2024,3,KCHO,0.0,0.0,0.0,0.0,3
2024-11-02,2,2024-11-02 04:53,04:53,EST,NE  3,10.0,Fair,CLR,46.9,37.0,69.0,,,30.28,1025.0,0.0,0.0,0.0,2024-11-03,11,2024,4,KCHO,0.0,0.0,0.0,0.0,3
2024-11-02,2,2024-11-02 05:53,05:53,EST,Calm,10.0,Fair,CLR,46.9,37.0,69.0,,,30.3,1025.9,0.0,0.0,0.0,2024-11-03,11,2024,5,KCHO,0.0,0.0,0.0,0.0,0
2024-11-02,2,2024-11-02 06:53,06:53,EST,Calm,10.0,Fair,CLR,46.0,37.0,71.0,,,30.33,1026.6,0.0,0.0,0.0,2024-11-03,11,2024,6,KCHO,0.0,0.0,0.0,0.0,0
2024-11-02,2,2024-11-02 07:53,07:53,EST,Calm,10.0,Fair,CLR,46.0,36.0,68.0,,,30.34,1027.3,0.0,0.0,0.0,2024-11-03,11,2024,7,KCHO,0.0,0.0,0.0,0.0,0
2024-11-02,2,2024-11-02 08:53,08:53,EST,Calm,10.0,Fair,CLR,45.0,37.9,77.0,,,30.37,1028.1,0.0,0.0,0.0,2024-11-03,11,2024,8,KCHO,0.0,0.0,0.0,0.0,0
2024-11-02,2,2024-11-02 09:53,09:53,EST,Calm,10.0,Fair,CLR,51.1,37.9,61.0,,,30.38,1028.4,0.0,0.0,0.0,2024-11-03,11,2024,9,KCHO,0.0,0.0,0.0,0.0,0
2024-11-02,2,2024-11-02 10:53,10:53,EST,Vrbl  3,10.0,Fair,CLR,54.0,39.0,57.0,,,30.37,1028.3,0.0,0.0,0.0,2024-11-03,11,2024,10,KCHO,0.0,0.0,0.0,0.0,3
2024-11-02,2,2024-11-02 11:53,11:53,EST,Vrbl  3,10.0,Fair,CLR,57.0,37.9,49.0,,,30.37,1028.1,0.0,0.0,0.0,2024-11-03,11,2024,11,KCHO,0.0,0.0,0.0,0.0,3
2024-11-02,2,2024-11-02 12:53,12:53,EST,NE  5,10.0,Fair,CLR,60.1,37.9,44.0,,,30.34,1027.3,0.0,0.0,0.0,2024-11-03,11,2024,12,KCHO,0.0,0.0,0.0,0.0,5
2024-11-02,2,2024-11-02 13:53,13:53,EST,NE  3,10.0,Fair,CLR,62.1,37.9,41.0,,,30.32,1026.4,0.0,0.0,0.0,2024-11-03,11,2024,13,KCHO,0.0,0.0,0.0,0.0,3
2024-11-02,2,2024-11-02 14:53,14:53,EST,SE  6,10.0,Fair,CLR,64.0,37.9,38.0,,,30.3,1025.6,0.0,0.0,0.0,2024-11-03,11,2024,14,KCHO,0.0,0.0,0.0,0.0,6
2024-11-02,2,2024-11-02 15:53,15:53,EST,E  5,10.0,Fair,CLR,64.9,39.0,39.0,,,30.29,1025.5,0.0,0.0,0.0,2024-11-03,11,2024,15,KCHO,0.0,0.0,0.0,0.0,5
2024-11-02,2,2024-11-02 16:53,16:53,EST,Calm,10.0,Fair,CLR,64.0,39.0,40.0,,,30.3,1025.8,0.0,0.0,0.0,2024-11-03,11,2024,16,KCHO,0.0,0.0,0.0,0.0,0
2024-11-02,2,2024-11-02 17:53,17:53,EST,E  5,10.0,Fair,CLR,61.0,39.0,44.0,,,30.3,1025.9,0.0,0.0,0.0,2024-11-03,11,2024,17,KCHO,0.0,0.0,0.0,0.0,5
2024-11-02,2,2024-11-02 18:53,18:53,EST,NE  3,10.0,Fair,CLR,57.0,39.0,51.0,,,30.32,1026.6,0.0,0.0,0.0,2024-11-03,11,2024,18,KCHO,0.0,0.0,0.0,0.0,3
2024-11-02,2,2024-11-02 19:53,19:53,EST,Calm,10.0,Fair,CLR,54.0,39.0,57.0,,,30.33,1027.1,0.0,0.0,0.0,2024-11-03,11,2024,19,KCHO,0.0,0.0,0.0,0.0,0
2024-11-02,2,2024-11-02 20:53,20:53,EST,N  3,10.0,Fair,CLR,48.9,39.9,71.0,,,30.36,1028.0,0.0,0.0,0.0,2024-11-03,11,2024,20,KCHO,0.0,0.0,0.0,0.0,3
2024-11-02,2,2024-11-02 21:53,21:53,EST,N  3,10.0,Fair,CLR,51.1,37.9,61.0,,,30.37,1028.4,0.0,0.0,0.0,2024-11-03,11,2024,21,KCHO,0.0,0.0,0.0,0.0,3
2024-11-02,2,2024-11-02 22:53,22:53,EST,NW  5,10.0,Fair,CLR,48.9,37.9,66.0,48.0,,30.38,1028.7,0.0,0.0,0.0,2024-11-03,11,2024,22,KCHO,0.0,0.0,0.0,0.0,5
2024-11-02,2,2024-11-02 23:53,23:53,EST,Calm,10.0,Fair,CLR,45.0,37.9,77.0,,,30.38,1028.8,0.0,0.0,0.0,2024-11-03,11,2024,23,KCHO,0.0,0.0,0.0,0.0,0
2024-11-03,3,2024-11-03 00:53,00:53,EST,Calm,10.0,Fair,CLR,45.0,39.0,80.0,,,30.38,1028.8,0.0,0.0,0.0,2024-11-05,11,2024,0,KCHO,0.0,0.0,0.0,0.0,0
2024-11-03,3,2024-11-03 01:53,01:53,EST,Calm,10.0,Fair,CLR,43.0,39.0,86.0,,,30.39,1029.1,0.0,0.0,0.0,2024-11-03,11,2024,1,KCHO,0.0,0.0,0.0,0.0,0
2024-11-03,3,2024-11-03 02:53,02:53,EST,Calm,10.0,Fair,CLR,39.9,36.0,86.0,,,30.39,1028.9,0.0,0.0,0.0,2024-11-03,11,2024,2,KCHO,0.0,0.0,0.0,0.0,0
2024-11-03,3,2024-11-03 03:53,03:53,EST,Calm,10.0,Fair,CLR,39.0,37.0,93.0,,,30.4,1029.2,0.0,0.0,0.0,2024-11-03,11,2024,3,KCHO,0.0,0.0,0.0,0.0,0
2024-11-03,3,2024-11-03 04:53,04:53,EST,Calm,10.0,Fair,CLR,39.0,36.0,89.0,,,30.41,1029.5,0.0,0.0,0.0,2024-11-03,11,2024,4,KCHO,0.0,0.0,0.0,0.0,0
2024-11-03,3,2024-11-03 05:53,05:53,EST,N  3,10.0,Fair,CLR,36.0,34.0,93.0,,,30.43,1030.3,0.0,0.0,0.0,2024-11-03,11,2024,5,KCHO,0.0,0.0,0.0,0.0,3
2024-11-03,3,2024-11-03 06:53,06:53,EST,NE  3,10.0,Fair,CLR,39.0,35.1,86.0,,,30.43,1030.6,0.0,0.0,0.0,2024-11-03,11,2024,6,KCHO,0.0,0.0,0.0,0.0,3
2024-11-03,3,2024-11-03 07:53,07:53,EST,N  5,10.0,Fair,CLR,42.1,36.0,79.0,40.0,,30.46,1031.4,0.0,0.0,0.0,2024-11-03,11,2024,7,KCHO,0.0,0.0,0.0,0.0,5
2024-11-03,3,2024-11-03 08:53,08:53,EST,NE  8,10.0,Fair,CLR,48.0,36.0,63.0,45.0,,30.46,1031.5,0.0,0.0,0.0,2024-11-03,11,2024,8,KCHO,0.0,0.0,0.0,0.0,8
2024-11-03,3,2024-11-03 09:53,09:53,EST,E  8,10.0,Fair,CLR,51.1,37.0,59.0,,,30.46,1031.3,0.0,0.0,0.0,2024-11-03,11,2024,9,KCHO,0.0,0.0,0.0,0.0,8
2024-11-03,3,2024-11-03 10:53,10:53,EST,NE  7,10.0,Fair,CLR,54.0,37.0,53.0,,,30.46,1031.2,0.0,0.0,0.0,2024-11-03,11,2024,10,KCHO,0.0,0.0,0.0,0.0,7
2024-11-03,3,2024-11-03 11:53,11:53,EST,NE  6,10.0,Fair,CLR,57.0,37.0,47.0,,,30.43,1030.3,0.0,0.0,0.0,2024-11-03,11,2024,11,KCHO,0.0,0.0,0.0,0.0,6
2024-11-03,3,2024-11-03 12:53,12:53,EST,E  3,10.0,Fair,CLR,57.9,37.0,46.0,,,30.4,1029.2,0.0,0.0,0.0,2024-11-05,11,2024,12,KCHO,0.0,0.0,0.0,0.0,3
2024-11-03,3,2024-11-03 13:53,13:53,EST,Calm,10.0,Fair,CLR,57.9,36.0,44.0,,,30.39,1029.2,0.0,0.0,0.0,2024-11-03,11,2024,13,KCHO,0.0,0.0,0.0,0.0,0
2024-11-03,3,2024-11-03 14:53,14:53,EST,Calm,10.0,Fair,CLR,60.1,36.0,41.0,,,30.38,1028.6,0.0,0.0,0.0,2024-11-03,11,2024,14,KCHO,0.0,0.0,0.0,0.0,0
2024-11-03,3,2024-11-03 15:53,15:53,EST,E  6,10.0,Fair,CLR,60.1,36.0,41.0,,,30.38,1028.5,0.0,0.0,0.0,2024-11-03,11,2024,15,KCHO,0.0,0.0,0.0,0.0,6
2024-11-03,3,2024-11-03 16:53,16:53,EST,Calm,10.0,Fair,CLR,55.9,36.0,47.0,,,30.38,1028.9,0.0,0.0,0.0,2024-11-03,11,2024,16,KCHO,0.0,0.0,0.0,0.0,0
2024-11-03,3,2024-11-03 17:53,17:53,EST,NE  3,10.0,Fair,CLR,53.1,37.0,55.0,,,30.39,1029.3,0.0,0.0,0.0,2024-11-03,11,2024,17,KCHO,0.0,0.0,0.0,0.0,3
2024-11-03,3,2024-11-03 18:53,18:53,EST,Calm,10.0,Fair,CLR,50.0,36.0,59.0,,,30.41,1029.7,0.0,0.0,0.0,2024-11-03,11,2024,18,KCHO,0.0,0.0,0.0,0.0,0
2024-11-03,3,2024-11-03 19:53,19:53,EST,N  3,10.0,Fair,CLR,46.0,37.9,73.0,,,30.42,1030.2,0.0,0.0,0.0,2024-11-03,11,2024,19,KCHO,0.0,0.0,0.0,0.0,3
2024-11-03,3,2024-11-03 20:53,20:53,EST,NW  3,10.0,Fair,CLR,46.9,35.1,63.0,,,30.44,1030.6,0.0,0.0,0.0,2024-11-03,11,2024,20,KCHO,0.0,0.0,0.0,0.0,3
2024-11-03,3,2024-11-03 21:53,21:53,EST,Calm,10.0,Fair,CLR,45.0,36.0,71.0,,,30.44,1030.7,0.0,0.0,0.0,2024-11-03,11,2024,21,KCHO,0.0,0.0,0.0,0.0,0
2024-11-03,3,2024-11-03 22:53,22:53,EST,NW  3,10.0,Fair,CLR,44.1,35.1,71.0,,,30.43,1030.5,0.0,0.0,0.0,2024-11-04,11,2024,22,KCHO,0.0,0.0,0.0,0.0,3
2024-11-03,3,2024-11-03 23:53,23:53,EST,Calm,10.0,Fair,CLR,41.0,36.0,82.0,,,30.43,1030.5,0.0,0.0,0.0,2024-11-04,11,2024,23,KCHO,0.0,0.0,0.0,0.0,0
2024-11-04,4,2024-11-04 00:53,00:53,EST,N  3,10.0,Fair,CLR,39.0,35.1,86.0,,,30.43,1030.5,0.0,0.0,0.0,2024-11-04,11,2024,0,KCHO,0.0,0.0,0.0,0.0,3
2024-11-04,4,2024-11-04 01:53,01:53,EST,Calm,10.0,Fair,CLR,39.0,34.0,82.0,,,30.42,1030.1,0.0,0.0,0.0,2024-11-04,11,2024,1,KCHO,0.0,0.0,0.0,0.0,0
2024-11-04,4,2024-11-04 02:53,02:53,EST,Calm,10.0,Fair,CLR,37.0,34.0,89.0,,,30.42,1030.0,0.0,0.0,0.0,2024-11-04,11,2024,2,KCHO,0.0,0.0,0.0,0.0,0
2024-11-04,4,2024-11-04 03:53,03:53,EST,Calm,10.0,Overcast,OVC020,39.0,36.0,89.0,,,30.43,1030.2,0.0,0.0,0.0,2024-11-05,11,2024,3,KCHO,0.0,0.0,0.0,0.0,0
2024-11-04,4,2024-11-04 04:53,04:53,EST,Calm,10.0,Mostly Cloudy,BKN023,41.0,37.0,86.0,,,30.43,1030.5,0.0,0.0,0.0,2024-11-04,11,2024,4,KCHO,0.0,0.0,0.0,0.0,0
2024-11-04,4,2024-11-04 05:53,05:53,EST,Calm,10.0,Mostly Cloudy,BKN023,39.0,36.0,89.0,,,30.45,1031.1,0.0,0.0,0.0,2024-11-04,11,2024,5,KCHO,0.0,0.0,0.0,0.0,0
2024-11-04,4,2024-11-04 06:53,06:53,EST,Calm,10.0,Overcast,OVC024,39.9,36.0,86.0,,,30.45,1031.4,0.0,0.0,0.0,2024-11-04,11,2024,6,KCHO,0.0,0.0,0.0,0.0,0
2024-11-04,4,2024-11-04 07:53,07:53,EST,Calm,10.0,Mostly Cloudy,SCT024 BKN075,44.1,37.9,79.0,,,30.47,1032.1,0.0,0.0,0.0,2024-11-04,11,2024,7,KCHO,0.0,0.0,0.0,0.0,0
2024-11-04,4,2024-11-04 08:53,08:53,EST,Calm,10.0,Overcast,OVC020,46.9,39.0,74.0,,,30.47,1031.8,0.0,0.0,0.0,2024-11-04,11,2024,8,KCHO,0.0,0.0,0.0,0.0,0
2024-11-04,4,2024-11-04 09:53,09:53,EST,Calm,10.0,Overcast,OVC022,50.0,39.9,68.0,,,30.47,1031.8,0.0,0.0,0.0,2024-11-04,11,2024,9,KCHO,0.0,0.0,0.0,0.0,0
2024-11-04,4,2024-11-04 10:53,10:53,EST,S  5,10.0,Mostly Cloudy,BKN024,54.0,44.1,69.0,,,30.46,1031.4,0.0,0.0,0.0,2024-11-04,11,2024,10,KCHO,0.0,0.0,0.0,0.0,5
2024-11-04,4,2024-11-04 11:53,11:53,EST,Vrbl  3,10.0,Partly Cloudy,SCT080,55.9,43.0,62.0,,,30.43,1030.5,0.0,0.0,0.0,2024-11-04,11,2024,11,KCHO,0.0,0.0,0.0,0.0,3
2024-11-04,4,2024-11-04 12:53,12:53,EST,S  6,10.0,Fair,CLR,57.9,42.1,56.0,,,30.4,1029.6,0.0,0.0,0.0,2024-11-04,11,2024,12,KCHO,0.0,0.0,0.0,0.0,6
2024-11-04,4,2024-11-04 13:53,13:53,EST,S  8,10.0,Fair,CLR,60.1,41.0,50.0,,,30.38,1028.5,0.0,0.0,0.0,2024-11-04,11,2024,13,KCHO,0.0,0.0,0.0,0.0,8
2024-11-04,4,2024-11-04 14:53,14:53,EST,Vrbl  5,10.0,Mostly Cloudy,BKN037,60.1,41.0,50.0,,,30.35,1027.8,0.0,0.0,0.0,2024-11-04,11,2024,14,KCHO,0.0,0.0,0.0,0.0,5
2024-11-04,4,2024-11-04 15:53,15:53,EST,S  7,10.0,Mostly Cloudy,BKN036,60.1,42.1,52.0,,,30.34,1027.4,0.0,0.0,0.0,2024-11-04,11,2024,15,KCHO,0.0,0.0,0.0,0.0,7
2024-11-04,4,2024-11-04 16:53,16:53,EST,S  6,10.0,Overcast,OVC033,59.0,43.0,56.0,,,30.34,1027.2,0.0,0.0,0.0,2024-11-04,11,2024,16,KCHO,0.0,0.0,0.0,0.0,6
2024-11-04,4,2024-11-04 17:53,17:53,EST,S  6,10.0,Overcast,OVC033,57.9,44.1,60.0,,,30.33,1027.1,0.0,0.0,0.0,2024-11-04,11,2024,17,KCHO,0.0,0.0,0.0,0.0,6
2024-11-04,4,2024-11-04 18:53,18:53,EST,S  5,10.0,Overcast,OVC029,55.9,46.0,70.0,,,30.32,1026.8,0.0,0.0,0.0,2024-11-04,11,2024,18,KCHO,0.0,0.0,0.0,0.0,5
2024-11-04,4,2024-11-04 19:53,19:53,EST,SW  3,10.0,Overcast,OVC031,57.0,46.0,67.0,,,30.32,1026.5,0.0,0.0,0.0,2024-11-04,11,2024,19,KCHO,0.0,0.0,0.0,0.0,3
2024-11-04,4,2024-11-04 20:53,20:53,EST,Calm,10.0,Overcast,OVC031,53.1,46.0,77.0,,,30.32,1026.5,0.0,0.0,0.0,2024-11-04,11,2024,20,KCHO,0.0,0.0,0.0,0.0,0
2024-11-04,4,2024-11-04 21:53,21:53,EST,Calm,10.0,Fair,CLR,53.1,45.0,74.0,,,30.31,1026.4,0.0,0.0,0.0,2024-11-04,11,2024,21,KCHO,0.0,0.0,0.0,0.0,0
2024-11-04,4,2024-11-04 22:53,22:53,EST,S  3,10.0,Fair,CLR,51.1,44.1,77.0,,,30.3,1025.9,0.0,0.0,0.0,2024-11-04,11,2024,22,KCHO,0.0,0.0,0.0,0.0,3
2024-11-04,4,2024-11-04 23:53,23:53,EST,Calm,10.0,Fair,CLR,51.1,44.1,77.0,,,30.29,1025.4,0.0,0.0,0.0,2024-11-05,11,2024,23,KCHO,0.0,0.0,0.0,0.0,0
2024-11-05,5,2024-11-05 00:53,00:53,EST,Calm,10.0,Mostly Cloudy,BKN026,52.0,45.0,77.0,,,30.27,1024.9,0.0,0.0,0.0,2024-11-05,11,2024,0,KCHO,0.0,0.0,0.0,0.0,0
2024-11-05,5,2024-11-05 01:53,01:53,EST,Calm,10.0,Overcast,OVC027,53.1,45.0,74.0,,,30.27,1024.8,0.0,0.0,0.0,2024-11-05,11,2024,1,KCHO,0.0,0.0,0.0,0.0,0
2024-11-05,5,2024-11-05 02:53,02:53,EST,Calm,10.0,Mostly Cloudy,BKN032,51.1,45.0,80.0,,,30.26,1024.5,0.0,0.0,0.0,2024-11-05,11,2024,2,KCHO,0.0,0.0,0.0,0.0,0
2024-11-05,5,2024-11-05 03:53,03:53,EST,W  3,10.0,Overcast,OVC028,51.1,45.0,80.0,,,30.26,1024.4,0.0,0.0,0.0,2024-11-05,11,2024,3,KCHO,0.0,0.0,0.0,0.0,3
2024-11-05,5,2024-11-05 04:53,04:53,EST,Calm,10.0,Overcast,OVC030,51.1,44.1,77.0,,,30.26,1024.5,0.0,0.0,0.0,2024-11-05,11,2024,4,KCHO,0.0,0.0,0.0,0.0,0
2024-11-05,5,2024-11-05 05:53,05:53,EST,Calm,10.0,Overcast,OVC031,50.0,45.0,83.0,,,30.27,1024.7,0.0,0.0,0.0,2024-11-05,11,2024,5,KCHO,0.0,0.0,0.0,0.0,0
2024-11-05,5,2024-11-05 06:53,06:53,EST,SW  3,10.0,Overcast,OVC033,54.0,46.0,75.0,,,30.27,1024.8,0.0,0.0,0.0,2024-11-05,11,2024,6,KCHO,0.0,0.0,0.0,0.0,3
2024-11-05,5,2024-11-05 07:53,07:53,EST,Calm,10.0,Overcast,OVC029,54.0,46.0,75.0,,,30.28,1025.1,0.0,0.0,0.0,2024-11-05,11,2024,7,KCHO,0.0,0.0,0.0,0.0,0
2024-11-05,5,2024-11-05 08:53,08:53,EST,SW  6,10.0,Overcast,OVC032,57.0,48.9,74.0,,,30.28,1025.1,0.0,0.0,0.0,2024-11-05,11,2024,8,KCHO,0.0,0.0,0.0,0.0,6
2024-11-05,5,2024-11-05 09:53,09:53,EST,Calm,10.0,Fair,CLR,63.0,51.1,65.0,,,30.27,1024.7,0.0,0.0,0.0,2024-11-05,11,2024,9,KCHO,0.0,0.0,0.0,0.0,0
2024-11-05,5,2024-11-05 10:53,10:53,EST,S  13  G 22,10.0,Fair,CLR,69.1,55.9,63.0,,,30.26,1024.4,0.0,0.0,0.0,2024-11-05,11,2024,10,KCHO,0.0,0.0,0.0,0.0,13
2024-11-05,5,2024-11-05 11:53,11:53,EST,S  14,10.0,Fair,CLR,73.0,57.9,59.0,,,30.23,1023.4,0.0,0.0,0.0,2024-11-05,11,2024,11,KCHO,0.0,0.0,0.0,0.0,14
2024-11-05,5,2024-11-05 12:53,12:53,EST,S  16,10.0,Fair,CLR,75.0,57.9,55.0,,78.0,30.21,1022.5,0.0,0.0,0.0,2024-11-05,11,2024,12,KCHO,0.0,0.0,0.0,0.0,16
2024-11-05,5,2024-11-05 13:53,13:53,EST,S  17  G 25,10.0,A Few Clouds,FEW035,75.0,57.9,55.0,,78.0,30.18,1021.4,0.0,0.0,0.0,2024-11-05,11,2024,13,KCHO,0.0,0.0,0.0,0.0,17
2024-11-05,5,2024-11-05 14:53,14:53,EST,S  12,10.0,Overcast,OVC039,73.0,57.9,59.0,,,30.17,1021.1,0.0,0.0,0.0,2024-11-05,11,2024,14,KCHO,0.0,0.0,0.0,0.0,12
2024-11-05,5,2024-11-05 15:53,15:53,EST,SW  7,10.0,Overcast,OVC042,72.0,57.9,61.0,,,30.16,1021.0,0.0,0.0,0.0,2024-11-05,11,2024,15,KCHO,0.0,0.0,0.0,0.0,7
2024-11-05,5,2024-11-05 16:53,16:53,EST,S  7,10.0,Overcast,BKN048 OVC085,71.1,59.0,66.0,,,30.16,1020.9,0.0,0.0,0.0,2024-11-05,11,2024,16,KCHO,0.0,0.0,0.0,0.0,7
2024-11-05,5,2024-11-05 17:53,17:53,EST,S  8,10.0,Overcast,OVC080,70.0,59.0,68.0,,,30.15,1020.8,0.0,0.0,0.0,2024-11-05,11,2024,17,KCHO,0.0,0.0,0.0,0.0,8
2024-11-05,5,2024-11-05 18:53,18:53,EST,SW  7,10.0,Overcast,BKN065 OVC080,69.1,57.9,68.0,,,30.16,1020.8,0.0,0.0,0.0,2024-11-05,11,2024,18,KCHO,0.0,0.0,0.0,0.0,7
2024-11-05,5,2024-11-05 19:53,19:53,EST,SW  5,10.0,Overcast,OVC055,68.0,59.0,73.0,,,30.16,1020.8,0.0,0.0,0.0,2024-11-05,11,2024,19,KCHO,0.0,0.0,0.0,0.0,5
2024-11-05,5,2024-11-05 20:53,20:53,EST,S  6,10.0,Overcast,OVC070,64.9,57.9,78.0,,,30.15,1020.8,0.0,0.0,0.0,2024-11-05,11,2024,20,KCHO,0.0,0.0,0.0,0.0,6
2024-11-05,5,2024-11-05 21:53,21:53,EST,SW  3,10.0,Mostly Cloudy,FEW041 BKN060,66.9,59.0,76.0,,,30.15,1020.5,0.0,0.0,0.0,2024-11-05,11,2024,21,KCHO,0.0,0.0,0.0,0.0,3
2024-11-05,5,2024-11-05 22:53,22:53,EST,S  7,10.0,A Few Clouds,FEW055,64.9,59.0,81.0,,,30.15,1020.5,0.0,0.0,0.0,2024-11-05,11,2024,22,KCHO,0.0,0.0,0.0,0.0,7
2024-11-05,5,2024-11-05 23:53,23:53,EST,SW  3,10.0,Mostly Cloudy,FEW037 BKN055,64.0,59.0,84.0,,,30.16,1020.7,0.0,0.0,0.0,2024-11-06,11,2024,23,KCHO,0.0,0.0,0.0,0.0,3
2024-11-06,6,2024-11-06 00:53,00:53,EST,S  9,10.0,Overcast,BKN038 OVC047,64.0,57.9,81.0,,,30.15,1020.5,0.0,0.0,0.0,2024-11-06,11,2024,0,KCHO,0.0,0.0,0.0,0.0,9
2024-11-06,6,2024-11-06 01:53,01:53,EST,S  8,10.0,Fair,CLR,62.1,57.0,84.0,,,30.12,1019.5,0.0,0.0,0.0,2024-11-06,11,2024,1,KCHO,0.0,0.0,0.0,0.0,8
2024-11-06,6,2024-11-06 02:53,02:53,EST,S  7,10.0,Mostly Cloudy,BKN024,62.1,57.0,84.0,,,30.12,1019.4,0.0,0.0,0.0,2024-11-06,11,2024,2,KCHO,0.0,0.0,0.0,0.0,7
2024-11-06,6,2024-11-06 03:53,03:53,EST,S  7,10.0,Mostly Cloudy,BKN023 BKN033,61.0,57.0,87.0,,,30.11,1019.2,0.0,0.0,0.0,2024-11-06,11,2024,3,KCHO,0.0,0.0,0.0,0.0,7
2024-11-06,6,2024-11-06 04:53,04:53,EST,S  8,10.0,Partly Cloudy,SCT047,61.0,57.0,87.0,,,30.11,1019.1,0.0,0.0,0.0,2024-11-06,11,2024,4,KCHO,0.0,0.0,0.0,0.0,8
2024-11-06,6,2024-11-06 05:53,05:53,EST,S  9,10.0,A Few Clouds,FEW049,60.1,57.0,90.0,,,30.11,1019.0,0.0,0.0,0.0,2024-11-06,11,2024,5,KCHO,0.0,0.0,0.0,0.0,9
2024-11-06,6,2024-11-06 06:53,06:53,EST,S  7,10.0,A Few Clouds,FEW044,60.1,57.0,90.0,,,30.12,1019.5,0.0,0.0,0.0,2024-11-06,11,2024,6,KCHO,0.0,0.0,0.0,0.0,7
2024-11-06,6,2024-11-06 07:53,07:53,EST,S  8,10.0,Fair,CLR,62.1,59.0,90.0,,,30.13,1019.7,0.0,0.0,0.0,2024-11-06,11,2024,7,KCHO,0.0,0.0,0.0,0.0,8
2024-11-06,6,2024-11-06 08:53,08:53,EST,S  9,10.0,Fair,CLR,66.0,60.1,81.0,,,30.14,1020.0,0.0,0.0,0.0,2024-11-06,11,2024,8,KCHO,0.0,0.0,0.0,0.0,9
2024-11-06,6,2024-11-06 09:53,09:53,EST,S  10,10.0,Fair,CLR,71.1,61.0,71.0,,,30.13,1019.7,0.0,0.0,0.0,2024-11-06,11,2024,9,KCHO,0.0,0.0,0.0,0.0,10
2024-11-06,6,2024-11-06 10:53,10:53,EST,S  9,10.0,Fair,CLR,73.9,62.1,67.0,,,30.12,1019.4,0.0,0.0,0.0,2024-11-06,11,2024,10,KCHO,0.0,0.0,0.0,0.0,9
2024-11-06,6,2024-11-06 11:53,11:53,EST,SW  12,10.0,Fair,CLR,78.1,62.1,58.0,,80.0,30.1,1018.6,0.0,0.0,0.0,2024-11-06,11,2024,11,KCHO,0.0,0.0,0.0,0.0,12
2024-11-06,6,2024-11-06 12:53,12:53,EST,S  16  G 22,10.0,Fair,CLR,81.0,63.0,54.0,,82.0,30.07,1017.5,0.0,0.0,0.0,2024-11-06,11,2024,12,KCHO,0.0,0.0,0.0,0.0,16
2024-11-06,6,2024-11-06 13:53,13:53,EST,S  13,10.0,Partly Cloudy,SCT049,82.0,62.1,51.0,,83.0,30.06,1017.4,0.0,0.0,0.0,2024-11-06,11,2024,13,KCHO,0.0,0.0,0.0,0.0,13
2024-11-06,6,2024-11-06 14:53,14:53,EST,S  7,10.0,Fair,CLR,80.1,63.0,56.0,,81.0,30.06,1017.4,0.0,0.0,0.0,2024-11-06,11,2024,14,KCHO,0.0,0.0,0.0,0.0,7
2024-11-06,6,2024-11-06 16:53,16:53,EST,SW  6,10.0,Fair,CLR,77.0,62.1,60.0,,79.0,30.07,1017.6,0.0,0.0,0.0,2024-11-06,11,2024,16,KCHO,0.0,0.0,0.0,0.0,6
2024-11-06,6,2024-11-06 17:53,17:53,EST,S  6,10.0,Fair,CLR,71.1,62.1,73.0,,,30.08,1017.9,0.0,0.0,0.0,2024-11-06,11,2024,17,KCHO,0.0,0.0,0.0,0.0,6
2024-11-06,6,2024-11-06 18:53,18:53,EST,S  7,10.0,Fair,CLR,71.1,62.1,73.0,,,30.07,1017.7,0.0,0.0,0.0,2024-11-06,11,2024,18,KCHO,0.0,0.0,0.0,0.0,7
2024-11-06,6,2024-11-06 19:53,19:53,EST,S  6,10.0,Fair,CLR,71.1,62.1,73.0,,,30.07,1017.8,0.0,0.0,0.0,2024-11-06,11,2024,19,KCHO,0.0,0.0,0.0,0.0,6
2024-11-06,6,2024-11-06 20:53,20:53,EST,S  5,10.0,Fair,CLR,71.1,62.1,73.0,,,30.09,1018.2,0.0,0.0,0.0,2024-11-06,11,2024,20,KCHO,0.0,0.0,0.0,0.0,5
2024-11-06,6,2024-11-06 21:53,21:53,EST,S  6,10.0,Fair,CLR,68.0,62.1,81.0,,,30.1,1018.6,0.0,0.0,0.0,2024-11-06,11,2024,21,KCHO,0.0,0.0,0.0,0.0,6
2024-11-06,6,2024-11-06 22:53,22:53,EST,Calm,10.0,Fair,CLR,69.1,62.1,78.0,,,30.09,1018.3,0.0,0.0,0.0,2024-11-06,11,2024,22,KCHO,0.0,0.0,0.0,0.0,0
2024-11-06,6,2024-11-06 23:53,23:53,EST,S  3,10.0,Fair,CLR,68.0,61.0,78.0,,,30.08,1018.0,0.0,0.0,0.0,2024-11-07,11,2024,23,KCHO,0.0,0.0,0.0,0.0,3
2024-11-07,7,2024-11-07 00:53,00:53,EST,W  3,10.0,Fair,CLR,66.9,61.0,81.0,,,30.08,1017.9,0.0,0.0,0.0,2024-11-07,11,2024,0,KCHO,0.0,0.0,0.0,0.0,3
2024-11-07,7,2024-11-07 01:53,01:53,EST,S  5,10.0,Fair,CLR,64.9,61.0,87.0,,,30.08,1018.0,0.0,0.0,0.0,2024-11-07,11,2024,1,KCHO,0.0,0.0,0.0,0.0,5
2024-11-07,7,2024-11-07 02:53,02:53,EST,SW  3,10.0,Fair,CLR,64.9,61.0,87.0,,,30.09,1018.3,0.0,0.0,0.0,2024-11-07,11,2024,2,KCHO,0.0,0.0,0.0,0.0,3
2024-11-07,7,2024-11-07 03:53,03:53,EST,Calm,10.0,Fair,CLR,63.0,60.1,90.0,,,30.08,1018.1,0.0,0.0,0.0,2024-11-07,11,2024,3,KCHO,0.0,0.0,0.0,0.0,0
2024-11-07,7,2024-11-07 04:53,04:53,EST,S  3,10.0,Fair,CLR,64.0,61.0,90.0,,,30.1,1018.7,0.0,0.0,0.0,2024-11-07,11,2024,4,KCHO,0.0,0.0,0.0,0.0,3
2024-11-07,7,2024-11-07 05:53,05:53,EST,Calm,10.0,Fair,CLR,62.1,60.1,93.0,,,30.1,1018.9,0.0,0.0,0.0,2024-11-07,11,2024,5,KCHO,0.0,0.0,0.0,0.0,0
2024-11-07,7,2024-11-07 06:53,06:53,EST,Calm,10.0,A Few Clouds,FEW120,62.1,60.1,93.0,,,30.12,1019.3,0.0,0.0,0.0,2024-11-07,11,2024,6,KCHO,0.0,0.0,0.0,0.0,0
2024-11-07,7,2024-11-07 07:53,07:53,EST,Calm,10.0,Mostly Cloudy,BKN110,63.0,60.1,90.0,,,30.12,1019.5,0.0,0.0,0.0,2024-11-07,11,2024,7,KCHO,0.0,0.0,0.0,0.0,0
2024-11-07,7,2024-11-07 08:53,08:53,EST,Calm,10.0,Mostly Cloudy,BKN110,68.0,61.0,78.0,,,30.13,1019.6,0.0,0.0,0.0,2024-11-07,11,2024,8,KCHO,0.0,0.0,0.0,0.0,0
2024-11-07,7,2024-11-07 09:53,09:53,EST,Calm,10.0,Overcast,OVC110,72.0,62.1,71.0,,,30.13,1019.7,0.0,0.0,0.0,2024-11-07,11,2024,9,KCHO,0.0,0.0,0.0,0.0,0
2024-11-07,7,2024-11-07 10:53,10:53,EST,Calm,10.0,Overcast,FEW060 OVC100,73.9,62.1,67.0,,,30.13,1019.8,0.0,0.0,0.0,2024-11-07,11,2024,10,KCHO,0.0,0.0,0.0,0.0,0
2024-11-07,7,2024-11-07 11:53,11:53,EST,Calm,10.0,Mostly Cloudy,BKN100,77.0,62.1,60.0,,79.0,30.11,1018.8,0.0,0.0,0.0,2024-11-07,11,2024,11,KCHO,0.0,0.0,0.0,0.0,0
2024-11-07,7,2024-11-07 12:53,12:53,EST,S  3,10.0,Overcast,FEW080 OVC110,79.0,61.0,54.0,,80.0,30.08,1017.9,0.0,0.0,0.0,2024-11-07,11,2024,12,KCHO,0.0,0.0,0.0,0.0,3
2024-11-07,7,2024-11-07 13:53,13:53,EST,SE  7,10.0,Mostly Cloudy,BKN090,79.0,61.0,54.0,,80.0,30.07,1017.5,0.0,0.0,0.0,2024-11-07,11,2024,13,KCHO,0.0,0.0,0.0,0.0,7
2024-11-07,7,2024-11-07 14:53,14:53,EST,S  3,10.0,Partly Cloudy,SCT085,79.0,61.0,54.0,,80.0,30.06,1017.2,0.0,0.0,0.0,2024-11-07,11,2024,14,KCHO,0.0,0.0,0.0,0.0,3
2024-11-07,7,2024-11-07 15:53,15:53,EST,Calm,10.0,Overcast,BKN060 OVC075,77.0,62.1,60.0,,79.0,30.06,1017.4,0.0,0.0,0.0,2024-11-07,11,2024,15,KCHO,0.0,0.0,0.0,0.0,0
2024-11-07,7,2024-11-07 16:53,16:53,EST,NW  3,8.0,Light Rain,OVC050,69.1,64.9,87.0,,,30.07,1017.8,0.02,0.0,0.0,2024-11-07,11,2024,16,KCHO,0.02,0.02,0.02,0.02,3
2024-11-07,7,2024-11-07 17:53,17:53,EST,SE  5,10.0,Mostly Cloudy,SCT065 BKN080 BKN110,71.1,64.9,81.0,,,30.07,1017.8,0.01,0.0,0.0,2024-11-07,11,2024,17,KCHO,0.03,0.03,0.03,0.03,5
2024-11-07,7,2024-11-07 18:53,18:53,EST,NE  5,10.0,Overcast,OVC080,69.1,64.9,87.0,,,30.1,1018.6,0.0,0.0,0.03,2024-11-07,11,2024,18,KCHO,0.03,0.03,0.03,0.03,5
2024-11-07,7,2024-11-07 19:53,19:53,EST,NE  8,10.0,Fair,CLR,66.9,61.0,81.0,,,30.1,1018.9,0.0,0.0,0.0,2024-11-07,11,2024,19,KCHO,0.01,0.03,0.03,0.03,8
2024-11-07,7,2024-11-07 20:53,20:53,EST,N  7,10.0,Partly Cloudy,SCT050,66.0,57.9,75.0,,,30.11,1019.0,0.0,0.0,0.0,2024-11-07,11,2024,20,KCHO,0.0,0.03,0.03,0.03,7
2024-11-07,7,2024-11-07 21:53,21:53,EST,NE  5,10.0,Fair,CLR,64.9,55.9,73.0,,,30.11,1018.9,0.0,0.0,0.0,2024-11-07,11,2024,21,KCHO,0.0,0.03,0.03,0.03,5
2024-11-07,7,2024-11-07 22:53,22:53,EST,NE  6,10.0,Fair,CLR,64.0,55.0,73.0,,,30.11,1018.8,0.0,0.0,0.0,2024-11-07,11,2024,22,KCHO,0.0,0.01,0.03,0.03,6
2024-11-07,7,2024-11-07 23:53,23:53,EST,Calm,10.0,Mostly Cloudy,BKN100,63.0,55.0,76.0,,,30.1,1018.7,0.0,0.0,0.0,2024-11-08,11,2024,23,KCHO,0.0,0.0,0.03,0.03,0
2024-11-08,8,2024-11-08 00:53,00:53,EST,N  3,10.0,Overcast,OVC036,62.1,55.9,80.0,,,30.1,1018.5,0.0,0.0,0.0,2024-11-08,11,2024,0,KCHO,0.0,0.0,0.03,0.03,3
2024-11-08,8,2024-11-08 02:53,02:53,EST,N  3,10.0,Overcast,BKN037 OVC048,62.1,54.0,75.0,,,30.1,1018.6,0.0,0.0,0.0,2024-11-08,11,2024,2,KCHO,0.0,0.0,0.03,0.03,3
2024-11-08,8,2024-11-08 04:53,04:53,EST,NE  5,10.0,Overcast,SCT080 OVC110,59.0,51.1,75.0,,,30.11,1019.3,0.0,0.0,0.0,2024-11-08,11,2024,4,KCHO,0.0,0.0,0.03,0.03,5
2024-11-08,8,2024-11-08 05:53,05:53,EST,Calm,10.0,Overcast,FEW080 OVC100,59.0,50.0,72.0,,,30.11,1019.2,0.0,0.0,0.0,2024-11-08,11,2024,5,KCHO,0.0,0.0,0.03,0.03,0
2024-11-08,8,2024-11-08 06:53,06:53,EST,Calm,10.0,Overcast,OVC100,59.0,48.9,69.0,,,30.11,1019.3,0.0,0.0,0.0,2024-11-08,11,2024,6,KCHO,0.0,0.0,0.01,0.03,0
2024-11-08,8,2024-11-08 07:53,07:53,EST,Calm,10.0,Partly Cloudy,SCT100,59.0,52.0,78.0,,,30.12,1019.5,0.0,0.0,0.0,2024-11-08,11,2024,7,KCHO,0.0,0.0,0.0,0.03,0
2024-11-08,8,2024-11-08 08:53,08:53,EST,Calm,10.0,Fair,CLR,64.0,51.1,63.0,,,30.13,1019.6,0.0,0.0,0.0,2024-11-08,11,2024,8,KCHO,0.0,0.0,0.0,0.03,0
2024-11-08,8,2024-11-08 09:53,09:53,EST,Calm,10.0,Fair,CLR,64.0,51.1,63.0,,,30.12,1019.5,0.0,0.0,0.0,2024-11-08,11,2024,9,KCHO,0.0,0.0,0.0,0.03,0
2024-11-08,8,2024-11-08 10:53,10:53,EST,Vrbl  3,10.0,Fair,CLR,68.0,53.1,59.0,,,30.1,1018.7,0.0,0.0,0.0,2024-11-08,11,2024,10,KCHO,0.0,0.0,0.0,0.03,3
2024-11-08,8,2024-11-08 11:53,11:53,EST,SE  3,10.0,Fair,CLR,70.0,53.1,55.0,,,30.07,1017.7,0.0,0.0,0.0,2024-11-08,11,2024,11,KCHO,0.0,0.0,0.0,0.03,3
2024-11-08,8,2024-11-08 12:53,12:53,EST,N  5,10.0,Fair,CLR,73.0,53.1,50.0,,,30.04,1016.7,0.0,0.0,0.0,2024-11-08,11,2024,12,KCHO,0.0,0.0,0.0,0.03,5
2024-11-08,8,2024-11-08 13:53,13:53,EST,Vrbl  3,10.0,Fair,CLR,75.0,52.0,45.0,,78.0,30.02,1015.8,0.0,0.0,0.0,2024-11-08,11,2024,13,KCHO,0.0,0.0,0.0,0.03,3
2024-11-08,8,2024-11-08 14:53,14:53,EST,N  5,10.0,Fair,CLR,77.0,43.0,30.0,,78.0,30.01,1015.5,0.0,0.0,0.0,2024-11-08,11,2024,14,KCHO,0.0,0.0,0.0,0.03,5
2024-11-08,8,2024-11-08 15:53,15:53,EST,NW  5,10.0,Fair,CLR,75.9,35.1,23.0,,77.0,30.01,1015.4,0.0,0.0,0.0,2024-11-08,11,2024,15,KCHO,0.0,0.0,0.0,0.03,5
2024-11-08,8,2024-11-08 16:53,16:53,EST,NW  7,10.0,Fair,CLR,72.0,30.9,22.0,,,30.01,1015.8,0.0,0.0,0.0,2024-11-08,11,2024,16,KCHO,0.0,0.0,0.0,0.03,7
2024-11-08,8,2024-11-08 17:53,17:53,EST,Vrbl  5,10.0,Fair,CLR,68.0,30.0,24.0,,,30.03,1016.6,0.0,0.0,0.0,2024-11-08,11,2024,17,KCHO,0.0,0.0,0.0,0.03,5
2024-11-08,8,2024-11-08 19:53,19:53,EST,NW  7,10.0,Fair,CLR,66.0,30.0,26.0,,,30.06,1017.6,0.0,0.0,0.0,2024-11-08,11,2024,19,KCHO,0.0,0.0,0.0,0.01,7
2024-11-08,8,2024-11-08 20:53,20:53,EST,Vrbl  7,10.0,Fair,CLR,64.0,30.9,29.0,,,30.08,1018.2,0.0,0.0,0.0,2024-11-08,11,2024,20,KCHO,0.0,0.0,0.0,0.0,7
2024-11-08,8,2024-11-08 21:53,21:53,EST,N  7,10.0,Fair,CLR,62.1,30.0,30.0,,,30.11,1019.2,0.0,0.0,0.0,2024-11-08,11,2024,21,KCHO,0.0,0.0,0.0,0.0,7
2024-11-08,8,2024-11-08 22:53,22:53,EST,NW  10  G 25,10.0,Fair,CLR,63.0,28.9,28.0,,,30.12,1019.5,0.0,0.0,0.0,2024-11-08,11,2024,22,KCHO,0.0,0.0,0.0,0.0,10
2024-11-08,8,2024-11-08 23:53,23:53,EST,Calm,10.0,Fair,CLR,61.0,30.0,31.0,,,30.14,1020.1,0.0,0.0,0.0,2024-11-09,11,2024,23,KCHO,0.0,0.0,0.0,0.0,0
2024-11-09,9,2024-11-09 00:53,00:53,EST,NW  8,10.0,Fair,CLR,57.9,32.0,38.0,,,30.14,1020.3,0.0,0.0,0.0,2024-11-09,11,2024,0,KCHO,0.0,0.0,0.0,0.0,8
2024-11-09,9,2024-11-09 01:53,01:53,EST,N  8  G 17,10.0,Fair,CLR,59.0,32.0,36.0,,,30.16,1020.7,0.0,0.0,0.0,2024-11-09,11,2024,1,KCHO,0.0,0.0,0.0,0.0,8
2024-11-09,9,2024-11-09 02:53,02:53,EST,SE  5,10.0,Fair,CLR,52.0,33.1,49.0,,,30.19,1021.8,0.0,0.0,0.0,2024-11-09,11,2024,2,KCHO,0.0,0.0,0.0,0.0,5
2024-11-09,9,2024-11-09 03:53,03:53,EST,Calm,10.0,Fair,CLR,54.0,33.1,45.0,,,30.2,1022.1,0.0,0.0,0.0,2024-11-09,11,2024,3,KCHO,0.0,0.0,0.0,0.0,0
2024-11-09,9,2024-11-09 04:53,04:53,EST,N  9,10.0,Fair,CLR,50.0,34.0,54.0,47.0,,30.22,1023.0,0.0,0.0,0.0,2024-11-09,11,2024,4,KCHO,0.0,0.0,0.0,0.0,9
2024-11-09,9,2024-11-09 05:53,05:53,EST,E  5,10.0,Fair,CLR,48.9,34.0,56.0,48.0,,30.27,1024.6,0.0,0.0,0.0,2024-11-09,11,2024,5,KCHO,0.0,0.0,0.0,0.0,5
2024-11-09,9,2024-11-09 06:53,06:53,EST,N  3,10.0,Fair,CLR,46.0,34.0,63.0,,,30.3,1025.8,0.0,0.0,0.0,2024-11-09,11,2024,6,KCHO,0.0,0.0,0.0,0.0,3
2024-11-09,9,2024-11-09 07:53,07:53,EST,NE  7,10.0,Fair,CLR,48.9,34.0,56.0,46.0,,30.34,1027.0,0.0,0.0,0.0,2024-11-09,11,2024,7,KCHO,0.0,0.0,0.0,0.0,7
2024-11-09,9,2024-11-09 08:53,08:53,EST,NE  9,10.0,Fair,CLR,52.0,34.0,50.0,,,30.36,1027.7,0.0,0.0,0.0,2024-11-09,11,2024,8,KCHO,0.0,0.0,0.0,0.0,9
2024-11-09,9,2024-11-09 09:53,09:53,EST,NE  12  G 24,10.0,Fair,CLR,54.0,33.1,45.0,,,30.37,1028.0,0.0,0.0,0.0,2024-11-09,11,2024,9,KCHO,0.0,0.0,0.0,0.0,12
2024-11-09,9,2024-11-09 10:53,10:53,EST,E  7,10.0,Fair,CLR,55.9,34.0,44.0,,,30.38,1028.4,0.0,0.0,0.0,2024-11-09,11,2024,10,KCHO,0.0,0.0,0.0,0.0,7
2024-11-09,9,2024-11-09 11:53,11:53,EST,E  8,10.0,Fair,CLR,57.9,32.0,38.0,,,30.35,1027.6,0.0,0.0,0.0,2024-11-09,11,2024,11,KCHO,0.0,0.0,0.0,0.0,8
2024-11-09,9,2024-11-09 13:53,13:53,EST,SE  5,10.0,Fair,CLR,57.9,28.0,32.0,,,30.33,1026.8,0.0,0.0,0.0,2024-11-09,11,2024,13,KCHO,0.0,0.0,0.0,0.0,5
2024-11-09,9,2024-11-09 14:53,14:53,EST,Calm,10.0,Fair,CLR,59.0,27.0,29.0,,,30.33,1026.8,0.0,0.0,0.0,2024-11-09,11,2024,14,KCHO,0.0,0.0,0.0,0.0,0
2024-11-09,9,2024-11-09 15:53,15:53,EST,E  6,10.0,Fair,CLR,57.9,28.0,32.0,,,30.33,1026.8,0.0,0.0,0.0,2024-11-09,11,2024,15,KCHO,0.0,0.0,0.0,0.0,6
2024-11-09,9,2024-11-09 16:53,16:53,EST,Calm,10.0,Fair,CLR,55.9,28.9,36.0,,,30.34,1027.3,0.0,0.0,0.0,2024-11-09,11,2024,16,KCHO,0.0,0.0,0.0,0.0,0
2024-11-09,9,2024-11-09 17:53,17:53,EST,Calm,10.0,Fair,CLR,50.0,30.0,46.0,,,30.35,1027.7,0.0,0.0,0.0,2024-11-09,11,2024,17,KCHO,0.0,0.0,0.0,0.0,0
2024-11-09,9,2024-11-09 18:53,18:53,EST,Calm,10.0,Fair,CLR,48.9,30.0,48.0,,,30.36,1027.9,0.0,0.0,0.0,2024-11-09,11,2024,18,KCHO,0.0,0.0,0.0,0.0,0
2024-11-09,9,2024-11-09 19:53,19:53,EST,N  3,10.0,Fair,CLR,48.0,30.0,50.0,,,30.37,1028.4,0.0,0.0,0.0,2024-11-09,11,2024,19,KCHO,0.0,0.0,0.0,0.0,3
2024-11-09,9,2024-11-09 20:53,20:53,EST,Calm,10.0,Fair,CLR,45.0,30.9,58.0,,,30.38,1028.7,0.0,0.0,0.0,2024-11-09,11,2024,20,KCHO,0.0,0.0,0.0,0.0,0
2024-11-09,9,2024-11-09 21:53,21:53,EST,Calm,10.0,Fair,CLR,41.0,30.9,67.0,,,30.39,1029.1,0.0,0.0,0.0,2024-11-09,11,2024,21,KCHO,0.0,0.0,0.0,0.0,0
2024-11-09,9,2024-11-09 22:53,22:53,EST,Calm,10.0,Fair,CLR,42.1,30.9,65.0,,,30.39,1028.9,0.0,0.0,0.0,2024-11-09,11,2024,22,KCHO,0.0,0.0,0.0,0.0,0
2024-11-09,9,2024-11-09 23:53,23:53,EST,Calm,10.0,Fair,CLR,39.9,30.9,70.0,,,30.38,1028.9,0.0,0.0,0.0,2024-11-10,11,2024,23,KCHO,0.0,0.0,0.0,0.0,0
2024-11-10,10,2024-11-10 00:53,00:53,EST,Calm,10.0,Fair,CLR,39.0,33.1,79.0,,,30.37,1028.5,0.0,0.0,0.0,2024-11-10,11,2024,0,KCHO,0.0,0.0,0.0,0.0,0
2024-11-10,10,2024-11-10 01:53,01:53,EST,Calm,10.0,Fair,CLR,39.9,34.0,79.0,,,30.37,1028.5,0.0,0.0,0.0,2024-11-10,11,2024,1,KCHO,0.0,0.0,0.0,0.0,0
2024-11-10,10,2024-11-10 02:53,02:53,EST,Calm,10.0,Fair,CLR,39.9,33.1,77.0,,,30.36,1027.9,0.0,0.0,0.0,2024-11-10,11,2024,2,KCHO,0.0,0.0,0.0,0.0,0
2024-11-10,10,2024-11-10 03:53,03:53,EST,Calm,10.0,Fair,CLR,41.0,34.0,76.0,,,30.34,1027.3,0.0,0.0,0.0,2024-11-10,11,2024,3,KCHO,0.0,0.0,0.0,0.0,0
2024-11-10,10,2024-11-10 04:53,04:53,EST,SW  5,10.0,Fair,CLR,45.0,34.0,66.0,43.0,,30.33,1026.8,0.0,0.0,0.0,2024-11-10,11,2024,4,KCHO,0.0,0.0,0.0,0.0,5
2024-11-10,10,2024-11-10 05:53,05:53,EST,S  3,10.0,Fair,CLR,44.1,35.1,71.0,,,30.31,1026.4,0.0,0.0,0.0,2024-11-10,11,2024,5,KCHO,0.0,0.0,0.0,0.0,3
2024-11-10,10,2024-11-10 06:53,06:53,EST,S  5,10.0,Fair,CLR,45.0,35.1,68.0,43.0,,30.31,1026.3,0.0,0.0,0.0,2024-11-10,11,2024,6,KCHO,0.0,0.0,0.0,0.0,5
2024-11-10,10,2024-11-10 08:53,08:53,EST,SW  7,10.0,Fair,CLR,50.0,36.0,59.0,48.0,,30.3,1026.1,0.0,0.0,0.0,2024-11-10,11,2024,8,KCHO,0.0,0.0,0.0,0.0,7
2024-11-10,10,2024-11-10 09:53,09:53,EST,S  6,10.0,Mostly Cloudy,BKN030,51.1,37.0,59.0,,,30.27,1025.1,0.0,0.0,0.0,2024-11-10,11,2024,9,KCHO,0.0,0.0,0.0,0.0,6
2024-11-10,10,2024-11-10 10:53,10:53,EST,S  6,10.0,Mostly Cloudy,BKN070,53.1,37.0,55.0,,,30.25,1024.3,0.0,0.0,0.0,2024-11-10,11,2024,10,KCHO,0.0,0.0,0.0,0.0,6
2024-11-10,10,2024-11-10 11:53,11:53,EST,S  10,10.0,Fair,CLR,55.0,35.1,47.0,,,30.22,1023.3,0.0,0.0,0.0,2024-11-10,11,2024,11,KCHO,0.0,0.0,0.0,0.0,10
2024-11-10,10,2024-11-10 12:53,12:53,EST,S  15,10.0,Mostly Cloudy,BKN070,57.0,32.0,39.0,,,30.19,1022.2,0.0,0.0,0.0,2024-11-10,11,2024,12,KCHO,0.0,0.0,0.0,0.0,15
2024-11-10,10,2024-11-10 13:53,13:53,EST,S  15,10.0,Fair,CLR,55.9,36.0,47.0,,,30.15,1020.9,0.0,0.0,0.0,2024-11-10,11,2024,13,KCHO,0.0,0.0,0.0,0.0,15
2024-11-10,10,2024-11-10 14:53,14:53,EST,S  10,10.0,Partly Cloudy,SCT120,55.0,37.9,53.0,,,30.13,1020.2,0.0,0.0,0.0,2024-11-10,11,2024,14,KCHO,0.0,0.0,0.0,0.0,10
2024-11-10,10,2024-11-10 15:53,15:53,EST,S  10  G 18,10.0,Overcast,BKN070 OVC080,54.0,42.1,64.0,,,30.12,1019.8,0.0,0.0,0.0,2024-11-10,11,2024,15,KCHO,0.0,0.0,0.0,0.0,10
2024-11-10,10,2024-11-10 16:53,16:53,EST,SW  14  G 21,6.0,Light Rain,SCT036 BKN050 OVC060,53.1,41.0,64.0,,,30.11,1019.7,0.01,0.0,0.0,2024-11-10,11,2024,16,KCHO,0.01,0.01,0.01,0.01,14
2024-11-10,10,2024-11-10 17:53,17:53,EST,S  9,10.0,Overcast,SCT032 OVC065,52.0,43.0,72.0,,,30.1,1019.1,0.0,0.0,0.0,2024-11-10,11,2024,17,KCHO,0.01,0.01,0.01,0.01,9
2024-11-10,10,2024-11-10 18:53,18:53,EST,S  12,10.0,Overcast,SCT030 BKN039 OVC065,52.0,44.1,75.0,,,30.09,1018.8,0.0,0.0,0.01,2024-11-10,11,2024,18,KCHO,0.01,0.01,0.01,0.01,12
2024-11-10,10,2024-11-10 19:53,19:53,EST,S  13,10.0,Overcast,SCT032 OVC065,50.0,46.9,89.0,46.0,,30.07,1018.1,0.0,0.0,0.0,2024-11-10,11,2024,19,KCHO,0.0,0.01,0.01,0.01,13
2024-11-10,10,2024-11-10 20:53,20:53,EST,S  12,10.0,Overcast,BKN070 OVC100,51.1,48.0,89.0,,,30.04,1017.2,0.0,0.0,0.0,2024-11-10,11,2024,20,KCHO,0.0,0.01,0.01,0.01,12
2024-11-10,10,2024-11-10 21:53,21:53,EST,S  9,10.0,Overcast,FEW044 BKN055 OVC075,52.0,48.9,89.0,,,30.02,1016.6,0.0,0.0,0.0,2024-11-10,11,2024,21,KCHO,0.0,0.01,0.01,0.01,9
2024-11-10,10,2024-11-10 22:53,22:53,EST,S  10,7.0,Light Rain,FEW041 BKN070 OVC085,53.1,51.1,93.0,,,29.99,1015.3,0.0,0.0,0.0,2024-11-10,11,2024,22,KCHO,0.0,0.0,0.01,0.01,10
2024-11-10,10,2024-11-10 23:53,23:53,EST,S  12,10.0,Overcast,OVC004,53.1,51.1,93.0,,,29.97,1014.7,0.0,0.0,0.0,2024-11-11,11,2024,23,KCHO,0.0,0.0,0.01,0.01,12
2024-11-11,11,2024-11-11 00:53,00:53,EST,S  14,10.0,Overcast,OVC005,54.0,52.0,93.0,,,29.94,1013.5,0.0,0.0,0.0,2024-11-14,11,2024,0,KCHO,0.0,0.0,0.01,0.01,14
2024-11-11,11,2024-11-11 01:53,01:53,EST,S  9,10.0,Mostly Cloudy,SCT005 BKN048,54.0,52.0,93.0,,,29.91,1012.7,0.0,0.0,0.0,2024-11-14,11,2024,1,KCHO,0.0,0.0,0.01,0.01,9
2024-11-11,11,2024-11-11 02:53,02:53,EST,S  9  G 20,10.0,Overcast,OVC005,54.0,53.1,97.0,,,29.9,1012.4,0.0,0.0,0.0,2024-11-14,11,2024,2,KCHO,0.0,0.0,0.01,0.01,9
2024-11-11,11,2024-11-11 03:53,03:53,EST,S  9,10.0,Overcast,BKN005 BKN090 OVC110,55.0,53.1,93.0,,,29.89,1011.9,0.0,0.0,0.0,2024-11-14,11,2024,3,KCHO,0.0,0.0,0.01,0.01,9
2024-11-11,11,2024-11-11 04:53,04:53,EST,S  9,10.0,Mostly Cloudy,FEW080 BKN110,55.0,53.1,93.0,,,29.89,1011.9,0.0,0.0,0.0,2024-11-14,11,2024,4,KCHO,0.0,0.0,0.0,0.01,9
2024-11-11,11,2024-11-11 05:53,05:53,EST,S  8,10.0,Overcast,OVC085,55.9,54.0,93.0,,,29.87,1011.3,0.0,0.0,0.0,2024-11-11,11,2024,5,KCHO,0.0,0.0,0.0,0.01,8
2024-11-11,11,2024-11-11 06:53,06:53,EST,Vrbl  5,10.0,Fair,CLR,55.0,53.1,93.0,,,29.86,1011.0,0.0,0.0,0.0,2024-11-14,11,2024,6,KCHO,0.0,0.0,0.0,0.01,5
2024-11-11,11,2024-11-11 07:53,07:53,EST,SW  3,10.0,Fair,CLR,55.0,53.1,93.0,,,29.88,1011.5,0.0,0.0,0.0,2024-11-14,11,2024,7,KCHO,0.0,0.0,0.0,0.01,3
2024-11-11,11,2024-11-11 08:53,08:53,EST,Vrbl  3,10.0,Fair,CLR,57.9,54.0,87.0,,,29.87,1011.2,0.0,0.0,0.0,2024-11-14,11,2024,8,KCHO,0.0,0.0,0.0,0.01,3
2024-11-11,11,2024-11-11 09:53,09:53,EST,S  9,10.0,A Few Clouds,FEW120,63.0,55.9,78.0,,,29.86,1010.7,0.0,0.0,0.0,2024-11-14,11,2024,9,KCHO,0.0,0.0,0.0,0.01,9
2024-11-11,11,2024-11-11 10:53,10:53,EST,SE  8,10.0,Fair,CLR,68.0,57.0,68.0,,,29.84,1010.1,0.0,0.0,0.0,2024-11-14,11,2024,10,KCHO,0.0,0.0,0.0,0.01,8
2024-11-11,11,2024-11-11 11:53,11:53,EST,SW  8,10.0,Partly Cloudy,SCT055,73.9,51.1,45.0,,,29.81,1008.9,0.0,0.0,0.0,2024-11-14,11,2024,11,KCHO,0.0,0.0,0.0,0.01,8
2024-11-11,11,2024-11-11 12:53,12:53,EST,W  12  G 20,10.0,Fair,CLR,75.0,48.9,40.0,,77.0,29.78,1007.8,0.0,0.0,0.0,2024-11-14,11,2024,12,KCHO,0.0,0.0,0.0,0.01,12
2024-11-11,11,2024-11-11 13:53,13:53,EST,W  8  G 18,10.0,Fair,CLR,75.9,45.0,33.0,,77.0,29.76,1007.1,0.0,0.0,0.0,2024-11-14,11,2024,13,KCHO,0.0,0.0,0.0,0.01,8
2024-11-11,11,2024-11-11 14:53,14:53,EST,Vrbl  5,10.0,Fair,CLR,77.0,45.0,32.0,,78.0,29.74,1006.4,0.0,0.0,0.0,2024-11-14,11,2024,14,KCHO,0.0,0.0,0.0,0.01,5
2024-11-11,11,2024-11-11 15:53,15:53,EST,W  8,10.0,Fair,CLR,75.0,43.0,32.0,,77.0,29.74,1006.6,0.0,0.0,0.0,2024-11-14,11,2024,15,KCHO,0.0,0.0,0.0,0.01,8
2024-11-11,11,2024-11-11 16:53,16:53,EST,W  5,10.0,Fair,CLR,73.0,41.0,32.0,,,29.75,1006.8,0.0,0.0,0.0,2024-11-14,11,2024,16,KCHO,0.0,0.0,0.0,0.0,5
2024-11-11,11,2024-11-11 17:53,17:53,EST,SW  3,10.0,Fair,CLR,66.9,42.1,41.0,,,29.77,1007.5,0.0,0.0,0.0,2024-11-14,11,2024,17,KCHO,0.0,0.0,0.0,0.0,3
2024-11-11,11,2024-11-11 18:53,18:53,EST,Calm,10.0,Fair,CLR,68.0,41.0,38.0,,,29.79,1008.2,0.0,0.0,0.0,2024-11-14,11,2024,18,KCHO,0.0,0.0,0.0,0.0,0
2024-11-11,11,2024-11-11 19:53,19:53,EST,Calm,10.0,Fair,CLR,66.9,41.0,39.0,,,29.79,1008.3,0.0,0.0,0.0,2024-11-14,11,2024,19,KCHO,0.0,0.0,0.0,0.0,0
2024-11-11,11,2024-11-11 20:53,20:53,EST,W  3,10.0,Fair,CLR,63.0,39.9,43.0,,,29.8,1008.8,0.0,0.0,0.0,2024-11-14,11,2024,20,KCHO,0.0,0.0,0.0,0.0,3
2024-11-11,11,2024-11-11 21:53,21:53,EST,NW  5,10.0,Fair,CLR,64.0,39.0,40.0,,,29.82,1009.4,0.0,0.0,0.0,2024-11-14,11,2024,21,KCHO,0.0,0.0,0.0,0.0,5
2024-11-11,11,2024-11-11 22:53,22:53,EST,NW  5,10.0,Fair,CLR,63.0,37.0,38.0,,,29.83,1009.7,0.0,0.0,0.0,2024-11-14,11,2024,22,KCHO,0.0,0.0,0.0,0.0,5
2024-11-11,11,2024-11-11 23:53,23:53,EST,Calm,10.0,Fair,CLR,59.0,37.0,44.0,,,29.86,1010.7,0.0,0.0,0.0,2024-11-14,11,2024,23,KCHO,0.0,0.0,0.0,0.0,0
2024-11-12,12,2024-11-12 00:53,00:53,EST,Calm,10.0,Fair,CLR,59.0,37.9,46.0,,,29.89,1011.5,0.0,0.0,0.0,2024-11-15,11,2024,0,KCHO,0.0,0.0,0.0,0.0,0
2024-11-12,12,2024-11-12 01:53,01:53,EST,NW  3,10.0,Fair,CLR,57.9,37.9,48.0,,,29.9,1012.1,0.0,0.0,0.0,2024-11-15,11,2024,1,KCHO,0.0,0.0,0.0,0.0,3
2024-11-12,12,2024-11-12 03:53,03:53,EST,N  3,10.0,Fair,CLR,53.1,37.9,57.0,,,29.94,1013.4,0.0,0.0,0.0,2024-11-15,11,2024,3,KCHO,0.0,0.0,0.0,0.0,3
2024-11-12,12,2024-11-12 04:53,04:53,EST,Calm,10.0,Fair,CLR,54.0,37.0,53.0,,,29.97,1014.6,0.0,0.0,0.0,2024-11-15,11,2024,4,KCHO,0.0,0.0,0.0,0.0,0
2024-11-12,12,2024-11-12 05:53,05:53,EST,S  3,10.0,A Few Clouds,FEW055,48.9,36.0,61.0,,,30.0,1015.6,0.0,0.0,0.0,2024-11-15,11,2024,5,KCHO,0.0,0.0,0.0,0.0,3
2024-11-12,12,2024-11-12 06:53,06:53,EST,NW  6,10.0,Partly Cloudy,SCT050,51.1,37.0,59.0,,,30.03,1016.7,0.0,0.0,0.0,2024-11-15,11,2024,6,KCHO,0.0,0.0,0.0,0.0,6
2024-11-12,12,2024-11-12 07:53,07:53,EST,NW  6,10.0,Fair,CLR,50.0,37.9,63.0,48.0,,30.07,1017.9,0.0,0.0,0.0,2024-11-15,11,2024,7,KCHO,0.0,0.0,0.0,0.0,6
2024-11-12,12,2024-11-12 08:53,08:53,EST,NW  8,10.0,Fair,CLR,55.9,37.0,49.0,,,30.1,1018.9,0.0,0.0,0.0,2024-11-15,11,2024,8,KCHO,0.0,0.0,0.0,0.0,8
2024-11-12,12,2024-11-12 09:53,09:53,EST,Vrbl  6  G 17,10.0,Fair,CLR,55.9,34.0,44.0,,,30.13,1019.9,0.0,0.0,0.0,2024-11-15,11,2024,9,KCHO,0.0,0.0,0.0,0.0,6
2024-11-12,12,2024-11-12 10:53,10:53,EST,NW  8,10.0,Fair,CLR,57.9,35.1,42.0,,,30.14,1020.4,0.0,0.0,0.0,2024-11-15,11,2024,10,KCHO,0.0,0.0,0.0,0.0,8
2024-11-12,12,2024-11-12 11:53,11:53,EST,N  13  G 21,10.0,Fair,CLR,59.0,33.1,38.0,,,30.13,1020.1,0.0,0.0,0.0,2024-11-15,11,2024,11,KCHO,0.0,0.0,0.0,0.0,13
2024-11-12,12,2024-11-12 12:53,12:53,EST,NW  9  G 18,10.0,Fair,CLR,60.1,33.1,36.0,,,30.13,1020.0,0.0,0.0,0.0,2024-11-15,11,2024,12,KCHO,0.0,0.0,0.0,0.0,9
2024-11-12,12,2024-11-12 13:53,13:53,EST,Vrbl  7  G 16,10.0,Fair,CLR,60.1,33.1,36.0,,,30.13,1020.0,0.0,0.0,0.0,2024-11-15,11,2024,13,KCHO,0.0,0.0,0.0,0.0,7
2024-11-12,12,2024-11-12 14:53,14:53,EST,N  8  G 20,10.0,Fair,CLR,60.1,33.1,36.0,,,30.14,1020.5,0.0,0.0,0.0,2024-11-15,11,2024,14,KCHO,0.0,0.0,0.0,0.0,8
2024-11-12,12,2024-11-12 15:53,15:53,EST,NE  10,10.0,Fair,CLR,60.1,32.0,35.0,,,30.17,1021.3,0.0,0.0,0.0,2024-11-15,11,2024,15,KCHO,0.0,0.0,0.0,0.0,10
2024-11-12,12,2024-11-12 16:53,16:53,EST,N  5,10.0,Fair,CLR,55.0,32.0,42.0,,,30.19,1022.0,0.0,0.0,0.0,2024-11-15,11,2024,16,KCHO,0.0,0.0,0.0,0.0,5
2024-11-12,12,2024-11-12 17:53,17:53,EST,N  3,10.0,Fair,CLR,53.1,30.9,43.0,,,30.22,1023.1,0.0,0.0,0.0,2024-11-15,11,2024,17,KCHO,0.0,0.0,0.0,0.0,3
2024-11-12,12,2024-11-12 18:53,18:53,EST,N  3,10.0,Fair,CLR,50.0,30.9,48.0,,,30.24,1023.9,0.0,0.0,0.0,2024-11-15,11,2024,18,KCHO,0.0,0.0,0.0,0.0,3
2024-11-12,12,2024-11-12 19:53,19:53,EST,NE  7,10.0,Fair,CLR,48.9,28.9,46.0,46.0,,30.27,1024.8,0.0,0.0,0.0,2024-11-15,11,2024,19,KCHO,0.0,0.0,0.0,0.0,7
2024-11-12,12,2024-11-12 21:53,21:53,EST,NE  12  G 17,10.0,Fair,CLR,46.9,28.0,48.0,42.0,,30.32,1026.7,0.0,0.0,0.0,2024-11-15,11,2024,21,KCHO,0.0,0.0,0.0,0.0,12
2024-11-12,12,2024-11-12 22:53,22:53,EST,NE  10,10.0,Fair,CLR,45.0,27.0,49.0,40.0,,30.34,1027.3,0.0,0.0,0.0,2024-11-15,11,2024,22,KCHO,0.0,0.0,0.0,0.0,10
2024-11-12,12,2024-11-12 23:53,23:53,EST,NE  8,10.0,Fair,CLR,42.1,26.1,53.0,38.0,,30.36,1027.9,0.0,0.0,0.0,2024-11-15,11,2024,23,KCHO,0.0,0.0,0.0,0.0,8
2024-11-13,13,2024-11-13 00:53,00:53,EST,NE  6,10.0,Fair,CLR,41.0,26.1,55.0,38.0,,30.37,1028.3,0.0,0.0,0.0,2024-11-16,11,2024,0,KCHO,0.0,0.0,0.0,0.0,6
2024-11-13,13,2024-11-13 01:53,01:53,EST,Calm,10.0,Fair,CLR,41.0,25.0,53.0,,,30.38,1028.8,0.0,0.0,0.0,2024-11-16,11,2024,1,KCHO,0.0,0.0,0.0,0.0,0
2024-11-13,13,2024-11-13 02:53,02:53,EST,NE  8,10.0,Fair,CLR,37.9,25.0,60.0,33.0,,30.4,1029.4,0.0,0.0,0.0,2024-11-16,11,2024,2,KCHO,0.0,0.0,0.0,0.0,8
2024-11-13,13,2024-11-13 03:53,03:53,EST,Calm,10.0,Fair,CLR,36.0,24.1,62.0,,,30.42,1030.3,0.0,0.0,0.0,2024-11-16,11,2024,3,KCHO,0.0,0.0,0.0,0.0,0
2024-11-13,13,2024-11-13 04:53,04:53,EST,Calm,10.0,Fair,CLR,35.1,25.0,67.0,,,30.44,1031.0,0.0,0.0,0.0,2024-11-16,11,2024,4,KCHO,0.0,0.0,0.0,0.0,0
2024-11-13,13,2024-11-13 05:53,05:53,EST,Calm,10.0,Fair,CLR,34.0,24.1,67.0,,,30.46,1031.6,0.0,0.0,0.0,2024-11-16,11,2024,5,KCHO,0.0,0.0,0.0,0.0,0
2024-11-13,13,2024-11-13 06:53,06:53,EST,NE  5,10.0,Fair,CLR,32.0,24.1,73.0,28.0,,30.47,1031.9,0.0,0.0,0.0,2024-11-16,11,2024,6,KCHO,0.0,0.0,0.0,0.0,5
2024-11-13,13,2024-11-13 07:53,07:53,EST,Calm,10.0,Fair,CLR,35.1,24.1,64.0,,,30.49,1032.6,0.0,0.0,0.0,2024-11-16,11,2024,7,KCHO,0.0,0.0,0.0,0.0,0
2024-11-13,13,2024-11-13 08:53,08:53,EST,N  8,10.0,Fair,CLR,39.0,26.1,60.0,34.0,,30.5,1032.9,0.0,0.0,0.0,2024-11-16,11,2024,8,KCHO,0.0,0.0,0.0,0.0,8
2024-11-13,13,2024-11-13 09:53,09:53,EST,E  6,10.0,Fair,CLR,42.1,24.1,49.0,39.0,,30.5,1033.0,0.0,0.0,0.0,2024-11-16,11,2024,9,KCHO,0.0,0.0,0.0,0.0,6
2024-11-13,13,2024-11-13 10:53,10:53,EST,E  6,10.0,Fair,CLR,44.1,24.1,45.0,41.0,,30.49,1032.5,0.0,0.0,0.0,2024-11-16,11,2024,10,KCHO,0.0,0.0,0.0,0.0,6
2024-11-13,13,2024-11-13 11:53,11:53,EST,NE  3,10.0,Fair,CLR,46.0,24.1,42.0,,,30.46,1031.4,0.0,0.0,0.0,2024-11-16,11,2024,11,KCHO,0.0,0.0,0.0,0.0,3
2024-11-13,13,2024-11-13 12:53,12:53,EST,NE  5,10.0,Fair,CLR,48.0,24.1,39.0,47.0,,30.43,1030.4,0.0,0.0,0.0,2024-11-16,11,2024,12,KCHO,0.0,0.0,0.0,0.0,5
2024-11-13,13,2024-11-13 13:53,13:53,EST,NE  6,10.0,Fair,CLR,50.0,23.0,35.0,48.0,,30.4,1029.6,0.0,0.0,0.0,2024-11-16,11,2024,13,KCHO,0.0,0.0,0.0,0.0,6
2024-11-13,13,2024-11-13 14:53,14:53,EST,Vrbl  3,10.0,Fair,CLR,51.1,23.0,33.0,,,30.39,1029.1,0.0,0.0,0.0,2024-11-16,11,2024,14,KCHO,0.0,0.0,0.0,0.0,3
2024-11-13,13,2024-11-13 15:53,15:53,EST,E  6,10.0,Fair,CLR,50.0,21.0,32.0,48.0,,30.39,1029.0,0.0,0.0,0.0,2024-11-16,11,2024,15,KCHO,0.0,0.0,0.0,0.0,6
2024-11-13,13,2024-11-13 16:53,16:53,EST,NE  5,10.0,Fair,CLR,45.0,25.0,46.0,43.0,,30.39,1029.3,0.0,0.0,0.0,2024-11-16,11,2024,16,KCHO,0.0,0.0,0.0,0.0,5
2024-11-13,13,2024-11-13 17:53,17:53,EST,Calm,10.0,Fair,CLR,44.1,25.0,47.0,,,30.4,1029.8,0.0,0.0,0.0,2024-11-16,11,2024,17,KCHO,0.0,0.0,0.0,0.0,0
2024-11-13,13,2024-11-13 18:53,18:53,EST,Calm,10.0,Fair,CLR,39.9,28.0,63.0,,,30.41,1030.0,0.0,0.0,0.0,2024-11-16,11,2024,18,KCHO,0.0,0.0,0.0,0.0,0
2024-11-13,13,2024-11-13 19:53,19:53,EST,Calm,10.0,Fair,CLR,39.9,27.0,60.0,,,30.4,1029.9,0.0,0.0,0.0,2024-11-16,11,2024,19,KCHO,0.0,0.0,0.0,0.0,0
2024-11-13,13,2024-11-13 20:53,20:53,EST,Calm,10.0,Fair,CLR,37.0,27.0,67.0,,,30.39,1029.3,0.0,0.0,0.0,2024-11-16,11,2024,20,KCHO,0.0,0.0,0.0,0.0,0
2024-11-13,13,2024-11-13 21:53,21:53,EST,Calm,10.0,Fair,CLR,37.0,28.9,73.0,,,30.37,1028.6,0.0,0.0,0.0,2024-11-16,11,2024,21,KCHO,0.0,0.0,0.0,0.0,0
2024-11-13,13,2024-11-13 22:53,22:53,EST,Calm,10.0,Fair,CLR,39.0,26.1,60.0,,,30.36,1028.1,0.0,0.0,0.0,2024-11-16,11,2024,22,KCHO,0.0,0.0,0.0,0.0,0
2024-11-13,13,2024-11-13 23:53,23:53,EST,Calm,10.0,Fair,CLR,37.0,27.0,67.0,,,30.35,1027.8,0.0,0.0,0.0,2024-11-16,11,2024,23,KCHO,0.0,0.0,0.0,0.0,0
2024-11-14,14,2024-11-14 00:53,00:53,EST,W  3,10.0,Fair,CLR,36.0,28.9,76.0,,,30.34,1027.6,0.0,0.0,0.0,2024-11-17,11,2024,0,KCHO,0.0,0.0,0.0,0.0,3
2024-11-14,14,2024-11-14 01:53,01:53,EST,Calm,10.0,Fair,CLR,36.0,27.0,70.0,,,30.32,1026.9,0.0,0.0,0.0,2024-11-17,11,2024,1,KCHO,0.0,0.0,0.0,0.0,0
2024-11-14,14,2024-11-14 02:53,02:53,EST,Calm,10.0,Fair,CLR,35.1,27.0,72.0,,,30.3,1026.3,0.0,0.0,0.0,2024-11-17,11,2024,2,KCHO,0.0,0.0,0.0,0.0,0
2024-11-14,14,2024-11-14 03:53,03:53,EST,Calm,10.0,Partly Cloudy,SCT036,34.0,27.0,76.0,,,30.29,1025.9,0.0,0.0,0.0,2024-11-17,11,2024,3,KCHO,0.0,0.0,0.0,0.0,0
2024-11-14,14,2024-11-14 04:53,04:53,EST,Calm,10.0,Overcast,OVC035,35.1,28.9,78.0,,,30.28,1025.6,0.0,0.0,0.0,2024-11-17,11,2024,4,KCHO,0.0,0.0,0.0,0.0,0
2024-11-14,14,2024-11-14 05:53,05:53,EST,Calm,10.0,Overcast,OVC034,36.0,28.9,76.0,,,30.26,1025.0,0.0,0.0,0.0,2024-11-17,11,2024,5,KCHO,0.0,0.0,0.0,0.0,0
2024-11-14,14,2024-11-14 06:53,06:53,EST,Calm,10.0,Overcast,OVC033,37.0,30.0,76.0,,,30.25,1024.7,0.0,0.0,0.0,2024-11-17,11,2024,6,KCHO,0.0,0.0,0.0,0.0,0
2024-11-14,14,2024-11-14 07:53,07:53,EST,Calm,10.0,Overcast,OVC037,39.0,30.9,73.0,,,30.27,1025.1,0.0,0.0,0.0,2024-11-17,11,2024,7,KCHO,0.0,0.0,0.0,0.0,0
2024-11-14,14,2024-11-14 08:53,08:53,EST,Calm,10.0,Overcast,OVC037,39.9,30.9,70.0,,,30.24,1024.2,0.0,0.0,0.0,2024-11-17,11,2024,8,KCHO,0.0,0.0,0.0,0.0,0
2024-11-14,14,2024-11-14 09:53,09:53,EST,N  5,10.0,Fair,CLR,42.1,33.1,71.0,40.0,,30.21,1023.1,0.0,0.0,0.0,2024-11-17,11,2024,9,KCHO,0.0,0.0,0.0,0.0,5
2024-11-14,14,2024-11-14 10:53,10:53,EST,NE  7,3.0,Light Rain,FEW049 SCT060 OVC075,42.1,35.1,76.0,38.0,,30.2,1022.8,0.01,0.0,0.0,2024-11-17,11,2024,10,KCHO,0.01,0.01,0.01,0.01,7
2024-11-14,14,2024-11-14 11:53,11:53,EST,N  5,3.0,Light Rain Fog/Mist,FEW029 BKN060 OVC075,42.1,37.9,85.0,40.0,,30.15,1021.2,0.08,0.0,0.0,2024-11-17,11,2024,11,KCHO,0.09,0.09,0.09,0.09,5
2024-11-14,14,2024-11-14 12:53,12:53,EST,N  5,4.0,Light Rain Fog/Mist,OVC023,41.0,39.0,93.0,38.0,,30.12,1020.1,0.09,0.0,0.18,2024-11-17,11,2024,12,KCHO,0.18,0.18,0.18,0.18,5
2024-11-14,14,2024-11-14 13:53,13:53,EST,NW  3,3.0,Light Rain Fog/Mist,OVC016,42.1,39.9,92.0,,,30.11,1019.9,0.05,0.0,0.0,2024-11-17,11,2024,13,KCHO,0.21999999999999997,0.22999999999999998,0.22999999999999998,0.22999999999999998,3
2024-11-14,14,2024-11-14 14:53,14:53,EST,Calm,4.0,Light Rain Fog/Mist,OVC017,42.1,39.9,92.0,,,30.08,1018.8,0.09,0.0,0.0,2024-11-17,11,2024,14,KCHO,0.22999999999999998,0.32,0.32,0.32,0
2024-11-14,14,2024-11-14 15:53,15:53,EST,Calm,3.0,Light Rain Fog/Mist,BKN003 BKN050 OVC070,42.1,41.0,96.0,,,30.06,1018.3,0.13,0.27,0.0,2024-11-17,11,2024,15,KCHO,0.27,0.45,0.45,0.45,0
2024-11-14,14,2024-11-14 16:53,16:53,EST,NW  5,5.0,Light Rain Fog/Mist,FEW003 OVC012,42.1,41.0,96.0,40.0,,30.04,1017.4,0.05,0.0,0.0,2024-11-18,11,2024,16,KCHO,0.27,0.49,0.5,0.5,5
2024-11-14,14,2024-11-14 17:53,17:53,EST,E  3,4.0,Light Rain Fog/Mist,BKN003 OVC011,43.0,41.0,93.0,,,30.03,1017.0,0.01,0.0,0.0,2024-11-18,11,2024,17,KCHO,0.18999999999999997,0.42000000000000004,0.51,0.51,3
2024-11-14,14,2024-11-14 18:53,18:53,EST,Calm,3.0,Light Rain Fog/Mist,BKN003 OVC011,43.0,42.1,97.0,,,30.03,1017.1,0.02,0.0,0.35,2024-11-18,11,2024,18,KCHO,0.07999999999999997,0.35000000000000003,0.53,0.53,0
2024-11-14,14,2024-11-14 19:53,19:53,EST,Calm,2.5,Fog/Mist,BKN003 OVC012,43.0,42.1,97.0,,,30.02,1016.7,0.0,0.0,0.0,2024-11-18,11,2024,19,KCHO,0.02999999999999997,0.30000000000000004,0.53,0.53,0
2024-11-14,14,2024-11-14 20:53,20:53,EST,Calm,3.0,Fog/Mist,OVC003,44.1,42.1,93.0,,,30.01,1016.3,0.0,0.0,0.0,2024-11-18,11,2024,20,KCHO,0.01999999999999997,0.21000000000000002,0.53,0.53,0
2024-11-14,14,2024-11-14 21:53,21:53,EST,Calm,2.0,Light Rain Fog/Mist,BKN004 OVC007,44.1,42.1,93.0,,,30.0,1015.9,0.03,0.03,0.0,2024-11-18,11,2024,21,KCHO,0.02999999999999997,0.11,0.56,0.56,0
2024-11-14,14,2024-11-14 23:53,23:53,EST,Calm,3.0,Light Rain Fog/Mist,BKN003 OVC009,44.1,43.0,96.0,,,29.97,1014.8,0.03,0.0,0.0,2024-11-18,11,2024,23,KCHO,0.05999999999999997,0.09,0.58,0.59,0
2024-11-15,15,2024-11-15 00:53,00:53,EST,NE  5,4.0,Light Rain Fog/Mist,BKN005 OVC010,45.0,43.0,93.0,43.0,,29.94,1014.0,0.02,0.0,0.12,2024-11-18,11,2024,0,KCHO,0.07999999999999997,0.1,0.52,0.61,5
2024-11-15,15,2024-11-15 01:53,01:53,EST,NE  5,10.0,Overcast,OVC004,45.0,44.1,97.0,43.0,,29.94,1013.9,0.0,0.0,0.0,2024-11-18,11,2024,1,KCHO,0.049999999999999975,0.08,0.43,0.61,5
2024-11-15,15,2024-11-15 02:53,02:53,EST,N  7,9.0,Overcast,OVC005,45.0,44.1,97.0,42.0,,29.94,1013.9,0.0,0.0,0.0,2024-11-18,11,2024,2,KCHO,0.019999999999999973,0.08,0.38,0.61,7
2024-11-15,15,2024-11-15 03:53,03:53,EST,N  5,5.0,Fog/Mist,OVC006,45.0,44.1,97.0,43.0,,29.94,1014.0,0.0,0.0,0.0,2024-11-18,11,2024,3,KCHO,0.0,0.08,0.29,0.61,5
2024-11-15,15,2024-11-15 04:53,04:53,EST,N  3,7.0,Overcast,OVC005,45.0,44.1,97.0,,,29.95,1014.2,0.0,0.0,0.0,2024-11-18,11,2024,4,KCHO,0.0,0.05,0.16,0.61,3
2024-11-15,15,2024-11-15 05:53,05:53,EST,Calm,10.0,Overcast,FEW009 OVC020,45.0,44.1,97.0,,,29.96,1014.4,0.0,0.0,0.0,2024-11-18,11,2024,5,KCHO,0.0,0.02,0.11,0.61,0
2024-11-15,15,2024-11-15 06:53,06:53,EST,Calm,10.0,Overcast,OVC015,46.0,44.1,93.0,,,29.97,1014.9,0.0,0.0,0.0,2024-11-18,11,2024,6,KCHO,0.0,0.0,0.1,0.61,0
2024-11-15,15,2024-11-15 07:53,07:53,EST,NE  3,10.0,Light Rain,BKN005 OVC013,46.0,44.1,93.0,,,29.98,1015.4,0.0,0.0,0.0,2024-11-18,11,2024,7,KCHO,0.0,0.0,0.08,0.61,3
2024-11-15,15,2024-11-15 08:53,08:53,EST,N  3,10.0,Overcast,BKN005 OVC013,46.9,44.1,90.0,,,30.0,1015.9,0.0,0.0,0.0,2024-11-18,11,2024,8,KCHO,0.0,0.0,0.08,0.61,3
2024-11-15,15,2024-11-15 09:53,09:53,EST,Calm,10.0,Overcast,BKN006 BKN031 OVC080,48.0,45.0,89.0,,,30.0,1015.9,0.0,0.0,0.0,2024-11-18,11,2024,9,KCHO,0.0,0.0,0.08,0.61,0
2024-11-15,15,2024-11-15 10:53,10:53,EST,Calm,10.0,Mostly Cloudy,BKN008 BKN031,52.0,46.0,80.0,,,29.99,1015.4,0.0,0.0,0.0,2024-11-18,11,2024,10,KCHO,0.0,0.0,0.05,0.61,0
2024-11-15,15,2024-11-15 11:53,11:53,EST,W  6,10.0,A Few Clouds,FEW017,55.0,45.0,69.0,,,29.95,1014.1,0.0,0.0,0.0,2024-11-18,11,2024,11,KCHO,0.0,0.0,0.02,0.6,6
2024-11-15,15,2024-11-15 12:53,12:53,EST,N  6,10.0,Fair,CLR,59.0,45.0,60.0,,,29.94,1013.6,0.0,0.0,0.0,2024-11-18,11,2024,12,KCHO,0.0,0.0,0.0,0.52,6
2024-11-15,15,2024-11-15 13:53,13:53,EST,Vrbl  7,10.0,Partly Cloudy,SCT042,61.0,45.0,56.0,,,29.92,1013.1,0.0,0.0,0.0,2024-11-18,11,2024,13,KCHO,0.0,0.0,0.0,0.43,7
2024-11-15,15,2024-11-15 14:53,14:53,EST,N  9,10.0,Overcast,OVC043,59.0,45.0,60.0,,,29.93,1013.5,0.0,0.0,0.0,2024-11-18,11,2024,14,KCHO,0.0,0.0,0.0,0.38,9
2024-11-15,15,2024-11-15 15:53,15:53,EST,Calm,10.0,Partly Cloudy,SCT060,57.0,45.0,64.0,,,29.92,1013.2,0.0,0.0,0.0,2024-11-18,11,2024,15,KCHO,0.0,0.0,0.0,0.29,0
2024-11-15,15,2024-11-15 16:53,16:53,EST,Calm,10.0,Mostly Cloudy,BKN055,55.9,45.0,67.0,,,29.93,1013.5,0.0,0.0,0.0,2024-11-18,11,2024,16,KCHO,0.0,0.0,0.0,0.16,0
2024-11-15,15,2024-11-15 17:53,17:53,EST,NW  5,10.0,Overcast,OVC055,57.0,45.0,64.0,,,29.94,1013.7,0.0,0.0,0.0,2024-11-18,11,2024,17,KCHO,0.0,0.0,0.0,0.11,5
2024-11-15,15,2024-11-15 18:53,18:53,EST,S  5,10.0,Fair,CLR,52.0,45.0,77.0,,,29.94,1013.9,0.0,0.0,0.0,2024-11-18,11,2024,18,KCHO,0.0,0.0,0.0,0.1,5
2024-11-15,15,2024-11-15 20:53,20:53,EST,Vrbl  5,10.0,Mostly Cloudy,BKN046,54.0,44.1,69.0,,,29.95,1014.0,0.0,0.0,0.0,2024-11-18,11,2024,20,KCHO,0.0,0.0,0.0,0.08,5
2024-11-15,15,2024-11-15 21:53,21:53,EST,NW  5,10.0,Fair,CLR,55.0,42.1,62.0,,,29.94,1013.7,0.0,0.0,0.0,2024-11-18,11,2024,21,KCHO,0.0,0.0,0.0,0.08,5
2024-11-15,15,2024-11-15 23:53,23:53,EST,NW  7,10.0,Fair,CLR,53.1,41.0,64.0,,,29.94,1013.7,0.0,0.0,0.0,2024-11-18,11,2024,23,KCHO,0.0,0.0,0.0,0.08,7
2024-11-16,16,2024-11-16 00:53,00:53,EST,NW  5,10.0,Fair,CLR,52.0,39.9,64.0,,,29.94,1013.7,0.0,0.0,0.0,2024-11-19,11,2024,0,KCHO,0.0,0.0,0.0,0.05,5
2024-11-16,16,2024-11-16 01:53,01:53,EST,NW  3,10.0,Fair,CLR,51.1,39.0,64.0,,,29.96,1014.3,0.0,0.0,0.0,2024-11-19,11,2024,1,KCHO,0.0,0.0,0.0,0.02,3
2024-11-16,16,2024-11-16 02:53,02:53,EST,NW  5,10.0,Fair,CLR,51.1,39.0,64.0,,,29.95,1014.1,0.0,0.0,0.0,2024-11-19,11,2024,2,KCHO,0.0,0.0,0.0,0.0,5
2024-11-16,16,2024-11-16 03:53,03:53,EST,NW  6,10.0,Fair,CLR,51.1,39.0,64.0,,,29.96,1014.3,0.0,0.0,0.0,2024-11-19,11,2024,3,KCHO,0.0,0.0,0.0,0.0,6
2024-11-16,16,2024-11-16 04:53,04:53,EST,NW  6,10.0,Fair,CLR,51.1,37.9,61.0,,,29.97,1014.8,0.0,0.0,0.0,2024-11-19,11,2024,4,KCHO,0.0,0.0,0.0,0.0,6
2024-11-16,16,2024-11-16 05:53,05:53,EST,Vrbl  7,10.0,Fair,CLR,51.1,37.9,61.0,,,29.99,1015.1,0.0,0.0,0.0,2024-11-19,11,2024,5,KCHO,0.0,0.0,0.0,0.0,7
2024-11-16,16,2024-11-16 06:53,06:53,EST,N  3,10.0,Fair,CLR,50.0,37.9,63.0,,,30.0,1015.7,0.0,0.0,0.0,2024-11-19,11,2024,6,KCHO,0.0,0.0,0.0,0.0,3
2024-11-16,16,2024-11-16 07:53,07:53,EST,NW  6,10.0,Fair,CLR,52.0,39.0,61.0,,,30.03,1016.6,0.0,0.0,0.0,2024-11-19,11,2024,7,KCHO,0.0,0.0,0.0,0.0,6
2024-11-16,16,2024-11-16 08:53,08:53,EST,N  6,10.0,Fair,CLR,55.9,39.0,53.0,,,30.04,1017.1,0.0,0.0,0.0,2024-11-19,11,2024,8,KCHO,0.0,0.0,0.0,0.0,6
2024-11-16,16,2024-11-16 09:53,09:53,EST,N  13  G 24,10.0,Fair,CLR,57.0,39.9,53.0,,,30.06,1017.6,0.0,0.0,0.0,2024-11-19,11,2024,9,KCHO,0.0,0.0,0.0,0.0,13
2024-11-16,16,2024-11-16 10:53,10:53,EST,N  9,10.0,Fair,CLR,59.0,39.9,49.0,,,30.07,1018.1,0.0,0.0,0.0,2024-11-19,11,2024,10,KCHO,0.0,0.0,0.0,0.0,9
2024-11-16,16,2024-11-16 11:53,11:53,EST,NW  8  G 20,10.0,Fair,CLR,60.1,39.9,48.0,,,30.05,1017.3,0.0,0.0,0.0,2024-11-19,11,2024,11,KCHO,0.0,0.0,0.0,0.0,8
2024-11-16,16,2024-11-16 12:53,12:53,EST,N  9  G 23,10.0,Fair,CLR,61.0,39.0,44.0,,,30.04,1016.9,0.0,0.0,0.0,2024-11-19,11,2024,12,KCHO,0.0,0.0,0.0,0.0,9
2024-11-16,16,2024-11-16 13:53,13:53,EST,NW  10  G 17,10.0,Fair,CLR,63.0,39.0,41.0,,,30.02,1016.4,0.0,0.0,0.0,2024-11-19,11,2024,13,KCHO,0.0,0.0,0.0,0.0,10
2024-11-16,16,2024-11-16 14:53,14:53,EST,N  10  G 16,10.0,Fair,CLR,63.0,39.0,41.0,,,30.02,1016.3,0.0,0.0,0.0,2024-11-19,11,2024,14,KCHO,0.0,0.0,0.0,0.0,10
2024-11-16,16,2024-11-16 15:53,15:53,EST,Vrbl  3,10.0,Fair,CLR,62.1,39.0,43.0,,,30.04,1017.0,0.0,0.0,0.0,2024-11-19,11,2024,15,KCHO,0.0,0.0,0.0,0.0,3
2024-11-16,16,2024-11-16 16:53,16:53,EST,NW  5,10.0,Fair,CLR,59.0,37.9,46.0,,,30.05,1017.2,0.0,0.0,0.0,2024-11-19,11,2024,16,KCHO,0.0,0.0,0.0,0.0,5
2024-11-16,16,2024-11-16 17:53,17:53,EST,N  5,10.0,Fair,CLR,55.0,37.9,53.0,,,30.07,1018.0,0.0,0.0,0.0,2024-11-19,11,2024,17,KCHO,0.0,0.0,0.0,0.0,5
2024-11-16,16,2024-11-16 18:53,18:53,EST,N  3,10.0,Fair,CLR,54.0,37.0,53.0,,,30.07,1018.0,0.0,0.0,0.0,2024-11-19,11,2024,18,KCHO,0.0,0.0,0.0,0.0,3
2024-11-16,16,2024-11-16 19:53,19:53,EST,Calm,10.0,Fair,CLR,50.0,37.0,61.0,,,30.07,1018.2,0.0,0.0,0.0,2024-11-19,11,2024,19,KCHO,0.0,0.0,0.0,0.0,0
2024-11-16,16,2024-11-16 20:53,20:53,EST,E  3,10.0,Fair,CLR,50.0,37.0,61.0,,,30.1,1019.0,0.0,0.0,0.0,2024-11-19,11,2024,20,KCHO,0.0,0.0,0.0,0.0,3
2024-11-16,16,2024-11-16 21:53,21:53,EST,Calm,10.0,Fair,CLR,48.0,37.0,66.0,,,30.1,1019.2,0.0,0.0,0.0,2024-11-19,11,2024,21,KCHO,0.0,0.0,0.0,0.0,0
2024-11-16,16,2024-11-16 22:53,22:53,EST,NE  3,10.0,Fair,CLR,46.0,36.0,68.0,,,30.1,1019.2,0.0,0.0,0.0,2024-11-19,11,2024,22,KCHO,0.0,0.0,0.0,0.0,3
2024-11-16,16,2024-11-16 23:53,23:53,EST,Calm,10.0,Fair,CLR,43.0,36.0,76.0,,,30.11,1019.6,0.0,0.0,0.0,2024-11-19,11,2024,23,KCHO,0.0,0.0,0.0,0.0,0
2024-11-17,17,2024-11-17 01:53,01:53,EST,W  3,10.0,Fair,CLR,39.9,34.0,79.0,,,30.11,1019.6,0.0,0.0,0.0,2024-11-20,11,2024,1,KCHO,0.0,0.0,0.0,0.0,3
2024-11-17,17,2024-11-17 02:53,02:53,EST,Vrbl  3,10.0,Fair,CLR,37.9,34.0,86.0,,,30.12,1019.7,0.0,0.0,0.0,2024-11-20,11,2024,2,KCHO,0.0,0.0,0.0,0.0,3
2024-11-17,17,2024-11-17 03:53,03:53,EST,Calm,10.0,Fair,CLR,37.9,34.0,86.0,,,30.11,1019.5,0.0,0.0,0.0,2024-11-20,11,2024,3,KCHO,0.0,0.0,0.0,0.0,0
2024-11-17,17,2024-11-17 04:53,04:53,EST,Calm,10.0,Fair,CLR,36.0,34.0,93.0,,,30.13,1020.1,0.0,0.0,0.0,2024-11-20,11,2024,4,KCHO,0.0,0.0,0.0,0.0,0
2024-11-17,17,2024-11-17 05:53,05:53,EST,Calm,10.0,Fair,CLR,35.1,33.1,93.0,,,30.12,1020.1,0.0,0.0,0.0,2024-11-20,11,2024,5,KCHO,0.0,0.0,0.0,0.0,0
2024-11-17,17,2024-11-17 06:53,06:53,EST,Calm,10.0,Fair,CLR,33.1,32.0,96.0,,,30.13,1020.4,0.0,0.0,0.0,2024-11-20,11,2024,6,KCHO,0.0,0.0,0.0,0.0,0
2024-11-17,17,2024-11-17 07:53,07:53,EST,Calm,10.0,Fair,CLR,36.0,34.0,93.0,,,30.15,1021.0,0.0,0.0,0.0,2024-11-20,11,2024,7,KCHO,0.0,0.0,0.0,0.0,0
2024-11-17,17,2024-11-17 08:53,08:53,EST,Calm,10.0,Fair,CLR,45.0,39.0,80.0,,,30.15,1020.8,0.0,0.0,0.0,2024-11-20,11,2024,8,KCHO,0.0,0.0,0.0,0.0,0
2024-11-17,17,2024-11-17 09:53,09:53,EST,Calm,10.0,Fair,CLR,48.9,39.0,69.0,,,30.15,1020.9,0.0,0.0,0.0,2024-11-20,11,2024,9,KCHO,0.0,0.0,0.0,0.0,0
2024-11-17,17,2024-11-17 11:53,11:53,EST,S  8,10.0,Fair,CLR,57.0,39.9,53.0,,,30.11,1019.4,0.0,0.0,0.0,2024-11-20,11,2024,11,KCHO,0.0,0.0,0.0,0.0,8
2024-11-17,17,2024-11-17 12:53,12:53,EST,Calm,10.0,Fair,CLR,59.0,41.0,51.0,,,30.07,1018.2,0.0,0.0,0.0,2024-11-20,11,2024,12,KCHO,0.0,0.0,0.0,0.0,0
2024-11-17,17,2024-11-17 13:53,13:53,EST,S  6,10.0,Fair,CLR,60.1,41.0,50.0,,,30.05,1017.6,0.0,0.0,0.0,2024-11-20,11,2024,13,KCHO,0.0,0.0,0.0,0.0,6
2024-11-17,17,2024-11-17 14:53,14:53,EST,Vrbl  7,10.0,Fair,CLR,61.0,41.0,48.0,,,30.04,1017.1,0.0,0.0,0.0,2024-11-20,11,2024,14,KCHO,0.0,0.0,0.0,0.0,7
2024-11-17,17,2024-11-17 15:53,15:53,EST,S  6,10.0,Fair,CLR,61.0,42.1,50.0,,,30.04,1017.1,0.0,0.0,0.0,2024-11-20,11,2024,15,KCHO,0.0,0.0,0.0,0.0,6
2024-11-18,18,2024-11-18 09:47,09:47,EST,W  6,10.0,Fair,CLR,57.2,42.8,59.0,,,30.01,0.0,0.0,0.0,0.0,2024-11-21,11,2024,9,KCHO,0.0,0.0,0.0,0.0,6
2024-11-18,18,2024-11-18 12:53,12:53,EST,Vrbl  6,10.0,Fair,CLR,70.0,48.0,46.0,,,29.94,1013.6,0.0,0.0,0.0,2024-11-21,11,2024,12,KCHO,0.0,0.0,0.0,0.0,6
2024-11-18,18,2024-11-18 13:53,13:53,EST,NW  6,10.0,Fair,CLR,72.0,48.0,43.0,,,29.92,1012.9,0.0,0.0,0.0,2024-11-21,11,2024,13,KCHO,0.0,0.0,0.0,0.0,6
2024-11-18,18,2024-11-18 14:53,14:53,EST,Calm,6.0,Fair with Haze,CLR,72.0,46.9,41.0,,,29.91,1012.7,0.0,0.0,0.0,2024-11-21,11,2024,14,KCHO,0.0,0.0,0.0,0.0,0
2024-11-18,18,2024-11-18 15:53,15:53,EST,Calm,5.0,Fair with Haze,CLR,70.0,46.9,44.0,,,29.92,1013.1,0.0,0.0,0.0,2024-11-21,11,2024,15,KCHO,0.0,0.0,0.0,0.0,0
2024-11-18,18,2024-11-18 16:53,16:53,EST,SW  5,10.0,Fair,CLR,66.2,48.2,52.0,,,29.93,0.0,0.0,0.0,0.0,2024-11-21,11,2024,16,KCHO,0.0,0.0,0.0,0.0,5
2024-11-18,18,2024-11-18 17:53,17:53,EST,SW  3,6.0,Fair,CLR,64.0,48.0,56.0,,,29.95,1014.1,0.0,0.0,0.0,2024-11-21,11,2024,17,KCHO,0.0,0.0,0.0,0.0,3
2024-11-18,18,2024-11-18 18:53,18:53,EST,Calm,10.0,Fair,CLR,61.0,48.0,63.0,,,29.96,1014.4,0.0,0.0,0.0,2024-11-21,11,2024,18,KCHO,0.0,0.0,0.0,0.0,0
2024-11-18,18,2024-11-18 20:53,20:53,EST,Calm,10.0,Fair,CLR,57.0,48.0,72.0,,,29.95,1014.1,0.0,0.0,0.0,2024-11-21,11,2024,20,KCHO,0.0,0.0,0.0,0.0,0
2024-11-18,18,2024-11-18 21:53,21:53,EST,Vrbl  3,10.0,Fair,CLR,55.9,48.0,75.0,,,29.98,1015.0,0.0,0.0,0.0,2024-11-21,11,2024,21,KCHO,0.0,0.0,0.0,0.0,3
2024-11-18,18,2024-11-18 22:53,22:53,EST,NE  6,10.0,Fair,CLR,54.0,46.9,77.0,,,29.96,1014.1,0.0,0.0,0.0,2024-11-21,11,2024,22,KCHO,0.0,0.0,0.0,0.0,6
2024-11-18,18,2024-11-18 23:53,23:53,EST,Calm,10.0,Fair,CLR,53.1,46.9,80.0,,,29.96,1014.0,0.0,0.0,0.0,2024-11-21,11,2024,23,KCHO,0.0,0.0,0.0,0.0,0
2024-11-19,19,2024-11-19 00:53,00:53,EST,W  5,10.0,Fair,CLR,52.0,46.9,83.0,,,29.96,1014.2,0.0,0.0,0.0,2024-11-22,11,2024,0,KCHO,0.0,0.0,0.0,0.0,5
2024-11-19,19,2024-11-19 01:53,01:53,EST,Calm,10.0,Fair,CLR,53.1,46.9,80.0,,,29.95,1013.8,0.0,0.0,0.0,2024-11-22,11,2024,1,KCHO,0.0,0.0,0.0,0.0,0
2024-11-19,19,2024-11-19 02:53,02:53,EST,NE  3,10.0,Fair,CLR,51.1,46.9,86.0,,,29.95,1013.9,0.0,0.0,0.0,2024-11-22,11,2024,2,KCHO,0.0,0.0,0.0,0.0,3
2024-11-19,19,2024-11-19 03:53,03:53,EST,Calm,10.0,Fair,CLR,50.0,46.0,86.0,,,29.95,1013.9,0.0,0.0,0.0,2024-11-22,11,2024,3,KCHO,0.0,0.0,0.0,0.0,0
2024-11-19,19,2024-11-19 04:53,04:53,EST,N  5,10.0,Fair,CLR,48.9,46.0,90.0,48.0,,29.94,1013.4,0.0,0.0,0.0,2024-11-22,11,2024,4,KCHO,0.0,0.0,0.0,0.0,5
2024-11-19,19,2024-11-19 05:53,05:53,EST,N  5,10.0,Fair,CLR,50.0,46.0,86.0,49.0,,29.96,1014.2,0.0,0.0,0.0,2024-11-22,11,2024,5,KCHO,0.0,0.0,0.0,0.0,5
2024-11-19,19,2024-11-19 06:53,06:53,EST,N  3,10.0,Fair,CLR,50.0,46.0,86.0,,,29.98,1014.8,0.0,0.0,0.0,2024-11-22,11,2024,6,KCHO,0.0,0.0,0.0,0.0,3
2024-11-19,19,2024-11-19 07:53,07:53,EST,Calm,10.0,Fair,CLR,51.1,46.9,86.0,,,29.99,1015.4,0.0,0.0,0.0,2024-11-22,11,2024,7,KCHO,0.0,0.0,0.0,0.0,0
2024-11-19,19,2024-11-19 08:53,08:53,EST,Calm,10.0,Fair,CLR,57.0,48.9,74.0,,,29.99,1015.4,0.0,0.0,0.0,2024-11-22,11,2024,8,KCHO,0.0,0.0,0.0,0.0,0
2024-11-19,19,2024-11-19 09:53,09:53,EST,NE  6,10.0,Fair,CLR,57.9,45.0,62.0,,,29.99,1015.3,0.0,0.0,0.0,2024-11-22,11,2024,9,KCHO,0.0,0.0,0.0,0.0,6
2024-11-19,19,2024-11-19 10:53,10:53,EST,NE  6,10.0,Fair,CLR,60.1,43.0,53.0,,,29.96,1014.2,0.0,0.0,0.0,2024-11-22,11,2024,10,KCHO,0.0,0.0,0.0,0.0,6
2024-11-19,19,2024-11-19 11:53,11:53,EST,SE  3,10.0,Fair,CLR,60.1,43.0,53.0,,,29.94,1013.4,0.0,0.0,0.0,2024-11-22,11,2024,11,KCHO,0.0,0.0,0.0,0.0,3
2024-11-19,19,2024-11-19 12:53,12:53,EST,Calm,10.0,Fair,CLR,60.1,45.0,58.0,,,29.91,1012.6,0.0,0.0,0.0,2024-11-22,11,2024,12,KCHO,0.0,0.0,0.0,0.0,0
2024-11-19,19,2024-11-19 13:53,13:53,EST,Calm,10.0,Fair,CLR,60.1,44.1,56.0,,,29.88,1011.5,0.0,0.0,0.0,2024-11-22,11,2024,13,KCHO,0.0,0.0,0.0,0.0,0
2024-11-19,19,2024-11-19 14:53,14:53,EST,Calm,10.0,Fair,CLR,60.1,44.1,56.0,,,29.85,1010.7,0.0,0.0,0.0,2024-11-22,11,2024,14,KCHO,0.0,0.0,0.0,0.0,0
2024-11-19,19,2024-11-19 15:53,15:53,EST,Calm,10.0,Fair,CLR,59.0,45.0,60.0,,,29.84,1010.3,0.0,0.0,0.0,2024-11-22,11,2024,15,KCHO,0.0,0.0,0.0,0.0,0
2024-11-19,19,2024-11-19 16:53,16:53,EST,Calm,10.0,Overcast,BKN065 OVC120,57.0,46.0,67.0,,,29.84,1010.3,0.0,0.0,0.0,2024-11-22,11,2024,16,KCHO,0.0,0.0,0.0,0.0,0
2024-11-19,19,2024-11-19 17:53,17:53,EST,Calm,10.0,Mostly Cloudy,BKN055,57.0,46.0,67.0,,,29.84,1010.2,0.0,0.0,0.0,2024-11-22,11,2024,17,KCHO,0.0,0.0,0.0,0.0,0
2024-11-19,19,2024-11-19 18:53,18:53,EST,Calm,10.0,Overcast,OVC050,55.9,46.0,70.0,,,29.85,1010.5,0.0,0.0,0.0,2024-11-22,11,2024,18,KCHO,0.0,0.0,0.0,0.0,0
2024-11-19,19,2024-11-19 19:53,19:53,EST,Calm,10.0,Overcast,OVC046,55.9,46.9,72.0,,,29.85,1010.6,0.0,0.0,0.0,2024-11-22,11,2024,19,KCHO,0.0,0.0,0.0,0.0,0
2024-11-19,19,2024-11-19 20:53,20:53,EST,Calm,10.0,Overcast,OVC042,55.0,48.0,77.0,,,29.84,1010.3,0.0,0.0,0.0,2024-11-22,11,2024,20,KCHO,0.0,0.0,0.0,0.0,0
2024-11-19,19,2024-11-19 21:53,21:53,EST,Calm,10.0,Overcast,BKN047 OVC090,54.0,48.9,83.0,,,29.84,1010.1,0.0,0.0,0.0,2024-11-22,11,2024,21,KCHO,0.0,0.0,0.0,0.0,0
2024-11-19,19,2024-11-19 22:53,22:53,EST,Calm,7.0,Light Rain,FEW060 FEW075 OVC095,54.0,50.0,87.0,,,29.83,1010.0,0.0,0.0,0.0,2024-11-22,11,2024,22,KCHO,0.0,0.0,0.0,0.0,0
2024-11-19,19,2024-11-19 23:53,23:53,EST,Calm,10.0,Overcast,OVC100,52.0,50.0,93.0,,,29.82,1009.5,0.0,0.0,0.0,2024-11-22,11,2024,23,KCHO,0.0,0.0,0.0,0.0,0
2024-11-20,20,2024-11-20 00:53,00:53,EST,Calm,10.0,Light Rain,FEW055 BKN085 OVC110,53.1,50.0,89.0,,,29.81,1009.0,0.0,0.0,0.0,2024-11-23,11,2024,0,KCHO,0.0,0.0,0.0,0.0,0
2024-11-20,20,2024-11-20 01:53,01:53,EST,Calm,9.0,Overcast,OVC080,53.1,50.0,89.0,,,29.8,1008.8,0.0,0.0,0.0,2024-11-23,11,2024,1,KCHO,0.0,0.0,0.0,0.0,0
2024-11-20,20,2024-11-20 02:53,02:53,EST,Calm,8.0,Overcast,OVC070,53.1,51.1,93.0,,,29.79,1008.6,0.0,0.0,0.0,2024-11-23,11,2024,2,KCHO,0.0,0.0,0.0,0.0,0
2024-11-20,20,2024-11-20 03:53,03:53,EST,Calm,8.0,Overcast,OVC060,53.1,51.1,93.0,,,29.78,1008.3,0.0,0.0,0.0,2024-11-23,11,2024,3,KCHO,0.0,0.0,0.0,0.0,0
2024-11-20,20,2024-11-20 04:53,04:53,EST,Calm,9.0,Overcast,FEW009 OVC060,52.0,50.0,93.0,,,29.79,1008.6,0.0,0.0,0.0,2024-11-23,11,2024,4,KCHO,0.0,0.0,0.0,0.0,0
2024-11-20,20,2024-11-20 05:53,05:53,EST,Calm,4.0,Fog/Mist,BKN090,51.1,50.0,96.0,,,29.8,1008.8,0.0,0.0,0.0,2024-11-23,11,2024,5,KCHO,0.0,0.0,0.0,0.0,0
2024-11-20,20,2024-11-20 06:53,06:53,EST,Calm,0.5,Fog,BKN002 OVC050,50.0,48.0,93.0,,,29.8,1008.8,0.0,0.0,0.0,2024-11-23,11,2024,6,KCHO,0.0,0.0,0.0,0.0,0
2024-11-20,20,2024-11-20 07:53,07:53,EST,N  6,6.0,Fog/Mist,FEW010 OVC047,51.1,48.9,92.0,,,29.8,1008.9,0.0,0.0,0.0,2024-11-23,11,2024,7,KCHO,0.0,0.0,0.0,0.0,6
2024-11-20,20,2024-11-20 08:53,08:53,EST,Vrbl  3,7.0,Overcast,OVC047,53.1,50.0,89.0,,,29.79,1008.4,0.0,0.0,0.0,2024-11-23,11,2024,8,KCHO,0.0,0.0,0.0,0.0,3
2024-11-20,20,2024-11-20 09:53,09:53,EST,Vrbl  3,10.0,Overcast,OVC033,55.0,50.0,83.0,,,29.78,1008.3,0.0,0.0,0.0,2024-11-23,11,2024,9,KCHO,0.0,0.0,0.0,0.0,3
2024-11-20,20,2024-11-20 10:53,10:53,EST,Calm,10.0,Overcast,OVC034,55.9,50.0,81.0,,,29.79,1008.5,0.0,0.0,0.0,2024-11-23,11,2024,10,KCHO,0.0,0.0,0.0,0.0,0
2024-11-20,20,2024-11-20 11:53,11:53,EST,Calm,10.0,Overcast,BKN035 OVC045,57.9,51.1,78.0,,,29.74,1006.8,0.0,0.0,0.0,2024-11-23,11,2024,11,KCHO,0.0,0.0,0.0,0.0,0
2024-11-20,20,2024-11-20 12:53,12:53,EST,NW  5,10.0,Overcast,OVC028,59.0,52.0,78.0,,,29.72,1006.2,0.0,0.0,0.0,2024-11-23,11,2024,12,KCHO,0.0,0.0,0.0,0.0,5
2024-11-20,20,2024-11-20 13:53,13:53,EST,NW  3,10.0,Overcast,BKN028 OVC037,59.0,52.0,78.0,,,29.69,1005.3,0.0,0.0,0.0,2024-11-23,11,2024,13,KCHO,0.0,0.0,0.0,0.0,3
2024-11-20,20,2024-11-20 14:53,14:53,EST,Calm,10.0,Overcast,OVC032,61.0,53.1,75.0,,,29.68,1004.9,0.0,0.0,0.0,2024-11-23,11,2024,14,KCHO,0.0,0.0,0.0,0.0,0
2024-11-20,20,2024-11-20 15:53,15:53,EST,Calm,10.0,Overcast,SCT021 BKN035 OVC042,60.1,53.1,78.0,,,29.66,1004.2,0.0,0.0,0.0,2024-11-23,11,2024,15,KCHO,0.0,0.0,0.0,0.0,0
2024-11-20,20,2024-11-20 16:53,16:53,EST,E  3,10.0,Overcast,OVC019,59.0,52.0,78.0,,,29.63,1003.1,0.0,0.0,0.0,2024-11-23,11,2024,16,KCHO,0.0,0.0,0.0,0.0,3
2024-11-20,20,2024-11-20 17:53,17:53,EST,Calm,10.0,Light Rain,OVC017,57.9,53.1,84.0,,,29.62,1002.7,0.0,0.0,0.0,2024-11-23,11,2024,17,KCHO,0.0,0.0,0.0,0.0,0
2024-11-20,20,2024-11-20 18:53,18:53,EST,Calm,2.0,Light Rain Fog/Mist,BKN011 OVC029,55.9,55.0,97.0,,,29.62,1003.0,0.26,0.0,0.26,2024-11-23,11,2024,18,KCHO,0.26,0.26,0.26,0.26,0
2024-11-20,20,2024-11-20 19:53,19:53,EST,NW  10  G 20,4.0,Light Rain Fog/Mist,SCT002 BKN043 OVC060,55.9,54.0,93.0,,,29.65,1003.9,0.06,0.0,0.0,2024-11-23,11,2024,19,KCHO,0.32,0.32,0.32,0.32,10
2024-11-20,20,2024-11-20 20:53,20:53,EST,NW  9  G 24,10.0,Overcast,OVC055,51.1,39.0,64.0,,,29.7,1005.5,0.01,0.0,0.0,2024-11-23,11,2024,20,KCHO,0.33,0.33,0.33,0.33,9
2024-11-20,20,2024-11-20 21:53,21:53,EST,NW  10  G 24,10.0,Overcast,OVC070,52.0,30.9,45.0,,,29.69,1005.2,0.0,0.07,0.0,2024-11-23,11,2024,21,KCHO,0.06999999999999999,0.33,0.33,0.33,10
2024-11-20,20,2024-11-20 22:53,22:53,EST,Vrbl  7,10.0,Mostly Cloudy,FEW050 BKN100 BKN120,50.0,30.0,46.0,48.0,,29.7,1005.5,0.0,0.0,0.0,2024-11-23,11,2024,22,KCHO,0.01,0.33,0.33,0.33,7
2024-11-20,20,2024-11-20 23:53,23:53,EST,NW  12  G 26,10.0,Fair,CLR,48.0,26.1,42.0,44.0,,29.73,1006.4,0.0,0.0,0.0,2024-11-23,11,2024,23,KCHO,0.0,0.33,0.33,0.33,12
2024-11-21,21,2024-11-21 00:53,00:53,EST,NW  8  G 22,10.0,Fair,CLR,45.0,24.1,44.0,41.0,,29.74,1006.8,0.0,0.0,0.07,2024-11-24,11,2024,0,KCHO,0.0,0.06999999999999999,0.33,0.33,8
2024-11-21,21,2024-11-21 01:53,01:53,EST,NW  5,10.0,Fair,CLR,43.0,24.1,47.0,41.0,,29.75,1007.1,0.0,0.0,0.0,2024-11-24,11,2024,1,KCHO,0.0,0.01,0.33,0.33,5
2024-11-21,21,2024-11-21 02:53,02:53,EST,NW  5,10.0,Fair,CLR,42.1,25.0,51.0,40.0,,29.73,1006.5,0.0,0.0,0.0,2024-11-24,11,2024,2,KCHO,0.0,0.0,0.33,0.33,5
2024-11-21,21,2024-11-21 03:53,03:53,EST,Calm,10.0,Fair,CLR,42.1,25.0,51.0,,,29.71,1005.9,0.0,0.0,0.0,2024-11-24,11,2024,3,KCHO,0.0,0.0,0.33,0.33,0
2024-11-21,21,2024-11-21 04:53,04:53,EST,Calm,10.0,Fair,CLR,37.9,26.1,62.0,,,29.71,1006.0,0.0,0.0,0.0,2024-11-24,11,2024,4,KCHO,0.0,0.0,0.33,0.33,0
2024-11-21,21,2024-11-21 05:53,05:53,EST,W  3,10.0,Fair,CLR,36.0,27.0,70.0,,,29.72,1006.2,0.0,0.0,0.0,2024-11-24,11,2024,5,KCHO,0.0,0.0,0.33,0.33,3
2024-11-21,21,2024-11-21 06:53,06:53,EST,Calm,10.0,Fair,CLR,36.0,26.1,67.0,,,29.71,1006.2,0.0,0.0,0.0,2024-11-24,11,2024,6,KCHO,0.0,0.0,0.06999999999999999,0.33,0
2024-11-21,21,2024-11-21 07:53,07:53,EST,SW  3,10.0,Fair,CLR,39.0,27.0,62.0,,,29.71,1006.0,0.0,0.0,0.0,2024-11-24,11,2024,7,KCHO,0.0,0.0,0.01,0.33,3
2024-11-21,21,2024-11-21 08:53,08:53,EST,Calm,10.0,Fair,CLR,41.0,28.9,62.0,,,29.69,1005.5,0.0,0.0,0.0,2024-11-24,11,2024,8,KCHO,0.0,0.0,0.0,0.33,0
2024-11-21,21,2024-11-21 09:53,09:53,EST,Vrbl  3,10.0,Fair,CLR,46.0,28.9,51.0,,,29.67,1004.7,0.0,0.0,0.0,2024-11-24,11,2024,9,KCHO,0.0,0.0,0.0,0.33,3
2024-11-21,21,2024-11-21 10:53,10:53,EST,W  13,10.0,Partly Cloudy,SCT060,50.0,27.0,41.0,46.0,,29.66,1004.1,0.0,0.0,0.0,2024-11-24,11,2024,10,KCHO,0.0,0.0,0.0,0.33,13
2024-11-21,21,2024-11-21 11:53,11:53,EST,W  12,10.0,Overcast,SCT060 BKN075 OVC100,48.9,27.0,43.0,45.0,,29.63,1003.2,0.0,0.0,0.0,2024-11-24,11,2024,11,KCHO,0.0,0.0,0.0,0.33,12
2024-11-21,21,2024-11-21 12:53,12:53,EST,W  14,10.0,Overcast,BKN065 OVC110,48.0,25.0,41.0,43.0,,29.61,1002.7,0.0,0.0,0.0,2024-11-24,11,2024,12,KCHO,0.0,0.0,0.0,0.33,14
2024-11-21,21,2024-11-21 13:53,13:53,EST,W  9,10.0,Overcast,BKN070 OVC110,48.0,26.1,42.0,44.0,,29.61,1002.5,0.0,0.0,0.0,2024-11-24,11,2024,13,KCHO,0.0,0.0,0.0,0.33,9
2024-11-21,21,2024-11-21 14:53,14:53,EST,Vrbl  5,10.0,Overcast,BKN065 OVC080,48.0,25.0,41.0,47.0,,29.61,1002.5,0.0,0.0,0.0,2024-11-24,11,2024,14,KCHO,0.0,0.0,0.0,0.33,5
2024-11-21,21,2024-11-21 15:53,15:53,EST,Calm,10.0,Mostly Cloudy,FEW090 BKN110,46.0,26.1,46.0,,,29.62,1003.0,0.0,0.0,0.0,2024-11-24,11,2024,15,KCHO,0.0,0.0,0.0,0.33,0
2024-11-21,21,2024-11-21 16:53,16:53,EST,Vrbl  6,10.0,Mostly Cloudy,BKN120,44.1,26.1,49.0,41.0,,29.63,1003.3,0.0,0.0,0.0,2024-11-24,11,2024,16,KCHO,0.0,0.0,0.0,0.33,6
2024-11-21,21,2024-11-21 17:53,17:53,EST,NW  9  G 29,10.0,Partly Cloudy,FEW070 SCT090,43.0,27.0,53.0,38.0,,29.66,1004.5,0.0,0.0,0.0,2024-11-24,11,2024,17,KCHO,0.0,0.0,0.0,0.33,9
2024-11-21,21,2024-11-21 18:53,18:53,EST,Vrbl  6,10.0,Partly Cloudy,SCT120,39.9,26.1,58.0,36.0,,29.66,1004.5,0.0,0.0,0.0,2024-11-24,11,2024,18,KCHO,0.0,0.0,0.0,0.06999999999999999,6
2024-11-21,21,2024-11-21 19:53,19:53,EST,SE  6,10.0,Fair,CLR,37.0,25.0,62.0,33.0,,29.67,1004.8,0.0,0.0,0.0,2024-11-24,11,2024,19,KCHO,0.0,0.0,0.0,0.01,6
2024-11-21,21,2024-11-21 20:53,20:53,EST,W  6,10.0,Partly Cloudy,SCT120,39.0,23.0,53.0,35.0,,29.67,1004.8,0.0,0.0,0.0,2024-11-24,11,2024,20,KCHO,0.0,0.0,0.0,0.0,6
2024-11-21,21,2024-11-21 21:53,21:53,EST,W  6,10.0,Fair,CLR,37.9,21.9,52.0,34.0,,29.67,1004.9,0.0,0.0,0.0,2024-11-24,11,2024,21,KCHO,0.0,0.0,0.0,0.0,6
2024-11-21,21,2024-11-21 22:53,22:53,EST,Vrbl  3,10.0,A Few Clouds,FEW060,36.0,21.0,55.0,,,29.67,1004.7,0.0,0.0,0.0,2024-11-24,11,2024,22,KCHO,0.0,0.0,0.0,0.0,3
2024-11-21,21,2024-11-21 23:53,23:53,EST,Vrbl  3,10.0,A Few Clouds,FEW070,36.0,18.0,48.0,,,29.67,1004.7,0.0,0.0,0.0,2024-11-24,11,2024,23,KCHO,0.0,0.0,0.0,0.0,3
2024-11-22,22,2024-11-22 00:53,00:53,EST,Vrbl  6,10.0,Fair,CLR,35.1,17.1,48.0,31.0,,29.65,1004.3,0.0,0.0,0.0,2024-11-25,11,2024,0,KCHO,0.0,0.0,0.0,0.0,6
2024-11-22,22,2024-11-22 01:53,01:53,EST,Vrbl  5,10.0,Fair,CLR,34.0,17.1,50.0,30.0,,29.64,1003.6,0.0,0.0,0.0,2024-11-25,11,2024,1,KCHO,0.0,0.0,0.0,0.0,5
2024-11-22,22,2024-11-22 02:53,02:53,EST,Vrbl  3,10.0,Fair,CLR,33.1,17.1,52.0,,,29.63,1003.3,0.0,0.0,0.0,2024-11-25,11,2024,2,KCHO,0.0,0.0,0.0,0.0,3
2024-11-22,22,2024-11-22 03:53,03:53,EST,Vrbl  3,10.0,Fair,CLR,30.9,16.0,54.0,,,29.62,1003.1,0.0,0.0,0.0,2024-11-25,11,2024,3,KCHO,0.0,0.0,0.0,0.0,3
2024-11-22,22,2024-11-22 04:53,04:53,EST,Vrbl  6,10.0,Fair,CLR,32.0,16.0,52.0,27.0,,29.62,1003.1,0.0,0.0,0.0,2024-11-25,11,2024,4,KCHO,0.0,0.0,0.0,0.0,6
2024-11-22,22,2024-11-22 05:53,05:53,EST,NW  9,10.0,Fair,CLR,33.1,16.0,49.0,26.0,,29.61,1002.8,0.0,0.0,0.0,2024-11-25,11,2024,5,KCHO,0.0,0.0,0.0,0.0,9
2024-11-22,22,2024-11-22 06:53,06:53,EST,W  3,10.0,Fair,CLR,33.1,17.1,52.0,,,29.62,1003.2,0.0,0.0,0.0,2024-11-25,11,2024,6,KCHO,0.0,0.0,0.0,0.0,3
2024-11-22,22,2024-11-22 07:53,07:53,EST,Vrbl  5,10.0,Fair,CLR,35.1,19.0,52.0,32.0,,29.62,1003.4,0.0,0.0,0.0,2024-11-25,11,2024,7,KCHO,0.0,0.0,0.0,0.0,5
2024-11-22,22,2024-11-22 08:53,08:53,EST,NW  9,10.0,Fair,CLR,37.9,21.0,51.0,32.0,,29.62,1003.1,0.0,0.0,0.0,2024-11-25,11,2024,8,KCHO,0.0,0.0,0.0,0.0,9
2024-11-22,22,2024-11-22 09:53,09:53,EST,Vrbl  5,10.0,Fair,CLR,41.0,21.9,47.0,38.0,,29.61,1002.9,0.0,0.0,0.0,2024-11-25,11,2024,9,KCHO,0.0,0.0,0.0,0.0,5
2024-11-22,22,2024-11-22 10:53,10:53,EST,Calm,10.0,Partly Cloudy,SCT095,42.1,21.9,45.0,,,29.6,1002.6,0.0,0.0,0.0,2024-11-25,11,2024,10,KCHO,0.0,0.0,0.0,0.0,0
2024-11-22,22,2024-11-22 11:53,11:53,EST,NW  8,10.0,Mostly Cloudy,BKN090 BKN110,44.1,24.1,45.0,40.0,,29.6,1002.4,0.0,0.0,0.0,2024-11-25,11,2024,11,KCHO,0.0,0.0,0.0,0.0,8
2024-11-22,22,2024-11-22 12:53,12:53,EST,W  8  G 20,10.0,Overcast,OVC075,44.1,23.0,43.0,40.0,,29.56,1001.1,0.0,0.0,0.0,2024-11-25,11,2024,12,KCHO,0.0,0.0,0.0,0.0,8
2024-11-22,22,2024-11-22 13:53,13:53,EST,Vrbl  6  G 16,10.0,A Few Clouds,FEW055 FEW120,44.1,23.0,43.0,41.0,,29.55,1000.6,0.0,0.0,0.0,2024-11-25,11,2024,13,KCHO,0.0,0.0,0.0,0.0,6
2024-11-22,22,2024-11-22 14:53,14:53,EST,W  10  G 21,10.0,Overcast,OVC070,44.1,24.1,45.0,39.0,,29.54,1000.5,0.0,0.0,0.0,2024-11-25,11,2024,14,KCHO,0.0,0.0,0.0,0.0,10
2024-11-22,22,2024-11-22 15:53,15:53,EST,W  8,10.0,Overcast,FEW049 OVC060,42.1,24.1,49.0,38.0,,29.54,1000.6,0.0,0.0,0.0,2024-11-25,11,2024,15,KCHO,0.0,0.0,0.0,0.0,8
2024-11-22,22,2024-11-22 16:53,16:53,EST,SW  7,10.0,Overcast,BKN050 OVC070,42.1,25.0,51.0,38.0,,29.55,1000.7,0.0,0.0,0.0,2024-11-25,11,2024,16,KCHO,0.0,0.0,0.0,0.0,7
2024-11-22,22,2024-11-22 17:53,17:53,EST,SW  8,10.0,Overcast,OVC050,42.1,26.1,53.0,38.0,,29.54,1000.6,0.0,0.0,0.0,2024-11-25,11,2024,17,KCHO,0.0,0.0,0.0,0.0,8
2024-11-22,22,2024-11-22 18:53,18:53,EST,S  6,10.0,Overcast,SCT060 OVC070,42.1,26.1,53.0,39.0,,29.55,1000.8,0.0,0.0,0.0,2024-11-25,11,2024,18,KCHO,0.0,0.0,0.0,0.0,6
2024-11-22,22,2024-11-22 19:53,19:53,EST,Vrbl  3,10.0,Mostly Cloudy,BKN065 BKN080 BKN090,43.0,27.0,53.0,,,29.55,1000.6,0.0,0.0,0.0,2024-11-25,11,2024,19,KCHO,0.0,0.0,0.0,0.0,3
2024-11-22,22,2024-11-22 20:53,20:53,EST,Calm,10.0,Overcast,FEW048 OVC060,44.1,28.0,53.0,,,29.55,1000.8,0.0,0.0,0.0,2024-11-25,11,2024,20,KCHO,0.0,0.0,0.0,0.0,0
2024-11-22,22,2024-11-22 21:53,21:53,EST,NW  5,10.0,Overcast,BKN060 OVC070,45.0,28.9,54.0,43.0,,29.55,1000.7,0.0,0.0,0.0,2024-11-25,11,2024,21,KCHO,0.0,0.0,0.0,0.0,5
2024-11-22,22,2024-11-22 22:53,22:53,EST,NW  13  G 24,10.0,Partly Cloudy,SCT100,46.9,30.9,54.0,42.0,,29.55,1000.6,0.0,0.0,0.0,2024-11-25,11,2024,22,KCHO,0.0,0.0,0.0,0.0,13
2024-11-22,22,2024-11-22 23:53,23:53,EST,NW  9  G 23,10.0,Fair,CLR,46.9,30.9,54.0,43.0,,29.56,1000.9,0.0,0.0,0.0,2024-11-25,11,2024,23,KCHO,0.0,0.0,0.0,0.0,9
2024-11-23,23,2024-11-23 00:53,00:53,EST,NW  10  G 18,10.0,Fair,CLR,48.0,30.9,52.0,44.0,,29.57,1001.4,0.0,0.0,0.0,2024-11-26,11,2024,0,KCHO,0.0,0.0,0.0,0.0,10
2024-11-23,23,2024-11-23 01:53,01:53,EST,NW  8,10.0,Fair,CLR,48.0,30.9,52.0,45.0,,29.57,1001.4,0.0,0.0,0.0,2024-11-26,11,2024,1,KCHO,0.0,0.0,0.0,0.0,8
2024-11-23,23,2024-11-23 02:53,02:53,EST,NW  7,10.0,Fair,CLR,48.0,30.9,52.0,45.0,,29.61,1002.5,0.0,0.0,0.0,2024-11-26,11,2024,2,KCHO,0.0,0.0,0.0,0.0,7
2024-11-23,23,2024-11-23 03:53,03:53,EST,NW  3,10.0,Fair,CLR,46.9,30.9,54.0,,,29.63,1003.5,0.0,0.0,0.0,2024-11-26,11,2024,3,KCHO,0.0,0.0,0.0,0.0,3
2024-11-23,23,2024-11-23 04:53,04:53,EST,NW  5,10.0,Fair,CLR,48.0,32.0,54.0,47.0,,29.66,1004.5,0.0,0.0,0.0,2024-11-26,11,2024,4,KCHO,0.0,0.0,0.0,0.0,5
2024-11-23,23,2024-11-23 05:53,05:53,EST,Calm,10.0,Fair,CLR,48.0,32.0,54.0,,,29.69,1005.4,0.0,0.0,0.0,2024-11-26,11,2024,5,KCHO,0.0,0.0,0.0,0.0,0
2024-11-23,23,2024-11-23 06:53,06:53,EST,SW  5,10.0,Fair,CLR,46.0,32.0,58.0,44.0,,29.72,1006.6,0.0,0.0,0.0,2024-11-26,11,2024,6,KCHO,0.0,0.0,0.0,0.0,5
2024-11-23,23,2024-11-23 07:53,07:53,EST,Calm,10.0,Fair,CLR,48.0,32.0,54.0,,,29.75,1007.3,0.0,0.0,0.0,2024-11-26,11,2024,7,KCHO,0.0,0.0,0.0,0.0,0
2024-11-23,23,2024-11-23 08:53,08:53,EST,Calm,10.0,Fair,CLR,52.0,33.1,49.0,,,29.78,1008.3,0.0,0.0,0.0,2024-11-26,11,2024,8,KCHO,0.0,0.0,0.0,0.0,0
2024-11-23,23,2024-11-23 09:53,09:53,EST,NW  12  G 28,10.0,Fair,CLR,54.0,33.1,45.0,,,29.8,1009.0,0.0,0.0,0.0,2024-11-26,11,2024,9,KCHO,0.0,0.0,0.0,0.0,12
2024-11-23,23,2024-11-23 10:53,10:53,EST,NW  15  G 38,10.0,Fair,CLR,55.0,33.1,44.0,,,29.8,1009.1,0.0,0.0,0.0,2024-11-26,11,2024,10,KCHO,0.0,0.0,0.0,0.0,15
2024-11-23,23,2024-11-23 11:53,11:53,EST,NW  10  G 26,10.0,Fair,CLR,55.9,33.1,42.0,,,29.81,1009.2,0.0,0.0,0.0,2024-11-26,11,2024,11,KCHO,0.0,0.0,0.0,0.0,10
2024-11-23,23,2024-11-23 12:53,12:53,EST,NW  13  G 24,10.0,Fair,CLR,57.0,33.1,41.0,,,29.81,1009.4,0.0,0.0,0.0,2024-11-26,11,2024,12,KCHO,0.0,0.0,0.0,0.0,13
2024-11-23,23,2024-11-23 13:53,13:53,EST,Vrbl  6  G 20,10.0,Fair,CLR,57.9,34.0,41.0,,,29.83,1009.8,0.0,0.0,0.0,2024-11-26,11,2024,13,KCHO,0.0,0.0,0.0,0.0,6
2024-11-23,23,2024-11-23 14:53,14:53,EST,W  10  G 20,10.0,Mostly Cloudy,BKN055,55.9,33.1,42.0,,,29.84,1010.4,0.0,0.0,0.0,2024-11-26,11,2024,14,KCHO,0.0,0.0,0.0,0.0,10
2024-11-23,23,2024-11-23 15:53,15:53,EST,NW  8  G 21,10.0,Fair,CLR,54.0,33.1,45.0,,,29.87,1011.2,0.0,0.0,0.0,2024-11-26,11,2024,15,KCHO,0.0,0.0,0.0,0.0,8
2024-11-23,23,2024-11-23 16:53,16:53,EST,NW  7,10.0,Fair,CLR,52.0,32.0,47.0,,,29.88,1011.8,0.0,0.0,0.0,2024-11-26,11,2024,16,KCHO,0.0,0.0,0.0,0.0,7
2024-11-23,23,2024-11-23 17:53,17:53,EST,Vrbl  6,10.0,Fair,CLR,48.9,32.0,52.0,47.0,,29.9,1012.3,0.0,0.0,0.0,2024-11-26,11,2024,17,KCHO,0.0,0.0,0.0,0.0,6
2024-11-23,23,2024-11-23 18:53,18:53,EST,W  6,10.0,Fair,CLR,48.9,32.0,52.0,47.0,,29.92,1013.3,0.0,0.0,0.0,2024-11-26,11,2024,18,KCHO,0.0,0.0,0.0,0.0,6
2024-11-23,23,2024-11-23 19:53,19:53,EST,Calm,10.0,A Few Clouds,FEW047,48.0,32.0,54.0,,,29.96,1014.5,0.0,0.0,0.0,2024-11-26,11,2024,19,KCHO,0.0,0.0,0.0,0.0,0
2024-11-23,23,2024-11-23 20:53,20:53,EST,W  5,10.0,Fair,CLR,46.9,32.0,56.0,45.0,,29.95,1013.9,0.0,0.0,0.0,2024-11-26,11,2024,20,KCHO,0.0,0.0,0.0,0.0,5
2024-11-23,23,2024-11-23 21:53,21:53,EST,Calm,10.0,Fair,CLR,46.9,32.0,56.0,,,29.96,1014.4,0.0,0.0,0.0,2024-11-26,11,2024,21,KCHO,0.0,0.0,0.0,0.0,0
2024-11-23,23,2024-11-23 22:53,22:53,EST,Vrbl  6,10.0,Fair,CLR,44.1,32.0,63.0,41.0,,29.96,1014.5,0.0,0.0,0.0,2024-11-26,11,2024,22,KCHO,0.0,0.0,0.0,0.0,6
2024-11-23,23,2024-11-23 23:53,23:53,EST,S  5,10.0,Fair,CLR,41.0,32.0,70.0,38.0,,29.96,1014.5,0.0,0.0,0.0,2024-11-26,11,2024,23,KCHO,0.0,0.0,0.0,0.0,5
2024-11-24,24,2024-11-24 00:53,00:53,EST,Vrbl  7,10.0,Fair,CLR,45.0,33.1,63.0,42.0,,29.97,1014.8,0.0,0.0,0.0,2024-11-27,11,2024,0,KCHO,0.0,0.0,0.0,0.0,7
2024-11-24,24,2024-11-24 01:53,01:53,EST,Calm,10.0,Fair,CLR,45.0,33.1,63.0,,,29.97,1014.6,0.0,0.0,0.0,2024-11-27,11,2024,1,KCHO,0.0,0.0,0.0,0.0,0
2024-11-24,24,2024-11-24 02:53,02:53,EST,Vrbl  3,10.0,Fair,CLR,46.0,33.1,61.0,,,29.99,1015.3,0.0,0.0,0.0,2024-11-27,11,2024,2,KCHO,0.0,0.0,0.0,0.0,3
2024-11-24,24,2024-11-24 03:53,03:53,EST,W  6,10.0,Fair,CLR,48.0,34.0,58.0,46.0,,29.99,1015.4,0.0,0.0,0.0,2024-11-27,11,2024,3,KCHO,0.0,0.0,0.0,0.0,6
2024-11-24,24,2024-11-24 04:53,04:53,EST,Vrbl  3,10.0,Fair,CLR,44.1,34.0,68.0,,,30.01,1016.1,0.0,0.0,0.0,2024-11-27,11,2024,4,KCHO,0.0,0.0,0.0,0.0,3
2024-11-24,24,2024-11-24 05:53,05:53,EST,S  5,10.0,Fair,CLR,45.0,34.0,66.0,43.0,,30.01,1016.2,0.0,0.0,0.0,2024-11-27,11,2024,5,KCHO,0.0,0.0,0.0,0.0,5
2024-11-24,24,2024-11-24 06:53,06:53,EST,S  6,10.0,Fair,CLR,42.1,34.0,73.0,39.0,,30.02,1016.6,0.0,0.0,0.0,2024-11-27,11,2024,6,KCHO,0.0,0.0,0.0,0.0,6
2024-11-24,24,2024-11-24 07:53,07:53,EST,S  3,10.0,Fair,CLR,42.1,34.0,73.0,,,30.02,1016.8,0.0,0.0,0.0,2024-11-27,11,2024,7,KCHO,0.0,0.0,0.0,0.0,3
2024-11-24,24,2024-11-24 08:53,08:53,EST,SW  5,10.0,Fair,CLR,48.0,35.1,61.0,47.0,,30.04,1017.1,0.0,0.0,0.0,2024-11-27,11,2024,8,KCHO,0.0,0.0,0.0,0.0,5
2024-11-24,24,2024-11-24 09:53,09:53,EST,SW  5,10.0,Fair,CLR,53.1,35.1,51.0,,,30.05,1017.3,0.0,0.0,0.0,2024-11-27,11,2024,9,KCHO,0.0,0.0,0.0,0.0,5
2024-11-24,24,2024-11-24 10:53,10:53,EST,Vrbl  5,10.0,Fair,CLR,54.0,34.0,47.0,,,30.04,1017.2,0.0,0.0,0.0,2024-11-27,11,2024,10,KCHO,0.0,0.0,0.0,0.0,5
2024-11-24,24,2024-11-24 11:53,11:53,EST,S  7,10.0,Fair,CLR,55.9,30.9,39.0,,,30.01,1016.1,0.0,0.0,0.0,2024-11-27,11,2024,11,KCHO,0.0,0.0,0.0,0.0,7
2024-11-24,24,2024-11-24 12:53,12:53,EST,Vrbl  5,10.0,Fair,CLR,55.9,28.9,36.0,,,29.99,1015.4,0.0,0.0,0.0,2024-11-27,11,2024,12,KCHO,0.0,0.0,0.0,0.0,5
2024-11-24,24,2024-11-24 13:53,13:53,EST,Vrbl  6,10.0,Fair,CLR,60.1,28.9,31.0,,,29.96,1014.5,0.0,0.0,0.0,2024-11-27,11,2024,13,KCHO,0.0,0.0,0.0,0.0,6
2024-11-24,24,2024-11-24 14:53,14:53,EST,Vrbl  5,10.0,Fair,CLR,59.0,28.0,31.0,,,29.96,1014.4,0.0,0.0,0.0,2024-11-27,11,2024,14,KCHO,0.0,0.0,0.0,0.0,5
2024-11-24,24,2024-11-24 15:53,15:53,EST,Vrbl  3,10.0,Fair,CLR,60.1,28.9,31.0,,,29.97,1014.6,0.0,0.0,0.0,2024-11-27,11,2024,15,KCHO,0.0,0.0,0.0,0.0,3
2024-11-24,24,2024-11-24 16:53,16:53,EST,Calm,10.0,Fair,CLR,57.9,28.0,32.0,,,29.98,1015.1,0.0,0.0,0.0,2024-11-27,11,2024,16,KCHO,0.0,0.0,0.0,0.0,0
2024-11-24,24,2024-11-24 17:53,17:53,EST,Calm,10.0,Fair,CLR,57.0,27.0,32.0,,,29.99,1015.4,0.0,0.0,0.0,2024-11-27,11,2024,17,KCHO,0.0,0.0,0.0,0.0,0
2024-11-24,24,2024-11-24 18:53,18:53,EST,Calm,10.0,Fair,CLR,50.0,30.0,46.0,,,30.01,1016.3,0.0,0.0,0.0,2024-11-27,11,2024,18,KCHO,0.0,0.0,0.0,0.0,0
2024-11-24,24,2024-11-24 19:53,19:53,EST,Calm,10.0,Fair,CLR,50.0,30.0,46.0,,,30.02,1016.6,0.0,0.0,0.0,2024-11-27,11,2024,19,KCHO,0.0,0.0,0.0,0.0,0
2024-11-24,24,2024-11-24 20:53,20:53,EST,Calm,10.0,Fair,CLR,48.0,30.0,50.0,,,30.03,1017.0,0.0,0.0,0.0,2024-11-27,11,2024,20,KCHO,0.0,0.0,0.0,0.0,0
2024-11-24,24,2024-11-24 21:53,21:53,EST,N  5,10.0,Fair,CLR,42.1,30.9,65.0,40.0,,30.06,1017.7,0.0,0.0,0.0,2024-11-27,11,2024,21,KCHO,0.0,0.0,0.0,0.0,5
2024-11-24,24,2024-11-24 22:53,22:53,EST,N  3,10.0,Fair,CLR,43.0,30.9,63.0,,,30.07,1018.2,0.0,0.0,0.0,2024-11-27,11,2024,22,KCHO,0.0,0.0,0.0,0.0,3
2024-11-24,24,2024-11-24 23:53,23:53,EST,N  5,10.0,Fair,CLR,42.1,30.9,65.0,40.0,,30.08,1018.7,0.0,0.0,0.0,2024-11-27,11,2024,23,KCHO,0.0,0.0,0.0,0.0,5
2024-11-25,25,2024-11-25 00:53,00:53,EST,Calm,10.0,Fair,CLR,39.9,30.9,70.0,,,30.08,1018.7,0.0,0.0,0.0,2024-11-28,11,2024,0,KCHO,0.0,0.0,0.0,0.0,0
2024-11-25,25,2024-11-25 01:53,01:53,EST,Calm,10.0,Fair,CLR,39.9,30.9,70.0,,,30.08,1018.5,0.0,0.0,0.0,2024-11-28,11,2024,1,KCHO,0.0,0.0,0.0,0.0,0
2024-11-25,25,2024-11-25 02:53,02:53,EST,Calm,10.0,Fair,CLR,37.0,30.9,79.0,,,30.1,1019.4,0.0,0.0,0.0,2024-11-28,11,2024,2,KCHO,0.0,0.0,0.0,0.0,0
2024-11-25,25,2024-11-25 03:53,03:53,EST,W  3,10.0,Fair,CLR,37.0,30.9,79.0,,,30.11,1019.4,0.0,0.0,0.0,2024-11-28,11,2024,3,KCHO,0.0,0.0,0.0,0.0,3
2024-11-25,25,2024-11-25 04:53,04:53,EST,Calm,10.0,Fair,CLR,35.1,30.0,82.0,,,30.11,1019.5,0.0,0.0,0.0,2024-11-28,11,2024,4,KCHO,0.0,0.0,0.0,0.0,0
2024-11-25,25,2024-11-25 05:53,05:53,EST,Calm,10.0,Fair,CLR,33.1,30.0,89.0,,,30.11,1019.7,0.0,0.0,0.0,2024-11-28,11,2024,5,KCHO,0.0,0.0,0.0,0.0,0
2024-11-25,25,2024-11-25 06:53,06:53,EST,Calm,10.0,Fair,CLR,34.0,30.0,85.0,,,30.13,1020.4,0.0,0.0,0.0,2024-11-28,11,2024,6,KCHO,0.0,0.0,0.0,0.0,0
2024-11-25,25,2024-11-25 07:53,07:53,EST,W  3,10.0,Fair,CLR,36.0,32.0,86.0,,,30.14,1020.8,0.0,0.0,0.0,2024-11-28,11,2024,7,KCHO,0.0,0.0,0.0,0.0,3
2024-11-25,25,2024-11-25 08:53,08:53,EST,Calm,10.0,Fair,CLR,39.9,33.1,77.0,,,30.14,1020.8,0.0,0.0,0.0,2024-11-28,11,2024,8,KCHO,0.0,0.0,0.0,0.0,0
2024-11-25,25,2024-11-25 09:53,09:53,EST,W  3,10.0,Fair,CLR,45.0,34.0,66.0,,,30.14,1020.7,0.0,0.0,0.0,2024-11-28,11,2024,9,KCHO,0.0,0.0,0.0,0.0,3
2024-11-25,25,2024-11-25 10:53,10:53,EST,SW  5,10.0,Fair,CLR,52.0,37.0,57.0,,,30.11,1019.7,0.0,0.0,0.0,2024-11-28,11,2024,10,KCHO,0.0,0.0,0.0,0.0,5
2024-11-25,25,2024-11-25 11:53,11:53,EST,Vrbl  5,10.0,Fair,CLR,54.0,39.0,57.0,,,30.08,1018.5,0.0,0.0,0.0,2024-11-28,11,2024,11,KCHO,0.0,0.0,0.0,0.0,5
2024-11-25,25,2024-11-25 12:53,12:53,EST,SE  6,10.0,Fair,CLR,57.0,39.0,51.0,,,30.04,1017.2,0.0,0.0,0.0,2024-11-28,11,2024,12,KCHO,0.0,0.0,0.0,0.0,6
2024-11-25,25,2024-11-25 13:53,13:53,EST,S  7,10.0,Fair,CLR,59.0,39.0,48.0,,,30.02,1016.3,0.0,0.0,0.0,2024-11-28,11,2024,13,KCHO,0.0,0.0,0.0,0.0,7
2024-11-25,25,2024-11-25 14:53,14:53,EST,S  6,10.0,Fair,CLR,59.0,39.0,48.0,,,30.0,1015.9,0.0,0.0,0.0,2024-11-28,11,2024,14,KCHO,0.0,0.0,0.0,0.0,6
2024-11-25,25,2024-11-25 15:53,15:53,EST,S  6,10.0,Fair,CLR,59.0,39.0,48.0,,,30.0,1015.8,0.0,0.0,0.0,2024-11-28,11,2024,15,KCHO,0.0,0.0,0.0,0.0,6
2024-11-25,25,2024-11-25 16:53,16:53,EST,S  5,10.0,A Few Clouds,FEW075,54.0,39.0,57.0,,,30.01,1016.4,0.0,0.0,0.0,2024-11-28,11,2024,16,KCHO,0.0,0.0,0.0,0.0,5
2024-11-25,25,2024-11-25 17:53,17:53,EST,Calm,10.0,A Few Clouds,FEW080,55.0,39.0,55.0,,,30.02,1016.6,0.0,0.0,0.0,2024-11-28,11,2024,17,KCHO,0.0,0.0,0.0,0.0,0
2024-11-25,25,2024-11-25 18:53,18:53,EST,Calm,10.0,Overcast,OVC085,54.0,39.9,59.0,,,30.02,1016.5,0.0,0.0,0.0,2024-11-28,11,2024,18,KCHO,0.0,0.0,0.0,0.0,0
2024-11-25,25,2024-11-25 19:53,19:53,EST,Calm,10.0,Overcast,OVC090,54.0,39.9,59.0,,,30.0,1016.0,0.0,0.0,0.0,2024-11-28,11,2024,19,KCHO,0.0,0.0,0.0,0.0,0
2024-11-25,25,2024-11-25 20:53,20:53,EST,Calm,10.0,Overcast,OVC090,53.1,39.9,61.0,,,30.0,1015.7,0.0,0.0,0.0,2024-11-28,11,2024,20,KCHO,0.0,0.0,0.0,0.0,0
2024-11-25,25,2024-11-25 21:53,21:53,EST,Calm,10.0,Mostly Cloudy,BKN095,51.1,39.9,66.0,,,29.97,1014.8,0.0,0.0,0.0,2024-11-28,11,2024,21,KCHO,0.0,0.0,0.0,0.0,0
2024-11-25,25,2024-11-25 22:53,22:53,EST,Calm,10.0,Fair,CLR,51.1,39.9,66.0,,,29.95,1014.0,0.0,0.0,0.0,2024-11-28,11,2024,22,KCHO,0.0,0.0,0.0,0.0,0
2024-11-25,25,2024-11-25 23:53,23:53,EST,S  3,10.0,Fair,CLR,48.0,39.9,74.0,,,29.93,1013.3,0.0,0.0,0.0,2024-11-27,11,2024,23,KCHO,0.0,0.0,0.0,0.0,3
2024-11-26,26,2024-11-26 00:53,00:53,EST,S  6,10.0,Partly Cloudy,SCT110,51.1,39.9,66.0,,,29.9,1012.1,0.0,0.0,0.0,2024-11-29,11,2024,0,KCHO,0.0,0.0,0.0,0.0,6
2024-11-26,26,2024-11-26 01:53,01:53,EST,SW  9,10.0,Overcast,OVC100,53.1,39.9,61.0,,,29.88,1011.5,0.0,0.0,0.0,2024-11-29,11,2024,1,KCHO,0.0,0.0,0.0,0.0,9
2024-11-26,26,2024-11-26 02:53,02:53,EST,S  7,10.0,Mostly Cloudy,BKN100,52.0,39.9,64.0,,,29.85,1010.5,0.0,0.0,0.0,2024-11-29,11,2024,2,KCHO,0.0,0.0,0.0,0.0,7
2024-11-26,26,2024-11-26 03:53,03:53,EST,S  12,10.0,Overcast,OVC100,54.0,39.9,59.0,,,29.83,1009.8,0.0,0.0,0.0,2024-11-29,11,2024,3,KCHO,0.0,0.0,0.0,0.0,12
2024-11-26,26,2024-11-26 04:53,04:53,EST,S  12,10.0,Mostly Cloudy,FEW060 SCT095 BKN110,53.1,41.0,64.0,,,29.82,1009.5,0.0,0.0,0.0,2024-11-29,11,2024,4,KCHO,0.0,0.0,0.0,0.0,12
2024-11-26,26,2024-11-26 05:53,05:53,EST,SW  3,10.0,Partly Cloudy,SCT100,53.1,41.0,64.0,,,29.82,1009.6,0.0,0.0,0.0,2024-11-29,11,2024,5,KCHO,0.0,0.0,0.0,0.0,3
2024-11-26,26,2024-11-26 06:53,06:53,EST,S  6,10.0,Overcast,FEW075 OVC100,52.0,42.1,69.0,,,29.84,1010.3,0.0,0.0,0.0,2024-11-29,11,2024,6,KCHO,0.0,0.0,0.0,0.0,6
2024-11-26,26,2024-11-26 08:53,08:53,EST,W  7,10.0,Partly Cloudy,SCT049,63.0,50.0,63.0,,,29.89,1011.2,0.0,0.0,0.0,2024-11-29,11,2024,8,KCHO,0.0,0.0,0.0,0.0,7
2024-11-26,26,2024-11-26 09:53,09:53,EST,NW  13  G 25,10.0,Fair,CLR,64.0,41.0,43.0,,,29.89,1011.2,0.0,0.0,0.0,2024-11-29,11,2024,9,KCHO,0.0,0.0,0.0,0.0,13
2024-11-26,26,2024-11-26 10:53,10:53,EST,W  8  G 18,10.0,Fair,CLR,63.0,37.9,40.0,,,29.95,1013.9,0.0,0.0,0.0,2024-11-29,11,2024,10,KCHO,0.0,0.0,0.0,0.0,8
2024-11-26,26,2024-11-26 11:53,11:53,EST,NW  8,10.0,Fair,CLR,63.0,33.1,33.0,,,29.94,1013.6,0.0,0.0,0.0,2024-11-29,11,2024,11,KCHO,0.0,0.0,0.0,0.0,8
2024-11-26,26,2024-11-26 12:53,12:53,EST,Vrbl  7,10.0,Fair,CLR,64.9,34.0,32.0,,,29.92,1012.9,0.0,0.0,0.0,2024-11-29,11,2024,12,KCHO,0.0,0.0,0.0,0.0,7
2024-11-26,26,2024-11-26 13:53,13:53,EST,W  8,10.0,Fair,CLR,64.9,30.0,27.0,,,29.92,1013.0,0.0,0.0,0.0,2024-11-29,11,2024,13,KCHO,0.0,0.0,0.0,0.0,8
2024-11-26,26,2024-11-26 14:53,14:53,EST,NW  8,10.0,Fair,CLR,64.9,28.9,26.0,,,29.94,1013.5,0.0,0.0,0.0,2024-11-29,11,2024,14,KCHO,0.0,0.0,0.0,0.0,8
2024-11-26,26,2024-11-26 15:53,15:53,EST,Vrbl  7,10.0,Fair,CLR,62.1,25.0,24.0,,,29.97,1014.6,0.0,0.0,0.0,2024-11-29,11,2024,15,KCHO,0.0,0.0,0.0,0.0,7
2024-11-26,26,2024-11-26 16:53,16:53,EST,N  3,10.0,Fair,CLR,57.9,21.9,25.0,,,30.0,1015.5,0.0,0.0,0.0,2024-11-29,11,2024,16,KCHO,0.0,0.0,0.0,0.0,3
2024-11-26,26,2024-11-26 17:53,17:53,EST,W  6,10.0,Fair,CLR,55.9,21.0,26.0,,,30.01,1016.1,0.0,0.0,0.0,2024-11-29,11,2024,17,KCHO,0.0,0.0,0.0,0.0,6
2024-11-26,26,2024-11-26 18:53,18:53,EST,Calm,10.0,Fair,CLR,55.0,21.0,26.0,,,30.04,1016.9,0.0,0.0,0.0,2024-11-29,11,2024,18,KCHO,0.0,0.0,0.0,0.0,0
2024-11-26,26,2024-11-26 19:53,19:53,EST,NW  5,10.0,Fair,CLR,52.0,21.0,30.0,,,30.05,1017.5,0.0,0.0,0.0,2024-11-29,11,2024,19,KCHO,0.0,0.0,0.0,0.0,5
2024-11-26,26,2024-11-26 20:53,20:53,EST,Calm,10.0,Fair,CLR,48.9,21.0,33.0,,,30.05,1017.3,0.0,0.0,0.0,2024-11-29,11,2024,20,KCHO,0.0,0.0,0.0,0.0,0
2024-11-26,26,2024-11-26 21:53,21:53,EST,SW  3,10.0,Fair,CLR,44.1,23.0,43.0,,,30.05,1017.5,0.0,0.0,0.0,2024-11-29,11,2024,21,KCHO,0.0,0.0,0.0,0.0,3
2024-11-26,26,2024-11-26 22:53,22:53,EST,NW  3,10.0,Fair,CLR,44.1,23.0,43.0,,,30.06,1017.7,0.0,0.0,0.0,2024-11-29,11,2024,22,KCHO,0.0,0.0,0.0,0.0,3
2024-11-26,26,2024-11-26 23:53,23:53,EST,Calm,10.0,Fair,CLR,39.0,24.1,55.0,,,30.07,1018.0,0.0,0.0,0.0,2024-11-29,11,2024,23,KCHO,0.0,0.0,0.0,0.0,0
2024-11-27,27,2024-11-27 00:53,00:53,EST,Calm,10.0,Fair,CLR,37.9,24.1,57.0,,,30.06,1017.8,0.0,0.0,0.0,2024-11-30,11,2024,0,KCHO,0.0,0.0,0.0,0.0,0
2024-11-27,27,2024-11-27 01:53,01:53,EST,NW  3,10.0,Fair,CLR,39.0,21.9,50.0,,,30.06,1017.8,0.0,0.0,0.0,2024-11-30,11,2024,1,KCHO,0.0,0.0,0.0,0.0,3
2024-11-27,27,2024-11-27 02:53,02:53,EST,SW  3,10.0,Fair,CLR,41.0,21.9,47.0,,,30.06,1017.9,0.0,0.0,0.0,2024-11-30,11,2024,2,KCHO,0.0,0.0,0.0,0.0,3
2024-11-27,27,2024-11-27 03:53,03:53,EST,Calm,10.0,Fair,CLR,37.9,23.0,55.0,,,30.06,1017.9,0.0,0.0,0.0,2024-11-30,11,2024,3,KCHO,0.0,0.0,0.0,0.0,0
2024-11-27,27,2024-11-27 04:53,04:53,EST,Calm,10.0,Fair,CLR,37.9,21.9,52.0,,,30.07,1018.2,0.0,0.0,0.0,2024-11-30,11,2024,4,KCHO,0.0,0.0,0.0,0.0,0
2024-11-27,27,2024-11-27 05:53,05:53,EST,Calm,10.0,Fair,CLR,34.0,25.0,70.0,,,30.07,1018.4,0.0,0.0,0.0,2024-11-30,11,2024,5,KCHO,0.0,0.0,0.0,0.0,0
2024-11-27,27,2024-11-27 06:53,06:53,EST,Calm,10.0,Fair,CLR,34.0,23.0,64.0,,,30.09,1019.0,0.0,0.0,0.0,2024-11-30,11,2024,6,KCHO,0.0,0.0,0.0,0.0,0
2024-11-27,27,2024-11-27 07:53,07:53,EST,Calm,10.0,Fair,CLR,32.0,26.1,79.0,,,30.09,1019.2,0.0,0.0,0.0,2024-11-30,11,2024,7,KCHO,0.0,0.0,0.0,0.0,0
2024-11-27,27,2024-11-27 08:53,08:53,EST,Calm,10.0,Fair,CLR,41.0,30.0,65.0,,,30.1,1019.5,0.0,0.0,0.0,2024-11-30,11,2024,8,KCHO,0.0,0.0,0.0,0.0,0
2024-11-27,27,2024-11-27 09:53,09:53,EST,W  5,10.0,Fair,CLR,43.0,26.1,51.0,41.0,,30.11,1019.7,0.0,0.0,0.0,2024-11-30,11,2024,9,KCHO,0.0,0.0,0.0,0.0,5
2024-11-27,27,2024-11-27 10:53,10:53,EST,S  6,10.0,A Few Clouds,FEW046,48.0,27.0,44.0,46.0,,30.11,1019.8,0.0,0.0,0.0,2024-11-30,11,2024,10,KCHO,0.0,0.0,0.0,0.0,6
2024-11-27,27,2024-11-27 11:53,11:53,EST,S  6,10.0,Fair,CLR,50.0,28.9,44.0,48.0,,30.09,1018.9,0.0,0.0,0.0,2024-11-30,11,2024,11,KCHO,0.0,0.0,0.0,0.0,6
2024-11-27,27,2024-11-27 12:53,12:53,EST,S  7,10.0,A Few Clouds,FEW120,52.0,26.1,37.0,,,30.04,1017.3,0.0,0.0,0.0,2024-11-30,11,2024,12,KCHO,0.0,0.0,0.0,0.0,7
2024-11-27,27,2024-11-27 13:53,13:53,EST,S  6,10.0,Overcast,OVC110,52.0,27.0,38.0,,,30.01,1016.2,0.0,0.0,0.0,2024-11-30,11,2024,13,KCHO,0.0,0.0,0.0,0.0,6
2024-11-27,27,2024-11-27 14:53,14:53,EST,S  9,10.0,Overcast,OVC100,52.0,27.0,38.0,,,29.98,1015.2,0.0,0.0,0.0,2024-11-30,11,2024,14,KCHO,0.0,0.0,0.0,0.0,9
2024-11-27,27,2024-11-27 15:53,15:53,EST,S  6,10.0,Overcast,OVC095,51.1,28.9,43.0,,,29.98,1015.3,0.0,0.0,0.0,2024-11-30,11,2024,15,KCHO,0.0,0.0,0.0,0.0,6
2024-11-27,27,2024-11-27 16:53,16:53,EST,SE  3,10.0,Overcast,BKN100 OVC120,51.1,28.9,43.0,,,29.97,1015.0,0.0,0.0,0.0,2024-11-30,11,2024,16,KCHO,0.0,0.0,0.0,0.0,3
2024-11-27,27,2024-11-27 17:53,17:53,EST,Calm,10.0,Overcast,OVC100,50.0,28.9,44.0,,,29.96,1014.6,0.0,0.0,0.0,2024-11-30,11,2024,17,KCHO,0.0,0.0,0.0,0.0,0
2024-11-27,27,2024-11-27 18:53,18:53,EST,Calm,10.0,Mostly Cloudy,BKN110,48.9,30.0,48.0,,,29.96,1014.5,0.0,0.0,0.0,2024-11-30,11,2024,18,KCHO,0.0,0.0,0.0,0.0,0
2024-11-27,27,2024-11-27 19:53,19:53,EST,Calm,10.0,Overcast,OVC110,48.0,30.0,50.0,,,29.97,1014.9,0.0,0.0,0.0,2024-11-30,11,2024,19,KCHO,0.0,0.0,0.0,0.0,0
2024-11-27,27,2024-11-27 20:53,20:53,EST,Calm,10.0,Overcast,OVC110,46.9,32.0,56.0,,,29.93,1013.7,0.0,0.0,0.0,2024-11-30,11,2024,20,KCHO,0.0,0.0,0.0,0.0,0
2024-11-27,27,2024-11-27 21:53,21:53,EST,Calm,10.0,Overcast,BKN055 OVC110,46.9,30.9,54.0,,,29.91,1012.9,0.0,0.0,0.0,2024-11-30,11,2024,21,KCHO,0.0,0.0,0.0,0.0,0
2024-11-27,27,2024-11-27 22:53,22:53,EST,Calm,10.0,Overcast,BKN060 OVC110,45.0,34.0,66.0,,,29.88,1011.9,0.0,0.0,0.0,2024-11-30,11,2024,22,KCHO,0.0,0.0,0.0,0.0,0
2024-11-27,27,2024-11-27 23:53,23:53,EST,N  3,10.0,Overcast,OVC046,45.0,33.1,63.0,,,29.84,1010.3,0.0,0.0,0.0,2024-11-30,11,2024,23,KCHO,0.0,0.0,0.0,0.0,3
2024-11-28,28,2024-11-28 00:53,00:53,EST,Calm,10.0,Overcast,SCT029 OVC038,46.0,34.0,63.0,,,29.8,1008.9,0.0,0.0,0.0,2024-12-01,11,2024,0,KCHO,0.0,0.0,0.0,0.0,0
2024-11-28,28,2024-11-28 01:53,01:53,EST,Calm,10.0,Overcast,SCT024 OVC031,46.9,35.1,63.0,,,29.75,1007.3,0.0,0.0,0.0,2024-12-01,11,2024,1,KCHO,0.0,0.0,0.0,0.0,0
2024-11-28,28,2024-11-28 02:53,02:53,EST,SE  3,10.0,Light Rain,OVC019,46.0,37.9,73.0,,,29.72,1006.2,0.0,0.0,0.0,2024-12-01,11,2024,2,KCHO,0.0,0.0,0.0,0.0,3
2024-11-28,28,2024-11-28 03:53,03:53,EST,Calm,6.0,Light Rain Fog/Mist,OVC019,44.1,41.0,89.0,,,29.68,1005.1,0.03,0.03,0.0,2024-12-01,11,2024,3,KCHO,0.03,0.03,0.03,0.03,0
2024-11-28,28,2024-11-28 04:53,04:53,EST,S  3,10.0,Overcast,OVC017,44.1,41.0,89.0,,,29.65,1004.1,0.01,0.0,0.0,2024-12-01,11,2024,4,KCHO,0.04,0.04,0.04,0.04,3
2024-11-28,28,2024-11-28 05:53,05:53,EST,Calm,7.0,Light Rain,OVC014,44.1,42.1,93.0,,,29.62,1003.1,0.02,0.0,0.0,2024-12-01,11,2024,5,KCHO,0.06,0.06,0.06,0.06,0
2024-11-28,28,2024-11-28 06:53,06:53,EST,Calm,10.0,Overcast,BKN023 BKN055 OVC080,44.1,42.1,93.0,,,29.6,1002.2,0.06,0.0,0.12,2024-12-01,11,2024,6,KCHO,0.09,0.12,0.12,0.12,0
2024-11-28,28,2024-11-28 07:53,07:53,EST,Calm,7.0,Overcast,FEW006 BKN070 OVC085,44.1,42.1,93.0,,,29.57,1001.4,0.0,0.0,0.0,2024-12-01,11,2024,7,KCHO,0.08,0.12,0.12,0.12,0
2024-11-28,28,2024-11-28 08:53,08:53,EST,Calm,10.0,Mostly Cloudy,FEW090 BKN120,44.1,42.1,93.0,,,29.57,1001.3,0.0,0.0,0.0,2024-12-01,11,2024,8,KCHO,0.06,0.12,0.12,0.12,0
2024-11-28,28,2024-11-28 09:53,09:53,EST,SW  5,10.0,Fair,CLR,46.9,44.1,90.0,45.0,,29.58,1001.6,0.0,0.0,0.0,2024-12-01,11,2024,9,KCHO,0.0,0.09,0.12,0.12,5
2024-11-28,28,2024-11-28 10:53,10:53,EST,S  6,10.0,Mostly Cloudy,SCT075 BKN110,51.1,46.9,86.0,,,29.59,1001.8,0.0,0.0,0.0,2024-12-01,11,2024,10,KCHO,0.0,0.08,0.12,0.12,6
2024-11-28,28,2024-11-28 11:53,11:53,EST,Vrbl  6,10.0,Overcast,BKN048 OVC110,57.9,46.9,67.0,,,29.59,1001.8,0.0,0.0,0.0,2024-12-01,11,2024,11,KCHO,0.0,0.06,0.12,0.12,6
2024-11-28,28,2024-11-28 12:53,12:53,EST,Vrbl  7,10.0,Overcast,BKN048 OVC055,57.0,39.9,53.0,,,29.63,1003.2,0.0,0.0,0.0,2024-12-01,11,2024,12,KCHO,0.0,0.0,0.12,0.12,7
2024-11-28,28,2024-11-28 13:53,13:53,EST,NW  14  G 30,10.0,Overcast,OVC055,55.9,34.0,44.0,,,29.67,1004.5,0.0,0.0,0.0,2024-12-01,11,2024,13,KCHO,0.0,0.0,0.12,0.12,14
2024-11-28,28,2024-11-28 14:53,14:53,EST,NW  14  G 26,10.0,Fair,CLR,55.9,32.0,40.0,,,29.7,1005.4,0.0,0.0,0.0,2024-12-01,11,2024,14,KCHO,0.0,0.0,0.12,0.12,14
2024-11-28,28,2024-11-28 15:53,15:53,EST,NW  9  G 25,10.0,Fair,CLR,54.0,30.0,40.0,,,29.75,1007.2,0.0,0.0,0.0,2024-12-01,11,2024,15,KCHO,0.0,0.0,0.09,0.12,9
2024-11-28,28,2024-11-28 16:53,16:53,EST,W  5,10.0,Fair,CLR,51.1,30.0,45.0,,,29.8,1009.0,0.0,0.0,0.0,2024-12-01,11,2024,16,KCHO,0.0,0.0,0.08,0.12,5
2024-11-28,28,2024-11-28 17:53,17:53,EST,NW  7,10.0,Mostly Cloudy,BKN050,48.9,28.9,46.0,46.0,,29.85,1010.7,0.0,0.0,0.0,2024-12-01,11,2024,17,KCHO,0.0,0.0,0.06,0.12,7
2024-11-28,28,2024-11-28 18:53,18:53,EST,NW  3,10.0,Partly Cloudy,SCT055,46.0,27.0,47.0,,,29.88,1011.9,0.0,0.0,0.0,2024-12-01,11,2024,18,KCHO,0.0,0.0,0.0,0.12,3
2024-11-28,28,2024-11-28 19:53,19:53,EST,W  3,10.0,Partly Cloudy,SCT060,45.0,27.0,49.0,,,29.92,1013.2,0.0,0.0,0.0,2024-12-01,11,2024,19,KCHO,0.0,0.0,0.0,0.12,3
2024-11-28,28,2024-11-28 20:53,20:53,EST,NW  5,10.0,Fair,CLR,43.0,27.0,53.0,41.0,,29.92,1013.4,0.0,0.0,0.0,2024-12-01,11,2024,20,KCHO,0.0,0.0,0.0,0.12,5
2024-11-28,28,2024-11-28 21:53,21:53,EST,NW  7,10.0,Fair,CLR,44.1,27.0,51.0,41.0,,29.94,1013.9,0.0,0.0,0.0,2024-12-01,11,2024,21,KCHO,0.0,0.0,0.0,0.12,7
2024-11-28,28,2024-11-28 22:53,22:53,EST,S  3,10.0,Fair,CLR,42.1,25.0,51.0,,,29.96,1014.3,0.0,0.0,0.0,2024-12-01,11,2024,22,KCHO,0.0,0.0,0.0,0.12,3
2024-11-28,28,2024-11-28 23:53,23:53,EST,W  5,10.0,A Few Clouds,FEW055,41.0,25.0,53.0,38.0,,29.96,1014.3,0.0,0.0,0.0,2024-12-01,11,2024,23,KCHO,0.0,0.0,0.0,0.12,5
2024-11-29,29,2024-11-29 00:53,00:53,EST,S  3,10.0,Overcast,OVC050,37.0,26.1,65.0,,,29.95,1014.3,0.0,0.0,0.0,2024-12-02,11,2024,0,KCHO,0.0,0.0,0.0,0.12,3
2024-11-29,29,2024-11-29 01:53,01:53,EST,Calm,10.0,Overcast,OVC055,41.0,26.1,55.0,,,29.96,1014.4,0.0,0.0,0.0,2024-12-02,11,2024,1,KCHO,0.0,0.0,0.0,0.12,0
2024-11-29,29,2024-11-29 02:53,02:53,EST,NW  3,10.0,Partly Cloudy,SCT055,39.9,26.1,58.0,,,29.97,1014.8,0.0,0.0,0.0,2024-12-02,11,2024,2,KCHO,0.0,0.0,0.0,0.12,3
2024-11-29,29,2024-11-29 03:53,03:53,EST,Calm,10.0,Overcast,OVC050,41.0,26.1,55.0,,,29.97,1015.0,0.0,0.0,0.0,2024-12-02,11,2024,3,KCHO,0.0,0.0,0.0,0.09,0
2024-11-29,29,2024-11-29 04:53,04:53,EST,S  3,10.0,A Few Clouds,FEW055,37.9,23.0,55.0,,,29.96,1014.7,0.0,0.0,0.0,2024-12-02,11,2024,4,KCHO,0.0,0.0,0.0,0.08,3
2024-11-29,29,2024-11-29 05:53,05:53,EST,S  6,10.0,Fair,CLR,34.0,25.0,70.0,29.0,,29.97,1014.9,0.0,0.0,0.0,2024-12-02,11,2024,5,KCHO,0.0,0.0,0.0,0.06,6
2024-11-29,29,2024-11-29 06:53,06:53,EST,S  7,10.0,Fair,CLR,33.1,26.1,75.0,28.0,,29.97,1015.1,0.0,0.0,0.0,2024-12-02,11,2024,6,KCHO,0.0,0.0,0.0,0.0,7
2024-11-29,29,2024-11-29 07:53,07:53,EST,S  8,10.0,A Few Clouds,FEW055,35.1,27.0,72.0,29.0,,29.99,1015.6,0.0,0.0,0.0,2024-12-02,11,2024,7,KCHO,0.0,0.0,0.0,0.0,8
2024-11-29,29,2024-11-29 08:53,08:53,EST,S  12,10.0,Overcast,OVC055,41.0,28.0,60.0,35.0,,30.0,1015.9,0.0,0.0,0.0,2024-12-02,11,2024,8,KCHO,0.0,0.0,0.0,0.0,12
2024-11-29,29,2024-11-29 09:53,09:53,EST,S  10,10.0,Overcast,OVC060,43.0,28.0,56.0,38.0,,29.99,1015.7,0.0,0.0,0.0,2024-12-02,11,2024,9,KCHO,0.0,0.0,0.0,0.0,10
2024-11-29,29,2024-11-29 10:53,10:53,EST,S  12,10.0,Overcast,OVC060,45.0,28.9,54.0,40.0,,29.98,1015.3,0.0,0.0,0.0,2024-12-02,11,2024,10,KCHO,0.0,0.0,0.0,0.0,12
2024-11-29,29,2024-11-29 11:53,11:53,EST,SW  13  G 22,10.0,Overcast,OVC065,45.0,26.1,48.0,39.0,,29.96,1014.6,0.0,0.0,0.0,2024-12-02,11,2024,11,KCHO,0.0,0.0,0.0,0.0,13
2024-11-29,29,2024-11-29 12:53,12:53,EST,W  10,10.0,Overcast,BKN047 OVC055,45.0,26.1,48.0,40.0,,29.95,1014.3,0.0,0.0,0.0,2024-12-02,11,2024,12,KCHO,0.0,0.0,0.0,0.0,10
2024-11-29,29,2024-11-29 13:53,13:53,EST,W  13  G 23,10.0,Overcast,OVC065,46.0,24.1,42.0,41.0,,29.95,1014.2,0.0,0.0,0.0,2024-12-02,11,2024,13,KCHO,0.0,0.0,0.0,0.0,13
2024-11-29,29,2024-11-29 14:53,14:53,EST,NW  10  G 17,10.0,Overcast,OVC060,45.0,21.0,39.0,40.0,,29.95,1014.3,0.0,0.0,0.0,2024-12-02,11,2024,14,KCHO,0.0,0.0,0.0,0.0,10
2024-11-29,29,2024-11-29 15:53,15:53,EST,W  8,10.0,A Few Clouds,FEW060,42.1,19.0,40.0,38.0,,29.97,1015.2,0.0,0.0,0.0,2024-12-02,11,2024,15,KCHO,0.0,0.0,0.0,0.0,8
2024-11-29,29,2024-11-29 16:53,16:53,EST,NW  7,10.0,A Few Clouds,FEW060,39.0,17.1,41.0,35.0,,30.0,1016.2,0.0,0.0,0.0,2024-12-02,11,2024,16,KCHO,0.0,0.0,0.0,0.0,7
2024-11-29,29,2024-11-29 17:53,17:53,EST,Vrbl  5,10.0,Fair,CLR,36.0,15.1,42.0,33.0,,30.03,1017.1,0.0,0.0,0.0,2024-12-02,11,2024,17,KCHO,0.0,0.0,0.0,0.0,5
2024-11-29,29,2024-11-29 18:53,18:53,EST,Vrbl  6,10.0,Fair,CLR,35.1,14.0,42.0,31.0,,30.04,1017.6,0.0,0.0,0.0,2024-12-02,11,2024,18,KCHO,0.0,0.0,0.0,0.0,6
2024-11-29,29,2024-11-29 19:53,19:53,EST,W  8,10.0,Fair,CLR,34.0,15.1,46.0,28.0,,30.05,1018.0,0.0,0.0,0.0,2024-12-02,11,2024,19,KCHO,0.0,0.0,0.0,0.0,8
2024-11-29,29,2024-11-29 20:53,20:53,EST,NW  7,10.0,Fair,CLR,34.0,12.9,42.0,29.0,,30.06,1018.3,0.0,0.0,0.0,2024-12-02,11,2024,20,KCHO,0.0,0.0,0.0,0.0,7
2024-11-29,29,2024-11-29 21:53,21:53,EST,Calm,10.0,Fair,CLR,33.1,12.0,42.0,,,30.07,1018.5,0.0,0.0,0.0,2024-12-02,11,2024,21,KCHO,0.0,0.0,0.0,0.0,0
2024-11-29,29,2024-11-29 22:53,22:53,EST,Calm,10.0,Mostly Cloudy,BKN060 BKN070,30.0,15.1,54.0,,,30.07,1018.6,0.0,0.0,0.0,2024-12-02,11,2024,22,KCHO,0.0,0.0,0.0,0.0,0
2024-11-29,29,2024-11-29 23:53,23:53,EST,Calm,10.0,A Few Clouds,FEW065,32.0,15.1,50.0,,,30.07,1018.5,0.0,0.0,0.0,2024-12-02,11,2024,23,KCHO,0.0,0.0,0.0,0.0,0
2024-11-30,30,2024-11-30 00:53,00:53,EST,NW  5,10.0,Fair,CLR,32.0,12.9,45.0,28.0,,30.06,1018.2,0.0,0.0,0.0,2024-12-03,11,2024,0,KCHO,0.0,0.0,0.0,0.0,5
2024-11-30,30,2024-11-30 01:53,01:53,EST,Calm,10.0,Mostly Cloudy,BKN065,30.0,14.0,51.0,,,30.06,1018.3,0.0,0.0,0.0,2024-12-03,11,2024,1,KCHO,0.0,0.0,0.0,0.0,0
2024-11-30,30,2024-11-30 02:53,02:53,EST,Calm,10.0,Overcast,OVC065,30.0,14.0,51.0,,,30.08,1019.0,0.0,0.0,0.0,2024-12-03,11,2024,2,KCHO,0.0,0.0,0.0,0.0,0
2024-11-30,30,2024-11-30 03:53,03:53,EST,S  3,10.0,A Few Clouds,FEW060,30.0,15.1,54.0,,,30.07,1018.6,0.0,0.0,0.0,2024-12-03,11,2024,3,KCHO,0.0,0.0,0.0,0.0,3
2024-11-30,30,2024-11-30 04:53,04:53,EST,SW  3,10.0,Mostly Cloudy,BKN060,28.9,16.0,58.0,,,30.08,1018.9,0.0,0.0,0.0,2024-12-03,11,2024,4,KCHO,0.0,0.0,0.0,0.0,3
2024-11-30,30,2024-11-30 05:53,05:53,EST,Calm,10.0,Fair,CLR,28.9,16.0,58.0,,,30.09,1019.4,0.0,0.0,0.0,2024-12-03,11,2024,5,KCHO,0.0,0.0,0.0,0.0,0
2024-11-30,30,2024-11-30 06:53,06:53,EST,Calm,10.0,A Few Clouds,FEW055,27.0,15.1,61.0,,,30.11,1020.2,0.0,0.0,0.0,2024-12-03,11,2024,6,KCHO,0.0,0.0,0.0,0.0,0
2024-11-30,30,2024-11-30 07:53,07:53,EST,W  5,10.0,Fair,CLR,28.9,15.1,56.0,25.0,,30.12,1020.3,0.0,0.0,0.0,2024-12-03,11,2024,7,KCHO,0.0,0.0,0.0,0.0,5
2024-11-30,30,2024-11-30 08:53,08:53,EST,Vrbl  6,10.0,Fair,CLR,33.1,14.0,45.0,28.0,,30.14,1020.9,0.0,0.0,0.0,2024-12-03,11,2024,8,KCHO,0.0,0.0,0.0,0.0,6
2024-11-30,30,2024-11-30 09:53,09:53,EST,NW  8,10.0,Fair,CLR,34.0,10.9,38.0,28.0,,30.14,1021.1,0.0,0.0,0.0,2024-12-03,11,2024,9,KCHO,0.0,0.0,0.0,0.0,8
2024-11-30,30,2024-11-30 10:53,10:53,EST,NW  9,10.0,Fair,CLR,37.0,12.0,36.0,31.0,,30.15,1021.2,0.0,0.0,0.0,2024-12-03,11,2024,10,KCHO,0.0,0.0,0.0,0.0,9
2024-11-30,30,2024-11-30 11:53,11:53,EST,Vrbl  7,10.0,Fair,CLR,37.0,10.9,34.0,32.0,,30.12,1020.5,0.0,0.0,0.0,2024-12-03,11,2024,11,KCHO,0.0,0.0,0.0,0.0,7
2024-11-30,30,2024-11-30 12:53,12:53,EST,Vrbl  6,10.0,Fair,CLR,39.0,10.9,31.0,35.0,,30.1,1019.7,0.0,0.0,0.0,2024-12-03,11,2024,12,KCHO,0.0,0.0,0.0,0.0,6
2024-11-30,30,2024-11-30 13:53,13:53,EST,S  9,10.0,Fair,CLR,39.0,10.0,30.0,33.0,,30.08,1019.1,0.0,0.0,0.0,2024-12-03,11,2024,13,KCHO,0.0,0.0,0.0,0.0,9
2024-11-30,30,2024-11-30 14:53,14:53,EST,Vrbl  7,10.0,Fair,CLR,41.0,8.1,25.0,37.0,,30.07,1018.7,0.0,0.0,0.0,2024-12-03,11,2024,14,KCHO,0.0,0.0,0.0,0.0,7
2024-11-30,30,2024-11-30 15:53,15:53,EST,Vrbl  3,10.0,Fair,CLR,41.0,7.0,24.0,,,30.08,1018.9,0.0,0.0,0.0,2024-12-03,11,2024,15,KCHO,0.0,0.0,0.0,0.0,3
2024-11-30,30,2024-11-30 16:53,16:53,EST,Vrbl  5,10.0,Fair,CLR,39.0,6.1,25.0,36.0,,30.09,1019.2,0.0,0.0,0.0,2024-12-03,11,2024,16,KCHO,0.0,0.0,0.0,0.0,5
2024-11-30,30,2024-11-30 17:53,17:53,EST,Calm,10.0,Fair,CLR,36.0,6.1,28.0,,,30.1,1019.6,0.0,0.0,0.0,2024-12-03,11,2024,17,KCHO,0.0,0.0,0.0,0.0,0
2024-11-30,30,2024-11-30 18:53,18:53,EST,Calm,10.0,Fair,CLR,35.1,6.1,29.0,,,30.11,1020.1,0.0,0.0,0.0,2024-12-03,11,2024,18,KCHO,0.0,0.0,0.0,0.0,0
2024-11-30,30,2024-11-30 19:53,19:53,EST,Calm,10.0,Fair,CLR,33.1,5.0,30.0,,,30.12,1020.5,0.0,0.0,0.0,2024-12-03,11,2024,19,KCHO,0.0,0.0,0.0,0.0,0
2024-11-30,30,2024-11-30 20:53,20:53,EST,Calm,10.0,Fair,CLR,32.0,5.0,32.0,,,30.12,1020.3,0.0,0.0,0.0,2024-12-03,11,2024,20,KCHO,0.0,0.0,0.0,0.0,0
2024-11-30,30,2024-11-30 21:53,21:53,EST,SW  5,10.0,Fair,CLR,33.1,6.1,32.0,29.0,,30.13,1020.6,0.0,0.0,0.0,2024-12-03,11,2024,21,KCHO,0.0,0.0,0.0,0.0,5
2024-11-30,30,2024-11-30 22:53,22:53,EST,Calm,10.0,A Few Clouds,FEW120,32.0,8.1,36.0,,,30.13,1020.7,0.0,0.0,0.0,2024-12-03,11,2024,22,KCHO,0.0,0.0,0.0,0.0,0
2024-11-30,30,2024-11-30 23:53,23:53,EST,Vrbl  3,10.0,Fair,CLR,33.1,7.0,33.0,,,30.14,1020.9,0.0,0.0,0.0,2024-12-03,11,2024,23,KCHO,0.0,0.0,0.0,0.0,3
2024-12-01,1,2024-12-01 00:53,00:53,EST,Calm,10.0,Fair,CLR,34.0,8.1,34.0,,,30.14,1020.8,0.0,0.0,0.0,2024-12-04,12,2024,0,KCHO,0.0,0.0,0.0,0.0,0
2024-12-01,1,2024-12-01 01:53,01:53,EST,S  5,10.0,Fair,CLR,30.9,10.9,43.0,27.0,,30.13,1020.6,0.0,0.0,0.0,2024-12-04,12,2024,1,KCHO,0.0,0.0,0.0,0.0,5
2024-12-01,1,2024-12-01 02:53,02:53,EST,Vrbl  3,10.0,Fair,CLR,33.1,12.0,42.0,,,30.14,1020.9,0.0,0.0,0.0,2024-12-04,12,2024,2,KCHO,0.0,0.0,0.0,0.0,3
2024-12-01,1,2024-12-01 03:53,03:53,EST,Vrbl  3,10.0,Fair,CLR,30.9,12.9,47.0,,,30.13,1020.7,0.0,0.0,0.0,2024-12-04,12,2024,3,KCHO,0.0,0.0,0.0,0.0,3
2024-12-01,1,2024-12-01 04:53,04:53,EST,S  6,10.0,Fair,CLR,30.9,12.9,47.0,26.0,,30.14,1020.9,0.0,0.0,0.0,2024-12-04,12,2024,4,KCHO,0.0,0.0,0.0,0.0,6
2024-12-01,1,2024-12-01 05:53,05:53,EST,S  5,10.0,Fair,CLR,30.9,12.9,47.0,27.0,,30.13,1020.8,0.0,0.0,0.0,2024-12-04,12,2024,5,KCHO,0.0,0.0,0.0,0.0,5
2024-12-01,1,2024-12-01 06:53,06:53,EST,SE  3,10.0,Fair,CLR,26.1,15.1,63.0,,,30.13,1020.8,0.0,0.0,0.0,2024-12-04,12,2024,6,KCHO,0.0,0.0,0.0,0.0,3
2024-12-01,1,2024-12-01 07:53,07:53,EST,S  6,10.0,Fair,CLR,27.0,15.1,61.0,21.0,,30.13,1020.7,0.0,0.0,0.0,2024-12-04,12,2024,7,KCHO,0.0,0.0,0.0,0.0,6
2024-12-01,1,2024-12-01 08:53,08:53,EST,S  7,10.0,Fair,CLR,34.0,18.0,52.0,29.0,,30.14,1020.9,0.0,0.0,0.0,2024-12-04,12,2024,8,KCHO,0.0,0.0,0.0,0.0,7
2024-12-01,1,2024-12-01 09:53,09:53,EST,S  8,10.0,Fair,CLR,39.0,19.9,46.0,34.0,,30.13,1020.5,0.0,0.0,0.0,2024-12-04,12,2024,9,KCHO,0.0,0.0,0.0,0.0,8
2024-12-01,1,2024-12-01 10:53,10:53,EST,SW  8  G 16,10.0,Fair,CLR,41.0,21.0,45.0,36.0,,30.11,1019.8,0.0,0.0,0.0,2024-12-04,12,2024,10,KCHO,0.0,0.0,0.0,0.0,8
2024-12-01,1,2024-12-01 11:53,11:53,EST,SW  8,10.0,Partly Cloudy,SCT050,41.0,21.0,45.0,36.0,,30.09,1019.2,0.0,0.0,0.0,2024-12-04,12,2024,11,KCHO,0.0,0.0,0.0,0.0,8
2024-12-01,1,2024-12-01 12:53,12:53,EST,Calm,10.0,Mostly Cloudy,BKN055,45.0,21.9,40.0,,,30.08,1018.6,0.0,0.0,0.0,2024-12-04,12,2024,12,KCHO,0.0,0.0,0.0,0.0,0
2024-12-01,1,2024-12-01 13:53,13:53,EST,W  9  G 18,10.0,Fair,CLR,44.1,21.9,41.0,40.0,,30.06,1018.1,0.0,0.0,0.0,2024-12-04,12,2024,13,KCHO,0.0,0.0,0.0,0.0,9
2024-12-01,1,2024-12-01 14:53,14:53,EST,Vrbl  7,10.0,Mostly Cloudy,BKN060,44.1,21.0,40.0,41.0,,30.05,1017.7,0.0,0.0,0.0,2024-12-04,12,2024,14,KCHO,0.0,0.0,0.0,0.0,7
2024-12-01,1,2024-12-01 15:53,15:53,EST,Vrbl  6  G 17,10.0,Overcast,BKN050 OVC060,44.1,21.9,41.0,41.0,,30.06,1018.2,0.0,0.0,0.0,2024-12-04,12,2024,15,KCHO,0.0,0.0,0.0,0.0,6
2024-12-01,1,2024-12-01 16:53,16:53,EST,Vrbl  7,10.0,Fair,CLR,39.9,21.9,49.0,36.0,,30.08,1018.8,0.0,0.0,0.0,2024-12-04,12,2024,16,KCHO,0.0,0.0,0.0,0.0,7
2024-12-01,1,2024-12-01 17:53,17:53,EST,Calm,10.0,Fair,CLR,37.9,24.1,57.0,,,30.1,1019.5,0.0,0.0,0.0,2024-12-04,12,2024,17,KCHO,0.0,0.0,0.0,0.0,0
2024-12-01,1,2024-12-01 18:53,18:53,EST,Calm,10.0,Mostly Cloudy,BKN070,37.0,21.9,54.0,,,30.11,1020.1,0.0,0.0,0.0,2024-12-04,12,2024,18,KCHO,0.0,0.0,0.0,0.0,0
2024-12-01,1,2024-12-01 19:53,19:53,EST,Calm,10.0,Mostly Cloudy,BKN070,36.0,19.9,52.0,,,30.12,1020.5,0.0,0.0,0.0,2024-12-04,12,2024,19,KCHO,0.0,0.0,0.0,0.0,0
2024-12-01,1,2024-12-01 20:53,20:53,EST,NW  3,10.0,A Few Clouds,FEW070,34.0,18.0,52.0,,,30.13,1020.7,0.0,0.0,0.0,2024-12-04,12,2024,20,KCHO,0.0,0.0,0.0,0.0,3
2024-12-01,1,2024-12-01 21:53,21:53,EST,W  5,10.0,Fair,CLR,34.0,16.0,48.0,30.0,,30.15,1021.1,0.0,0.0,0.0,2024-12-04,12,2024,21,KCHO,0.0,0.0,0.0,0.0,5
2024-12-01,1,2024-12-01 22:53,22:53,EST,Calm,10.0,Fair,CLR,33.1,12.9,43.0,,,30.16,1021.6,0.0,0.0,0.0,2024-12-04,12,2024,22,KCHO,0.0,0.0,0.0,0.0,0
2024-12-01,1,2024-12-01 23:53,23:53,EST,Calm,10.0,Fair,CLR,32.0,12.9,45.0,,,30.17,1021.8,0.0,0.0,0.0,2024-12-04,12,2024,23,KCHO,0.0,0.0,0.0,0.0,0
2024-12-02,2,2024-12-02 00:53,00:53,EST,Calm,10.0,Fair,CLR,30.9,12.9,47.0,,,30.17,1022.0,0.0,0.0,0.0,2024-12-05,12,2024,0,KCHO,0.0,0.0,0.0,0.0,0
2024-12-02,2,2024-12-02 01:53,01:53,EST,NW  3,10.0,Fair,CLR,30.0,12.0,47.0,,,30.18,1022.2,0.0,0.0,0.0,2024-12-05,12,2024,1,KCHO,0.0,0.0,0.0,0.0,3
2024-12-02,2,2024-12-02 02:53,02:53,EST,Vrbl  7,10.0,Fair,CLR,30.0,10.0,43.0,24.0,,30.19,1022.7,0.0,0.0,0.0,2024-12-05,12,2024,2,KCHO,0.0,0.0,0.0,0.0,7
2024-12-02,2,2024-12-02 03:53,03:53,EST,Calm,10.0,Fair,CLR,28.9,9.0,43.0,,,30.19,1022.7,0.0,0.0,0.0,2024-12-05,12,2024,3,KCHO,0.0,0.0,0.0,0.0,0
2024-12-02,2,2024-12-02 04:53,04:53,EST,Calm,10.0,Fair,CLR,27.0,8.1,45.0,,,30.2,1023.2,0.0,0.0,0.0,2024-12-05,12,2024,4,KCHO,0.0,0.0,0.0,0.0,0
2024-12-02,2,2024-12-02 05:53,05:53,EST,NW  3,10.0,Fair,CLR,26.1,8.1,46.0,,,30.21,1023.2,0.0,0.0,0.0,2024-12-05,12,2024,5,KCHO,0.0,0.0,0.0,0.0,3
2024-12-02,2,2024-12-02 06:53,06:53,EST,Calm,10.0,Fair,CLR,25.0,8.1,48.0,,,30.22,1024.0,0.0,0.0,0.0,2024-12-05,12,2024,6,KCHO,0.0,0.0,0.0,0.0,0
2024-12-02,2,2024-12-02 07:53,07:53,EST,Calm,10.0,Fair,CLR,26.1,9.0,48.0,,,30.24,1024.4,0.0,0.0,0.0,2024-12-05,12,2024,7,KCHO,0.0,0.0,0.0,0.0,0
2024-12-02,2,2024-12-02 08:53,08:53,EST,Vrbl  3,10.0,Fair,CLR,28.9,10.0,45.0,,,30.25,1024.9,0.0,0.0,0.0,2024-12-05,12,2024,8,KCHO,0.0,0.0,0.0,0.0,3
2024-12-02,2,2024-12-02 09:53,09:53,EST,N  8,10.0,Fair,CLR,33.1,10.9,40.0,27.0,,30.26,1024.9,0.0,0.0,0.0,2024-12-05,12,2024,9,KCHO,0.0,0.0,0.0,0.0,8
2024-12-02,2,2024-12-02 10:53,10:53,EST,Vrbl  7,10.0,Fair,CLR,34.0,10.0,37.0,29.0,,30.25,1024.8,0.0,0.0,0.0,2024-12-05,12,2024,10,KCHO,0.0,0.0,0.0,0.0,7
2024-12-02,2,2024-12-02 11:53,11:53,EST,Vrbl  5,10.0,Fair,CLR,36.0,10.0,34.0,33.0,,30.23,1024.1,0.0,0.0,0.0,2024-12-05,12,2024,11,KCHO,0.0,0.0,0.0,0.0,5
2024-12-02,2,2024-12-02 12:53,12:53,EST,Calm,10.0,Fair,CLR,37.9,10.9,33.0,,,30.21,1023.5,0.0,0.0,0.0,2024-12-05,12,2024,12,KCHO,0.0,0.0,0.0,0.0,0
2024-12-02,2,2024-12-02 13:53,13:53,EST,Calm,10.0,A Few Clouds,FEW060,37.9,10.0,31.0,,,30.21,1023.3,0.0,0.0,0.0,2024-12-05,12,2024,13,KCHO,0.0,0.0,0.0,0.0,0
2024-12-02,2,2024-12-02 14:53,14:53,EST,N  7,10.0,Mostly Cloudy,BKN065,37.0,10.0,33.0,32.0,,30.21,1023.5,0.0,0.0,0.0,2024-12-05,12,2024,14,KCHO,0.0,0.0,0.0,0.0,7
2024-12-02,2,2024-12-02 15:53,15:53,EST,N  5,10.0,Mostly Cloudy,BKN065,37.0,10.0,33.0,34.0,,30.22,1023.9,0.0,0.0,0.0,2024-12-05,12,2024,15,KCHO,0.0,0.0,0.0,0.0,5
2024-12-02,2,2024-12-02 16:53,16:53,EST,N  3,10.0,Mostly Cloudy,BKN070,35.1,10.9,37.0,,,30.23,1024.3,0.0,0.0,0.0,2024-12-05,12,2024,16,KCHO,0.0,0.0,0.0,0.0,3
2024-12-02,2,2024-12-02 17:53,17:53,EST,N  3,10.0,Fair,CLR,32.0,10.9,41.0,,,30.24,1024.6,0.0,0.0,0.0,2024-12-05,12,2024,17,KCHO,0.0,0.0,0.0,0.0,3
2024-12-02,2,2024-12-02 18:53,18:53,EST,N  5,10.0,Fair,CLR,30.0,10.9,45.0,26.0,,30.25,1025.1,0.0,0.0,0.0,2024-12-05,12,2024,18,KCHO,0.0,0.0,0.0,0.0,5
2024-12-02,2,2024-12-02 19:53,19:53,EST,NW  5,10.0,Fair,CLR,30.0,10.9,45.0,26.0,,30.26,1025.4,0.0,0.0,0.0,2024-12-05,12,2024,19,KCHO,0.0,0.0,0.0,0.0,5
2024-12-02,2,2024-12-02 20:53,20:53,EST,NW  5,10.0,Fair,CLR,28.9,12.0,49.0,25.0,,30.28,1025.7,0.0,0.0,0.0,2024-12-05,12,2024,20,KCHO,0.0,0.0,0.0,0.0,5
2024-12-02,2,2024-12-02 21:53,21:53,EST,W  3,10.0,Fair,CLR,28.9,12.0,49.0,,,30.29,1026.3,0.0,0.0,0.0,2024-12-05,12,2024,21,KCHO,0.0,0.0,0.0,0.0,3
2024-12-02,2,2024-12-02 22:53,22:53,EST,Calm,10.0,Fair,CLR,27.0,12.0,53.0,,,30.3,1026.4,0.0,0.0,0.0,2024-12-05,12,2024,22,KCHO,0.0,0.0,0.0,0.0,0
2024-12-02,2,2024-12-02 23:53,23:53,EST,W  3,10.0,Fair,CLR,26.1,12.0,55.0,,,30.31,1026.7,0.0,0.0,0.0,2024-12-05,12,2024,23,KCHO,0.0,0.0,0.0,0.0,3
2024-12-03,3,2024-12-03 00:53,00:53,EST,W  5,10.0,Fair,CLR,27.0,10.9,51.0,22.0,,30.3,1026.4,0.0,0.0,0.0,2024-12-06,12,2024,0,KCHO,0.0,0.0,0.0,0.0,5
2024-12-03,3,2024-12-03 01:53,01:53,EST,W  3,10.0,Fair,CLR,25.0,12.0,58.0,,,30.31,1026.7,0.0,0.0,0.0,2024-12-06,12,2024,1,KCHO,0.0,0.0,0.0,0.0,3
2024-12-03,3,2024-12-03 02:53,02:53,EST,Calm,10.0,Fair,CLR,25.0,12.0,58.0,,,30.31,1026.8,0.0,0.0,0.0,2024-12-06,12,2024,2,KCHO,0.0,0.0,0.0,0.0,0
2024-12-03,3,2024-12-03 03:53,03:53,EST,Calm,10.0,Fair,CLR,23.0,10.0,57.0,,,30.31,1026.9,0.0,0.0,0.0,2024-12-06,12,2024,3,KCHO,0.0,0.0,0.0,0.0,0
2024-12-03,3,2024-12-03 04:53,04:53,EST,Calm,10.0,Fair,CLR,24.1,10.9,57.0,,,30.32,1027.1,0.0,0.0,0.0,2024-12-06,12,2024,4,KCHO,0.0,0.0,0.0,0.0,0
2024-12-03,3,2024-12-03 05:53,05:53,EST,Calm,10.0,Fair,CLR,23.0,10.9,60.0,,,30.33,1027.8,0.0,0.0,0.0,2024-12-06,12,2024,5,KCHO,0.0,0.0,0.0,0.0,0
2024-12-03,3,2024-12-03 07:53,07:53,EST,W  3,10.0,Fair,CLR,24.1,10.9,57.0,,,30.37,1029.0,0.0,0.0,0.0,2024-12-06,12,2024,7,KCHO,0.0,0.0,0.0,0.0,3
2024-12-03,3,2024-12-03 08:53,08:53,EST,W  3,10.0,Fair,CLR,30.0,12.9,49.0,,,30.38,1029.3,0.0,0.0,0.0,2024-12-06,12,2024,8,KCHO,0.0,0.0,0.0,0.0,3
2024-12-03,3,2024-12-03 09:53,09:53,EST,Vrbl  5,10.0,Fair,CLR,34.0,12.9,42.0,30.0,,30.39,1029.6,0.0,0.0,0.0,2024-12-06,12,2024,9,KCHO,0.0,0.0,0.0,0.0,5
2024-12-03,3,2024-12-03 11:53,11:53,EST,Vrbl  6,10.0,Fair,CLR,37.9,14.0,37.0,34.0,,30.37,1028.9,0.0,0.0,0.0,2024-12-06,12,2024,11,KCHO,0.0,0.0,0.0,0.0,6
2024-12-03,3,2024-12-03 12:53,12:53,EST,N  7,10.0,Fair,CLR,39.0,12.9,34.0,35.0,,30.35,1028.3,0.0,0.0,0.0,2024-12-06,12,2024,12,KCHO,0.0,0.0,0.0,0.0,7
2024-12-03,3,2024-12-03 13:53,13:53,EST,Vrbl  5,10.0,Fair,CLR,39.9,12.9,33.0,37.0,,30.34,1027.9,0.0,0.0,0.0,2024-12-06,12,2024,13,KCHO,0.0,0.0,0.0,0.0,5
2024-12-03,3,2024-12-03 14:53,14:53,EST,Vrbl  5,10.0,Fair,CLR,39.9,12.9,33.0,37.0,,30.34,1027.7,0.0,0.0,0.0,2024-12-06,12,2024,14,KCHO,0.0,0.0,0.0,0.0,5
2024-12-03,3,2024-12-03 15:53,15:53,EST,NW  6,10.0,Fair,CLR,37.9,12.9,36.0,34.0,,30.35,1028.2,0.0,0.0,0.0,2024-12-06,12,2024,15,KCHO,0.0,0.0,0.0,0.0,6
2024-12-03,3,2024-12-03 16:53,16:53,EST,Calm,10.0,Fair,CLR,36.0,12.9,39.0,,,30.36,1028.5,0.0,0.0,0.0,2024-12-06,12,2024,16,KCHO,0.0,0.0,0.0,0.0,0
2024-12-03,3,2024-12-03 17:53,17:53,EST,N  3,10.0,Fair,CLR,34.0,12.0,40.0,,,30.36,1028.7,0.0,0.0,0.0,2024-12-06,12,2024,17,KCHO,0.0,0.0,0.0,0.0,3
2024-12-03,3,2024-12-03 18:53,18:53,EST,W  3,10.0,Fair,CLR,33.1,12.0,42.0,,,30.37,1029.0,0.0,0.0,0.0,2024-12-06,12,2024,18,KCHO,0.0,0.0,0.0,0.0,3
2024-12-03,3,2024-12-03 19:53,19:53,EST,NW  6,10.0,Fair,CLR,32.0,12.0,43.0,27.0,,30.38,1029.5,0.0,0.0,0.0,2024-12-06,12,2024,19,KCHO,0.0,0.0,0.0,0.0,6
2024-12-03,3,2024-12-03 20:53,20:53,EST,W  5,10.0,Fair,CLR,30.0,12.0,47.0,26.0,,30.4,1029.8,0.0,0.0,0.0,2024-12-06,12,2024,20,KCHO,0.0,0.0,0.0,0.0,5
2024-12-03,3,2024-12-03 21:53,21:53,EST,W  5,10.0,Fair,CLR,28.9,10.9,47.0,25.0,,30.38,1029.1,0.0,0.0,0.0,2024-12-06,12,2024,21,KCHO,0.0,0.0,0.0,0.0,5
2024-12-03,3,2024-12-03 22:53,22:53,EST,S  3,10.0,Fair,CLR,27.0,10.9,51.0,,,30.38,1029.1,0.0,0.0,0.0,2024-12-06,12,2024,22,KCHO,0.0,0.0,0.0,0.0,3
2024-12-03,3,2024-12-03 23:53,23:53,EST,W  3,10.0,Fair,CLR,27.0,10.9,51.0,,,30.37,1028.7,0.0,0.0,0.0,2024-12-06,12,2024,23,KCHO,0.0,0.0,0.0,0.0,3
2024-12-04,4,2024-12-04 00:53,00:53,EST,W  5,10.0,Fair,CLR,26.1,12.0,55.0,21.0,,30.36,1028.6,0.0,0.0,0.0,2024-12-07,12,2024,0,KCHO,0.0,0.0,0.0,0.0,5
2024-12-04,4,2024-12-04 01:53,01:53,EST,Calm,10.0,Fair,CLR,26.1,12.0,55.0,,,30.35,1028.2,0.0,0.0,0.0,2024-12-07,12,2024,1,KCHO,0.0,0.0,0.0,0.0,0
2024-12-04,4,2024-12-04 02:53,02:53,EST,SW  3,10.0,Fair,CLR,25.0,12.0,58.0,,,30.35,1028.0,0.0,0.0,0.0,2024-12-07,12,2024,2,KCHO,0.0,0.0,0.0,0.0,3
2024-12-04,4,2024-12-04 03:53,03:53,EST,SW  3,10.0,Fair,CLR,25.0,12.0,58.0,,,30.33,1027.6,0.0,0.0,0.0,2024-12-07,12,2024,3,KCHO,0.0,0.0,0.0,0.0,3
2024-12-04,4,2024-12-04 04:53,04:53,EST,SW  3,10.0,Fair,CLR,25.0,12.0,58.0,,,30.32,1027.1,0.0,0.0,0.0,2024-12-07,12,2024,4,KCHO,0.0,0.0,0.0,0.0,3
2024-12-04,4,2024-12-04 05:53,05:53,EST,Calm,10.0,Fair,CLR,24.1,12.0,60.0,,,30.31,1026.9,0.0,0.0,0.0,2024-12-07,12,2024,5,KCHO,0.0,0.0,0.0,0.0,0
2024-12-04,4,2024-12-04 06:53,06:53,EST,S  5,10.0,A Few Clouds,FEW110,21.9,12.0,66.0,16.0,,30.29,1026.4,0.0,0.0,0.0,2024-12-07,12,2024,6,KCHO,0.0,0.0,0.0,0.0,5
2024-12-04,4,2024-12-04 07:53,07:53,EST,SW  3,10.0,A Few Clouds,FEW110,23.0,14.0,68.0,,,30.29,1026.1,0.0,0.0,0.0,2024-12-07,12,2024,7,KCHO,0.0,0.0,0.0,0.0,3
2024-12-04,4,2024-12-04 08:53,08:53,EST,S  6,10.0,Fair,CLR,27.0,15.1,61.0,21.0,,30.27,1025.6,0.0,0.0,0.0,2024-12-07,12,2024,8,KCHO,0.0,0.0,0.0,0.0,6
2024-12-04,4,2024-12-04 10:53,10:53,EST,S  12,10.0,Fair,CLR,35.1,14.0,42.0,28.0,,30.2,1023.3,0.0,0.0,0.0,2024-12-07,12,2024,10,KCHO,0.0,0.0,0.0,0.0,12
2024-12-04,4,2024-12-04 11:53,11:53,EST,S  13,10.0,Mostly Cloudy,BKN080,37.9,14.0,37.0,31.0,,30.14,1021.1,0.0,0.0,0.0,2024-12-07,12,2024,11,KCHO,0.0,0.0,0.0,0.0,13
2024-12-04,4,2024-12-04 12:53,12:53,EST,S  15,10.0,Partly Cloudy,FEW065 SCT080,39.0,12.9,34.0,31.0,,30.1,1019.7,0.0,0.0,0.0,2024-12-07,12,2024,12,KCHO,0.0,0.0,0.0,0.0,15
2024-12-04,4,2024-12-04 13:53,13:53,EST,S  15,10.0,Overcast,OVC043,37.0,12.9,37.0,29.0,,30.07,1018.5,0.0,0.0,0.0,2024-12-07,12,2024,13,KCHO,0.0,0.0,0.0,0.0,15
2024-12-04,4,2024-12-04 14:53,14:53,EST,SW  18  G 26,10.0,Overcast,OVC055,37.9,12.9,36.0,29.0,,30.03,1017.3,0.0,0.0,0.0,2024-12-07,12,2024,14,KCHO,0.0,0.0,0.0,0.0,18
2024-12-04,4,2024-12-04 15:53,15:53,EST,SW  10  G 22,10.0,Overcast,OVC060,39.0,12.9,34.0,33.0,,30.0,1016.2,0.0,0.0,0.0,2024-12-07,12,2024,15,KCHO,0.0,0.0,0.0,0.0,10
2024-12-04,4,2024-12-04 16:53,16:53,EST,S  15  G 23,10.0,Overcast,FEW048 OVC070,39.0,16.0,39.0,31.0,,29.98,1015.4,0.0,0.0,0.0,2024-12-07,12,2024,16,KCHO,0.0,0.0,0.0,0.0,15
2024-12-04,4,2024-12-04 17:53,17:53,EST,S  14,10.0,Overcast,OVC065,37.9,16.0,41.0,30.0,,29.95,1014.5,0.0,0.0,0.0,2024-12-07,12,2024,17,KCHO,0.0,0.0,0.0,0.0,14
2024-12-04,4,2024-12-04 18:53,18:53,EST,S  13  G 22,10.0,Partly Cloudy,SCT070,37.0,17.1,44.0,30.0,,29.92,1013.6,0.0,0.0,0.0,2024-12-07,12,2024,18,KCHO,0.0,0.0,0.0,0.0,13
2024-12-04,4,2024-12-04 19:53,19:53,EST,S  20  G 29,10.0,Fair,CLR,37.9,18.0,44.0,29.0,,29.85,1011.2,0.0,0.0,0.0,2024-12-07,12,2024,19,KCHO,0.0,0.0,0.0,0.0,20
2024-12-04,4,2024-12-04 20:53,20:53,EST,S  16  G 29,10.0,Fair,CLR,39.0,18.0,43.0,31.0,,29.82,1010.3,0.0,0.0,0.0,2024-12-07,12,2024,20,KCHO,0.0,0.0,0.0,0.0,16
2024-12-04,4,2024-12-04 21:53,21:53,EST,S  13,10.0,Overcast,OVC065,39.9,19.0,43.0,33.0,,29.81,1009.7,0.0,0.0,0.0,2024-12-07,12,2024,21,KCHO,0.0,0.0,0.0,0.0,13
2024-12-04,4,2024-12-04 22:53,22:53,EST,S  14,10.0,Mostly Cloudy,FEW060 BKN110,39.9,19.9,45.0,33.0,,29.77,1008.5,0.0,0.0,0.0,2024-12-07,12,2024,22,KCHO,0.0,0.0,0.0,0.0,14
2024-12-04,4,2024-12-04 23:53,23:53,EST,S  17  G 26,10.0,A Few Clouds,FEW055,39.9,19.9,45.0,32.0,,29.74,1007.1,0.0,0.0,0.0,2024-12-07,12,2024,23,KCHO,0.0,0.0,0.0,0.0,17
2024-12-05,5,2024-12-05 00:53,00:53,EST,S  17  G 25,10.0,Partly Cloudy,SCT060,39.0,19.9,46.0,31.0,,29.71,1006.2,0.0,0.0,0.0,2024-12-08,12,2024,0,KCHO,0.0,0.0,0.0,0.0,17
2024-12-05,5,2024-12-05 01:53,01:53,EST,S  15  G 25,10.0,Fair,CLR,37.9,19.0,46.0,30.0,,29.68,1005.3,0.0,0.0,0.0,2024-12-08,12,2024,1,KCHO,0.0,0.0,0.0,0.0,15
2024-12-05,5,2024-12-05 02:53,02:53,EST,SW  14  G 23,10.0,Fair,CLR,37.9,19.0,46.0,30.0,,29.65,1004.2,0.0,0.0,0.0,2024-12-08,12,2024,2,KCHO,0.0,0.0,0.0,0.0,14
2024-12-05,5,2024-12-05 03:53,03:53,EST,S  15  G 28,10.0,Overcast,OVC090,39.0,19.0,45.0,31.0,,29.62,1003.0,0.0,0.0,0.0,2024-12-08,12,2024,3,KCHO,0.0,0.0,0.0,0.0,15
2024-12-05,5,2024-12-05 04:53,04:53,EST,SW  15  G 31,10.0,Fair,CLR,39.0,19.0,45.0,31.0,,29.59,1002.3,0.0,0.0,0.0,2024-12-08,12,2024,4,KCHO,0.0,0.0,0.0,0.0,15
2024-12-05,5,2024-12-05 05:53,05:53,EST,SW  6,10.0,Overcast,OVC060,39.9,19.9,45.0,36.0,,29.61,1002.9,0.0,0.0,0.0,2024-12-08,12,2024,5,KCHO,0.0,0.0,0.0,0.0,6
2024-12-05,5,2024-12-05 06:53,06:53,EST,W  7,6.0,Light Snow Fog/Mist,FEW035 OVC045,39.0,24.1,55.0,35.0,,29.69,1005.4,0.0,0.0,0.0,2024-12-08,12,2024,6,KCHO,0.0,0.0,0.0,0.0,7
2024-12-05,5,2024-12-05 08:53,08:53,EST,NW  16  G 26,10.0,Overcast,FEW050 OVC065,39.9,21.9,49.0,32.0,,29.78,1008.5,0.0,0.0,0.0,2024-12-08,12,2024,8,KCHO,0.0,0.0,0.0,0.0,16
2024-12-05,5,2024-12-05 09:53,09:53,EST,NW  9  G 23,10.0,Fair,CLR,39.0,14.0,36.0,33.0,,29.84,1010.6,0.0,0.0,0.0,2024-12-08,12,2024,9,KCHO,0.0,0.0,0.0,0.0,9
2024-12-05,5,2024-12-05 10:53,10:53,EST,NW  13  G 29,10.0,Fair,CLR,37.0,9.0,31.0,30.0,,29.88,1012.0,0.0,0.0,0.0,2024-12-08,12,2024,10,KCHO,0.0,0.0,0.0,0.0,13
2024-12-05,5,2024-12-05 11:53,11:53,EST,NW  12  G 24,10.0,Fair,CLR,36.0,8.1,31.0,29.0,,29.91,1013.0,0.0,0.0,0.0,2024-12-08,12,2024,11,KCHO,0.0,0.0,0.0,0.0,12
2024-12-05,5,2024-12-05 12:53,12:53,EST,NW  13  G 22,10.0,Fair,CLR,35.1,5.0,28.0,27.0,,29.93,1013.8,0.0,0.0,0.0,2024-12-08,12,2024,12,KCHO,0.0,0.0,0.0,0.0,13
2024-12-05,5,2024-12-05 13:53,13:53,EST,W  13  G 30,10.0,Fair,CLR,36.0,3.9,26.0,28.0,,29.95,1014.4,0.0,0.0,0.0,2024-12-08,12,2024,13,KCHO,0.0,0.0,0.0,0.0,13
2024-12-05,5,2024-12-05 14:53,14:53,EST,NW  10  G 20,10.0,Partly Cloudy,SCT070,35.1,5.0,28.0,28.0,,29.99,1015.9,0.0,0.0,0.0,2024-12-08,12,2024,14,KCHO,0.0,0.0,0.0,0.0,10
2024-12-05,5,2024-12-05 15:53,15:53,EST,NW  13  G 23,10.0,Fair,CLR,32.0,3.9,30.0,23.0,,30.04,1017.4,0.0,0.0,0.0,2024-12-08,12,2024,15,KCHO,0.0,0.0,0.0,0.0,13
2024-12-05,5,2024-12-05 16:53,16:53,EST,NW  8  G 16,10.0,Fair,CLR,30.0,3.0,31.0,23.0,,30.08,1018.9,0.0,0.0,0.0,2024-12-08,12,2024,16,KCHO,0.0,0.0,0.0,0.0,8
2024-12-05,5,2024-12-05 17:53,17:53,EST,Vrbl  5,10.0,Fair,CLR,28.0,5.0,37.0,24.0,,30.11,1020.0,0.0,0.0,0.0,2024-12-08,12,2024,17,KCHO,0.0,0.0,0.0,0.0,5
2024-12-05,5,2024-12-05 18:53,18:53,EST,W  3,10.0,Fair,CLR,27.0,5.0,39.0,,,30.14,1021.1,0.0,0.0,0.0,2024-12-08,12,2024,18,KCHO,0.0,0.0,0.0,0.0,3
2024-12-05,5,2024-12-05 19:53,19:53,EST,NW  6,10.0,A Few Clouds,FEW060,25.0,6.1,44.0,19.0,,30.17,1022.1,0.0,0.0,0.0,2024-12-08,12,2024,19,KCHO,0.0,0.0,0.0,0.0,6
2024-12-05,5,2024-12-05 20:53,20:53,EST,NW  7  G 16,10.0,A Few Clouds,FEW050,26.1,6.1,42.0,19.0,,30.19,1022.5,0.0,0.0,0.0,2024-12-08,12,2024,20,KCHO,0.0,0.0,0.0,0.0,7
2024-12-05,5,2024-12-05 21:53,21:53,EST,Calm,10.0,Mostly Cloudy,BKN050,23.0,7.0,50.0,,,30.18,1022.6,0.0,0.0,0.0,2024-12-08,12,2024,21,KCHO,0.0,0.0,0.0,0.0,0
2024-12-05,5,2024-12-05 22:53,22:53,EST,Calm,10.0,Fair,CLR,24.1,7.0,48.0,,,30.18,1022.4,0.0,0.0,0.0,2024-12-08,12,2024,22,KCHO,0.0,0.0,0.0,0.0,0
2024-12-05,5,2024-12-05 23:53,23:53,EST,S  3,10.0,Fair,CLR,24.1,8.1,50.0,,,30.18,1022.6,0.0,0.0,0.0,2024-12-08,12,2024,23,KCHO,0.0,0.0,0.0,0.0,3
2024-12-06,6,2024-12-06 00:53,00:53,EST,W  6,10.0,Fair,CLR,25.0,9.0,50.0,19.0,,30.18,1022.3,0.0,0.0,0.0,2024-12-09,12,2024,0,KCHO,0.0,0.0,0.0,0.0,6
2024-12-06,6,2024-12-06 01:53,01:53,EST,Calm,10.0,Fair,CLR,24.1,9.0,52.0,,,30.19,1022.8,0.0,0.0,0.0,2024-12-09,12,2024,1,KCHO,0.0,0.0,0.0,0.0,0
2024-12-06,6,2024-12-06 02:53,02:53,EST,Vrbl  3,10.0,Fair,CLR,26.1,9.0,48.0,,,30.2,1023.2,0.0,0.0,0.0,2024-12-09,12,2024,2,KCHO,0.0,0.0,0.0,0.0,3
2024-12-06,6,2024-12-06 03:53,03:53,EST,NW  7,10.0,Fair,CLR,27.0,9.0,46.0,20.0,,30.2,1023.1,0.0,0.0,0.0,2024-12-09,12,2024,3,KCHO,0.0,0.0,0.0,0.0,7
2024-12-06,6,2024-12-06 04:53,04:53,EST,Calm,10.0,A Few Clouds,FEW050,25.0,9.0,50.0,,,30.2,1023.2,0.0,0.0,0.0,2024-12-09,12,2024,4,KCHO,0.0,0.0,0.0,0.0,0
2024-12-06,6,2024-12-06 05:53,05:53,EST,NW  5,10.0,Fair,CLR,25.0,9.0,50.0,20.0,,30.21,1023.7,0.0,0.0,0.0,2024-12-09,12,2024,5,KCHO,0.0,0.0,0.0,0.0,5
2024-12-06,6,2024-12-06 06:53,06:53,EST,NW  3,10.0,Fair,CLR,25.0,9.0,50.0,,,30.23,1024.3,0.0,0.0,0.0,2024-12-09,12,2024,6,KCHO,0.0,0.0,0.0,0.0,3
2024-12-06,6,2024-12-06 07:53,07:53,EST,Vrbl  3,10.0,Fair,CLR,26.1,9.0,48.0,,,30.26,1025.2,0.0,0.0,0.0,2024-12-09,12,2024,7,KCHO,0.0,0.0,0.0,0.0,3
2024-12-06,6,2024-12-06 08:53,08:53,EST,NW  9  G 21,10.0,Fair,CLR,28.9,10.0,45.0,21.0,,30.27,1025.5,0.0,0.0,0.0,2024-12-09,12,2024,8,KCHO,0.0,0.0,0.0,0.0,9
2024-12-06,6,2024-12-06 09:53,09:53,EST,Vrbl  7  G 20,10.0,Fair,CLR,30.9,9.0,40.0,25.0,,30.28,1025.9,0.0,0.0,0.0,2024-12-09,12,2024,9,KCHO,0.0,0.0,0.0,0.0,7
2024-12-06,6,2024-12-06 10:53,10:53,EST,N  8,10.0,Fair,CLR,30.9,9.0,40.0,24.0,,30.29,1026.4,0.0,0.0,0.0,2024-12-09,12,2024,10,KCHO,0.0,0.0,0.0,0.0,8
2024-12-06,6,2024-12-06 11:53,11:53,EST,NW  9,10.0,Fair,CLR,34.0,9.0,35.0,27.0,,30.27,1025.6,0.0,0.0,0.0,2024-12-09,12,2024,11,KCHO,0.0,0.0,0.0,0.0,9
2024-12-06,6,2024-12-06 12:53,12:53,EST,N  9  G 21,10.0,Fair,CLR,35.1,7.0,31.0,29.0,,30.24,1024.6,0.0,0.0,0.0,2024-12-09,12,2024,12,KCHO,0.0,0.0,0.0,0.0,9
2024-12-06,6,2024-12-06 13:53,13:53,EST,N  10  G 17,10.0,Fair,CLR,36.0,5.0,27.0,29.0,,30.22,1023.9,0.0,0.0,0.0,2024-12-09,12,2024,13,KCHO,0.0,0.0,0.0,0.0,10
2024-12-06,6,2024-12-06 14:53,14:53,EST,Vrbl  6,10.0,Fair,CLR,35.1,5.0,28.0,31.0,,30.23,1024.1,0.0,0.0,0.0,2024-12-09,12,2024,14,KCHO,0.0,0.0,0.0,0.0,6
2024-12-06,6,2024-12-06 15:53,15:53,EST,NW  6,10.0,Fair,CLR,34.0,3.9,28.0,29.0,,30.23,1024.0,0.0,0.0,0.0,2024-12-09,12,2024,15,KCHO,0.0,0.0,0.0,0.0,6
2024-12-06,6,2024-12-06 16:53,16:53,EST,Calm,10.0,Fair,CLR,32.0,5.0,32.0,,,30.23,1024.1,0.0,0.0,0.0,2024-12-09,12,2024,16,KCHO,0.0,0.0,0.0,0.0,0
2024-12-06,6,2024-12-06 17:53,17:53,EST,N  3,10.0,Fair,CLR,30.0,5.0,34.0,,,30.24,1024.7,0.0,0.0,0.0,2024-12-09,12,2024,17,KCHO,0.0,0.0,0.0,0.0,3
2024-12-06,6,2024-12-06 18:53,18:53,EST,N  5,10.0,Fair,CLR,28.0,8.1,43.0,24.0,,30.25,1025.1,0.0,0.0,0.0,2024-12-09,12,2024,18,KCHO,0.0,0.0,0.0,0.0,5
2024-12-06,6,2024-12-06 19:53,19:53,EST,NW  3,10.0,Fair,CLR,28.0,8.1,43.0,,,30.26,1025.3,0.0,0.0,0.0,2024-12-09,12,2024,19,KCHO,0.0,0.0,0.0,0.0,3
2024-12-06,6,2024-12-06 20:53,20:53,EST,W  3,10.0,Fair,CLR,27.0,8.1,45.0,,,30.26,1025.4,0.0,0.0,0.0,2024-12-09,12,2024,20,KCHO,0.0,0.0,0.0,0.0,3
2024-12-06,6,2024-12-06 21:53,21:53,EST,Calm,10.0,Fair,CLR,26.1,8.1,46.0,,,30.26,1025.1,0.0,0.0,0.0,2024-12-09,12,2024,21,KCHO,0.0,0.0,0.0,0.0,0
2024-12-06,6,2024-12-06 22:53,22:53,EST,Calm,10.0,Fair,CLR,24.1,8.1,50.0,,,30.25,1025.0,0.0,0.0,0.0,2024-12-09,12,2024,22,KCHO,0.0,0.0,0.0,0.0,0
2024-12-06,6,2024-12-06 23:53,23:53,EST,SW  6,10.0,Fair,CLR,25.0,9.0,50.0,19.0,,30.25,1025.0,0.0,0.0,0.0,2024-12-09,12,2024,23,KCHO,0.0,0.0,0.0,0.0,6
2024-12-07,7,2024-12-07 00:53,00:53,EST,Calm,10.0,Fair,CLR,25.0,10.0,53.0,,,30.26,1025.2,0.0,0.0,0.0,2024-12-10,12,2024,0,KCHO,0.0,0.0,0.0,0.0,0
2024-12-07,7,2024-12-07 01:53,01:53,EST,SW  8,10.0,Fair,CLR,25.0,10.0,53.0,17.0,,30.25,1024.8,0.0,0.0,0.0,2024-12-10,12,2024,1,KCHO,0.0,0.0,0.0,0.0,8
2024-12-07,7,2024-12-07 02:53,02:53,EST,S  3,10.0,Fair,CLR,24.1,9.0,52.0,,,30.26,1025.2,0.0,0.0,0.0,2024-12-10,12,2024,2,KCHO,0.0,0.0,0.0,0.0,3
2024-12-07,7,2024-12-07 03:53,03:53,EST,SW  5,10.0,Fair,CLR,26.1,9.0,48.0,21.0,,30.25,1024.7,0.0,0.0,0.0,2024-12-10,12,2024,3,KCHO,0.0,0.0,0.0,0.0,5
2024-12-07,7,2024-12-07 04:53,04:53,EST,Calm,10.0,Fair,CLR,26.1,9.0,48.0,,,30.24,1024.4,0.0,0.0,0.0,2024-12-10,12,2024,4,KCHO,0.0,0.0,0.0,0.0,0
2024-12-07,7,2024-12-07 05:53,05:53,EST,SW  3,10.0,Fair,CLR,26.1,9.0,48.0,,,30.24,1024.7,0.0,0.0,0.0,2024-12-10,12,2024,5,KCHO,0.0,0.0,0.0,0.0,3
2024-12-07,7,2024-12-07 06:53,06:53,EST,SE  7,10.0,Fair,CLR,21.0,10.0,62.0,13.0,,30.25,1025.0,0.0,0.0,0.0,2024-12-10,12,2024,6,KCHO,0.0,0.0,0.0,0.0,7
2024-12-07,7,2024-12-07 07:53,07:53,EST,Calm,10.0,Fair,CLR,27.0,12.0,53.0,,,30.26,1025.3,0.0,0.0,0.0,2024-12-10,12,2024,7,KCHO,0.0,0.0,0.0,0.0,0
2024-12-07,7,2024-12-07 08:53,08:53,EST,Calm,10.0,Fair,CLR,28.0,12.0,51.0,,,30.27,1025.6,0.0,0.0,0.0,2024-12-10,12,2024,8,KCHO,0.0,0.0,0.0,0.0,0
2024-12-07,7,2024-12-07 09:53,09:53,EST,Calm,10.0,Fair,CLR,30.0,12.0,47.0,,,30.28,1026.0,0.0,0.0,0.0,2024-12-10,12,2024,9,KCHO,0.0,0.0,0.0,0.0,0
2024-12-07,7,2024-12-07 10:53,10:53,EST,Calm,10.0,Fair,CLR,30.9,12.9,47.0,,,30.27,1025.7,0.0,0.0,0.0,2024-12-10,12,2024,10,KCHO,0.0,0.0,0.0,0.0,0
2024-12-07,7,2024-12-07 12:53,12:53,EST,Vrbl  7,10.0,Fair,CLR,37.0,10.9,34.0,32.0,,30.2,1023.2,0.0,0.0,0.0,2024-12-10,12,2024,12,KCHO,0.0,0.0,0.0,0.0,7
2024-12-07,7,2024-12-07 13:53,13:53,EST,S  10,10.0,Fair,CLR,37.0,10.9,34.0,30.0,,30.17,1022.3,0.0,0.0,0.0,2024-12-10,12,2024,13,KCHO,0.0,0.0,0.0,0.0,10
2024-12-07,7,2024-12-07 14:53,14:53,EST,S  12,10.0,Fair,CLR,37.9,9.0,30.0,31.0,,30.15,1021.3,0.0,0.0,0.0,2024-12-10,12,2024,14,KCHO,0.0,0.0,0.0,0.0,12
2024-12-07,7,2024-12-07 15:53,15:53,EST,S  12,10.0,Fair,CLR,39.0,9.0,29.0,32.0,,30.13,1020.7,0.0,0.0,0.0,2024-12-10,12,2024,15,KCHO,0.0,0.0,0.0,0.0,12
2024-12-07,7,2024-12-07 16:53,16:53,EST,S  7,10.0,Fair,CLR,36.0,9.0,32.0,31.0,,30.11,1020.1,0.0,0.0,0.0,2024-12-10,12,2024,16,KCHO,0.0,0.0,0.0,0.0,7
2024-12-07,7,2024-12-07 17:53,17:53,EST,S  3,10.0,Fair,CLR,36.0,9.0,32.0,,,30.1,1019.8,0.0,0.0,0.0,2024-12-10,12,2024,17,KCHO,0.0,0.0,0.0,0.0,3
2024-12-07,7,2024-12-07 18:53,18:53,EST,SW  3,10.0,Fair,CLR,37.0,8.1,30.0,,,30.09,1019.4,0.0,0.0,0.0,2024-12-10,12,2024,18,KCHO,0.0,0.0,0.0,0.0,3
2024-12-07,7,2024-12-07 19:53,19:53,EST,S  7,10.0,Fair,CLR,33.1,10.0,38.0,28.0,,30.08,1019.0,0.0,0.0,0.0,2024-12-10,12,2024,19,KCHO,0.0,0.0,0.0,0.0,7
2024-12-07,7,2024-12-07 20:53,20:53,EST,S  8,10.0,Fair,CLR,32.0,10.9,41.0,25.0,,30.06,1018.2,0.0,0.0,0.0,2024-12-10,12,2024,20,KCHO,0.0,0.0,0.0,0.0,8
2024-12-07,7,2024-12-07 21:53,21:53,EST,S  8,10.0,Fair,CLR,34.0,10.9,38.0,28.0,,30.04,1017.5,0.0,0.0,0.0,2024-12-10,12,2024,21,KCHO,0.0,0.0,0.0,0.0,8
2024-12-07,7,2024-12-07 22:53,22:53,EST,S  10,10.0,Fair,CLR,34.0,10.9,38.0,27.0,,30.02,1016.9,0.0,0.0,0.0,2024-12-10,12,2024,22,KCHO,0.0,0.0,0.0,0.0,10
2024-12-07,7,2024-12-07 23:53,23:53,EST,S  13,10.0,Fair,CLR,35.1,12.0,38.0,27.0,,29.98,1015.6,0.0,0.0,0.0,2024-12-10,12,2024,23,KCHO,0.0,0.0,0.0,0.0,13
2024-12-08,8,2024-12-08 00:53,00:53,EST,S  9,10.0,Fair,CLR,35.1,14.0,42.0,29.0,,29.96,1014.8,0.0,0.0,0.0,2024-12-11,12,2024,0,KCHO,0.0,0.0,0.0,0.0,9
2024-12-08,8,2024-12-08 01:53,01:53,EST,S  8,10.0,Fair,CLR,37.9,15.1,39.0,33.0,,29.95,1014.3,0.0,0.0,0.0,2024-12-11,12,2024,1,KCHO,0.0,0.0,0.0,0.0,8
2024-12-08,8,2024-12-08 02:53,02:53,EST,Calm,10.0,Fair,CLR,37.9,17.1,43.0,,,29.95,1014.4,0.0,0.0,0.0,2024-12-11,12,2024,2,KCHO,0.0,0.0,0.0,0.0,0
2024-12-08,8,2024-12-08 03:53,03:53,EST,Calm,10.0,Fair,CLR,39.0,19.0,45.0,,,29.94,1013.9,0.0,0.0,0.0,2024-12-11,12,2024,3,KCHO,0.0,0.0,0.0,0.0,0
2024-12-08,8,2024-12-08 04:53,04:53,EST,Calm,10.0,Fair,CLR,48.9,25.0,39.0,,,29.92,1013.2,0.0,0.0,0.0,2024-12-11,12,2024,4,KCHO,0.0,0.0,0.0,0.0,0
2024-12-08,8,2024-12-08 05:53,05:53,EST,W  9  G 20,10.0,Fair,CLR,50.0,25.0,38.0,47.0,,29.92,1013.1,0.0,0.0,0.0,2024-12-11,12,2024,5,KCHO,0.0,0.0,0.0,0.0,9
2024-12-08,8,2024-12-08 06:53,06:53,EST,W  14,10.0,Fair,CLR,50.0,25.0,38.0,45.0,,29.91,1012.9,0.0,0.0,0.0,2024-12-11,12,2024,6,KCHO,0.0,0.0,0.0,0.0,14
2024-12-08,8,2024-12-08 07:53,07:53,EST,W  14  G 23,10.0,Fair,CLR,52.0,26.1,37.0,,,29.91,1012.9,0.0,0.0,0.0,2024-12-11,12,2024,7,KCHO,0.0,0.0,0.0,0.0,14
2024-12-08,8,2024-12-08 08:53,08:53,EST,SW  8  G 22,10.0,Fair,CLR,54.0,27.0,35.0,,,29.91,1012.9,0.0,0.0,0.0,2024-12-11,12,2024,8,KCHO,0.0,0.0,0.0,0.0,8
2024-12-08,8,2024-12-08 11:53,11:53,EST,S  12,10.0,Fair,CLR,55.0,27.0,34.0,,,29.91,1012.8,0.0,0.0,0.0,2024-12-11,12,2024,11,KCHO,0.0,0.0,0.0,0.0,12
2024-12-08,8,2024-12-08 12:53,12:53,EST,S  13,10.0,Fair,CLR,52.0,27.0,38.0,,,29.9,1012.6,0.0,0.0,0.0,2024-12-11,12,2024,12,KCHO,0.0,0.0,0.0,0.0,13
2024-12-08,8,2024-12-08 13:53,13:53,EST,S  13,10.0,Fair,CLR,51.1,28.0,41.0,,,29.89,1012.3,0.0,0.0,0.0,2024-12-11,12,2024,13,KCHO,0.0,0.0,0.0,0.0,13
2024-12-08,8,2024-12-08 14:53,14:53,EST,S  13,10.0,Fair,CLR,57.0,30.9,37.0,,,29.9,1012.3,0.0,0.0,0.0,2024-12-11,12,2024,14,KCHO,0.0,0.0,0.0,0.0,13
2024-12-08,8,2024-12-08 15:53,15:53,EST,S  10,10.0,Fair,CLR,57.0,32.0,39.0,,,29.9,1012.5,0.0,0.0,0.0,2024-12-11,12,2024,15,KCHO,0.0,0.0,0.0,0.0,10
2024-12-08,8,2024-12-08 16:53,16:53,EST,S  6,10.0,Fair,CLR,54.0,32.0,43.0,,,29.92,1013.2,0.0,0.0,0.0,2024-12-11,12,2024,16,KCHO,0.0,0.0,0.0,0.0,6
2024-12-08,8,2024-12-08 17:53,17:53,EST,SW  8,10.0,Fair,CLR,59.0,34.0,39.0,,,29.95,1013.8,0.0,0.0,0.0,2024-12-11,12,2024,17,KCHO,0.0,0.0,0.0,0.0,8
2024-12-08,8,2024-12-08 18:53,18:53,EST,SW  3,10.0,Fair,CLR,57.0,35.1,44.0,,,29.97,1014.6,0.0,0.0,0.0,2024-12-11,12,2024,18,KCHO,0.0,0.0,0.0,0.0,3
2024-12-08,8,2024-12-08 19:53,19:53,EST,S  6,10.0,Fair,CLR,53.1,37.0,55.0,,,29.98,1015.0,0.0,0.0,0.0,2024-12-11,12,2024,19,KCHO,0.0,0.0,0.0,0.0,6
2024-12-08,8,2024-12-08 20:53,20:53,EST,SE  6,10.0,Fair,CLR,54.0,39.0,57.0,,,30.0,1015.6,0.0,0.0,0.0,2024-12-11,12,2024,20,KCHO,0.0,0.0,0.0,0.0,6
2024-12-08,8,2024-12-08 21:53,21:53,EST,SW  5,10.0,Fair,CLR,57.9,39.9,51.0,,,30.0,1015.6,0.0,0.0,0.0,2024-12-11,12,2024,21,KCHO,0.0,0.0,0.0,0.0,5
2024-12-08,8,2024-12-08 22:53,22:53,EST,S  9,10.0,Fair,CLR,52.0,39.0,61.0,,,29.98,1015.1,0.0,0.0,0.0,2024-12-11,12,2024,22,KCHO,0.0,0.0,0.0,0.0,9
2024-12-08,8,2024-12-08 23:53,23:53,EST,S  7,10.0,Fair,CLR,48.0,36.0,63.0,45.0,,29.98,1015.1,0.0,0.0,0.0,2024-12-11,12,2024,23,KCHO,0.0,0.0,0.0,0.0,7
2024-12-09,9,2024-12-09 00:53,00:53,EST,SW  5,10.0,Fair,CLR,50.0,36.0,59.0,49.0,,29.98,1014.9,0.0,0.0,0.0,2024-12-12,12,2024,0,KCHO,0.0,0.0,0.0,0.0,5
2024-12-09,9,2024-12-09 01:53,01:53,EST,SW  3,10.0,Fair,CLR,48.0,36.0,63.0,,,29.97,1014.9,0.0,0.0,0.0,2024-12-12,12,2024,1,KCHO,0.0,0.0,0.0,0.0,3
2024-12-09,9,2024-12-09 02:53,02:53,EST,Calm,10.0,Fair,CLR,48.9,37.0,64.0,,,29.96,1014.3,0.0,0.0,0.0,2024-12-12,12,2024,2,KCHO,0.0,0.0,0.0,0.0,0
2024-12-09,9,2024-12-09 03:53,03:53,EST,Calm,10.0,Fair,CLR,45.0,36.0,71.0,,,29.95,1014.2,0.0,0.0,0.0,2024-12-12,12,2024,3,KCHO,0.0,0.0,0.0,0.0,0
2024-12-09,9,2024-12-09 05:53,05:53,EST,S  5,10.0,Light Rain,OVC095,46.9,37.9,71.0,45.0,,29.94,1013.8,0.0,0.0,0.0,2024-12-12,12,2024,5,KCHO,0.0,0.0,0.0,0.0,5
2024-12-09,9,2024-12-09 06:53,06:53,EST,SW  6,10.0,Light Rain,BKN050 OVC060,48.0,39.0,71.0,46.0,,29.95,1014.0,0.0,0.0,0.0,2024-12-12,12,2024,6,KCHO,0.0,0.0,0.0,0.0,6
2024-12-09,9,2024-12-09 07:53,07:53,EST,S  9,4.0,Rain Fog/Mist,BKN025 OVC060,46.0,42.1,86.0,42.0,,29.95,1014.0,0.05,0.0,0.0,2024-12-12,12,2024,7,KCHO,0.05,0.05,0.05,0.05,9
2024-12-09,9,2024-12-09 08:53,08:53,EST,S  8,10.0,Light Rain,OVC100,46.0,43.0,89.0,42.0,,29.92,1013.2,0.03,0.0,0.0,2024-12-12,12,2024,8,KCHO,0.08,0.08,0.08,0.08,8
2024-12-09,9,2024-12-09 09:53,09:53,EST,S  14,10.0,Partly Cloudy,FEW095 SCT120,48.0,46.0,93.0,43.0,,29.92,1013.2,0.01,0.09,0.0,2024-12-12,12,2024,9,KCHO,0.09,0.09,0.09,0.09,14
2024-12-09,9,2024-12-09 10:53,10:53,EST,S  10,10.0,Mostly Cloudy,BKN005,48.9,46.9,93.0,45.0,,29.91,1012.7,0.0,0.0,0.0,2024-12-12,12,2024,10,KCHO,0.04,0.09,0.09,0.09,10
2024-12-09,9,2024-12-09 11:53,11:53,EST,S  14  G 26,10.0,Mostly Cloudy,BKN007,50.0,46.9,89.0,45.0,,29.9,1012.4,0.0,0.0,0.0,2024-12-12,12,2024,11,KCHO,0.01,0.09,0.09,0.09,14
2024-12-09,9,2024-12-09 12:53,12:53,EST,S  13,10.0,Fair,CLR,54.0,48.9,83.0,,,29.89,1011.9,0.0,0.0,0.09,2024-12-12,12,2024,12,KCHO,0.0,0.09,0.09,0.09,13
2024-12-09,9,2024-12-09 13:53,13:53,EST,S  9,10.0,Fair,CLR,55.9,48.0,75.0,,,29.88,1011.7,0.0,0.0,0.0,2024-12-12,12,2024,13,KCHO,0.0,0.04,0.09,0.09,9
2024-12-09,9,2024-12-09 14:53,14:53,EST,S  12,10.0,Fair,CLR,57.0,48.9,74.0,,,29.88,1011.6,0.0,0.0,0.0,2024-12-12,12,2024,14,KCHO,0.0,0.01,0.09,0.09,12
2024-12-09,9,2024-12-09 15:53,15:53,EST,S  13,10.0,Fair,CLR,54.0,48.0,80.0,,,29.9,1012.3,0.0,0.0,0.0,2024-12-12,12,2024,15,KCHO,0.0,0.0,0.09,0.09,13
2024-12-09,9,2024-12-09 16:53,16:53,EST,S  12,10.0,Fair,CLR,52.0,46.9,83.0,,,29.92,1012.9,0.0,0.0,0.0,2024-12-12,12,2024,16,KCHO,0.0,0.0,0.09,0.09,12
2024-12-09,9,2024-12-09 17:53,17:53,EST,S  8,10.0,Fair,CLR,48.9,46.0,90.0,46.0,,29.93,1013.5,0.0,0.0,0.0,2024-12-12,12,2024,17,KCHO,0.0,0.0,0.09,0.09,8
2024-12-09,9,2024-12-09 18:53,18:53,EST,S  9,10.0,Fair,CLR,48.0,46.0,93.0,44.0,,29.95,1014.0,0.0,0.0,0.0,2024-12-12,12,2024,18,KCHO,0.0,0.0,0.09,0.09,9
2024-12-09,9,2024-12-09 19:53,19:53,EST,S  5,10.0,Fair,CLR,48.0,46.0,93.0,47.0,,29.96,1014.5,0.0,0.0,0.0,2024-12-12,12,2024,19,KCHO,0.0,0.0,0.04,0.09,5
2024-12-09,9,2024-12-09 20:53,20:53,EST,SW  8,10.0,Fair,CLR,50.0,46.9,89.0,47.0,,29.97,1014.7,0.0,0.0,0.0,2024-12-12,12,2024,20,KCHO,0.0,0.0,0.01,0.09,8
2024-12-09,9,2024-12-09 21:53,21:53,EST,S  5,10.0,Fair,CLR,46.0,45.0,96.0,44.0,,29.98,1015.0,0.0,0.0,0.0,2024-12-12,12,2024,21,KCHO,0.0,0.0,0.0,0.09,5
2024-12-09,9,2024-12-09 22:53,22:53,EST,SW  3,10.0,A Few Clouds,FEW050,48.0,46.0,93.0,,,29.98,1015.3,0.0,0.0,0.0,2024-12-12,12,2024,22,KCHO,0.0,0.0,0.0,0.09,3
2024-12-09,9,2024-12-09 23:53,23:53,EST,SW  3,10.0,Fair,CLR,48.0,46.0,93.0,,,30.0,1015.8,0.0,0.0,0.0,2024-12-12,12,2024,23,KCHO,0.0,0.0,0.0,0.09,3
2024-12-10,10,2024-12-10 00:53,00:53,EST,S  5,3.0,Fog/Mist,CLR,46.0,45.0,96.0,44.0,,29.98,1015.2,0.0,0.0,0.0,2024-12-13,12,2024,0,KCHO,0.0,0.0,0.0,0.09,5
2024-12-10,10,2024-12-10 01:53,01:53,EST,Calm,0.25,Fog,VV002,42.1,41.0,96.0,,,29.98,1015.3,0.0,0.0,0.0,2024-12-13,12,2024,1,KCHO,0.0,0.0,0.0,0.09,0
2024-12-10,10,2024-12-10 02:53,02:53,EST,SW  3,0.25,Fog,VV001,42.1,42.1,100.0,,,29.99,1015.5,0.0,0.0,0.0,2024-12-13,12,2024,2,KCHO,0.0,0.0,0.0,0.09,3
2024-12-10,10,2024-12-10 03:53,03:53,EST,S  9,0.25,Fog,VV001,45.0,44.1,97.0,41.0,,29.98,1015.2,0.0,0.0,0.0,2024-12-13,12,2024,3,KCHO,0.0,0.0,0.0,0.09,9
2024-12-10,10,2024-12-10 04:53,04:53,EST,S  9,0.25,Fog,VV001,46.0,45.0,96.0,42.0,,29.99,1015.4,0.0,0.0,0.0,2024-12-13,12,2024,4,KCHO,0.0,0.0,0.0,0.09,9
2024-12-10,10,2024-12-10 05:53,05:53,EST,SW  7,0.25,Fog,VV001,45.0,44.1,97.0,42.0,,29.99,1015.6,0.0,0.0,0.0,2024-12-13,12,2024,5,KCHO,0.0,0.0,0.0,0.09,7
2024-12-10,10,2024-12-10 06:53,06:53,EST,Calm,0.25,Fog,VV002,43.0,42.1,97.0,,,30.01,1016.2,0.0,0.0,0.0,2024-12-13,12,2024,6,KCHO,0.0,0.0,0.0,0.09,0
2024-12-10,10,2024-12-10 07:53,07:53,EST,Calm,0.13,Fog,VV002,43.0,42.1,97.0,,,30.02,1016.6,0.0,0.0,0.0,2024-12-13,12,2024,7,KCHO,0.0,0.0,0.0,0.04,0
2024-12-10,10,2024-12-10 08:53,08:53,EST,SW  5,0.13,Fog,VV002,44.1,44.1,100.0,42.0,,30.03,1016.8,0.0,0.0,0.0,2024-12-13,12,2024,8,KCHO,0.0,0.0,0.0,0.01,5
2024-12-10,10,2024-12-10 09:53,09:53,EST,W  3,0.25,Fog,VV002,46.0,45.0,96.0,,,30.03,1016.9,0.0,0.0,0.0,2024-12-13,12,2024,9,KCHO,0.0,0.0,0.0,0.0,3
2024-12-10,10,2024-12-10 10:53,10:53,EST,Calm,0.25,Fog,VV002,46.9,46.9,100.0,,,30.01,1016.2,0.0,0.0,0.0,2024-12-13,12,2024,10,KCHO,0.0,0.0,0.0,0.0,0
2024-12-10,10,2024-12-10 11:53,11:53,EST,S  6,0.5,Fog,VV002,48.0,46.9,96.0,46.0,,29.99,1015.4,0.0,0.0,0.0,2024-12-13,12,2024,11,KCHO,0.0,0.0,0.0,0.0,6
2024-12-10,10,2024-12-10 12:53,12:53,EST,Calm,1.25,Fog/Mist,OVC002,48.9,48.0,97.0,,,29.95,1014.3,0.0,0.0,0.0,2024-12-13,12,2024,12,KCHO,0.0,0.0,0.0,0.0,0
2024-12-10,10,2024-12-10 13:53,13:53,EST,Calm,1.0,Fog/Mist,OVC002,50.0,48.9,96.0,,,29.94,1013.9,0.0,0.0,0.0,2024-12-13,12,2024,13,KCHO,0.0,0.0,0.0,0.0,0
2024-12-10,10,2024-12-10 14:53,14:53,EST,Calm,0.5,Fog,OVC003,48.9,48.9,100.0,,,29.93,1013.5,0.0,0.0,0.0,2024-12-13,12,2024,14,KCHO,0.0,0.0,0.0,0.0,0
2024-12-10,10,2024-12-10 15:53,15:53,EST,Calm,0.5,Fog,VV003,51.1,50.0,96.0,,,29.92,1013.1,0.0,0.0,0.0,2024-12-13,12,2024,15,KCHO,0.0,0.0,0.0,0.0,0
2024-12-10,10,2024-12-10 16:53,16:53,EST,Calm,0.5,Fog,VV002,48.9,48.0,97.0,,,29.94,1013.7,0.0,0.0,0.0,2024-12-13,12,2024,16,KCHO,0.0,0.0,0.0,0.0,0
2024-12-10,10,2024-12-10 17:53,17:53,EST,N  3,1.0,Fog/Mist,VV003,48.9,48.0,97.0,,,29.92,1013.1,0.0,0.0,0.0,2024-12-13,12,2024,17,KCHO,0.0,0.0,0.0,0.0,3
2024-12-10,10,2024-12-10 18:53,18:53,EST,Calm,1.25,Fog/Mist,OVC002,48.9,48.0,97.0,,,29.92,1013.3,0.0,0.0,0.0,2024-12-13,12,2024,18,KCHO,0.0,0.0,0.0,0.0,0
2024-12-10,10,2024-12-10 19:53,19:53,EST,Calm,1.25,Light Rain Fog/Mist,OVC003,48.9,48.9,100.0,,,29.92,1013.2,0.01,0.0,0.0,2024-12-13,12,2024,19,KCHO,0.01,0.01,0.01,0.01,0
2024-12-10,10,2024-12-10 20:53,20:53,EST,S  5,0.5,Fog,VV003,50.0,48.9,96.0,49.0,,29.89,1012.1,0.0,0.0,0.0,2024-12-13,12,2024,20,KCHO,0.01,0.01,0.01,0.01,5
2024-12-10,10,2024-12-10 21:53,21:53,EST,Vrbl  5,8.0,Overcast,OVC004,53.1,52.0,96.0,,,29.87,1011.2,0.01,0.02,0.0,2024-12-13,12,2024,21,KCHO,0.02,0.02,0.02,0.02,5
2024-12-10,10,2024-12-10 22:53,22:53,EST,SE  3,5.0,Light Rain Fog/Mist,FEW004 SCT075 OVC100,52.0,51.1,97.0,,,29.85,1010.5,0.01,0.0,0.0,2024-12-13,12,2024,22,KCHO,0.02,0.03,0.03,0.03,3
2024-12-10,10,2024-12-10 23:53,23:53,EST,S  9,7.0,Overcast,SCT004 BKN055 OVC095,55.0,54.0,96.0,,,29.81,1009.4,0.01,0.0,0.0,2024-12-13,12,2024,23,KCHO,0.03,0.04,0.04,0.04,9
2024-12-11,11,2024-12-11 00:53,00:53,EST,S  7,3.0,Light Rain Fog/Mist,FEW008 BKN055 OVC090,55.0,54.0,96.0,,,29.78,1008.4,0.03,0.0,0.07,2024-12-14,12,2024,0,KCHO,0.049999999999999996,0.07,0.07,0.07,7
2024-12-11,11,2024-12-11 01:53,01:53,EST,Calm,7.0,Light Rain,OVC006,57.9,55.9,93.0,,,29.77,1007.7,0.01,0.0,0.0,2024-12-14,12,2024,1,KCHO,0.049999999999999996,0.06999999999999999,0.08,0.08,0
2024-12-11,11,2024-12-11 02:53,02:53,EST,S  9,6.0,Light Rain Fog/Mist,SCT003 BKN010 OVC026,59.0,57.0,93.0,,,29.73,1006.5,0.01,0.0,0.0,2024-12-14,12,2024,2,KCHO,0.05,0.08,0.09,0.09,9
2024-12-11,11,2024-12-11 03:53,03:53,EST,S  10,8.0,Light Rain,OVC005,60.1,57.9,93.0,,,29.7,1005.3,0.02,0.04,0.0,2024-12-14,12,2024,3,KCHO,0.04,0.09,0.11,0.11,10
2024-12-11,11,2024-12-11 04:53,04:53,EST,S  14,8.0,Light Rain,FEW005 OVC011,59.0,57.9,96.0,,,29.67,1004.4,0.01,0.0,0.0,2024-12-14,12,2024,4,KCHO,0.04,0.09,0.12,0.12,14
2024-12-11,11,2024-12-11 05:53,05:53,EST,S  14,9.0,Light Rain,FEW013 SCT055 OVC085,60.1,57.0,90.0,,,29.68,1004.7,0.03,0.0,0.0,2024-12-14,12,2024,5,KCHO,0.06,0.11,0.15,0.15,14
2024-12-11,11,2024-12-11 06:53,06:53,EST,S  10,10.0,Light Rain,BKN015 BKN021 OVC070,59.0,57.0,93.0,,,29.66,1004.3,0.08,0.0,0.16,2024-12-14,12,2024,6,KCHO,0.12,0.16,0.23,0.23,10
2024-12-11,11,2024-12-11 07:53,07:53,EST,S  3,9.0,Light Rain,BKN008 OVC070,57.9,57.0,97.0,,,29.63,1003.2,0.04,0.0,0.0,2024-12-14,12,2024,7,KCHO,0.15,0.19,0.26,0.27,3
2024-12-11,11,2024-12-11 08:53,08:53,EST,SW  8  G 18,3.0,Rain Fog/Mist,BKN029 OVC055,59.0,57.0,93.0,,,29.63,1002.9,0.11,0.0,0.0,2024-12-14,12,2024,8,KCHO,0.23,0.29000000000000004,0.37,0.38,8
2024-12-11,11,2024-12-11 09:53,09:53,EST,W  3,3.0,Light Rain Fog/Mist,SCT017 BKN024 OVC036,57.9,57.0,97.0,,,29.61,1002.4,0.24,0.39,0.0,2024-12-14,12,2024,9,KCHO,0.39,0.51,0.6,0.62,3
2024-12-11,11,2024-12-11 10:53,10:53,EST,S  13,10.0,Overcast,FEW022 OVC100,59.0,57.0,93.0,,,29.6,1002.1,0.28,0.0,0.0,2024-12-14,12,2024,10,KCHO,0.63,0.78,0.87,0.9,13
2024-12-11,11,2024-12-11 11:53,11:53,EST,Vrbl  7,10.0,Light Rain,SCT008 BKN014 OVC027,60.1,57.9,93.0,,,29.51,998.7,0.02,0.0,0.0,2024-12-14,12,2024,11,KCHO,0.54,0.77,0.88,0.92,7
2024-12-11,11,2024-12-11 12:53,12:53,EST,S  15  G 20,4.0,Light Rain Fog/Mist,BKN012 OVC019,60.1,57.0,90.0,,,29.45,996.9,0.06,0.0,0.75,2024-12-14,12,2024,12,KCHO,0.36000000000000004,0.75,0.91,0.98,15
2024-12-11,11,2024-12-11 13:53,13:53,EST,NW  10  G 22,5.0,Light Rain,FEW033 SCT055 OVC080,55.9,50.0,81.0,,,29.51,998.8,0.12,0.0,0.0,2024-12-14,12,2024,13,KCHO,0.2,0.83,1.02,1.1,10
2024-12-11,11,2024-12-11 14:53,14:53,EST,Vrbl  7,10.0,Light Rain,FEW025 SCT070 OVC085,52.0,46.9,83.0,,,29.54,1000.1,0.02,0.0,0.0,2024-12-14,12,2024,14,KCHO,0.2,0.74,1.03,1.12,7
2024-12-11,11,2024-12-11 15:53,15:53,EST,W  5,10.0,Overcast,OVC080,46.9,39.0,74.0,45.0,,29.59,1001.6,0.0,0.14,0.0,2024-12-14,12,2024,15,KCHO,0.14,0.5,1.01,1.12,5
2024-12-11,11,2024-12-11 16:53,16:53,EST,NW  8  G 20,10.0,Overcast,OVC085,45.0,30.0,56.0,41.0,,29.66,1004.1,0.0,0.0,0.0,2024-12-14,12,2024,16,KCHO,0.02,0.22,1.0,1.12,8
2024-12-11,11,2024-12-11 17:53,17:53,EST,NW  12  G 25,10.0,Overcast,OVC100,43.0,25.0,49.0,37.0,,29.71,1006.0,0.0,0.0,0.0,2024-12-14,12,2024,17,KCHO,0.0,0.2,0.97,1.12,12
2024-12-11,11,2024-12-11 18:53,18:53,EST,Calm,10.0,Fair,CLR,39.9,21.9,49.0,,,29.8,1009.0,0.0,0.0,0.14,2024-12-14,12,2024,18,KCHO,0.0,0.14,0.89,1.12,0
2024-12-11,11,2024-12-11 19:53,19:53,EST,W  9  G 21,10.0,Fair,CLR,39.0,19.9,46.0,33.0,,29.85,1010.8,0.0,0.0,0.0,2024-12-14,12,2024,19,KCHO,0.0,0.02,0.85,1.11,9
2024-12-11,11,2024-12-11 20:53,20:53,EST,NW  5,10.0,Fair,CLR,37.9,19.9,48.0,35.0,,29.93,1013.4,0.0,0.0,0.0,2024-12-14,12,2024,20,KCHO,0.0,0.0,0.74,1.11,5
2024-12-11,11,2024-12-11 21:53,21:53,EST,Calm,10.0,Mostly Cloudy,BKN055,37.0,19.0,48.0,,,29.95,1014.3,0.0,0.0,0.0,2024-12-14,12,2024,21,KCHO,0.0,0.0,0.5,1.1,0
2024-12-11,11,2024-12-11 22:53,22:53,EST,Vrbl  7,10.0,Fair,CLR,35.1,18.0,50.0,30.0,,29.98,1015.0,0.0,0.0,0.0,2024-12-14,12,2024,22,KCHO,0.0,0.0,0.22,1.09,7
2024-12-11,11,2024-12-11 23:53,23:53,EST,W  5,10.0,Mostly Cloudy,BKN060,36.0,17.1,46.0,33.0,,30.0,1015.9,0.0,0.0,0.0,2024-12-14,12,2024,23,KCHO,0.0,0.0,0.2,1.08,5
2024-12-12,12,2024-12-12 00:53,00:53,EST,S  5,10.0,Overcast,OVC070,33.1,19.9,58.0,29.0,,30.01,1016.3,0.0,0.0,0.0,2024-12-15,12,2024,0,KCHO,0.0,0.0,0.14,1.05,5
2024-12-12,12,2024-12-12 01:53,01:53,EST,S  6,10.0,Overcast,OVC060,32.0,21.0,64.0,27.0,,30.03,1017.0,0.0,0.0,0.0,2024-12-15,12,2024,1,KCHO,0.0,0.0,0.02,1.04,6
2024-12-12,12,2024-12-12 02:53,02:53,EST,SW  7,10.0,Partly Cloudy,SCT060,34.0,19.9,56.0,29.0,,30.05,1017.8,0.0,0.0,0.0,2024-12-15,12,2024,2,KCHO,0.0,0.0,0.0,1.03,7
2024-12-12,12,2024-12-12 03:53,03:53,EST,SW  7,10.0,Fair,CLR,36.0,19.0,50.0,31.0,,30.06,1018.2,0.0,0.0,0.0,2024-12-15,12,2024,3,KCHO,0.0,0.0,0.0,1.01,7
2024-12-12,12,2024-12-12 04:53,04:53,EST,Vrbl  3,10.0,Fair,CLR,35.1,18.0,50.0,,,30.08,1018.8,0.0,0.0,0.0,2024-12-15,12,2024,4,KCHO,0.0,0.0,0.0,0.9999999999999999,3
2024-12-12,12,2024-12-12 05:53,05:53,EST,SW  7,10.0,Fair,CLR,35.1,18.0,50.0,30.0,,30.12,1020.1,0.0,0.0,0.0,2024-12-15,12,2024,5,KCHO,0.0,0.0,0.0,0.97,7
2024-12-12,12,2024-12-12 06:53,06:53,EST,SW  7,10.0,Fair,CLR,35.1,17.1,48.0,30.0,,30.16,1021.5,0.0,0.0,0.0,2024-12-15,12,2024,6,KCHO,0.0,0.0,0.0,0.89,7
2024-12-12,12,2024-12-12 08:53,08:53,EST,SW  8,10.0,Fair,CLR,36.0,12.9,39.0,30.0,,30.21,1023.1,0.0,0.0,0.0,2024-12-15,12,2024,8,KCHO,0.0,0.0,0.0,0.85,8
2024-12-12,12,2024-12-12 09:53,09:53,EST,SW  8,10.0,Fair,CLR,37.9,12.0,34.0,33.0,,30.24,1024.3,0.0,0.0,0.0,2024-12-15,12,2024,9,KCHO,0.0,0.0,0.0,0.74,8
2024-12-12,12,2024-12-12 10:53,10:53,EST,Calm,10.0,Fair,CLR,39.9,12.0,32.0,,,30.26,1024.9,0.0,0.0,0.0,2024-12-15,12,2024,10,KCHO,0.0,0.0,0.0,0.5,0
2024-12-12,12,2024-12-12 11:53,11:53,EST,Vrbl  3  G 16,10.0,Fair,CLR,42.1,9.0,25.0,,,30.25,1024.6,0.0,0.0,0.0,2024-12-15,12,2024,11,KCHO,0.0,0.0,0.0,0.22,3
2024-12-12,12,2024-12-12 12:53,12:53,EST,Vrbl  7,10.0,Fair,CLR,43.0,8.1,24.0,39.0,,30.25,1024.8,0.0,0.0,0.0,2024-12-15,12,2024,12,KCHO,0.0,0.0,0.0,0.2,7
2024-12-12,12,2024-12-12 13:53,13:53,EST,SW  5,10.0,Fair,CLR,42.1,8.1,24.0,40.0,,30.25,1024.8,0.0,0.0,0.0,2024-12-15,12,2024,13,KCHO,0.0,0.0,0.0,0.14,5
2024-12-12,12,2024-12-12 14:53,14:53,EST,SW  7,10.0,Fair,CLR,44.1,9.0,24.0,41.0,,30.26,1025.0,0.0,0.0,0.0,2024-12-15,12,2024,14,KCHO,0.0,0.0,0.0,0.02,7
2024-12-12,12,2024-12-12 15:53,15:53,EST,Vrbl  3,10.0,Fair,CLR,43.0,8.1,24.0,,,30.29,1025.7,0.0,0.0,0.0,2024-12-15,12,2024,15,KCHO,0.0,0.0,0.0,0.0,3
2024-12-12,12,2024-12-12 16:53,16:53,EST,Vrbl  5,10.0,Fair,CLR,42.1,8.1,24.0,40.0,,30.31,1026.7,0.0,0.0,0.0,2024-12-15,12,2024,16,KCHO,0.0,0.0,0.0,0.0,5
2024-12-12,12,2024-12-12 17:53,17:53,EST,SW  5,10.0,Fair,CLR,39.9,8.1,27.0,37.0,,30.33,1027.3,0.0,0.0,0.0,2024-12-15,12,2024,17,KCHO,0.0,0.0,0.0,0.0,5
2024-12-12,12,2024-12-12 18:53,18:53,EST,Calm,10.0,Fair,CLR,39.0,9.0,29.0,,,30.36,1028.3,0.0,0.0,0.0,2024-12-15,12,2024,18,KCHO,0.0,0.0,0.0,0.0,0
2024-12-12,12,2024-12-12 19:53,19:53,EST,Calm,10.0,Fair,CLR,37.0,10.0,33.0,,,30.38,1028.9,0.0,0.0,0.0,2024-12-15,12,2024,19,KCHO,0.0,0.0,0.0,0.0,0
2024-12-12,12,2024-12-12 20:53,20:53,EST,Calm,10.0,Fair,CLR,36.0,10.0,34.0,,,30.4,1029.6,0.0,0.0,0.0,2024-12-15,12,2024,20,KCHO,0.0,0.0,0.0,0.0,0
2024-12-12,12,2024-12-12 21:53,21:53,EST,Calm,10.0,Fair,CLR,36.0,9.0,32.0,,,30.41,1030.2,0.0,0.0,0.0,2024-12-15,12,2024,21,KCHO,0.0,0.0,0.0,0.0,0
2024-12-12,12,2024-12-12 22:53,22:53,EST,Calm,10.0,Fair,CLR,35.1,10.0,35.0,,,30.43,1030.9,0.0,0.0,0.0,2024-12-15,12,2024,22,KCHO,0.0,0.0,0.0,0.0,0
2024-12-12,12,2024-12-12 23:53,23:53,EST,Calm,10.0,Fair,CLR,28.9,17.1,61.0,,,30.45,1031.3,0.0,0.0,0.0,2024-12-15,12,2024,23,KCHO,0.0,0.0,0.0,0.0,0
2024-12-13,13,2024-12-13 00:53,00:53,EST,Calm,10.0,Fair,CLR,28.9,14.0,54.0,,,30.45,1031.6,0.0,0.0,0.0,2024-12-16,12,2024,0,KCHO,0.0,0.0,0.0,0.0,0
2024-12-13,13,2024-12-13 01:53,01:53,EST,Calm,10.0,Fair,CLR,28.9,15.1,56.0,,,30.47,1032.1,0.0,0.0,0.0,2024-12-16,12,2024,1,KCHO,0.0,0.0,0.0,0.0,0
2024-12-13,13,2024-12-13 02:53,02:53,EST,Calm,10.0,Fair,CLR,28.0,15.1,58.0,,,30.49,1032.9,0.0,0.0,0.0,2024-12-16,12,2024,2,KCHO,0.0,0.0,0.0,0.0,0
2024-12-13,13,2024-12-13 03:53,03:53,EST,Calm,10.0,Fair,CLR,28.0,14.0,56.0,,,30.5,1033.0,0.0,0.0,0.0,2024-12-16,12,2024,3,KCHO,0.0,0.0,0.0,0.0,0
2024-12-13,13,2024-12-13 04:53,04:53,EST,Calm,10.0,Fair,CLR,25.0,18.0,75.0,,,30.5,1033.2,0.0,0.0,0.0,2024-12-16,12,2024,4,KCHO,0.0,0.0,0.0,0.0,0
2024-12-13,13,2024-12-13 05:53,05:53,EST,NW  3,10.0,Fair,CLR,25.0,17.1,72.0,,,30.53,1034.1,0.0,0.0,0.0,2024-12-16,12,2024,5,KCHO,0.0,0.0,0.0,0.0,3
2024-12-13,13,2024-12-13 06:53,06:53,EST,Calm,10.0,Fair,CLR,24.1,17.1,75.0,,,30.56,1035.2,0.0,0.0,0.0,2024-12-16,12,2024,6,KCHO,0.0,0.0,0.0,0.0,0
2024-12-13,13,2024-12-13 07:53,07:53,EST,Calm,10.0,Fair,CLR,25.0,18.0,75.0,,,30.57,1035.8,0.0,0.0,0.0,2024-12-16,12,2024,7,KCHO,0.0,0.0,0.0,0.0,0
2024-12-13,13,2024-12-13 08:53,08:53,EST,Calm,10.0,Fair,CLR,30.0,19.0,64.0,,,30.6,1036.5,0.0,0.0,0.0,2024-12-16,12,2024,8,KCHO,0.0,0.0,0.0,0.0,0
2024-12-13,13,2024-12-13 09:53,09:53,EST,NE  3,10.0,Fair,CLR,34.0,18.0,52.0,,,30.62,1037.3,0.0,0.0,0.0,2024-12-16,12,2024,9,KCHO,0.0,0.0,0.0,0.0,3
2024-12-13,13,2024-12-13 10:53,10:53,EST,N  5,10.0,Fair,CLR,37.9,17.1,43.0,35.0,,30.63,1037.4,0.0,0.0,0.0,2024-12-16,12,2024,10,KCHO,0.0,0.0,0.0,0.0,5
2024-12-13,13,2024-12-13 11:53,11:53,EST,E  7,10.0,Fair,CLR,41.0,19.0,41.0,37.0,,30.61,1036.8,0.0,0.0,0.0,2024-12-16,12,2024,11,KCHO,0.0,0.0,0.0,0.0,7
2024-12-13,13,2024-12-13 12:53,12:53,EST,E  7,10.0,Fair,CLR,42.1,19.9,41.0,38.0,,30.59,1036.2,0.0,0.0,0.0,2024-12-16,12,2024,12,KCHO,0.0,0.0,0.0,0.0,7
2024-12-13,13,2024-12-13 13:53,13:53,EST,E  7,10.0,Fair,CLR,43.0,19.9,40.0,39.0,,30.59,1036.2,0.0,0.0,0.0,2024-12-16,12,2024,13,KCHO,0.0,0.0,0.0,0.0,7
2024-12-13,13,2024-12-13 14:53,14:53,EST,NE  8,10.0,Fair,CLR,43.0,21.0,42.0,39.0,,30.59,1036.3,0.0,0.0,0.0,2024-12-16,12,2024,14,KCHO,0.0,0.0,0.0,0.0,8
2024-12-13,13,2024-12-13 15:53,15:53,EST,NE  12,10.0,Fair,CLR,41.0,19.0,41.0,35.0,,30.62,1037.2,0.0,0.0,0.0,2024-12-16,12,2024,15,KCHO,0.0,0.0,0.0,0.0,12
2024-12-13,13,2024-12-13 16:53,16:53,EST,NE  7,10.0,Fair,CLR,37.9,19.9,48.0,33.0,,30.64,1037.9,0.0,0.0,0.0,2024-12-16,12,2024,16,KCHO,0.0,0.0,0.0,0.0,7
2024-12-13,13,2024-12-13 17:53,17:53,EST,NE  7,10.0,Fair,CLR,36.0,21.0,55.0,31.0,,30.66,1038.8,0.0,0.0,0.0,2024-12-16,12,2024,17,KCHO,0.0,0.0,0.0,0.0,7
2024-12-13,13,2024-12-13 18:53,18:53,EST,NE  8,10.0,Fair,CLR,35.1,21.0,57.0,29.0,,30.69,1039.7,0.0,0.0,0.0,2024-12-16,12,2024,18,KCHO,0.0,0.0,0.0,0.0,8
2024-12-13,13,2024-12-13 19:53,19:53,EST,NE  7,10.0,Fair,CLR,34.0,19.9,56.0,29.0,,30.71,1040.4,0.0,0.0,0.0,2024-12-16,12,2024,19,KCHO,0.0,0.0,0.0,0.0,7
2024-12-13,13,2024-12-13 20:53,20:53,EST,NE  7,10.0,Fair,CLR,32.0,18.0,56.0,26.0,,30.73,1041.2,0.0,0.0,0.0,2024-12-16,12,2024,20,KCHO,0.0,0.0,0.0,0.0,7
2024-12-13,13,2024-12-13 21:53,21:53,EST,N  5,10.0,Fair,CLR,32.0,17.1,54.0,28.0,,30.75,1041.7,0.0,0.0,0.0,2024-12-16,12,2024,21,KCHO,0.0,0.0,0.0,0.0,5
2024-12-13,13,2024-12-13 22:53,22:53,EST,N  3,10.0,Fair,CLR,30.0,16.0,56.0,,,30.76,1042.1,0.0,0.0,0.0,2024-12-16,12,2024,22,KCHO,0.0,0.0,0.0,0.0,3
2024-12-13,13,2024-12-13 23:53,23:53,EST,Calm,10.0,Fair,CLR,28.9,17.1,61.0,,,30.77,1042.5,0.0,0.0,0.0,2024-12-16,12,2024,23,KCHO,0.0,0.0,0.0,0.0,0
2024-12-14,14,2024-12-14 00:53,00:53,EST,Calm,10.0,Fair,CLR,28.0,16.0,60.0,,,30.77,1042.6,0.0,0.0,0.0,2024-12-17,12,2024,0,KCHO,0.0,0.0,0.0,0.0,0
2024-12-14,14,2024-12-14 01:53,01:53,EST,N  3,10.0,Fair,CLR,28.0,16.0,60.0,,,30.78,1042.7,0.0,0.0,0.0,2024-12-17,12,2024,1,KCHO,0.0,0.0,0.0,0.0,3
2024-12-14,14,2024-12-14 02:53,02:53,EST,Calm,10.0,Fair,CLR,27.0,15.1,61.0,,,30.8,1043.3,0.0,0.0,0.0,2024-12-17,12,2024,2,KCHO,0.0,0.0,0.0,0.0,0
2024-12-14,14,2024-12-14 03:53,03:53,EST,Calm,10.0,Mostly Cloudy,BKN028,28.0,17.1,63.0,,,30.8,1043.3,0.0,0.0,0.0,2024-12-17,12,2024,3,KCHO,0.0,0.0,0.0,0.0,0
2024-12-14,14,2024-12-14 04:53,04:53,EST,Calm,10.0,Mostly Cloudy,BKN030,26.1,18.0,71.0,,,30.81,1043.7,0.0,0.0,0.0,2024-12-17,12,2024,4,KCHO,0.0,0.0,0.0,0.0,0
2024-12-14,14,2024-12-14 05:53,05:53,EST,Calm,10.0,Mostly Cloudy,BKN030,26.1,17.1,69.0,,,30.83,1044.6,0.0,0.0,0.0,2024-12-17,12,2024,5,KCHO,0.0,0.0,0.0,0.0,0
2024-12-14,14,2024-12-14 06:53,06:53,EST,Calm,10.0,Fair,CLR,26.1,17.1,69.0,,,30.84,1044.9,0.0,0.0,0.0,2024-12-17,12,2024,6,KCHO,0.0,0.0,0.0,0.0,0
2024-12-14,14,2024-12-14 07:53,07:53,EST,N  3,10.0,Mostly Cloudy,BKN029,26.1,17.1,69.0,,,30.85,1045.4,0.0,0.0,0.0,2024-12-17,12,2024,7,KCHO,0.0,0.0,0.0,0.0,3
2024-12-14,14,2024-12-14 09:53,09:53,EST,NE  7,10.0,Mostly Cloudy,BKN029,30.0,17.1,58.0,24.0,,30.89,1046.6,0.0,0.0,0.0,2024-12-17,12,2024,9,KCHO,0.0,0.0,0.0,0.0,7
2024-12-14,14,2024-12-14 10:53,10:53,EST,NE  7,10.0,Overcast,OVC026,30.9,17.1,56.0,25.0,,30.89,1046.5,0.0,0.0,0.0,2024-12-17,12,2024,10,KCHO,0.0,0.0,0.0,0.0,7
2024-12-14,14,2024-12-14 11:53,11:53,EST,E  5,10.0,Overcast,OVC025,33.1,17.1,52.0,29.0,,30.86,1045.4,0.0,0.0,0.0,2024-12-17,12,2024,11,KCHO,0.0,0.0,0.0,0.0,5
2024-12-14,14,2024-12-14 12:53,12:53,EST,E  5,10.0,Mostly Cloudy,BKN024,35.1,17.1,48.0,32.0,,30.83,1044.4,0.0,0.0,0.0,2024-12-17,12,2024,12,KCHO,0.0,0.0,0.0,0.0,5
2024-12-14,14,2024-12-14 13:53,13:53,EST,Vrbl  5,10.0,Fair,CLR,37.0,18.0,46.0,34.0,,30.8,1043.6,0.0,0.0,0.0,2024-12-17,12,2024,13,KCHO,0.0,0.0,0.0,0.0,5
2024-12-14,14,2024-12-14 14:53,14:53,EST,Calm,10.0,A Few Clouds,FEW025,36.0,19.0,50.0,,,30.79,1043.2,0.0,0.0,0.0,2024-12-17,12,2024,14,KCHO,0.0,0.0,0.0,0.0,0
2024-12-14,14,2024-12-14 15:53,15:53,EST,E  5,10.0,Overcast,OVC024,37.0,19.0,48.0,34.0,,30.78,1042.9,0.0,0.0,0.0,2024-12-17,12,2024,15,KCHO,0.0,0.0,0.0,0.0,5
2024-12-14,14,2024-12-14 16:53,16:53,EST,E  6,10.0,Overcast,OVC024,36.0,19.0,50.0,32.0,,30.79,1043.1,0.0,0.0,0.0,2024-12-17,12,2024,16,KCHO,0.0,0.0,0.0,0.0,6
2024-12-14,14,2024-12-14 17:53,17:53,EST,NE  3,10.0,Overcast,OVC024,35.1,19.0,52.0,,,30.79,1043.2,0.0,0.0,0.0,2024-12-17,12,2024,17,KCHO,0.0,0.0,0.0,0.0,3
2024-12-14,14,2024-12-14 18:53,18:53,EST,NE  6,10.0,Overcast,OVC024,35.1,19.9,54.0,31.0,,30.79,1043.3,0.0,0.0,0.0,2024-12-17,12,2024,18,KCHO,0.0,0.0,0.0,0.0,6
2024-12-14,14,2024-12-14 19:53,19:53,EST,N  3,10.0,Overcast,OVC025,34.0,19.9,56.0,,,30.8,1043.7,0.0,0.0,0.0,2024-12-17,12,2024,19,KCHO,0.0,0.0,0.0,0.0,3
2024-12-14,14,2024-12-14 20:53,20:53,EST,Calm,10.0,Overcast,OVC025,33.1,21.0,61.0,,,30.8,1043.5,0.0,0.0,0.0,2024-12-17,12,2024,20,KCHO,0.0,0.0,0.0,0.0,0
2024-12-14,14,2024-12-14 21:53,21:53,EST,N  3,10.0,Overcast,OVC026,34.0,21.0,59.0,,,30.79,1043.1,0.0,0.0,0.0,2024-12-17,12,2024,21,KCHO,0.0,0.0,0.0,0.0,3
2024-12-14,14,2024-12-14 22:53,22:53,EST,Calm,10.0,Overcast,OVC027,34.0,21.9,61.0,,,30.79,1043.1,0.0,0.0,0.0,2024-12-17,12,2024,22,KCHO,0.0,0.0,0.0,0.0,0
2024-12-14,14,2024-12-14 23:53,23:53,EST,Calm,10.0,Overcast,OVC026,34.0,21.9,61.0,,,30.78,1042.8,0.0,0.0,0.0,2024-12-17,12,2024,23,KCHO,0.0,0.0,0.0,0.0,0
2024-12-15,15,2024-12-15 00:53,00:53,EST,N  5,10.0,Overcast,BKN017 OVC026,34.0,21.9,61.0,30.0,,30.77,1042.4,0.0,0.0,0.0,2024-12-18,12,2024,0,KCHO,0.0,0.0,0.0,0.0,5
2024-12-15,15,2024-12-15 01:53,01:53,EST,NE  5,10.0,,,33.1,23.0,66.0,29.0,,30.76,1042.3,0.0,0.0,0.0,2024-12-18,12,2024,1,KCHO,0.0,0.0,0.0,0.0,5
2024-12-15,15,2024-12-15 02:53,02:53,EST,N  3,10.0,Overcast,OVC024,33.1,24.1,70.0,,,30.76,1042.1,0.0,0.0,0.0,2024-12-18,12,2024,2,KCHO,0.0,0.0,0.0,0.0,3
2024-12-15,15,2024-12-15 03:53,03:53,EST,N  5,10.0,Overcast,OVC026,33.1,24.1,70.0,29.0,,30.74,1041.5,0.0,0.0,0.0,2024-12-18,12,2024,3,KCHO,0.0,0.0,0.0,0.0,5
2024-12-15,15,2024-12-15 04:53,04:53,EST,Calm,10.0,Overcast,OVC028,33.1,25.0,72.0,,,30.73,1041.1,0.0,0.0,0.0,2024-12-18,12,2024,4,KCHO,0.0,0.0,0.0,0.0,0
2024-12-15,15,2024-12-15 05:53,05:53,EST,N  3,10.0,Overcast,OVC028,33.1,25.0,72.0,,,30.72,1040.9,0.0,0.0,0.0,2024-12-18,12,2024,5,KCHO,0.0,0.0,0.0,0.0,3
2024-12-15,15,2024-12-15 06:53,06:53,EST,N  5,10.0,Overcast,OVC030,33.1,26.1,75.0,29.0,,30.71,1040.3,0.0,0.0,0.0,2024-12-18,12,2024,6,KCHO,0.0,0.0,0.0,0.0,5
2024-12-15,15,2024-12-15 07:53,07:53,EST,Calm,10.0,Overcast,OVC030,33.1,26.1,75.0,,,30.72,1040.6,0.0,0.0,0.0,2024-12-18,12,2024,7,KCHO,0.0,0.0,0.0,0.0,0
2024-12-15,15,2024-12-15 08:53,08:53,EST,N  5,10.0,Overcast,SCT035 BKN050 OVC085,34.0,26.1,73.0,30.0,,30.71,1040.4,0.0,0.0,0.0,2024-12-18,12,2024,8,KCHO,0.0,0.0,0.0,0.0,5
2024-12-15,15,2024-12-15 09:53,09:53,EST,Calm,10.0,Overcast,SCT055 OVC100,34.0,27.0,76.0,,,30.7,1040.2,0.0,0.0,0.0,2024-12-18,12,2024,9,KCHO,0.0,0.0,0.0,0.0,0
2024-12-15,15,2024-12-15 10:53,10:53,EST,NE  3,10.0,Light Rain,BKN027 OVC060,35.1,28.0,76.0,,,30.69,1039.7,0.0,0.0,0.0,2024-12-18,12,2024,10,KCHO,0.0,0.0,0.0,0.0,3
2024-12-15,15,2024-12-15 11:53,11:53,EST,Calm,10.0,Light Snow,OVC026,34.0,28.0,79.0,,,30.66,1038.7,0.01,0.0,0.0,2024-12-18,12,2024,11,KCHO,0.01,0.01,0.01,0.01,0
2024-12-15,15,2024-12-15 12:53,12:53,EST,N  3,8.0,Light Rain,OVC025,35.1,28.9,78.0,,,30.63,1037.5,0.0,0.0,0.01,2024-12-18,12,2024,12,KCHO,0.01,0.01,0.01,0.01,3
2024-12-15,15,2024-12-15 13:53,13:53,EST,Calm,10.0,Snow,BKN022 BKN055,35.1,30.0,82.0,,,30.6,1036.7,0.0,0.0,0.0,2024-12-18,12,2024,13,KCHO,0.01,0.01,0.01,0.01,0
2024-12-15,15,2024-12-15 14:53,14:53,EST,Vrbl  3,10.0,Light Rain,BKN022 OVC060,35.1,32.0,89.0,,,30.58,1036.1,0.0,0.0,0.0,2024-12-18,12,2024,14,KCHO,0.0,0.01,0.01,0.01,3
2024-12-15,15,2024-12-15 15:53,15:53,EST,Calm,8.0,Light Rain,BKN008 OVC050,35.1,32.0,89.0,,,30.58,1035.8,0.02,0.02,0.0,2024-12-18,12,2024,15,KCHO,0.02,0.03,0.03,0.03,0
2024-12-15,15,2024-12-15 16:53,16:53,EST,N  6,9.0,Light Rain,BKN005 OVC018,35.1,33.1,93.0,31.0,,30.55,1035.1,0.0,0.0,0.0,2024-12-18,12,2024,16,KCHO,0.02,0.030000000000000002,0.030000000000000002,0.030000000000000002,6
2024-12-15,15,2024-12-15 18:53,18:53,EST,Calm,10.0,Light Rain,OVC017,35.1,33.1,93.0,,,30.56,1035.3,0.0,0.0,0.02,2024-12-18,12,2024,18,KCHO,0.02,0.020000000000000004,0.030000000000000002,0.030000000000000002,0
2024-12-15,15,2024-12-15 19:53,19:53,EST,Calm,5.0,Light Rain Fog/Mist,OVC013,35.1,33.1,93.0,,,30.54,1034.7,0.05,0.0,0.0,2024-12-18,12,2024,19,KCHO,0.05,0.07,0.08,0.08,0
2024-12-15,15,2024-12-15 20:53,20:53,EST,Calm,5.0,Fog/Mist,SCT002 OVC012,35.1,34.0,96.0,,,30.53,1034.1,0.01,0.0,0.0,2024-12-18,12,2024,20,KCHO,0.060000000000000005,0.08,0.09,0.09,0
2024-12-15,15,2024-12-15 21:53,21:53,EST,Calm,1.75,Light Rain Fog/Mist,BKN003 OVC011,35.1,34.0,96.0,,,30.5,1033.2,0.03,0.09,0.0,2024-12-18,12,2024,21,KCHO,0.09,0.11000000000000001,0.12,0.12,0
2024-12-15,15,2024-12-15 22:53,22:53,EST,Calm,2.5,Light Rain Fog/Mist,FEW004 OVC011,36.0,35.1,97.0,,,30.48,1032.6,0.04,0.0,0.0,2024-12-18,12,2024,22,KCHO,0.08,0.13,0.16,0.16,0
2024-12-15,15,2024-12-15 23:53,23:53,EST,Calm,2.5,Light Rain Fog/Mist,OVC003,36.0,34.0,93.0,,,30.46,1031.9,0.03,0.0,0.0,2024-12-19,12,2024,23,KCHO,0.1,0.16,0.19,0.19,0
2024-12-16,16,2024-12-16 00:53,00:53,EST,Calm,3.0,Light Rain Fog/Mist,FEW001 OVC017,36.0,35.1,97.0,,,30.44,1031.0,0.04,0.0,0.2,2024-12-19,12,2024,0,KCHO,0.11000000000000001,0.2,0.22,0.23,0
2024-12-16,16,2024-12-16 01:53,01:53,EST,Calm,2.5,Light Rain Fog/Mist,OVC021,36.0,34.0,93.0,,,30.42,1030.5,0.02,0.0,0.0,2024-12-19,12,2024,1,KCHO,0.09,0.17,0.24,0.25,0
2024-12-16,16,2024-12-16 02:53,02:53,EST,Calm,4.0,Fog/Mist,BKN001 OVC027,36.0,35.1,97.0,,,30.41,1030.2,0.01,0.0,0.0,2024-12-19,12,2024,2,KCHO,0.07,0.17,0.25,0.26,0
2024-12-16,16,2024-12-16 03:53,03:53,EST,Calm,8.0,Overcast,OVC003,37.0,35.1,93.0,,,30.4,1029.6,0.0,0.03,0.0,2024-12-19,12,2024,3,KCHO,0.03,0.14,0.25,0.26,0
2024-12-16,16,2024-12-16 04:53,04:53,EST,Calm,6.0,Fog/Mist,OVC004,37.0,35.1,93.0,,,30.4,1029.6,0.0,0.0,0.0,2024-12-19,12,2024,4,KCHO,0.01,0.1,0.23,0.26,0
2024-12-16,16,2024-12-16 05:53,05:53,EST,Calm,1.25,Fog/Mist,OVC003,37.0,35.1,93.0,,,30.39,1029.3,0.0,0.0,0.0,2024-12-19,12,2024,5,KCHO,0.0,0.07,0.23,0.26,0
2024-12-16,16,2024-12-16 06:53,06:53,EST,Calm,1.0,Fog/Mist,VV002,37.0,36.0,96.0,,,30.38,1029.2,0.0,0.0,0.03,2024-12-19,12,2024,6,KCHO,0.0,0.03,0.23,0.26,0
2024-12-16,16,2024-12-16 07:53,07:53,EST,Calm,0.25,Fog,VV002,37.0,36.0,96.0,,,30.39,1029.3,0.0,0.0,0.0,2024-12-19,12,2024,7,KCHO,0.0,0.01,0.18,0.26,0
2024-12-16,16,2024-12-16 08:53,08:53,EST,NE  5,0.75,Fog/Mist,OVC002,37.9,36.0,93.0,35.0,,30.38,1029.1,0.0,0.0,0.0,2024-12-19,12,2024,8,KCHO,0.0,0.0,0.17,0.26,5
2024-12-16,16,2024-12-16 09:53,09:53,EST,Calm,6.0,Fog/Mist,OVC002,37.9,37.0,97.0,,,30.39,1029.5,0.0,0.0,0.0,2024-12-19,12,2024,9,KCHO,0.0,0.0,0.14,0.26,0
2024-12-16,16,2024-12-16 10:53,10:53,EST,Calm,10.0,Overcast,OVC005,39.0,37.0,93.0,,,30.37,1028.6,0.0,0.0,0.0,2024-12-19,12,2024,10,KCHO,0.0,0.0,0.1,0.26,0
2024-12-16,16,2024-12-16 11:53,11:53,EST,Calm,3.0,Fog/Mist,OVC004,39.9,37.9,93.0,,,30.33,1027.5,0.0,0.0,0.0,2024-12-19,12,2024,11,KCHO,0.0,0.0,0.07,0.26,0
2024-12-16,16,2024-12-16 12:53,12:53,EST,Calm,3.0,Fog/Mist,OVC003,39.9,39.0,97.0,,,30.3,1026.5,0.0,0.0,0.0,2024-12-19,12,2024,12,KCHO,0.0,0.0,0.03,0.25,0
2024-12-16,16,2024-12-16 13:53,13:53,EST,Calm,1.0,Fog/Mist,OVC002,39.9,39.0,97.0,,,30.27,1025.4,0.0,0.0,0.0,2024-12-19,12,2024,13,KCHO,0.0,0.0,0.01,0.25,0
2024-12-16,16,2024-12-16 14:53,14:53,EST,Calm,1.75,Fog/Mist,OVC002,41.0,39.9,96.0,,,30.25,1024.7,0.0,0.0,0.0,2024-12-19,12,2024,14,KCHO,0.0,0.0,0.0,0.25,0
2024-12-16,16,2024-12-16 15:53,15:53,EST,Calm,1.0,Light Rain Fog/Mist,OVC002,42.1,39.9,92.0,,,30.24,1024.2,0.03,0.03,0.0,2024-12-19,12,2024,15,KCHO,0.03,0.03,0.03,0.27999999999999997,0
2024-12-16,16,2024-12-16 16:53,16:53,EST,Calm,0.5,Fog,OVC002,42.1,41.0,96.0,,,30.24,1024.0,0.0,0.0,0.0,2024-12-19,12,2024,16,KCHO,0.03,0.03,0.03,0.26,0
2024-12-16,16,2024-12-16 17:53,17:53,EST,Calm,0.5,Fog,OVC002,42.1,41.0,96.0,,,30.24,1024.1,0.0,0.0,0.0,2024-12-19,12,2024,17,KCHO,0.03,0.03,0.03,0.26,0
2024-12-16,16,2024-12-16 18:53,18:53,EST,Calm,1.5,Fog/Mist,OVC004,42.1,41.0,96.0,,,30.23,1023.9,0.0,0.0,0.03,2024-12-19,12,2024,18,KCHO,0.0,0.03,0.03,0.26,0
2024-12-16,16,2024-12-16 20:53,20:53,EST,SW  7,10.0,Overcast,OVC005,44.1,42.1,93.0,41.0,,30.21,1023.2,0.01,0.0,0.0,2024-12-19,12,2024,20,KCHO,0.01,0.04,0.04,0.21999999999999997,7
2024-12-16,16,2024-12-16 21:53,21:53,EST,Vrbl  5,9.0,Overcast,OVC003,45.0,44.1,97.0,43.0,,30.2,1022.7,0.0,0.01,0.0,2024-12-19,12,2024,21,KCHO,0.01,0.04,0.04,0.21,5
2024-12-16,16,2024-12-16 22:53,22:53,EST,SW  3,9.0,Overcast,OVC003,45.0,43.0,93.0,,,30.19,1022.6,0.0,0.0,0.0,2024-12-19,12,2024,22,KCHO,0.01,0.01,0.04,0.18,3
2024-12-16,16,2024-12-16 23:53,23:53,EST,SW  5,10.0,Overcast,OVC006,45.0,43.0,93.0,43.0,,30.17,1021.7,0.0,0.0,0.0,2024-12-19,12,2024,23,KCHO,0.0,0.01,0.04,0.13999999999999999,5
2024-12-17,17,2024-12-17 00:53,00:53,EST,Calm,6.0,Fog/Mist,OVC006,45.0,43.0,93.0,,,30.16,1021.3,0.0,0.0,0.01,2024-12-20,12,2024,0,KCHO,0.0,0.01,0.04,0.11,0
2024-12-17,17,2024-12-17 01:53,01:53,EST,S  8,10.0,Overcast,OVC007,46.9,46.0,97.0,44.0,,30.14,1020.7,0.0,0.0,0.0,2024-12-20,12,2024,1,KCHO,0.0,0.01,0.04,0.07,8
2024-12-17,17,2024-12-17 02:53,02:53,EST,S  13,9.0,Overcast,OVC006,48.0,46.0,93.0,43.0,,30.14,1020.7,0.0,0.0,0.0,2024-12-20,12,2024,2,KCHO,0.0,0.0,0.04,0.05,13
2024-12-17,17,2024-12-17 03:53,03:53,EST,SW  5,9.0,Overcast,OVC006,48.0,46.9,96.0,47.0,,30.14,1020.6,0.0,0.0,0.0,2024-12-20,12,2024,3,KCHO,0.0,0.0,0.04,0.04,5
2024-12-17,17,2024-12-17 04:53,04:53,EST,SW  8,8.0,Overcast,OVC003,48.0,46.0,93.0,45.0,,30.13,1020.4,0.0,0.0,0.0,2024-12-20,12,2024,4,KCHO,0.0,0.0,0.01,0.04,8
2024-12-17,17,2024-12-17 05:53,05:53,EST,SW  8,9.0,Overcast,OVC004,48.0,46.9,96.0,45.0,,30.14,1020.7,0.0,0.0,0.0,2024-12-20,12,2024,5,KCHO,0.0,0.0,0.01,0.04,8
2024-12-17,17,2024-12-17 06:53,06:53,EST,Vrbl  7,9.0,Overcast,OVC004,48.9,46.9,93.0,46.0,,30.16,1021.3,0.0,0.0,0.0,2024-12-20,12,2024,6,KCHO,0.0,0.0,0.01,0.04,7
2024-12-17,17,2024-12-17 07:53,07:53,EST,S  5,5.0,Fog/Mist,OVC003,48.0,46.9,96.0,47.0,,30.16,1021.5,0.0,0.0,0.0,2024-12-20,12,2024,7,KCHO,0.0,0.0,0.01,0.04,5
2024-12-17,17,2024-12-17 09:53,09:53,EST,SW  6,10.0,Mostly Cloudy,BKN007 BKN050,53.1,48.9,86.0,,,30.2,1022.7,0.0,0.0,0.0,2024-12-20,12,2024,9,KCHO,0.0,0.0,0.0,0.04,6
2024-12-17,17,2024-12-17 10:53,10:53,EST,SW  5,10.0,A Few Clouds,FEW050,54.0,48.9,83.0,,,30.2,1022.6,0.0,0.0,0.0,2024-12-20,12,2024,10,KCHO,0.0,0.0,0.0,0.04,5
2024-12-17,17,2024-12-17 11:53,11:53,EST,SW  9,10.0,Fair,CLR,57.0,51.1,81.0,,,30.18,1021.9,0.0,0.0,0.0,2024-12-20,12,2024,11,KCHO,0.0,0.0,0.0,0.04,9
2024-12-17,17,2024-12-17 12:53,12:53,EST,S  6,10.0,Fair,CLR,62.1,53.1,73.0,,,30.16,1021.0,0.0,0.0,0.0,2024-12-20,12,2024,12,KCHO,0.0,0.0,0.0,0.04,6
2024-12-17,17,2024-12-17 13:53,13:53,EST,S  9,10.0,Fair,CLR,63.0,53.1,70.0,,,30.14,1020.5,0.0,0.0,0.0,2024-12-20,12,2024,13,KCHO,0.0,0.0,0.0,0.04,9
2024-12-17,17,2024-12-17 14:53,14:53,EST,SE  8,10.0,Fair,CLR,64.0,52.0,65.0,,,30.14,1020.5,0.0,0.0,0.0,2024-12-20,12,2024,14,KCHO,0.0,0.0,0.0,0.04,8
2024-12-17,17,2024-12-17 15:53,15:53,EST,SW  6,10.0,Fair,CLR,64.9,48.0,54.0,,,30.16,1021.0,0.0,0.0,0.0,2024-12-20,12,2024,15,KCHO,0.0,0.0,0.0,0.04,6
2024-12-17,17,2024-12-17 16:53,16:53,EST,Calm,10.0,Fair,CLR,63.0,45.0,52.0,,,30.19,1022.1,0.0,0.0,0.0,2024-12-20,12,2024,16,KCHO,0.0,0.0,0.0,0.04,0
2024-12-17,17,2024-12-17 17:53,17:53,EST,Calm,10.0,Fair,CLR,60.1,42.1,52.0,,,30.2,1022.5,0.0,0.0,0.0,2024-12-20,12,2024,17,KCHO,0.0,0.0,0.0,0.01,0
2024-12-17,17,2024-12-17 18:53,18:53,EST,NW  3,10.0,Fair,CLR,57.9,39.9,51.0,,,30.23,1023.4,0.0,0.0,0.0,2024-12-20,12,2024,18,KCHO,0.0,0.0,0.0,0.01,3
2024-12-17,17,2024-12-17 19:53,19:53,EST,NE  7,10.0,Fair,CLR,52.0,39.9,64.0,,,30.25,1024.3,0.0,0.0,0.0,2024-12-20,12,2024,19,KCHO,0.0,0.0,0.0,0.01,7
2024-12-17,17,2024-12-17 20:53,20:53,EST,Calm,10.0,Fair,CLR,52.0,41.0,66.0,,,30.26,1024.6,0.0,0.0,0.0,2024-12-20,12,2024,20,KCHO,0.0,0.0,0.0,0.01,0
2024-12-17,17,2024-12-17 21:53,21:53,EST,Calm,10.0,Fair,CLR,48.0,39.0,71.0,,,30.26,1024.7,0.0,0.0,0.0,2024-12-20,12,2024,21,KCHO,0.0,0.0,0.0,0.0,0
2024-12-17,17,2024-12-17 22:53,22:53,EST,Calm,10.0,Fair,CLR,46.9,39.9,77.0,,,30.27,1025.0,0.0,0.0,0.0,2024-12-20,12,2024,22,KCHO,0.0,0.0,0.0,0.0,0
2024-12-17,17,2024-12-17 23:53,23:53,EST,NW  3,10.0,Fair,CLR,43.0,37.9,82.0,,,30.27,1024.9,0.0,0.0,0.0,2024-12-20,12,2024,23,KCHO,0.0,0.0,0.0,0.0,3
2024-12-18,18,2024-12-18 00:53,00:53,EST,Calm,10.0,Fair,CLR,39.9,37.0,89.0,,,30.27,1024.8,0.0,0.0,0.0,2024-12-21,12,2024,0,KCHO,0.0,0.0,0.0,0.0,0
2024-12-18,18,2024-12-18 01:53,01:53,EST,Calm,10.0,Fair,CLR,42.1,39.0,89.0,,,30.27,1024.9,0.0,0.0,0.0,2024-12-21,12,2024,1,KCHO,0.0,0.0,0.0,0.0,0
2024-12-18,18,2024-12-18 02:53,02:53,EST,Calm,10.0,Fair,CLR,39.0,36.0,89.0,,,30.27,1024.9,0.0,0.0,0.0,2024-12-21,12,2024,2,KCHO,0.0,0.0,0.0,0.0,0
2024-12-18,18,2024-12-18 03:53,03:53,EST,Calm,10.0,Fair,CLR,37.0,35.1,93.0,,,30.26,1024.7,0.0,0.0,0.0,2024-12-21,12,2024,3,KCHO,0.0,0.0,0.0,0.0,0
2024-12-18,18,2024-12-18 04:53,04:53,EST,NW  3,10.0,Fair,CLR,36.0,34.0,93.0,,,30.25,1024.1,0.0,0.0,0.0,2024-12-21,12,2024,4,KCHO,0.0,0.0,0.0,0.0,3
2024-12-18,18,2024-12-18 05:53,05:53,EST,Calm,10.0,Fair,CLR,35.1,33.1,93.0,,,30.24,1024.1,0.0,0.0,0.0,2024-12-21,12,2024,5,KCHO,0.0,0.0,0.0,0.0,0
2024-12-18,18,2024-12-18 06:53,06:53,EST,NW  3,9.0,Fair,CLR,32.0,30.0,92.0,,,30.24,1024.0,0.0,0.0,0.0,2024-12-21,12,2024,6,KCHO,0.0,0.0,0.0,0.0,3
2024-12-18,18,2024-12-18 07:53,07:53,EST,E  3,10.0,Mostly Cloudy,BKN050,36.0,32.0,86.0,,,30.23,1023.8,0.0,0.0,0.0,2024-12-21,12,2024,7,KCHO,0.0,0.0,0.0,0.0,3
2024-12-18,18,2024-12-18 08:53,08:53,EST,S  3,10.0,Overcast,OVC035,37.9,35.1,89.0,,,30.26,1024.7,0.0,0.0,0.0,2024-12-21,12,2024,8,KCHO,0.0,0.0,0.0,0.0,3
2024-12-18,18,2024-12-18 09:53,09:53,EST,Calm,10.0,Overcast,FEW023 OVC035,39.9,36.0,86.0,,,30.25,1024.4,0.0,0.0,0.0,2024-12-21,12,2024,9,KCHO,0.0,0.0,0.0,0.0,0
2024-12-18,18,2024-12-18 10:53,10:53,EST,Calm,10.0,Overcast,OVC032,45.0,37.9,77.0,,,30.19,1022.6,0.0,0.0,0.0,2024-12-21,12,2024,10,KCHO,0.0,0.0,0.0,0.0,0
2024-12-18,18,2024-12-18 11:53,11:53,EST,Calm,10.0,Overcast,OVC032,48.9,39.0,69.0,,,30.15,1020.9,0.0,0.0,0.0,2024-12-21,12,2024,11,KCHO,0.0,0.0,0.0,0.0,0
2024-12-18,18,2024-12-18 12:53,12:53,EST,Calm,10.0,Overcast,OVC030,48.9,39.0,69.0,,,30.08,1018.6,0.0,0.0,0.0,2024-12-21,12,2024,12,KCHO,0.0,0.0,0.0,0.0,0
2024-12-18,18,2024-12-18 13:53,13:53,EST,Calm,10.0,Overcast,OVC029,50.0,37.0,61.0,,,30.04,1017.1,0.0,0.0,0.0,2024-12-21,12,2024,13,KCHO,0.0,0.0,0.0,0.0,0
2024-12-18,18,2024-12-18 14:53,14:53,EST,SE  9,10.0,Overcast,OVC027,51.1,33.1,50.0,,,30.01,1016.3,0.0,0.0,0.0,2024-12-21,12,2024,14,KCHO,0.0,0.0,0.0,0.0,9
2024-12-18,18,2024-12-18 15:53,15:53,EST,NW  7,10.0,Overcast,BKN023 BKN029 OVC060,51.1,37.0,59.0,,,30.06,1017.9,0.0,0.0,0.0,2024-12-21,12,2024,15,KCHO,0.0,0.0,0.0,0.0,7
2024-12-18,18,2024-12-18 16:53,16:53,EST,S  6,10.0,Fair,CLR,46.9,36.0,66.0,45.0,,30.0,1016.2,0.0,0.0,0.0,2024-12-21,12,2024,16,KCHO,0.0,0.0,0.0,0.0,6
2024-12-18,18,2024-12-18 17:53,17:53,EST,SW  3,10.0,Mostly Cloudy,FEW070 BKN090 BKN100,48.9,39.0,69.0,,,30.0,1016.2,0.0,0.0,0.0,2024-12-21,12,2024,17,KCHO,0.0,0.0,0.0,0.0,3
2024-12-18,18,2024-12-18 18:53,18:53,EST,S  7,10.0,Light Rain,OVC080,48.9,43.0,80.0,46.0,,29.99,1015.6,0.0,0.0,0.0,2024-12-21,12,2024,18,KCHO,0.0,0.0,0.0,0.0,7
2024-12-18,18,2024-12-18 19:53,19:53,EST,S  7,10.0,Overcast,OVC085,50.0,44.1,80.0,48.0,,29.99,1015.6,0.0,0.0,0.0,2024-12-21,12,2024,19,KCHO,0.0,0.0,0.0,0.0,7
2024-12-18,18,2024-12-18 20:53,20:53,EST,S  7,10.0,Overcast,FEW070 OVC090,52.0,46.0,80.0,,,30.0,1016.1,0.0,0.0,0.0,2024-12-21,12,2024,20,KCHO,0.0,0.0,0.0,0.0,7
2024-12-18,18,2024-12-18 21:53,21:53,EST,Vrbl  3,10.0,Overcast,FEW037 SCT060 OVC100,51.1,46.9,86.0,,,30.02,1016.7,0.0,0.0,0.0,2024-12-21,12,2024,21,KCHO,0.0,0.0,0.0,0.0,3
2024-12-18,18,2024-12-18 22:53,22:53,EST,N  7,10.0,Overcast,SCT036 BKN070 OVC110,48.9,45.0,86.0,46.0,,30.07,1018.1,0.0,0.0,0.0,2024-12-21,12,2024,22,KCHO,0.0,0.0,0.0,0.0,7
2024-12-18,18,2024-12-18 23:53,23:53,EST,N  10  G 17,10.0,Light Rain,SCT070 OVC110,48.9,39.9,71.0,45.0,,30.08,1018.4,0.0,0.0,0.0,2024-12-21,12,2024,23,KCHO,0.0,0.0,0.0,0.0,10
2024-12-19,19,2024-12-19 00:53,00:53,EST,Vrbl  6,10.0,Mostly Cloudy,BKN090,48.0,36.0,63.0,46.0,,30.1,1019.2,0.0,0.0,0.0,2024-12-22,12,2024,0,KCHO,0.0,0.0,0.0,0.0,6
2024-12-19,19,2024-12-19 01:53,01:53,EST,Calm,10.0,Fair,CLR,46.9,34.0,61.0,,,30.13,1020.2,0.0,0.0,0.0,2024-12-22,12,2024,1,KCHO,0.0,0.0,0.0,0.0,0
2024-12-19,19,2024-12-19 02:53,02:53,EST,NW  6,10.0,Fair,CLR,45.0,33.1,63.0,42.0,,30.16,1021.4,0.0,0.0,0.0,2024-12-22,12,2024,2,KCHO,0.0,0.0,0.0,0.0,6
2024-12-19,19,2024-12-19 03:53,03:53,EST,N  8,10.0,Fair,CLR,44.1,32.0,63.0,40.0,,30.18,1022.1,0.0,0.0,0.0,2024-12-22,12,2024,3,KCHO,0.0,0.0,0.0,0.0,8
2024-12-19,19,2024-12-19 04:53,04:53,EST,N  3,10.0,Fair,CLR,42.1,30.9,65.0,,,30.19,1022.6,0.0,0.0,0.0,2024-12-22,12,2024,4,KCHO,0.0,0.0,0.0,0.0,3
2024-12-19,19,2024-12-19 05:53,05:53,EST,N  5,10.0,Fair,CLR,41.0,30.0,65.0,38.0,,30.22,1023.3,0.0,0.0,0.0,2024-12-22,12,2024,5,KCHO,0.0,0.0,0.0,0.0,5
2024-12-19,19,2024-12-19 06:53,06:53,EST,N  6,10.0,Fair,CLR,41.0,28.9,62.0,38.0,,30.25,1024.3,0.0,0.0,0.0,2024-12-22,12,2024,6,KCHO,0.0,0.0,0.0,0.0,6
2024-12-19,19,2024-12-19 07:53,07:53,EST,Vrbl  3,10.0,Fair,CLR,37.0,30.0,76.0,,,30.27,1025.1,0.0,0.0,0.0,2024-12-22,12,2024,7,KCHO,0.0,0.0,0.0,0.0,3
2024-12-19,19,2024-12-19 08:53,08:53,EST,N  6,10.0,Fair,CLR,41.0,30.0,65.0,38.0,,30.29,1025.7,0.0,0.0,0.0,2024-12-22,12,2024,8,KCHO,0.0,0.0,0.0,0.0,6
2024-12-19,19,2024-12-19 09:53,09:53,EST,NE  6,10.0,Fair,CLR,43.0,30.0,60.0,40.0,,30.31,1026.2,0.0,0.0,0.0,2024-12-22,12,2024,9,KCHO,0.0,0.0,0.0,0.0,6
2024-12-19,19,2024-12-19 10:53,10:53,EST,NE  7,10.0,Fair,CLR,43.0,27.0,53.0,39.0,,30.31,1026.5,0.0,0.0,0.0,2024-12-22,12,2024,10,KCHO,0.0,0.0,0.0,0.0,7
2024-12-19,19,2024-12-19 11:53,11:53,EST,N  6,10.0,Partly Cloudy,SCT040,44.1,27.0,51.0,41.0,,30.29,1025.6,0.0,0.0,0.0,2024-12-22,12,2024,11,KCHO,0.0,0.0,0.0,0.0,6
2024-12-19,19,2024-12-19 12:53,12:53,EST,E  8,10.0,Fair,CLR,46.9,28.9,50.0,44.0,,30.25,1024.2,0.0,0.0,0.0,2024-12-22,12,2024,12,KCHO,0.0,0.0,0.0,0.0,8
2024-12-19,19,2024-12-19 13:53,13:53,EST,E  5,10.0,Fair,CLR,46.9,28.9,50.0,45.0,,30.23,1023.7,0.0,0.0,0.0,2024-12-22,12,2024,13,KCHO,0.0,0.0,0.0,0.0,5
2024-12-19,19,2024-12-19 14:53,14:53,EST,E  3,10.0,Fair,CLR,46.0,28.0,50.0,,,30.22,1023.4,0.0,0.0,0.0,2024-12-22,12,2024,14,KCHO,0.0,0.0,0.0,0.0,3
2024-12-19,19,2024-12-19 15:53,15:53,EST,E  8,10.0,Fair,CLR,45.0,28.0,52.0,41.0,,30.23,1023.8,0.0,0.0,0.0,2024-12-22,12,2024,15,KCHO,0.0,0.0,0.0,0.0,8
2024-12-19,19,2024-12-19 16:53,16:53,EST,E  7,10.0,Fair,CLR,43.0,28.0,56.0,39.0,,30.25,1024.5,0.0,0.0,0.0,2024-12-22,12,2024,16,KCHO,0.0,0.0,0.0,0.0,7
2024-12-19,19,2024-12-19 17:53,17:53,EST,E  5,10.0,Fair,CLR,39.9,27.0,60.0,37.0,,30.25,1024.7,0.0,0.0,0.0,2024-12-22,12,2024,17,KCHO,0.0,0.0,0.0,0.0,5
2024-12-19,19,2024-12-19 18:53,18:53,EST,E  3,10.0,Fair,CLR,39.9,27.0,60.0,,,30.25,1024.6,0.0,0.0,0.0,2024-12-22,12,2024,18,KCHO,0.0,0.0,0.0,0.0,3
2024-12-19,19,2024-12-19 19:53,19:53,EST,N  5,10.0,Overcast,OVC044,37.0,28.0,70.0,34.0,,30.27,1025.3,0.0,0.0,0.0,2024-12-22,12,2024,19,KCHO,0.0,0.0,0.0,0.0,5
2024-12-19,19,2024-12-19 20:53,20:53,EST,NE  6,10.0,Overcast,OVC043,37.9,26.1,62.0,34.0,,30.25,1024.5,0.0,0.0,0.0,2024-12-22,12,2024,20,KCHO,0.0,0.0,0.0,0.0,6
2024-12-19,19,2024-12-19 22:53,22:53,EST,N  3,10.0,A Few Clouds,FEW040,35.1,25.0,67.0,,,30.19,1022.6,0.0,0.0,0.0,2024-12-22,12,2024,22,KCHO,0.0,0.0,0.0,0.0,3
2024-12-19,19,2024-12-19 23:53,23:53,EST,Calm,10.0,Overcast,OVC055,34.0,27.0,76.0,,,30.17,1021.8,0.0,0.0,0.0,2024-12-22,12,2024,23,KCHO,0.0,0.0,0.0,0.0,0
2024-12-20,20,2024-12-20 00:53,00:53,EST,Calm,10.0,Overcast,OVC042,35.1,26.1,70.0,,,30.15,1021.2,0.0,0.0,0.0,2024-12-23,12,2024,0,KCHO,0.0,0.0,0.0,0.0,0
2024-12-20,20,2024-12-20 01:53,01:53,EST,Calm,10.0,Overcast,OVC039,35.1,27.0,72.0,,,30.13,1020.4,0.0,0.0,0.0,2024-12-23,12,2024,1,KCHO,0.0,0.0,0.0,0.0,0
2024-12-20,20,2024-12-20 02:53,02:53,EST,Calm,10.0,Overcast,OVC036,35.1,28.0,76.0,,,30.13,1020.3,0.0,0.0,0.0,2024-12-23,12,2024,2,KCHO,0.0,0.0,0.0,0.0,0
2024-12-20,20,2024-12-20 03:53,03:53,EST,E  5,10.0,Overcast,OVC035,35.1,26.1,70.0,32.0,,30.09,1019.2,0.0,0.0,0.0,2024-12-23,12,2024,3,KCHO,0.0,0.0,0.0,0.0,5
2024-12-20,20,2024-12-20 04:53,04:53,EST,NE  6,10.0,Overcast,OVC035,35.1,26.1,70.0,31.0,,30.07,1018.5,0.0,0.0,0.0,2024-12-23,12,2024,4,KCHO,0.0,0.0,0.0,0.0,6
2024-12-20,20,2024-12-20 05:53,05:53,EST,Calm,10.0,Overcast,OVC036,35.1,27.0,72.0,,,30.07,1018.5,0.0,0.0,0.0,2024-12-23,12,2024,5,KCHO,0.0,0.0,0.0,0.0,0
2024-12-20,20,2024-12-20 06:53,06:53,EST,NE  5,4.0,Light Snow,OVC036,35.1,28.0,76.0,32.0,,30.05,1017.8,0.0,0.0,0.0,2024-12-23,12,2024,6,KCHO,0.0,0.0,0.0,0.0,5
2024-12-20,20,2024-12-20 08:53,08:53,EST,Calm,10.0,Overcast,FEW022 OVC039,36.0,28.9,76.0,,,30.03,1017.0,0.0,0.0,0.0,2024-12-23,12,2024,8,KCHO,0.0,0.0,0.0,0.0,0
2024-12-20,20,2024-12-20 09:53,09:53,EST,Calm,10.0,Overcast,OVC050,37.0,30.0,76.0,,,30.02,1016.8,0.0,0.0,0.0,2024-12-23,12,2024,9,KCHO,0.0,0.0,0.0,0.0,0
2024-12-20,20,2024-12-20 10:53,10:53,EST,Calm,10.0,Overcast,OVC060,39.0,30.9,73.0,,,29.98,1015.3,0.0,0.0,0.0,2024-12-23,12,2024,10,KCHO,0.0,0.0,0.0,0.0,0
2024-12-20,20,2024-12-20 11:53,11:53,EST,Calm,10.0,Mostly Cloudy,BKN055,41.0,30.9,67.0,,,29.93,1013.8,0.0,0.0,0.0,2024-12-23,12,2024,11,KCHO,0.0,0.0,0.0,0.0,0
2024-12-20,20,2024-12-20 12:53,12:53,EST,Vrbl  3,10.0,Overcast,OVC050,42.1,30.0,62.0,,,29.89,1012.4,0.0,0.0,0.0,2024-12-23,12,2024,12,KCHO,0.0,0.0,0.0,0.0,3
2024-12-20,20,2024-12-20 13:53,13:53,EST,SW  3,10.0,Fair,CLR,43.0,30.0,60.0,,,29.87,1011.7,0.0,0.0,0.0,2024-12-23,12,2024,13,KCHO,0.0,0.0,0.0,0.0,3
2024-12-20,20,2024-12-20 14:53,14:53,EST,Calm,10.0,Fair,CLR,44.1,30.0,58.0,,,29.86,1011.2,0.0,0.0,0.0,2024-12-23,12,2024,14,KCHO,0.0,0.0,0.0,0.0,0
2024-12-20,20,2024-12-20 15:53,15:53,EST,Calm,10.0,Fair,CLR,44.1,30.9,60.0,,,29.87,1011.5,0.0,0.0,0.0,2024-12-23,12,2024,15,KCHO,0.0,0.0,0.0,0.0,0
2024-12-20,20,2024-12-20 16:53,16:53,EST,Calm,10.0,Overcast,OVC050,43.0,30.9,63.0,,,29.89,1012.3,0.0,0.0,0.0,2024-12-23,12,2024,16,KCHO,0.0,0.0,0.0,0.0,0
2024-12-20,20,2024-12-20 17:53,17:53,EST,Calm,10.0,Mostly Cloudy,BKN055,39.9,30.9,70.0,,,29.91,1013.2,0.0,0.0,0.0,2024-12-23,12,2024,17,KCHO,0.0,0.0,0.0,0.0,0
2024-12-20,20,2024-12-20 18:53,18:53,EST,Calm,10.0,Overcast,OVC060,39.9,32.0,73.0,,,29.94,1014.0,0.0,0.0,0.0,2024-12-23,12,2024,18,KCHO,0.0,0.0,0.0,0.0,0
2024-12-20,20,2024-12-20 19:53,19:53,EST,E  3,10.0,A Few Clouds,FEW060,37.9,30.9,76.0,,,29.95,1014.5,0.0,0.0,0.0,2024-12-23,12,2024,19,KCHO,0.0,0.0,0.0,0.0,3
2024-12-20,20,2024-12-20 20:53,20:53,EST,E  6,10.0,Partly Cloudy,SCT055,37.0,30.0,76.0,33.0,,29.95,1014.5,0.0,0.0,0.0,2024-12-23,12,2024,20,KCHO,0.0,0.0,0.0,0.0,6
2024-12-20,20,2024-12-20 21:53,21:53,EST,N  3,10.0,A Few Clouds,FEW045,35.1,30.0,82.0,,,29.98,1015.3,0.0,0.0,0.0,2024-12-23,12,2024,21,KCHO,0.0,0.0,0.0,0.0,3
2024-12-20,20,2024-12-20 22:53,22:53,EST,Calm,10.0,Overcast,OVC048,33.1,30.0,89.0,,,29.96,1014.9,0.0,0.0,0.0,2024-12-23,12,2024,22,KCHO,0.0,0.0,0.0,0.0,0
2024-12-20,20,2024-12-20 23:53,23:53,EST,W  3,10.0,Overcast,OVC048,34.0,30.0,85.0,,,29.96,1014.8,0.0,0.0,0.0,2024-12-23,12,2024,23,KCHO,0.0,0.0,0.0,0.0,3
2024-12-21,21,2024-12-21 00:53,00:53,EST,SW  3,10.0,Overcast,OVC039,34.0,30.0,85.0,,,29.95,1014.4,0.0,0.0,0.0,2024-12-24,12,2024,0,KCHO,0.0,0.0,0.0,0.0,3
2024-12-21,21,2024-12-21 01:53,01:53,EST,SW  3,10.0,Overcast,OVC041,35.1,30.0,82.0,,,29.97,1015.0,0.0,0.0,0.0,2024-12-24,12,2024,1,KCHO,0.0,0.0,0.0,0.0,3
2024-12-21,21,2024-12-21 02:53,02:53,EST,Vrbl  6,10.0,Overcast,OVC041,37.9,30.0,73.0,34.0,,30.0,1016.1,0.0,0.0,0.0,2024-12-24,12,2024,2,KCHO,0.0,0.0,0.0,0.0,6
2024-12-21,21,2024-12-21 03:53,03:53,EST,N  9,10.0,Overcast,FEW065 OVC110,37.9,27.0,65.0,32.0,,30.03,1017.0,0.0,0.0,0.0,2024-12-24,12,2024,3,KCHO,0.0,0.0,0.0,0.0,9
2024-12-21,21,2024-12-21 04:53,04:53,EST,NW  5,10.0,Overcast,OVC100,37.9,25.0,60.0,35.0,,30.05,1017.7,0.0,0.0,0.0,2024-12-24,12,2024,4,KCHO,0.0,0.0,0.0,0.0,5
2024-12-21,21,2024-12-21 05:53,05:53,EST,NW  3,10.0,Overcast,OVC085,37.0,24.1,59.0,,,30.08,1018.7,0.0,0.0,0.0,2024-12-24,12,2024,5,KCHO,0.0,0.0,0.0,0.0,3
2024-12-21,21,2024-12-21 06:53,06:53,EST,NW  8,10.0,Overcast,BKN055 BKN070 OVC080,37.0,25.0,62.0,32.0,,30.12,1020.1,0.0,0.0,0.0,2024-12-24,12,2024,6,KCHO,0.0,0.0,0.0,0.0,8
2024-12-21,21,2024-12-21 07:53,07:53,EST,N  7,10.0,Partly Cloudy,FEW050 SCT080,35.1,21.9,59.0,30.0,,30.16,1021.5,0.0,0.0,0.0,2024-12-24,12,2024,7,KCHO,0.0,0.0,0.0,0.0,7
2024-12-21,21,2024-12-21 08:53,08:53,EST,NW  9,10.0,Fair,CLR,36.0,17.1,46.0,30.0,,30.18,1022.3,0.0,0.0,0.0,2024-12-24,12,2024,8,KCHO,0.0,0.0,0.0,0.0,9
2024-12-21,21,2024-12-21 09:53,09:53,EST,N  12  G 25,10.0,A Few Clouds,FEW055,37.0,15.1,41.0,30.0,,30.22,1023.6,0.0,0.0,0.0,2024-12-24,12,2024,9,KCHO,0.0,0.0,0.0,0.0,12
2024-12-21,21,2024-12-21 10:53,10:53,EST,NW  12  G 20,10.0,Overcast,OVC060,36.0,14.0,40.0,29.0,,30.23,1024.0,0.0,0.0,0.0,2024-12-24,12,2024,10,KCHO,0.0,0.0,0.0,0.0,12
2024-12-21,21,2024-12-21 11:53,11:53,EST,NW  8,10.0,Overcast,OVC055,35.1,14.0,42.0,29.0,,30.21,1023.4,0.0,0.0,0.0,2024-12-24,12,2024,11,KCHO,0.0,0.0,0.0,0.0,8
2024-12-21,21,2024-12-21 12:53,12:53,EST,Vrbl  6,10.0,Mostly Cloudy,BKN055 BKN070,37.9,14.0,37.0,34.0,,30.2,1022.8,0.0,0.0,0.0,2024-12-24,12,2024,12,KCHO,0.0,0.0,0.0,0.0,6
2024-12-21,21,2024-12-21 13:53,13:53,EST,NW  10  G 22,10.0,Mostly Cloudy,BKN060,37.9,12.0,34.0,32.0,,30.19,1022.6,0.0,0.0,0.0,2024-12-24,12,2024,13,KCHO,0.0,0.0,0.0,0.0,10
2024-12-21,21,2024-12-21 14:53,14:53,EST,Vrbl  7  G 20,10.0,Partly Cloudy,SCT065,37.9,10.0,31.0,33.0,,30.2,1022.8,0.0,0.0,0.0,2024-12-24,12,2024,14,KCHO,0.0,0.0,0.0,0.0,7
2024-12-21,21,2024-12-21 15:53,15:53,EST,N  10  G 20,10.0,Fair,CLR,36.0,12.0,37.0,29.0,,30.2,1022.9,0.0,0.0,0.0,2024-12-24,12,2024,15,KCHO,0.0,0.0,0.0,0.0,10
2024-12-21,21,2024-12-21 16:53,16:53,EST,Vrbl  6,10.0,Fair,CLR,34.0,10.9,38.0,29.0,,30.21,1023.4,0.0,0.0,0.0,2024-12-24,12,2024,16,KCHO,0.0,0.0,0.0,0.0,6
2024-12-21,21,2024-12-21 17:53,17:53,EST,NW  5,10.0,Fair,CLR,32.0,12.9,45.0,28.0,,30.24,1024.3,0.0,0.0,0.0,2024-12-24,12,2024,17,KCHO,0.0,0.0,0.0,0.0,5
2024-12-21,21,2024-12-21 18:53,18:53,EST,Calm,10.0,Partly Cloudy,SCT055,30.0,10.9,45.0,,,30.26,1025.2,0.0,0.0,0.0,2024-12-24,12,2024,18,KCHO,0.0,0.0,0.0,0.0,0
2024-12-21,21,2024-12-21 19:53,19:53,EST,N  6,10.0,A Few Clouds,FEW050,28.9,12.0,49.0,23.0,,30.28,1025.8,0.0,0.0,0.0,2024-12-24,12,2024,19,KCHO,0.0,0.0,0.0,0.0,6
2024-12-21,21,2024-12-21 20:53,20:53,EST,N  3,10.0,Mostly Cloudy,BKN050,28.9,12.0,49.0,,,30.3,1026.4,0.0,0.0,0.0,2024-12-24,12,2024,20,KCHO,0.0,0.0,0.0,0.0,3
2024-12-21,21,2024-12-21 21:53,21:53,EST,N  3,10.0,Mostly Cloudy,BKN050,28.9,10.9,47.0,,,30.32,1027.2,0.0,0.0,0.0,2024-12-24,12,2024,21,KCHO,0.0,0.0,0.0,0.0,3
2024-12-21,21,2024-12-21 22:53,22:53,EST,N  6,10.0,Fair,CLR,28.0,10.0,47.0,22.0,,30.34,1027.9,0.0,0.0,0.0,2024-12-24,12,2024,22,KCHO,0.0,0.0,0.0,0.0,6
2024-12-21,21,2024-12-21 23:53,23:53,EST,Vrbl  5,10.0,Fair,CLR,28.0,10.0,47.0,24.0,,30.34,1027.8,0.0,0.0,0.0,2024-12-24,12,2024,23,KCHO,0.0,0.0,0.0,0.0,5
2024-12-22,22,2024-12-22 00:53,00:53,EST,N  3,10.0,Fair,CLR,27.0,9.0,46.0,,,30.33,1027.5,0.0,0.0,0.0,2024-12-25,12,2024,0,KCHO,0.0,0.0,0.0,0.0,3
2024-12-22,22,2024-12-22 01:53,01:53,EST,N  3,10.0,Fair,CLR,26.1,9.0,48.0,,,30.34,1027.8,0.0,0.0,0.0,2024-12-25,12,2024,1,KCHO,0.0,0.0,0.0,0.0,3
2024-12-22,22,2024-12-22 02:53,02:53,EST,N  3,10.0,Fair,CLR,25.0,9.0,50.0,,,30.36,1028.5,0.0,0.0,0.0,2024-12-25,12,2024,2,KCHO,0.0,0.0,0.0,0.0,3
2024-12-22,22,2024-12-22 03:53,03:53,EST,NW  3,10.0,Fair,CLR,24.1,9.0,52.0,,,30.36,1028.7,0.0,0.0,0.0,2024-12-25,12,2024,3,KCHO,0.0,0.0,0.0,0.0,3
2024-12-22,22,2024-12-22 04:53,04:53,EST,NW  3,10.0,Fair,CLR,23.0,8.1,53.0,,,30.38,1029.4,0.0,0.0,0.0,2024-12-25,12,2024,4,KCHO,0.0,0.0,0.0,0.0,3
2024-12-22,22,2024-12-22 05:53,05:53,EST,Vrbl  6,10.0,Fair,CLR,23.0,7.0,50.0,17.0,,30.4,1030.1,0.0,0.0,0.0,2024-12-25,12,2024,5,KCHO,0.0,0.0,0.0,0.0,6
2024-12-22,22,2024-12-22 06:53,06:53,EST,N  5,10.0,Fair,CLR,21.9,7.0,52.0,16.0,,30.42,1030.8,0.0,0.0,0.0,2024-12-25,12,2024,6,KCHO,0.0,0.0,0.0,0.0,5
2024-12-22,22,2024-12-22 07:53,07:53,EST,N  3,10.0,Fair,CLR,23.0,7.0,50.0,,,30.45,1031.7,0.0,0.0,0.0,2024-12-25,12,2024,7,KCHO,0.0,0.0,0.0,0.0,3
2024-12-22,22,2024-12-22 08:53,08:53,EST,N  7,10.0,Fair,CLR,25.0,7.0,46.0,18.0,,30.47,1032.6,0.0,0.0,0.0,2024-12-25,12,2024,8,KCHO,0.0,0.0,0.0,0.0,7
2024-12-22,22,2024-12-22 09:53,09:53,EST,Vrbl  7,10.0,Fair,CLR,27.0,6.1,41.0,20.0,,30.49,1033.2,0.0,0.0,0.0,2024-12-25,12,2024,9,KCHO,0.0,0.0,0.0,0.0,7
2024-12-22,22,2024-12-22 10:53,10:53,EST,N  3,10.0,Fair,CLR,28.9,6.1,38.0,,,30.49,1033.0,0.0,0.0,0.0,2024-12-25,12,2024,10,KCHO,0.0,0.0,0.0,0.0,3
2024-12-22,22,2024-12-22 11:53,11:53,EST,E  3,10.0,Fair,CLR,30.0,7.0,38.0,,,30.46,1031.9,0.0,0.0,0.0,2024-12-25,12,2024,11,KCHO,0.0,0.0,0.0,0.0,3
2024-12-22,22,2024-12-22 12:53,12:53,EST,Vrbl  6,10.0,Fair,CLR,32.0,7.0,35.0,27.0,,30.44,1031.2,0.0,0.0,0.0,2024-12-25,12,2024,12,KCHO,0.0,0.0,0.0,0.0,6
2024-12-22,22,2024-12-22 13:53,13:53,EST,Vrbl  3,10.0,Fair,CLR,34.0,7.0,32.0,,,30.42,1030.6,0.0,0.0,0.0,2024-12-25,12,2024,13,KCHO,0.0,0.0,0.0,0.0,3
2024-12-22,22,2024-12-22 14:53,14:53,EST,Vrbl  3,10.0,Fair,CLR,34.0,7.0,32.0,,,30.42,1030.7,0.0,0.0,0.0,2024-12-25,12,2024,14,KCHO,0.0,0.0,0.0,0.0,3
2024-12-22,22,2024-12-22 15:53,15:53,EST,N  3,10.0,Fair,CLR,34.0,7.0,32.0,,,30.44,1031.3,0.0,0.0,0.0,2024-12-25,12,2024,15,KCHO,0.0,0.0,0.0,0.0,3
2024-12-22,22,2024-12-22 16:53,16:53,EST,E  3,10.0,Fair,CLR,32.0,6.1,33.0,,,30.45,1031.8,0.0,0.0,0.0,2024-12-25,12,2024,16,KCHO,0.0,0.0,0.0,0.0,3
2024-12-22,22,2024-12-22 17:53,17:53,EST,E  3,10.0,Fair,CLR,28.9,7.0,39.0,,,30.47,1032.3,0.0,0.0,0.0,2024-12-25,12,2024,17,KCHO,0.0,0.0,0.0,0.0,3
2024-12-22,22,2024-12-22 18:53,18:53,EST,E  5,10.0,Fair,CLR,27.0,8.1,45.0,22.0,,30.48,1033.0,0.0,0.0,0.0,2024-12-25,12,2024,18,KCHO,0.0,0.0,0.0,0.0,5
2024-12-22,22,2024-12-22 19:53,19:53,EST,Calm,10.0,Fair,CLR,26.1,8.1,46.0,,,30.51,1033.9,0.0,0.0,0.0,2024-12-25,12,2024,19,KCHO,0.0,0.0,0.0,0.0,0
2024-12-22,22,2024-12-22 20:53,20:53,EST,N  3,10.0,Fair,CLR,24.1,8.1,50.0,,,30.53,1034.5,0.0,0.0,0.0,2024-12-25,12,2024,20,KCHO,0.0,0.0,0.0,0.0,3
2024-12-22,22,2024-12-22 21:53,21:53,EST,N  3,10.0,Fair,CLR,25.0,8.1,48.0,,,30.54,1034.7,0.0,0.0,0.0,2024-12-25,12,2024,21,KCHO,0.0,0.0,0.0,0.0,3
2024-12-22,22,2024-12-22 22:53,22:53,EST,N  3,10.0,Fair,CLR,24.1,8.1,50.0,,,30.55,1035.3,0.0,0.0,0.0,2024-12-25,12,2024,22,KCHO,0.0,0.0,0.0,0.0,3
2024-12-22,22,2024-12-22 23:53,23:53,EST,Calm,10.0,Fair,CLR,21.9,10.0,60.0,,,30.55,1035.1,0.0,0.0,0.0,2024-12-25,12,2024,23,KCHO,0.0,0.0,0.0,0.0,0
2024-12-23,23,2024-12-23 00:53,00:53,EST,Calm,10.0,Fair,CLR,19.9,10.9,68.0,,,30.53,1034.5,0.0,0.0,0.0,2024-12-26,12,2024,0,KCHO,0.0,0.0,0.0,0.0,0
2024-12-23,23,2024-12-23 01:53,01:53,EST,Calm,10.0,Fair,CLR,21.0,12.9,71.0,,,30.54,1034.6,0.0,0.0,0.0,2024-12-26,12,2024,1,KCHO,0.0,0.0,0.0,0.0,0
2024-12-23,23,2024-12-23 02:53,02:53,EST,Calm,10.0,Fair,CLR,19.0,12.0,74.0,,,30.55,1035.3,0.0,0.0,0.0,2024-12-26,12,2024,2,KCHO,0.0,0.0,0.0,0.0,0
2024-12-23,23,2024-12-23 03:53,03:53,EST,Calm,10.0,Fair,CLR,19.0,12.9,77.0,,,30.55,1035.3,0.0,0.0,0.0,2024-12-26,12,2024,3,KCHO,0.0,0.0,0.0,0.0,0
2024-12-23,23,2024-12-23 04:53,04:53,EST,N  3,10.0,Fair,CLR,17.1,10.9,77.0,,,30.56,1035.5,0.0,0.0,0.0,2024-12-26,12,2024,4,KCHO,0.0,0.0,0.0,0.0,3
2024-12-23,23,2024-12-23 05:53,05:53,EST,Calm,10.0,Fair,CLR,17.1,10.9,77.0,,,30.57,1035.8,0.0,0.0,0.0,2024-12-26,12,2024,5,KCHO,0.0,0.0,0.0,0.0,0
2024-12-23,23,2024-12-23 06:53,06:53,EST,N  3,10.0,Fair,CLR,17.1,10.9,77.0,,,30.57,1036.0,0.0,0.0,0.0,2024-12-26,12,2024,6,KCHO,0.0,0.0,0.0,0.0,3
2024-12-23,23,2024-12-23 07:53,07:53,EST,N  3,10.0,Fair,CLR,18.0,10.9,74.0,,,30.59,1036.7,0.0,0.0,0.0,2024-12-26,12,2024,7,KCHO,0.0,0.0,0.0,0.0,3
2024-12-23,23,2024-12-23 08:53,08:53,EST,Calm,10.0,Fair,CLR,23.0,12.9,65.0,,,30.62,1037.5,0.0,0.0,0.0,2024-12-26,12,2024,8,KCHO,0.0,0.0,0.0,0.0,0
2024-12-23,23,2024-12-23 09:53,09:53,EST,Calm,10.0,Fair,CLR,25.0,15.1,66.0,,,30.62,1037.6,0.0,0.0,0.0,2024-12-26,12,2024,9,KCHO,0.0,0.0,0.0,0.0,0
2024-12-23,23,2024-12-23 10:53,10:53,EST,S  6,10.0,Fair,CLR,28.0,16.0,60.0,22.0,,30.6,1036.7,0.0,0.0,0.0,2024-12-26,12,2024,10,KCHO,0.0,0.0,0.0,0.0,6
2024-12-23,23,2024-12-23 11:53,11:53,EST,Vrbl  5,10.0,Fair,CLR,30.0,15.1,54.0,26.0,,30.55,1035.2,0.0,0.0,0.0,2024-12-26,12,2024,11,KCHO,0.0,0.0,0.0,0.0,5
2024-12-23,23,2024-12-23 12:53,12:53,EST,S  8,10.0,Fair,CLR,33.1,16.0,49.0,27.0,,30.52,1034.1,0.0,0.0,0.0,2024-12-26,12,2024,12,KCHO,0.0,0.0,0.0,0.0,8
2024-12-23,23,2024-12-23 13:53,13:53,EST,Calm,10.0,Fair,CLR,34.0,15.1,46.0,,,30.5,1033.4,0.0,0.0,0.0,2024-12-26,12,2024,13,KCHO,0.0,0.0,0.0,0.0,0
2024-12-23,23,2024-12-23 14:53,14:53,EST,S  7,10.0,Fair,CLR,35.1,15.1,44.0,30.0,,30.49,1033.3,0.0,0.0,0.0,2024-12-26,12,2024,14,KCHO,0.0,0.0,0.0,0.0,7
2024-12-23,23,2024-12-23 15:53,15:53,EST,S  8,10.0,Fair,CLR,35.1,15.1,44.0,29.0,,30.48,1032.8,0.0,0.0,0.0,2024-12-26,12,2024,15,KCHO,0.0,0.0,0.0,0.0,8
2024-12-23,23,2024-12-23 16:53,16:53,EST,S  5,10.0,Fair,CLR,33.1,15.1,48.0,29.0,,30.48,1033.0,0.0,0.0,0.0,2024-12-26,12,2024,16,KCHO,0.0,0.0,0.0,0.0,5
2024-12-23,23,2024-12-23 17:53,17:53,EST,S  5,10.0,Fair,CLR,32.0,15.1,50.0,28.0,,30.48,1032.8,0.0,0.0,0.0,2024-12-26,12,2024,17,KCHO,0.0,0.0,0.0,0.0,5
2024-12-23,23,2024-12-23 18:53,18:53,EST,S  5,10.0,Fair,CLR,30.0,15.1,54.0,26.0,,30.47,1032.7,0.0,0.0,0.0,2024-12-26,12,2024,18,KCHO,0.0,0.0,0.0,0.0,5
2024-12-23,23,2024-12-23 19:53,19:53,EST,S  3,10.0,Fair,CLR,28.9,15.1,56.0,,,30.46,1032.2,0.0,0.0,0.0,2024-12-26,12,2024,19,KCHO,0.0,0.0,0.0,0.0,3
2024-12-23,23,2024-12-23 20:53,20:53,EST,W  3,10.0,Fair,CLR,28.0,16.0,60.0,,,30.46,1032.0,0.0,0.0,0.0,2024-12-26,12,2024,20,KCHO,0.0,0.0,0.0,0.0,3
2024-12-23,23,2024-12-23 21:53,21:53,EST,Calm,10.0,Fair,CLR,27.0,15.1,61.0,,,30.44,1031.4,0.0,0.0,0.0,2024-12-26,12,2024,21,KCHO,0.0,0.0,0.0,0.0,0
2024-12-23,23,2024-12-23 22:53,22:53,EST,S  3,10.0,Fair,CLR,26.1,15.1,63.0,,,30.42,1030.6,0.0,0.0,0.0,2024-12-26,12,2024,22,KCHO,0.0,0.0,0.0,0.0,3
2024-12-23,23,2024-12-23 23:53,23:53,EST,SW  3,10.0,Fair,CLR,28.0,16.0,60.0,,,30.39,1029.4,0.0,0.0,0.0,2024-12-26,12,2024,23,KCHO,0.0,0.0,0.0,0.0,3
2024-12-24,24,2024-12-24 00:53,00:53,EST,SW  8,10.0,Fair,CLR,27.0,16.0,63.0,19.0,,30.34,1028.1,0.0,0.0,0.0,2024-12-27,12,2024,0,KCHO,0.0,0.0,0.0,0.0,8
2024-12-24,24,2024-12-24 01:53,01:53,EST,S  7,10.0,Fair,CLR,24.1,15.1,68.0,17.0,,30.33,1027.6,0.0,0.0,0.0,2024-12-27,12,2024,1,KCHO,0.0,0.0,0.0,0.0,7
2024-12-24,24,2024-12-24 02:53,02:53,EST,S  10,10.0,Fair,CLR,24.1,15.1,68.0,15.0,,30.32,1027.1,0.0,0.0,0.0,2024-12-27,12,2024,2,KCHO,0.0,0.0,0.0,0.0,10
2024-12-24,24,2024-12-24 03:53,03:53,EST,S  9,10.0,Fair,CLR,26.1,16.0,66.0,18.0,,30.29,1026.2,0.0,0.0,0.0,2024-12-27,12,2024,3,KCHO,0.0,0.0,0.0,0.0,9
2024-12-24,24,2024-12-24 04:53,04:53,EST,S  9,10.0,Fair,CLR,27.0,16.0,63.0,19.0,,30.27,1025.6,0.0,0.0,0.0,2024-12-27,12,2024,4,KCHO,0.0,0.0,0.0,0.0,9
2024-12-24,24,2024-12-24 05:53,05:53,EST,SW  6,10.0,Fair,CLR,28.0,16.0,60.0,22.0,,30.28,1025.7,0.0,0.0,0.0,2024-12-27,12,2024,5,KCHO,0.0,0.0,0.0,0.0,6
2024-12-24,24,2024-12-24 06:53,06:53,EST,S  6,10.0,Mostly Cloudy,BKN100,27.0,17.1,66.0,21.0,,30.27,1025.5,0.0,0.0,0.0,2024-12-27,12,2024,6,KCHO,0.0,0.0,0.0,0.0,6
2024-12-24,24,2024-12-24 07:53,07:53,EST,S  3,10.0,Overcast,SCT080 BKN100 OVC120,28.9,17.1,61.0,,,30.28,1025.8,0.0,0.0,0.0,2024-12-27,12,2024,7,KCHO,0.0,0.0,0.0,0.0,3
2024-12-24,24,2024-12-24 08:53,08:53,EST,S  5,10.0,Overcast,OVC100,30.0,18.0,61.0,26.0,,30.29,1026.1,0.0,0.0,0.0,2024-12-27,12,2024,8,KCHO,0.0,0.0,0.0,0.0,5
2024-12-24,24,2024-12-24 09:53,09:53,EST,Calm,10.0,Overcast,OVC100,32.0,18.0,56.0,,,30.3,1026.4,0.0,0.0,0.0,2024-12-27,12,2024,9,KCHO,0.0,0.0,0.0,0.0,0
2024-12-24,24,2024-12-24 10:53,10:53,EST,Calm,10.0,Light Rain,OVC075,32.0,21.9,66.0,,,30.3,1026.6,0.0,0.0,0.0,2024-12-27,12,2024,10,KCHO,0.0,0.0,0.0,0.0,0
2024-12-24,24,2024-12-24 11:53,11:53,EST,Calm,10.0,Light Rain,OVC070,32.0,23.0,69.0,,,30.29,1026.1,0.0,0.0,0.0,2024-12-27,12,2024,11,KCHO,0.0,0.0,0.0,0.0,0
2024-12-24,24,2024-12-24 12:53,12:53,EST,Calm,10.0,Light Rain,OVC065,33.1,27.0,78.0,,,30.27,1025.4,0.01,0.0,0.01,2024-12-27,12,2024,12,KCHO,0.01,0.01,0.01,0.01,0
2024-12-24,24,2024-12-24 13:53,13:53,EST,Calm,10.0,Light Rain,OVC065,34.0,30.0,85.0,,,30.26,1025.3,0.01,0.0,0.0,2024-12-27,12,2024,13,KCHO,0.02,0.02,0.02,0.02,0
2024-12-24,24,2024-12-24 14:53,14:53,EST,Calm,10.0,Overcast,FEW075 OVC095,36.0,32.0,86.0,,,30.26,1025.1,0.0,0.0,0.0,2024-12-27,12,2024,14,KCHO,0.02,0.02,0.02,0.02,0
2024-12-24,24,2024-12-24 15:53,15:53,EST,Calm,10.0,A Few Clouds,FEW110,37.0,33.1,86.0,,,30.26,1025.0,0.0,0.01,0.0,2024-12-27,12,2024,15,KCHO,0.01,0.02,0.02,0.02,0
2024-12-24,24,2024-12-24 16:53,16:53,EST,Calm,10.0,A Few Clouds,FEW110,36.0,32.0,86.0,,,30.27,1025.3,0.0,0.0,0.0,2024-12-27,12,2024,16,KCHO,0.0,0.02,0.02,0.02,0
2024-12-24,24,2024-12-24 17:53,17:53,EST,Calm,10.0,Mostly Cloudy,BKN044,34.0,30.9,89.0,,,30.26,1025.3,0.0,0.0,0.0,2024-12-27,12,2024,17,KCHO,0.0,0.02,0.02,0.02,0
2024-12-24,24,2024-12-24 18:53,18:53,EST,Calm,10.0,Overcast,OVC041,35.1,33.1,93.0,,,30.27,1025.7,0.0,0.0,0.01,2024-12-27,12,2024,18,KCHO,0.0,0.01,0.02,0.02,0
2024-12-24,24,2024-12-24 19:53,19:53,EST,Calm,10.0,Overcast,OVC041,35.1,32.0,89.0,,,30.29,1026.2,0.0,0.0,0.0,2024-12-27,12,2024,19,KCHO,0.0,0.0,0.02,0.02,0
2024-12-24,24,2024-12-24 20:53,20:53,EST,Calm,10.0,Overcast,OVC040,35.1,32.0,89.0,,,30.29,1026.1,0.0,0.0,0.0,2024-12-27,12,2024,20,KCHO,0.0,0.0,0.02,0.02,0
2024-12-24,24,2024-12-24 21:53,21:53,EST,Calm,10.0,Overcast,OVC040,35.1,33.1,93.0,,,30.29,1026.2,0.0,0.0,0.0,2024-12-27,12,2024,21,KCHO,0.0,0.0,0.02,0.02,0
2024-12-24,24,2024-12-24 22:53,22:53,EST,Calm,10.0,Overcast,OVC040,35.1,32.0,89.0,,,30.3,1026.5,0.0,0.0,0.0,2024-12-27,12,2024,22,KCHO,0.0,0.0,0.02,0.02,0
2024-12-24,24,2024-12-24 23:53,23:53,EST,Calm,10.0,Overcast,OVC040,36.0,32.0,86.0,,,30.3,1026.5,0.0,0.0,0.0,2024-12-27,12,2024,23,KCHO,0.0,0.0,0.02,0.02,0
2024-12-25,25,2024-12-25 00:53,00:53,EST,Calm,10.0,Overcast,OVC041,35.1,32.0,89.0,,,30.3,1026.6,0.0,0.0,0.0,2024-12-28,12,2024,0,KCHO,0.0,0.0,0.01,0.02,0
2024-12-25,25,2024-12-25 01:53,01:53,EST,Calm,10.0,Overcast,OVC041,35.1,33.1,93.0,,,30.31,1026.6,0.0,0.0,0.0,2024-12-28,12,2024,1,KCHO,0.0,0.0,0.0,0.02,0
2024-12-25,25,2024-12-25 02:53,02:53,EST,Calm,10.0,Overcast,OVC041,36.0,33.1,89.0,,,30.32,1026.9,0.0,0.0,0.0,2024-12-28,12,2024,2,KCHO,0.0,0.0,0.0,0.02,0
2024-12-25,25,2024-12-25 03:53,03:53,EST,Calm,10.0,Overcast,OVC041,35.1,32.0,89.0,,,30.31,1026.6,0.0,0.0,0.0,2024-12-28,12,2024,3,KCHO,0.0,0.0,0.0,0.02,0
2024-12-25,25,2024-12-25 04:53,04:53,EST,Calm,10.0,Overcast,OVC041,35.1,33.1,93.0,,,30.31,1026.5,0.0,0.0,0.0,2024-12-28,12,2024,4,KCHO,0.0,0.0,0.0,0.02,0
2024-12-25,25,2024-12-25 05:53,05:53,EST,Calm,10.0,Overcast,OVC041,37.0,33.1,86.0,,,30.32,1026.9,0.0,0.0,0.0,2024-12-28,12,2024,5,KCHO,0.0,0.0,0.0,0.02,0
2024-12-25,25,2024-12-25 06:53,06:53,EST,Calm,10.0,Overcast,OVC041,36.0,33.1,89.0,,,30.33,1027.3,0.0,0.0,0.0,2024-12-28,12,2024,6,KCHO,0.0,0.0,0.0,0.02,0
2024-12-25,25,2024-12-25 07:53,07:53,EST,Calm,10.0,Overcast,OVC041,36.0,33.1,89.0,,,30.35,1028.1,0.0,0.0,0.0,2024-12-28,12,2024,7,KCHO,0.0,0.0,0.0,0.02,0
2024-12-25,25,2024-12-25 08:53,08:53,EST,Calm,10.0,Overcast,OVC041,37.0,33.1,86.0,,,30.36,1028.5,0.0,0.0,0.0,2024-12-28,12,2024,8,KCHO,0.0,0.0,0.0,0.02,0
2024-12-25,25,2024-12-25 09:53,09:53,EST,Calm,10.0,Overcast,OVC041,39.0,34.0,82.0,,,30.38,1029.1,0.0,0.0,0.0,2024-12-28,12,2024,9,KCHO,0.0,0.0,0.0,0.02,0
2024-12-25,25,2024-12-25 10:53,10:53,EST,Calm,10.0,Overcast,OVC041,41.0,34.0,76.0,,,30.38,1029.1,0.0,0.0,0.0,2024-12-28,12,2024,10,KCHO,0.0,0.0,0.0,0.02,0
2024-12-25,25,2024-12-25 11:53,11:53,EST,SE  3,10.0,Overcast,OVC042,42.1,33.1,71.0,,,30.36,1028.4,0.0,0.0,0.0,2024-12-28,12,2024,11,KCHO,0.0,0.0,0.0,0.02,3
2024-12-25,25,2024-12-25 12:53,12:53,EST,S  5,9.0,Overcast,OVC042,43.0,34.0,71.0,41.0,,30.34,1027.7,0.0,0.0,0.0,2024-12-28,12,2024,12,KCHO,0.0,0.0,0.0,0.01,5
2024-12-25,25,2024-12-25 13:53,13:53,EST,S  5,10.0,Overcast,OVC042,44.1,34.0,68.0,42.0,,30.33,1027.3,0.0,0.0,0.0,2024-12-28,12,2024,13,KCHO,0.0,0.0,0.0,0.0,5
2024-12-25,25,2024-12-25 14:53,14:53,EST,E  3,10.0,Mostly Cloudy,BKN041,44.1,33.1,65.0,,,30.32,1026.9,0.0,0.0,0.0,2024-12-28,12,2024,14,KCHO,0.0,0.0,0.0,0.0,3
2024-12-25,25,2024-12-25 15:53,15:53,EST,Calm,10.0,Fair,CLR,44.1,33.1,65.0,,,30.32,1027.0,0.0,0.0,0.0,2024-12-28,12,2024,15,KCHO,0.0,0.0,0.0,0.0,0
2024-12-25,25,2024-12-25 16:53,16:53,EST,S  5,10.0,Fair,CLR,42.1,32.0,68.0,40.0,,30.32,1027.1,0.0,0.0,0.0,2024-12-28,12,2024,16,KCHO,0.0,0.0,0.0,0.0,5
2024-12-25,25,2024-12-25 17:53,17:53,EST,Calm,10.0,Overcast,FEW025 OVC033,41.0,34.0,76.0,,,30.34,1027.5,0.0,0.0,0.0,2024-12-28,12,2024,17,KCHO,0.0,0.0,0.0,0.0,0
2024-12-25,25,2024-12-25 18:53,18:53,EST,Calm,10.0,Overcast,FEW024 OVC031,39.9,34.0,79.0,,,30.35,1028.1,0.0,0.0,0.0,2024-12-28,12,2024,18,KCHO,0.0,0.0,0.0,0.0,0
2024-12-25,25,2024-12-25 19:53,19:53,EST,Calm,10.0,Overcast,OVC031,37.9,33.1,83.0,,,30.36,1028.2,0.0,0.0,0.0,2024-12-28,12,2024,19,KCHO,0.0,0.0,0.0,0.0,0
2024-12-25,25,2024-12-25 20:53,20:53,EST,Calm,10.0,Overcast,OVC028,39.9,33.1,77.0,,,30.37,1028.5,0.0,0.0,0.0,2024-12-28,12,2024,20,KCHO,0.0,0.0,0.0,0.0,0
2024-12-25,25,2024-12-25 21:53,21:53,EST,Calm,10.0,Overcast,OVC029,39.0,33.1,79.0,,,30.37,1028.6,0.0,0.0,0.0,2024-12-28,12,2024,21,KCHO,0.0,0.0,0.0,0.0,0
2024-12-25,25,2024-12-25 22:53,22:53,EST,Calm,10.0,Overcast,OVC029,37.0,33.1,86.0,,,30.37,1028.6,0.0,0.0,0.0,2024-12-28,12,2024,22,KCHO,0.0,0.0,0.0,0.0,0
2024-12-25,25,2024-12-25 23:53,23:53,EST,Calm,10.0,Overcast,OVC027,37.9,33.1,83.0,,,30.36,1028.4,0.0,0.0,0.0,2024-12-28,12,2024,23,KCHO,0.0,0.0,0.0,0.0,0
2024-12-26,26,2024-12-26 00:53,00:53,EST,Calm,10.0,Overcast,OVC027,37.9,32.0,79.0,,,30.36,1028.2,0.0,0.0,0.0,2024-12-29,12,2024,0,KCHO,0.0,0.0,0.0,0.0,0
2024-12-26,26,2024-12-26 01:53,01:53,EST,SE  3,10.0,Overcast,OVC026,37.9,30.9,76.0,,,30.35,1027.9,0.0,0.0,0.0,2024-12-29,12,2024,1,KCHO,0.0,0.0,0.0,0.0,3
2024-12-26,26,2024-12-26 02:53,02:53,EST,Calm,10.0,Overcast,OVC025,37.9,32.0,79.0,,,30.37,1028.5,0.0,0.0,0.0,2024-12-29,12,2024,2,KCHO,0.0,0.0,0.0,0.0,0
2024-12-26,26,2024-12-26 03:53,03:53,EST,S  3,10.0,Overcast,OVC025,37.0,33.1,86.0,,,30.37,1028.7,0.0,0.0,0.0,2024-12-29,12,2024,3,KCHO,0.0,0.0,0.0,0.0,3
2024-12-26,26,2024-12-26 04:53,04:53,EST,S  5,10.0,Overcast,OVC028,37.0,30.9,79.0,34.0,,30.38,1028.8,0.0,0.0,0.0,2024-12-29,12,2024,4,KCHO,0.0,0.0,0.0,0.0,5
2024-12-26,26,2024-12-26 05:53,05:53,EST,Calm,10.0,Overcast,OVC026,37.0,30.0,76.0,,,30.39,1029.2,0.0,0.0,0.0,2024-12-29,12,2024,5,KCHO,0.0,0.0,0.0,0.0,0
2024-12-26,26,2024-12-26 06:53,06:53,EST,Calm,10.0,Overcast,OVC026,37.0,30.9,79.0,,,30.41,1029.8,0.0,0.0,0.0,2024-12-29,12,2024,6,KCHO,0.0,0.0,0.0,0.0,0
2024-12-26,26,2024-12-26 07:53,07:53,EST,NE  5,9.0,Overcast,OVC027,36.0,32.0,86.0,33.0,,30.41,1030.0,0.0,0.0,0.0,2024-12-29,12,2024,7,KCHO,0.0,0.0,0.0,0.0,5
2024-12-26,26,2024-12-26 08:53,08:53,EST,NE  5,8.0,Fair,CLR,37.0,32.0,82.0,34.0,,30.42,1030.2,0.0,0.0,0.0,2024-12-29,12,2024,8,KCHO,0.0,0.0,0.0,0.0,5
2024-12-26,26,2024-12-26 09:53,09:53,EST,NE  5,9.0,A Few Clouds,FEW025,37.0,32.0,82.0,34.0,,30.44,1031.1,0.0,0.0,0.0,2024-12-29,12,2024,9,KCHO,0.0,0.0,0.0,0.0,5
2024-12-26,26,2024-12-26 10:53,10:53,EST,NE  3,10.0,Partly Cloudy,SCT028,39.9,32.0,73.0,,,30.44,1030.9,0.0,0.0,0.0,2024-12-29,12,2024,10,KCHO,0.0,0.0,0.0,0.0,3
2024-12-26,26,2024-12-26 11:53,11:53,EST,Calm,10.0,Fair,CLR,42.1,32.0,68.0,,,30.41,1029.8,0.0,0.0,0.0,2024-12-29,12,2024,11,KCHO,0.0,0.0,0.0,0.0,0
2024-12-26,26,2024-12-26 12:53,12:53,EST,Calm,10.0,Fair,CLR,44.1,32.0,63.0,,,30.38,1029.0,0.0,0.0,0.0,2024-12-29,12,2024,12,KCHO,0.0,0.0,0.0,0.0,0
2024-12-26,26,2024-12-26 13:53,13:53,EST,Vrbl  3,10.0,Fair,CLR,45.0,32.0,61.0,,,30.36,1028.4,0.0,0.0,0.0,2024-12-29,12,2024,13,KCHO,0.0,0.0,0.0,0.0,3
2024-12-26,26,2024-12-26 14:53,14:53,EST,NE  6,10.0,Fair,CLR,46.0,33.1,61.0,44.0,,30.35,1028.0,0.0,0.0,0.0,2024-12-29,12,2024,14,KCHO,0.0,0.0,0.0,0.0,6
2024-12-26,26,2024-12-26 15:53,15:53,EST,NE  5,10.0,Fair,CLR,45.0,32.0,61.0,43.0,,30.36,1028.2,0.0,0.0,0.0,2024-12-29,12,2024,15,KCHO,0.0,0.0,0.0,0.0,5
2024-12-26,26,2024-12-26 16:53,16:53,EST,NE  6,10.0,Fair,CLR,41.0,30.9,67.0,38.0,,30.36,1028.4,0.0,0.0,0.0,2024-12-29,12,2024,16,KCHO,0.0,0.0,0.0,0.0,6
2024-12-26,26,2024-12-26 17:53,17:53,EST,NE  6,10.0,Fair,CLR,39.9,30.9,70.0,36.0,,30.37,1028.7,0.0,0.0,0.0,2024-12-29,12,2024,17,KCHO,0.0,0.0,0.0,0.0,6
2024-12-26,26,2024-12-26 18:53,18:53,EST,NE  6,10.0,Fair,CLR,37.9,30.9,76.0,34.0,,30.39,1029.6,0.0,0.0,0.0,2024-12-29,12,2024,18,KCHO,0.0,0.0,0.0,0.0,6
2024-12-26,26,2024-12-26 19:53,19:53,EST,N  3,10.0,Fair,CLR,36.0,30.0,79.0,,,30.4,1029.8,0.0,0.0,0.0,2024-12-29,12,2024,19,KCHO,0.0,0.0,0.0,0.0,3
2024-12-26,26,2024-12-26 20:53,20:53,EST,NE  7,10.0,Fair,CLR,34.0,28.9,82.0,29.0,,30.4,1029.8,0.0,0.0,0.0,2024-12-29,12,2024,20,KCHO,0.0,0.0,0.0,0.0,7
2024-12-26,26,2024-12-26 21:53,21:53,EST,N  3,10.0,Fair,CLR,34.0,28.9,82.0,,,30.4,1029.9,0.0,0.0,0.0,2024-12-29,12,2024,21,KCHO,0.0,0.0,0.0,0.0,3
2024-12-26,26,2024-12-26 22:53,22:53,EST,Calm,9.0,Fair,CLR,33.1,28.9,85.0,,,30.42,1030.4,0.0,0.0,0.0,2024-12-29,12,2024,22,KCHO,0.0,0.0,0.0,0.0,0
2024-12-26,26,2024-12-26 23:53,23:53,EST,Calm,8.0,Overcast,OVC027,32.0,28.0,85.0,,,30.41,1030.1,0.0,0.0,0.0,2024-12-29,12,2024,23,KCHO,0.0,0.0,0.0,0.0,0
2024-12-27,27,2024-12-27 00:53,00:53,EST,Calm,8.0,Overcast,OVC026,33.1,28.9,85.0,,,30.4,1029.7,0.0,0.0,0.0,2024-12-30,12,2024,0,KCHO,0.0,0.0,0.0,0.0,0
2024-12-27,27,2024-12-27 01:53,01:53,EST,Calm,9.0,Overcast,OVC023,34.0,28.9,82.0,,,30.41,1029.9,0.0,0.0,0.0,2024-12-30,12,2024,1,KCHO,0.0,0.0,0.0,0.0,0
2024-12-27,27,2024-12-27 02:53,02:53,EST,Calm,8.0,Overcast,OVC022,33.1,28.9,85.0,,,30.42,1030.2,0.0,0.0,0.0,2024-12-30,12,2024,2,KCHO,0.0,0.0,0.0,0.0,0
2024-12-27,27,2024-12-27 03:53,03:53,EST,Calm,8.0,Overcast,OVC022,33.1,28.9,85.0,,,30.42,1030.2,0.0,0.0,0.0,2024-12-30,12,2024,3,KCHO,0.0,0.0,0.0,0.0,0
2024-12-27,27,2024-12-27 04:53,04:53,EST,E  3,8.0,Overcast,OVC019,33.1,28.0,82.0,,,30.41,1030.2,0.0,0.0,0.0,2024-12-30,12,2024,4,KCHO,0.0,0.0,0.0,0.0,3
2024-12-27,27,2024-12-27 05:53,05:53,EST,Calm,9.0,Overcast,OVC019,33.1,28.0,82.0,,,30.42,1030.4,0.0,0.0,0.0,2024-12-30,12,2024,5,KCHO,0.0,0.0,0.0,0.0,0
2024-12-27,27,2024-12-27 06:53,06:53,EST,Calm,8.0,Overcast,OVC018,32.0,28.9,88.0,,,30.42,1030.4,0.0,0.0,0.0,2024-12-30,12,2024,6,KCHO,0.0,0.0,0.0,0.0,0
2024-12-27,27,2024-12-27 07:53,07:53,EST,W  3,6.0,Fog/Mist,OVC019,32.0,28.9,88.0,,,30.43,1031.0,0.0,0.0,0.0,2024-12-30,12,2024,7,KCHO,0.0,0.0,0.0,0.0,3
2024-12-27,27,2024-12-27 08:53,08:53,EST,Calm,7.0,Overcast,OVC019,34.0,28.0,79.0,,,30.44,1031.3,0.0,0.0,0.0,2024-12-30,12,2024,8,KCHO,0.0,0.0,0.0,0.0,0
2024-12-27,27,2024-12-27 09:53,09:53,EST,Calm,8.0,Overcast,OVC020,35.1,28.9,78.0,,,30.45,1031.4,0.0,0.0,0.0,2024-12-30,12,2024,9,KCHO,0.0,0.0,0.0,0.0,0
2024-12-27,27,2024-12-27 10:53,10:53,EST,Vrbl  3,8.0,Partly Cloudy,SCT110,37.9,28.9,70.0,,,30.42,1030.5,0.0,0.0,0.0,2024-12-30,12,2024,10,KCHO,0.0,0.0,0.0,0.0,3
2024-12-27,27,2024-12-27 11:53,11:53,EST,S  5,9.0,Mostly Cloudy,BKN020 BKN090,39.9,28.9,65.0,37.0,,30.39,1029.3,0.0,0.0,0.0,2024-12-30,12,2024,11,KCHO,0.0,0.0,0.0,0.0,5
2024-12-27,27,2024-12-27 12:53,12:53,EST,Calm,9.0,Overcast,SCT085 OVC120,41.0,30.0,65.0,,,30.36,1028.4,0.0,0.0,0.0,2024-12-30,12,2024,12,KCHO,0.0,0.0,0.0,0.0,0
2024-12-27,27,2024-12-27 13:53,13:53,EST,SE  3,10.0,Overcast,OVC034,42.1,30.0,62.0,,,30.33,1027.2,0.0,0.0,0.0,2024-12-30,12,2024,13,KCHO,0.0,0.0,0.0,0.0,3
2024-12-27,27,2024-12-27 14:53,14:53,EST,SE  3,10.0,Overcast,OVC085,43.0,30.9,63.0,,,30.32,1027.0,0.0,0.0,0.0,2024-12-30,12,2024,14,KCHO,0.0,0.0,0.0,0.0,3
2024-12-27,27,2024-12-27 15:53,15:53,EST,Calm,10.0,Overcast,OVC035,43.0,30.9,63.0,,,30.33,1027.4,0.0,0.0,0.0,2024-12-30,12,2024,15,KCHO,0.0,0.0,0.0,0.0,0
2024-12-27,27,2024-12-27 16:53,16:53,EST,S  5,10.0,Overcast,BKN024 OVC030,41.0,32.0,70.0,38.0,,30.33,1027.3,0.0,0.0,0.0,2024-12-30,12,2024,16,KCHO,0.0,0.0,0.0,0.0,5
2024-12-27,27,2024-12-27 17:53,17:53,EST,Calm,7.0,Overcast,OVC021,39.9,34.0,79.0,,,30.33,1027.4,0.0,0.0,0.0,2024-12-30,12,2024,17,KCHO,0.0,0.0,0.0,0.0,0
2024-12-27,27,2024-12-27 18:53,18:53,EST,Calm,4.0,Light Rain Fog/Mist,OVC017,39.0,36.0,89.0,,,30.33,1027.5,0.0,0.0,0.0,2024-12-30,12,2024,18,KCHO,0.0,0.0,0.0,0.0,0
2024-12-27,27,2024-12-27 19:53,19:53,EST,Calm,1.75,Light Rain Fog/Mist,FEW003 OVC021,37.9,37.0,97.0,,,30.34,1027.8,0.0,0.0,0.0,2024-12-30,12,2024,19,KCHO,0.0,0.0,0.0,0.0,0
2024-12-27,27,2024-12-27 20:53,20:53,EST,Calm,2.0,Fog/Mist,BKN002 OVC020,37.9,37.0,97.0,,,30.33,1027.4,0.01,0.0,0.0,2024-12-30,12,2024,20,KCHO,0.01,0.01,0.01,0.01,0
2024-12-27,27,2024-12-27 21:53,21:53,EST,Calm,2.0,Fog/Mist,FEW001 SCT006 OVC018,39.0,37.0,93.0,,,30.32,1027.0,0.0,0.01,0.0,2024-12-30,12,2024,21,KCHO,0.01,0.01,0.01,0.01,0
2024-12-27,27,2024-12-27 22:53,22:53,EST,Calm,2.5,Light Rain Fog/Mist,BKN002 BKN006 OVC018,37.9,37.0,97.0,,,30.31,1026.7,0.01,0.0,0.0,2024-12-30,12,2024,22,KCHO,0.02,0.02,0.02,0.02,0
2024-12-27,27,2024-12-27 23:53,23:53,EST,Calm,1.75,Fog/Mist,SCT002 BKN013 OVC020,37.9,37.0,97.0,,,30.29,1025.8,0.0,0.0,0.0,2024-12-30,12,2024,23,KCHO,0.01,0.02,0.02,0.02,0
2024-12-28,28,2024-12-28 00:53,00:53,EST,Calm,4.0,Light Rain Fog/Mist,OVC013,37.9,36.0,93.0,,,30.27,1025.3,0.02,0.0,0.04,2024-12-31,12,2024,0,KCHO,0.03,0.04,0.04,0.04,0
2024-12-28,28,2024-12-28 01:53,01:53,EST,Calm,2.5,Light Rain Fog/Mist,OVC014,37.9,37.0,97.0,,,30.26,1024.9,0.05,0.0,0.0,2024-12-31,12,2024,1,KCHO,0.07,0.09,0.09,0.09,0
2024-12-28,28,2024-12-28 02:53,02:53,EST,Calm,2.5,Light Rain Fog/Mist,FEW001 OVC015,39.0,37.0,93.0,,,30.25,1024.6,0.06,0.0,0.0,2024-12-31,12,2024,2,KCHO,0.13,0.14,0.15,0.15,0
2024-12-28,28,2024-12-28 03:53,03:53,EST,Calm,4.0,Light Rain Fog/Mist,OVC016,39.0,37.9,96.0,,,30.24,1024.1,0.07,0.18,0.0,2024-12-31,12,2024,3,KCHO,0.18000000000000002,0.21000000000000002,0.22,0.22,0
2024-12-28,28,2024-12-28 04:53,04:53,EST,Calm,3.0,Light Rain Fog/Mist,OVC017,39.0,37.9,96.0,,,30.22,1023.4,0.06,0.0,0.0,2024-12-31,12,2024,4,KCHO,0.19,0.26,0.28,0.28,0
2024-12-28,28,2024-12-28 05:53,05:53,EST,Calm,3.0,Fog/Mist,FEW003 OVC015,39.9,39.0,97.0,,,30.23,1024.0,0.04,0.0,0.0,2024-12-31,12,2024,5,KCHO,0.17,0.3,0.32,0.32,0
2024-12-28,28,2024-12-28 06:53,06:53,EST,SW  5,5.0,Fog/Mist,FEW002 OVC016,39.9,39.0,97.0,37.0,,30.23,1024.0,0.0,0.0,0.28,2024-12-31,12,2024,6,KCHO,0.1,0.27999999999999997,0.32,0.32,5
2024-12-28,28,2024-12-28 07:53,07:53,EST,S  5,5.0,Fog/Mist,FEW003 OVC016,41.0,39.0,93.0,38.0,,30.24,1024.2,0.0,0.0,0.0,2024-12-31,12,2024,7,KCHO,0.04,0.23,0.32,0.32,5
2024-12-28,28,2024-12-28 08:53,08:53,EST,S  6,4.0,Fog/Mist,FEW003 OVC014,41.0,39.9,96.0,38.0,,30.25,1024.6,0.01,0.0,0.0,2024-12-31,12,2024,8,KCHO,0.01,0.18,0.32,0.33,6
2024-12-28,28,2024-12-28 09:53,09:53,EST,S  5,4.0,Light Rain Fog/Mist,BKN003 OVC015,42.1,39.9,92.0,40.0,,30.26,1025.0,0.0,0.01,0.0,2024-12-31,12,2024,9,KCHO,0.01,0.11,0.32,0.33,5
2024-12-28,28,2024-12-28 10:53,10:53,EST,Calm,2.0,Light Rain Fog/Mist,BKN003 OVC015,42.1,41.0,96.0,,,30.25,1024.7,0.03,0.0,0.0,2024-12-31,12,2024,10,KCHO,0.04,0.08,0.33999999999999997,0.36,0
2024-12-28,28,2024-12-28 11:53,11:53,EST,Calm,2.0,Light Rain Fog/Mist,BKN002 OVC015,43.0,42.1,97.0,,,30.23,1023.9,0.09,0.0,0.0,2024-12-31,12,2024,11,KCHO,0.12,0.13,0.43,0.45,0
2024-12-28,28,2024-12-28 12:53,12:53,EST,S  7,2.0,Light Rain Fog/Mist,BKN002 OVC018,44.1,43.0,96.0,41.0,,30.19,1022.6,0.07,0.0,0.2,2024-12-31,12,2024,12,KCHO,0.19,0.2,0.48000000000000004,0.52,7
2024-12-28,28,2024-12-28 13:53,13:53,EST,S  3,3.0,Light Rain Fog/Mist,OVC002,46.0,45.0,96.0,,,30.19,1022.3,0.01,0.0,0.0,2024-12-31,12,2024,13,KCHO,0.17,0.21000000000000002,0.44,0.53,3
2024-12-28,28,2024-12-28 14:53,14:53,EST,S  6,8.0,Overcast,OVC003,48.0,46.0,93.0,46.0,,30.18,1022.0,0.0,0.0,0.0,2024-12-31,12,2024,14,KCHO,0.08,0.2,0.38,0.53,6
2024-12-28,28,2024-12-28 15:53,15:53,EST,S  5,8.0,Overcast,OVC002,46.9,46.0,97.0,45.0,,30.18,1022.0,0.0,0.01,0.0,2024-12-31,12,2024,15,KCHO,0.01,0.2,0.31000000000000005,0.53,5
2024-12-28,28,2024-12-28 16:53,16:53,EST,S  7,8.0,Overcast,OVC003,48.0,46.9,96.0,45.0,,30.19,1022.3,0.0,0.0,0.0,2024-12-31,12,2024,16,KCHO,0.0,0.17,0.24999999999999997,0.53,7
2024-12-28,28,2024-12-28 17:53,17:53,EST,SW  3,10.0,Overcast,BKN007 BKN011 OVC027,48.9,46.9,93.0,,,30.19,1022.5,0.0,0.0,0.0,2024-12-31,12,2024,17,KCHO,0.0,0.08,0.21,0.53,3
2024-12-28,28,2024-12-28 18:53,18:53,EST,S  5,3.0,Light Rain Fog/Mist,OVC003,48.9,46.9,93.0,48.0,,30.19,1022.6,0.01,0.0,0.02,2024-12-31,12,2024,18,KCHO,0.01,0.02,0.22,0.54,5
2024-12-28,28,2024-12-28 19:53,19:53,EST,SW  3,4.0,Light Rain Fog/Mist,OVC002,48.9,48.0,97.0,,,30.2,1022.6,0.01,0.0,0.0,2024-12-31,12,2024,19,KCHO,0.02,0.02,0.23,0.55,3
2024-12-28,28,2024-12-28 20:53,20:53,EST,Calm,1.25,Light Rain Fog/Mist,OVC002,48.0,46.9,96.0,,,30.19,1022.5,0.02,0.0,0.0,2024-12-31,12,2024,20,KCHO,0.04,0.04,0.24000000000000002,0.56,0
2024-12-28,28,2024-12-28 21:53,21:53,EST,Calm,1.75,Rain Fog/Mist,OVC018,48.0,48.0,100.0,,,30.19,1022.2,0.07,0.1,0.0,2024-12-31,12,2024,21,KCHO,0.1,0.11000000000000001,0.31000000000000005,0.63,0
2024-12-28,28,2024-12-28 22:53,22:53,EST,S  6,2.0,Rain Fog/Mist,SCT002 BKN015 OVC021,48.9,48.0,97.0,47.0,,30.18,1022.2,0.09,0.0,0.0,2024-12-31,12,2024,22,KCHO,0.18,0.2,0.37,0.71,6
2024-12-28,28,2024-12-28 23:53,23:53,EST,S  5,5.0,Fog/Mist,SCT003 OVC008,48.9,48.0,97.0,48.0,,30.16,1021.4,0.05,0.0,0.0,2024-12-31,12,2024,23,KCHO,0.21,0.25,0.33,0.76,5
2024-12-29,29,2024-12-29 00:53,00:53,EST,S  3,3.0,Fog/Mist,OVC002,48.9,48.0,97.0,,,30.14,1020.7,0.0,0.0,0.24,2025-01-01,12,2024,0,KCHO,0.14,0.24,0.26,0.74,3
2024-12-29,29,2024-12-29 01:53,01:53,EST,Calm,1.75,Fog/Mist,OVC003,48.9,48.0,97.0,,,30.13,1020.3,0.01,0.0,0.0,2025-01-01,12,2024,1,KCHO,0.060000000000000005,0.24000000000000002,0.26,0.7000000000000001,0
2024-12-29,29,2024-12-29 02:53,02:53,EST,Calm,0.75,Light Rain Fog/Mist,VV003,48.9,48.0,97.0,,,30.12,1020.1,0.01,0.0,0.0,2025-01-01,12,2024,2,KCHO,0.02,0.23,0.27,0.65,0
2024-12-29,29,2024-12-29 03:53,03:53,EST,Calm,1.5,Light Rain Fog/Mist,OVC006,48.9,48.0,97.0,,,30.09,1019.0,0.11,0.13,0.0,2025-01-01,12,2024,3,KCHO,0.13,0.27,0.38,0.6900000000000001,0
2024-12-29,29,2024-12-29 04:53,04:53,EST,Calm,1.25,Light Rain Fog/Mist,OVC004,48.9,48.0,97.0,,,30.07,1018.2,0.04,0.0,0.0,2025-01-01,12,2024,4,KCHO,0.16,0.22,0.42000000000000004,0.67,0
2024-12-29,29,2024-12-29 05:53,05:53,EST,Calm,0.5,Fog,VV003,50.0,48.9,96.0,,,30.05,1017.5,0.01,0.0,0.0,2025-01-01,12,2024,5,KCHO,0.16,0.18,0.43,0.64,0
2024-12-29,29,2024-12-29 06:53,06:53,EST,Calm,1.25,Light Rain Fog/Mist,OVC003,48.9,48.0,97.0,,,30.04,1017.0,0.01,0.0,0.19,2025-01-01,12,2024,6,KCHO,0.06,0.19,0.43,0.65,0
2024-12-29,29,2024-12-29 07:53,07:53,EST,N  3,1.0,Fog/Mist,OVC003,48.9,48.0,97.0,,,30.02,1016.4,0.07,0.0,0.0,2025-01-01,12,2024,7,KCHO,0.09,0.25,0.49,0.7200000000000001,3
2024-12-29,29,2024-12-29 08:53,08:53,EST,S  7  G 18,3.0,Fog/Mist,OVC004,55.9,55.0,97.0,,,30.01,1016.0,0.0,0.0,0.0,2025-01-01,12,2024,8,KCHO,0.08,0.24,0.47,0.7100000000000001,7
2024-12-29,29,2024-12-29 09:53,09:53,EST,S  12,7.0,Overcast,BKN005 BKN011 OVC055,57.9,57.0,97.0,,,30.0,1015.8,0.0,0.07,0.0,2025-01-01,12,2024,9,KCHO,0.06999999999999999,0.13,0.4,0.7100000000000001,12
2024-12-29,29,2024-12-29 10:53,10:53,EST,S  12,10.0,Overcast,BKN009 BKN013 OVC055,62.1,57.0,84.0,,,29.96,1014.2,0.0,0.0,0.0,2025-01-01,12,2024,10,KCHO,0.0,0.09000000000000001,0.31,0.68,12
2024-12-29,29,2024-12-29 11:53,11:53,EST,S  12  G 23,10.0,Overcast,OVC023,62.1,55.0,78.0,,,29.89,1011.8,0.0,0.0,0.0,2025-01-01,12,2024,11,KCHO,0.0,0.08,0.26,0.5900000000000001,12
2024-12-29,29,2024-12-29 12:53,12:53,EST,S  16  G 24,10.0,Overcast,FEW028 BKN035 OVC045,64.9,55.0,70.0,,,29.83,1009.8,0.0,0.0,0.07,2025-01-01,12,2024,12,KCHO,0.0,0.07,0.26,0.52,16
2024-12-29,29,2024-12-29 13:53,13:53,EST,S  14  G 22,10.0,Overcast,BKN030 OVC036,64.0,55.0,73.0,,,29.78,1008.3,0.0,0.0,0.0,2025-01-01,12,2024,13,KCHO,0.0,0.0,0.25,0.51,14
2024-12-29,29,2024-12-29 14:53,14:53,EST,S  14  G 26,10.0,Overcast,SCT029 BKN045 OVC080,64.0,55.9,75.0,,,29.74,1006.8,0.0,0.0,0.0,2025-01-01,12,2024,14,KCHO,0.0,0.0,0.24,0.51,14
2024-12-29,29,2024-12-29 15:53,15:53,EST,S  14  G 21,10.0,Overcast,OVC095,64.0,55.9,75.0,,,29.72,1006.2,0.0,0.0,0.0,2025-01-01,12,2024,15,KCHO,0.0,0.0,0.13,0.51,14
2024-12-29,29,2024-12-29 16:53,16:53,EST,S  14  G 20,10.0,Light Rain,FEW070 OVC095,62.1,55.0,78.0,,,29.7,1005.3,0.0,0.0,0.0,2025-01-01,12,2024,16,KCHO,0.0,0.0,0.09000000000000001,0.51,14
2024-12-29,29,2024-12-29 17:53,17:53,EST,S  12,10.0,Light Rain,SCT025 BKN032 OVC100,59.0,55.0,87.0,,,29.71,1005.8,0.02,0.0,0.0,2025-01-01,12,2024,17,KCHO,0.019999999999999987,0.02,0.1,0.53,12
2024-12-29,29,2024-12-29 18:53,18:53,EST,S  9,10.0,Overcast,SCT020 BKN025 OVC044,57.9,54.0,87.0,,,29.7,1005.6,0.0,0.0,0.02,2025-01-01,12,2024,18,KCHO,0.019999999999999987,0.02,0.09000000000000001,0.52,9
2024-12-29,29,2024-12-29 19:53,19:53,EST,S  12  G 22,10.0,Overcast,BKN016 OVC021,57.9,54.0,87.0,,,29.7,1005.3,0.0,0.0,0.0,2025-01-01,12,2024,19,KCHO,0.019999999999999987,0.02,0.02,0.51,12
2024-12-29,29,2024-12-29 20:53,20:53,EST,S  15,10.0,Overcast,BKN017 BKN021 OVC075,57.0,53.1,87.0,,,29.68,1004.7,0.0,0.0,0.0,2025-01-01,12,2024,20,KCHO,0.0,0.02,0.02,0.49,15
2024-12-29,29,2024-12-29 21:53,21:53,EST,SW  14  G 21,10.0,Overcast,FEW015 OVC070,57.0,53.1,87.0,,,29.68,1004.6,0.0,0.0,0.0,2025-01-01,12,2024,21,KCHO,0.0,0.02,0.02,0.42,14
2024-12-29,29,2024-12-29 22:53,22:53,EST,S  12,10.0,Overcast,FEW070 OVC085,55.9,53.1,90.0,,,29.68,1004.7,0.0,0.0,0.0,2025-01-01,12,2024,22,KCHO,0.0,0.02,0.02,0.32999999999999996,12
2024-12-29,29,2024-12-29 23:53,23:53,EST,S  10,10.0,Overcast,OVC090,54.0,51.1,90.0,,,29.67,1004.5,0.0,0.0,0.0,2025-01-01,12,2024,23,KCHO,0.0,0.0,0.02,0.27999999999999997,10
2024-12-30,30,2024-12-30 00:53,00:53,EST,S  10,10.0,Fair,CLR,51.1,48.0,89.0,,,29.66,1004.0,0.0,0.0,0.0,2025-01-02,12,2024,0,KCHO,0.0,0.0,0.02,0.27999999999999997,10
2024-12-30,30,2024-12-30 01:53,01:53,EST,S  8,10.0,Fair,CLR,50.0,46.0,86.0,47.0,,29.66,1004.1,0.0,0.0,0.0,2025-01-02,12,2024,1,KCHO,0.0,0.0,0.02,0.26999999999999996,8
2024-12-30,30,2024-12-30 02:53,02:53,EST,Calm,10.0,A Few Clouds,FEW045,51.1,44.1,77.0,,,29.67,1004.4,0.0,0.0,0.0,2025-01-02,12,2024,2,KCHO,0.0,0.0,0.02,0.26,0
2024-12-30,30,2024-12-30 03:53,03:53,EST,SW  5,10.0,Fair,CLR,51.1,41.0,69.0,,,29.67,1004.2,0.0,0.0,0.0,2025-01-02,12,2024,3,KCHO,0.0,0.0,0.02,0.15,5
2024-12-30,30,2024-12-30 04:53,04:53,EST,Calm,10.0,Fair,CLR,51.1,39.0,64.0,,,29.67,1004.5,0.0,0.0,0.0,2025-01-02,12,2024,4,KCHO,0.0,0.0,0.02,0.11000000000000001,0
2024-12-30,30,2024-12-30 05:53,05:53,EST,Vrbl  6,10.0,Fair,CLR,51.1,37.9,61.0,,,29.69,1005.2,0.0,0.0,0.0,2025-01-02,12,2024,5,KCHO,0.0,0.0,0.0,0.1,6
2024-12-30,30,2024-12-30 06:53,06:53,EST,Vrbl  5,10.0,Fair,CLR,50.0,37.0,61.0,49.0,,29.73,1006.3,0.0,0.0,0.0,2025-01-02,12,2024,6,KCHO,0.0,0.0,0.0,0.09000000000000001,5
2024-12-30,30,2024-12-30 07:53,07:53,EST,Vrbl  3,10.0,Fair,CLR,48.9,35.1,59.0,,,29.75,1007.2,0.0,0.0,0.0,2025-01-02,12,2024,7,KCHO,0.0,0.0,0.0,0.02,3
2024-12-30,30,2024-12-30 08:53,08:53,EST,Vrbl  5,10.0,Fair,CLR,52.0,35.1,53.0,,,29.76,1007.6,0.0,0.0,0.0,2025-01-02,12,2024,8,KCHO,0.0,0.0,0.0,0.02,5
2024-12-30,30,2024-12-30 09:53,09:53,EST,Vrbl  5,10.0,A Few Clouds,FEW055,55.0,37.0,51.0,,,29.79,1008.6,0.0,0.0,0.0,2025-01-02,12,2024,9,KCHO,0.0,0.0,0.0,0.02,5
2024-12-30,30,2024-12-30 10:53,10:53,EST,Vrbl  5,10.0,Partly Cloudy,SCT050,55.9,37.0,49.0,,,29.8,1008.9,0.0,0.0,0.0,2025-01-02,12,2024,10,KCHO,0.0,0.0,0.0,0.02,5
2024-12-30,30,2024-12-30 11:53,11:53,EST,W  9,10.0,A Few Clouds,FEW050,57.0,36.0,45.0,,,29.78,1008.2,0.0,0.0,0.0,2025-01-02,12,2024,11,KCHO,0.0,0.0,0.0,0.02,9
2024-12-30,30,2024-12-30 12:53,12:53,EST,W  8,10.0,A Few Clouds,FEW060,57.9,35.1,42.0,,,29.78,1008.0,0.0,0.0,0.0,2025-01-02,12,2024,12,KCHO,0.0,0.0,0.0,0.02,8
2024-12-30,30,2024-12-30 13:53,13:53,EST,W  8  G 17,10.0,Fair,CLR,57.9,35.1,42.0,,,29.78,1008.1,0.0,0.0,0.0,2025-01-02,12,2024,13,KCHO,0.0,0.0,0.0,0.02,8
2024-12-30,30,2024-12-30 14:53,14:53,EST,SW  3,10.0,A Few Clouds,FEW070,55.9,35.1,46.0,,,29.79,1008.4,0.0,0.0,0.0,2025-01-02,12,2024,14,KCHO,0.0,0.0,0.0,0.02,3
2024-12-30,30,2024-12-30 15:53,15:53,EST,Vrbl  7,10.0,A Few Clouds,FEW075,55.9,32.0,40.0,,,29.81,1009.1,0.0,0.0,0.0,2025-01-02,12,2024,15,KCHO,0.0,0.0,0.0,0.02,7
2024-12-30,30,2024-12-30 16:53,16:53,EST,Vrbl  3,10.0,Fair,CLR,54.0,33.1,45.0,,,29.82,1009.6,0.0,0.0,0.0,2025-01-02,12,2024,16,KCHO,0.0,0.0,0.0,0.02,3
2024-12-30,30,2024-12-30 17:53,17:53,EST,S  5,10.0,Fair,CLR,50.0,32.0,50.0,49.0,,29.84,1010.3,0.0,0.0,0.0,2025-01-02,12,2024,17,KCHO,0.0,0.0,0.0,0.0,5
2024-12-30,30,2024-12-30 18:53,18:53,EST,SW  5,10.0,Fair,CLR,46.9,32.0,56.0,45.0,,29.86,1011.2,0.0,0.0,0.0,2025-01-02,12,2024,18,KCHO,0.0,0.0,0.0,0.0,5
2024-12-30,30,2024-12-30 19:53,19:53,EST,SW  3,10.0,Fair,CLR,50.0,33.1,52.0,,,29.89,1011.9,0.0,0.0,0.0,2025-01-02,12,2024,19,KCHO,0.0,0.0,0.0,0.0,3
2024-12-30,30,2024-12-30 20:53,20:53,EST,SE  3,10.0,Fair,CLR,44.1,32.0,63.0,,,29.89,1012.0,0.0,0.0,0.0,2025-01-02,12,2024,20,KCHO,0.0,0.0,0.0,0.0,3
2024-12-30,30,2024-12-30 21:53,21:53,EST,W  3,10.0,Fair,CLR,46.9,33.1,59.0,,,29.9,1012.5,0.0,0.0,0.0,2025-01-02,12,2024,21,KCHO,0.0,0.0,0.0,0.0,3
2024-12-30,30,2024-12-30 22:53,22:53,EST,SW  3,10.0,Fair,CLR,46.0,33.1,61.0,,,29.91,1012.6,0.0,0.0,0.0,2025-01-02,12,2024,22,KCHO,0.0,0.0,0.0,0.0,3
2024-12-30,30,2024-12-30 23:53,23:53,EST,Calm,10.0,Fair,CLR,44.1,33.1,65.0,,,29.91,1012.6,0.0,0.0,0.0,2025-01-02,12,2024,23,KCHO,0.0,0.0,0.0,0.0,0
2024-12-31,31,2024-12-31 00:53,00:53,EST,W  3,10.0,Fair,CLR,43.0,33.1,68.0,,,29.89,1011.9,0.0,0.0,0.0,2025-01-03,12,2024,0,KCHO,0.0,0.0,0.0,0.0,3
2024-12-31,31,2024-12-31 01:53,01:53,EST,Calm,10.0,Fair,CLR,37.0,30.9,79.0,,,29.89,1012.0,0.0,0.0,0.0,2025-01-03,12,2024,1,KCHO,0.0,0.0,0.0,0.0,0
2024-12-31,31,2024-12-31 02:53,02:53,EST,Calm,10.0,Fair,CLR,39.0,32.0,76.0,,,29.9,1012.3,0.0,0.0,0.0,2025-01-03,12,2024,2,KCHO,0.0,0.0,0.0,0.0,0
2024-12-31,31,2024-12-31 03:53,03:53,EST,W  3,10.0,Fair,CLR,37.0,32.0,82.0,,,29.88,1011.8,0.0,0.0,0.0,2025-01-03,12,2024,3,KCHO,0.0,0.0,0.0,0.0,3
2024-12-31,31,2024-12-31 04:53,04:53,EST,Calm,10.0,Fair,CLR,34.0,30.9,89.0,,,29.86,1011.2,0.0,0.0,0.0,2025-01-03,12,2024,4,KCHO,0.0,0.0,0.0,0.0,0
2024-12-31,31,2024-12-31 05:53,05:53,EST,NE  3,10.0,Fair,CLR,35.1,30.9,85.0,,,29.85,1010.7,0.0,0.0,0.0,2025-01-03,12,2024,5,KCHO,0.0,0.0,0.0,0.0,3
2024-12-31,31,2024-12-31 06:53,06:53,EST,Calm,10.0,Fair,CLR,36.0,30.9,82.0,,,29.84,1010.6,0.0,0.0,0.0,2025-01-03,12,2024,6,KCHO,0.0,0.0,0.0,0.0,0
2024-12-31,31,2024-12-31 07:53,07:53,EST,Calm,10.0,Fair,CLR,33.1,30.9,92.0,,,29.83,1010.3,0.0,0.0,0.0,2025-01-03,12,2024,7,KCHO,0.0,0.0,0.0,0.0,0
2024-12-31,31,2024-12-31 08:53,08:53,EST,Calm,10.0,Overcast,OVC028,37.9,34.0,86.0,,,29.83,1010.2,0.0,0.0,0.0,2025-01-03,12,2024,8,KCHO,0.0,0.0,0.0,0.0,0
2024-12-31,31,2024-12-31 09:53,09:53,EST,Calm,10.0,A Few Clouds,FEW021,43.0,35.1,74.0,,,29.81,1009.4,0.0,0.0,0.0,2025-01-03,12,2024,9,KCHO,0.0,0.0,0.0,0.0,0
2024-12-31,31,2024-12-31 10:53,10:53,EST,Calm,10.0,Overcast,SCT016 OVC047,46.0,37.0,71.0,,,29.77,1008.1,0.0,0.0,0.0,2025-01-03,12,2024,10,KCHO,0.0,0.0,0.0,0.0,0
2024-12-31,31,2024-12-31 11:53,11:53,EST,SE  8,10.0,A Few Clouds,FEW013 FEW050,52.0,42.1,69.0,,,29.69,1005.3,0.0,0.0,0.0,2025-01-03,12,2024,11,KCHO,0.0,0.0,0.0,0.0,8
2024-12-31,31,2024-12-31 12:53,12:53,EST,S  9,10.0,Overcast,FEW027 BKN043 OVC060,55.0,44.1,67.0,,,29.66,1004.1,0.0,0.0,0.0,2025-01-03,12,2024,12,KCHO,0.0,0.0,0.0,0.0,9
2024-12-31,31,2024-12-31 13:53,13:53,EST,N  5,10.0,Overcast,FEW032 OVC042,53.1,42.1,66.0,,,29.61,1002.5,0.0,0.0,0.0,2025-01-03,12,2024,13,KCHO,0.0,0.0,0.0,0.0,5
2024-12-31,31,2024-12-31 14:53,14:53,EST,NW  5,10.0,Light Rain,BKN040 OVC050,50.0,42.1,74.0,49.0,,29.55,1000.8,0.0,0.0,0.0,2025-01-03,12,2024,14,KCHO,0.0,0.0,0.0,0.0,5
2024-12-31,31,2024-12-31 15:53,15:53,EST,S  9,0.75,Thunderstorm Heavy Rain Fog/Mist,FEW018 BKN036 OVC070,48.0,46.0,93.0,44.0,,29.58,1001.6,0.18,0.18,0.0,2025-01-03,12,2024,15,KCHO,0.18,0.18,0.18,0.18,9
2024-12-31,31,2024-12-31 16:53,16:53,EST,SW  6,10.0,Fair,CLR,48.0,46.0,93.0,46.0,,29.53,1000.0,0.02,0.0,0.0,2025-01-03,12,2024,16,KCHO,0.19999999999999998,0.19999999999999998,0.19999999999999998,0.19999999999999998,6
2024-12-31,31,2024-12-31 17:53,17:53,EST,Calm,10.0,A Few Clouds,FEW100,45.0,44.1,97.0,,,29.55,1000.6,0.0,0.0,0.0,2025-01-03,12,2024,17,KCHO,0.19999999999999998,0.19999999999999998,0.19999999999999998,0.19999999999999998,0
2024-12-31,31,2024-12-31 18:53,18:53,EST,Calm,5.0,Light Rain Fog/Mist,FEW026 BKN055 OVC070,46.9,46.0,97.0,,,29.58,1001.6,0.04,0.0,0.24,2025-01-03,12,2024,18,KCHO,0.06,0.24,0.24,0.24,0
2024-12-31,31,2024-12-31 19:53,19:53,EST,S  3,9.0,Overcast,OVC100,46.0,45.0,96.0,,,29.58,1001.8,0.0,0.0,0.0,2025-01-03,12,2024,19,KCHO,0.039999999999999994,0.24,0.24,0.24,3
2024-12-31,31,2024-12-31 20:53,20:53,EST,S  3,10.0,Overcast,OVC100,46.9,45.0,93.0,,,29.58,1001.6,0.0,0.0,0.0,2025-01-03,12,2024,20,KCHO,0.039999999999999994,0.24,0.24,0.24,3
2024-12-31,31,2024-12-31 21:53,21:53,EST,NW  3,5.0,Fog/Mist,CLR,44.1,43.0,96.0,,,29.56,1001.0,0.0,0.0,0.0,2025-01-03,12,2024,21,KCHO,0.0,0.06,0.24,0.24,3
2024-12-31,31,2024-12-31 22:53,22:53,EST,S  6,5.0,Fog/Mist,SCT055,46.0,44.1,93.0,44.0,,29.57,1001.2,0.0,0.0,0.0,2025-01-03,12,2024,22,KCHO,0.0,0.039999999999999994,0.24,0.24,6
2024-12-31,31,2024-12-31 23:53,23:53,EST,S  3,10.0,Fair,CLR,46.9,39.9,77.0,,,29.56,1000.8,0.0,0.0,0.0,2025-01-03,12,2024,23,KCHO,0.0,0.039999999999999994,0.24,0.24,3
2025-01-01,1,2025-01-01 00:53,00:53,EST,Vrbl  3,10.0,Fair,CLR,48.9,37.9,66.0,,,29.57,1001.1,0.0,0.0,0.0,2025-01-04,1,2025,0,KCHO,0.0,0.0,0.24,0.24,3
2025-01-01,1,2025-01-01 01:53,01:53,EST,Calm,10.0,Fair,CLR,48.0,36.0,63.0,,,29.58,1001.5,0.0,0.0,0.0,2025-01-04,1,2025,1,KCHO,0.0,0.0,0.24,0.24,0
2025-01-01,1,2025-01-01 02:53,02:53,EST,Calm,10.0,Partly Cloudy,SCT050,48.0,35.1,61.0,,,29.61,1002.5,0.0,0.0,0.0,2025-01-04,1,2025,2,KCHO,0.0,0.0,0.24,0.24,0
2025-01-01,1,2025-01-01 03:53,03:53,EST,Calm,10.0,Partly Cloudy,SCT055,48.0,30.9,52.0,,,29.64,1003.4,0.0,0.0,0.0,2025-01-04,1,2025,3,KCHO,0.0,0.0,0.06,0.24,0
2025-01-01,1,2025-01-01 04:53,04:53,EST,W  7,10.0,A Few Clouds,FEW055,48.0,28.0,46.0,45.0,,29.67,1004.5,0.0,0.0,0.0,2025-01-04,1,2025,4,KCHO,0.0,0.0,0.039999999999999994,0.24,7
2025-01-01,1,2025-01-01 05:53,05:53,EST,W  9  G 20,10.0,A Few Clouds,FEW060,46.0,28.0,50.0,42.0,,29.7,1005.7,0.0,0.0,0.0,2025-01-04,1,2025,5,KCHO,0.0,0.0,0.039999999999999994,0.24,9
2025-01-01,1,2025-01-01 06:53,06:53,EST,NW  7  G 22,10.0,Mostly Cloudy,BKN055,46.0,27.0,47.0,43.0,,29.73,1006.7,0.0,0.0,0.0,2025-01-04,1,2025,6,KCHO,0.0,0.0,0.0,0.24,7
2025-01-01,1,2025-01-01 07:53,07:53,EST,NW  13  G 24,10.0,Partly Cloudy,SCT055,46.0,27.0,47.0,41.0,,29.76,1007.9,0.0,0.0,0.0,2025-01-04,1,2025,7,KCHO,0.0,0.0,0.0,0.24,13
2025-01-01,1,2025-01-01 08:53,08:53,EST,W  12  G 29,10.0,Fair,CLR,45.0,27.0,49.0,40.0,,29.81,1009.4,0.0,0.0,0.0,2025-01-04,1,2025,8,KCHO,0.0,0.0,0.0,0.24,12
2025-01-01,1,2025-01-01 09:53,09:53,EST,NW  20  G 33,10.0,A Few Clouds,FEW055,46.9,25.0,42.0,40.0,,29.85,1010.7,0.0,0.0,0.0,2025-01-04,1,2025,9,KCHO,0.0,0.0,0.0,0.24,20
2025-01-01,1,2025-01-01 10:53,10:53,EST,W  9  G 17,10.0,A Few Clouds,FEW060,48.9,26.1,41.0,45.0,,29.86,1011.2,0.0,0.0,0.0,2025-01-04,1,2025,10,KCHO,0.0,0.0,0.0,0.24,9
2025-01-01,1,2025-01-01 11:53,11:53,EST,NW  12  G 30,10.0,Fair,CLR,48.0,24.1,39.0,44.0,,29.88,1011.6,0.0,0.0,0.0,2025-01-04,1,2025,11,KCHO,0.0,0.0,0.0,0.24,12
2025-01-01,1,2025-01-01 12:53,12:53,EST,NW  8  G 17,10.0,A Few Clouds,FEW060,50.0,25.0,38.0,47.0,,29.87,1011.3,0.0,0.0,0.0,2025-01-04,1,2025,12,KCHO,0.0,0.0,0.0,0.24,8
2025-01-01,1,2025-01-01 13:53,13:53,EST,Vrbl  7,10.0,Fair,CLR,48.0,24.1,39.0,45.0,,29.88,1011.8,0.0,0.0,0.0,2025-01-04,1,2025,13,KCHO,0.0,0.0,0.0,0.24,7
2025-01-01,1,2025-01-01 14:53,14:53,EST,NW  10  G 20,10.0,Mostly Cloudy,BKN055 BKN065,48.0,25.0,41.0,44.0,,29.9,1012.6,0.0,0.0,0.0,2025-01-04,1,2025,14,KCHO,0.0,0.0,0.0,0.24,10
2025-01-01,1,2025-01-01 15:53,15:53,EST,NW  13  G 24,10.0,Fair,CLR,45.0,24.1,44.0,39.0,,29.93,1013.5,0.0,0.0,0.0,2025-01-04,1,2025,15,KCHO,0.0,0.0,0.0,0.06,13
2025-01-01,1,2025-01-01 16:53,16:53,EST,Vrbl  7,10.0,Fair,CLR,42.1,21.9,45.0,38.0,,29.96,1014.5,0.0,0.0,0.0,2025-01-04,1,2025,16,KCHO,0.0,0.0,0.0,0.039999999999999994,7
2025-01-01,1,2025-01-01 17:53,17:53,EST,Vrbl  5,10.0,Partly Cloudy,SCT055,41.0,21.9,47.0,38.0,,29.98,1015.1,0.0,0.0,0.0,2025-01-04,1,2025,17,KCHO,0.0,0.0,0.0,0.039999999999999994,5
2025-01-01,1,2025-01-01 18:53,18:53,EST,Calm,10.0,Fair,CLR,39.9,21.9,49.0,,,29.99,1015.5,0.0,0.0,0.0,2025-01-04,1,2025,18,KCHO,0.0,0.0,0.0,0.0,0
2025-01-01,1,2025-01-01 19:53,19:53,EST,W  7,10.0,Fair,CLR,41.0,21.0,45.0,37.0,,29.99,1015.6,0.0,0.0,0.0,2025-01-04,1,2025,19,KCHO,0.0,0.0,0.0,0.0,7
2025-01-01,1,2025-01-01 20:53,20:53,EST,Vrbl  3,10.0,Fair,CLR,39.9,19.0,43.0,,,29.99,1015.5,0.0,0.0,0.0,2025-01-04,1,2025,20,KCHO,0.0,0.0,0.0,0.0,3
2025-01-01,1,2025-01-01 21:53,21:53,EST,Vrbl  5,10.0,A Few Clouds,FEW055,39.0,19.9,46.0,36.0,,30.0,1015.9,0.0,0.0,0.0,2025-01-04,1,2025,21,KCHO,0.0,0.0,0.0,0.0,5
2025-01-01,1,2025-01-01 22:53,22:53,EST,Vrbl  5,10.0,Partly Cloudy,SCT055,39.0,19.0,45.0,36.0,,30.03,1017.0,0.0,0.0,0.0,2025-01-04,1,2025,22,KCHO,0.0,0.0,0.0,0.0,5
2025-01-01,1,2025-01-01 23:53,23:53,EST,NW  10  G 23,10.0,Overcast,OVC050,37.9,18.0,44.0,32.0,,30.04,1017.4,0.0,0.0,0.0,2025-01-04,1,2025,23,KCHO,0.0,0.0,0.0,0.0,10
2025-01-02,2,2025-01-02 00:53,00:53,EST,W  8  G 18,10.0,Mostly Cloudy,BKN060,36.0,15.1,42.0,30.0,,30.06,1018.0,0.0,0.0,0.0,2025-01-05,1,2025,0,KCHO,0.0,0.0,0.0,0.0,8
2025-01-02,2,2025-01-02 01:53,01:53,EST,NW  7  G 17,10.0,Overcast,OVC055,36.0,14.0,40.0,31.0,,30.08,1018.8,0.0,0.0,0.0,2025-01-05,1,2025,1,KCHO,0.0,0.0,0.0,0.0,7
2025-01-02,2,2025-01-02 02:53,02:53,EST,W  8,10.0,Overcast,OVC055,35.1,14.0,42.0,29.0,,30.11,1019.7,0.0,0.0,0.0,2025-01-05,1,2025,2,KCHO,0.0,0.0,0.0,0.0,8
2025-01-02,2,2025-01-02 03:53,03:53,EST,Calm,10.0,Overcast,OVC055,35.1,15.1,44.0,,,30.1,1019.3,0.0,0.0,0.0,2025-01-05,1,2025,3,KCHO,0.0,0.0,0.0,0.0,0
2025-01-02,2,2025-01-02 04:53,04:53,EST,Calm,10.0,Overcast,OVC055,33.1,16.0,49.0,,,30.09,1019.4,0.0,0.0,0.0,2025-01-05,1,2025,4,KCHO,0.0,0.0,0.0,0.0,0
2025-01-02,2,2025-01-02 05:53,05:53,EST,S  5,10.0,Overcast,OVC055,34.0,15.1,46.0,30.0,,30.12,1020.1,0.0,0.0,0.0,2025-01-05,1,2025,5,KCHO,0.0,0.0,0.0,0.0,5
2025-01-02,2,2025-01-02 06:53,06:53,EST,W  8,10.0,Mostly Cloudy,BKN050,33.1,16.0,49.0,27.0,,30.14,1020.8,0.0,0.0,0.0,2025-01-05,1,2025,6,KCHO,0.0,0.0,0.0,0.0,8
2025-01-02,2,2025-01-02 07:53,07:53,EST,Vrbl  5,10.0,Fair,CLR,34.0,16.0,48.0,30.0,,30.17,1022.0,0.0,0.0,0.0,2025-01-05,1,2025,7,KCHO,0.0,0.0,0.0,0.0,5
2025-01-02,2,2025-01-02 08:53,08:53,EST,NW  7,10.0,A Few Clouds,FEW050,35.1,15.1,44.0,30.0,,30.2,1022.8,0.0,0.0,0.0,2025-01-05,1,2025,8,KCHO,0.0,0.0,0.0,0.0,7
2025-01-02,2,2025-01-02 09:53,09:53,EST,SW  6,10.0,A Few Clouds,FEW050,35.1,18.0,50.0,31.0,,30.21,1023.4,0.0,0.0,0.0,2025-01-05,1,2025,9,KCHO,0.0,0.0,0.0,0.0,6
2025-01-02,2,2025-01-02 10:53,10:53,EST,Vrbl  3,10.0,Overcast,OVC050,36.0,17.1,46.0,,,30.21,1023.4,0.0,0.0,0.0,2025-01-05,1,2025,10,KCHO,0.0,0.0,0.0,0.0,3
2025-01-02,2,2025-01-02 11:53,11:53,EST,Vrbl  7,10.0,Fair,CLR,39.0,18.0,43.0,35.0,,30.17,1021.8,0.0,0.0,0.0,2025-01-05,1,2025,11,KCHO,0.0,0.0,0.0,0.0,7
2025-01-02,2,2025-01-02 12:53,12:53,EST,W  8  G 17,10.0,Fair,CLR,39.9,18.0,41.0,35.0,,30.16,1021.5,0.0,0.0,0.0,2025-01-05,1,2025,12,KCHO,0.0,0.0,0.0,0.0,8
2025-01-02,2,2025-01-02 13:53,13:53,EST,Vrbl  7,10.0,Fair,CLR,42.1,18.0,38.0,38.0,,30.12,1020.2,0.0,0.0,0.0,2025-01-05,1,2025,13,KCHO,0.0,0.0,0.0,0.0,7
2025-01-02,2,2025-01-02 14:53,14:53,EST,Vrbl  3,10.0,Fair,CLR,41.0,16.0,36.0,,,30.11,1020.0,0.0,0.0,0.0,2025-01-05,1,2025,14,KCHO,0.0,0.0,0.0,0.0,3
2025-01-02,2,2025-01-02 16:53,16:53,EST,Calm,10.0,Fair,CLR,41.0,15.1,35.0,,,30.13,1020.5,0.0,0.0,0.0,2025-01-05,1,2025,16,KCHO,0.0,0.0,0.0,0.0,0
2025-01-02,2,2025-01-02 17:53,17:53,EST,Calm,10.0,Fair,CLR,39.0,15.1,38.0,,,30.14,1020.9,0.0,0.0,0.0,2025-01-05,1,2025,17,KCHO,0.0,0.0,0.0,0.0,0
2025-01-02,2,2025-01-02 18:53,18:53,EST,Vrbl  3,10.0,Fair,CLR,37.9,15.1,39.0,,,30.15,1021.2,0.0,0.0,0.0,2025-01-05,1,2025,18,KCHO,0.0,0.0,0.0,0.0,3
2025-01-02,2,2025-01-02 19:53,19:53,EST,Vrbl  3,10.0,Fair,CLR,36.0,15.1,42.0,,,30.15,1021.3,0.0,0.0,0.0,2025-01-05,1,2025,19,KCHO,0.0,0.0,0.0,0.0,3
2025-01-02,2,2025-01-02 20:53,20:53,EST,SW  6,10.0,Fair,CLR,35.1,16.0,46.0,31.0,,30.14,1021.1,0.0,0.0,0.0,2025-01-05,1,2025,20,KCHO,0.0,0.0,0.0,0.0,6
2025-01-02,2,2025-01-02 21:53,21:53,EST,Calm,10.0,Fair,CLR,35.1,16.0,46.0,,,30.14,1020.9,0.0,0.0,0.0,2025-01-05,1,2025,21,KCHO,0.0,0.0,0.0,0.0,0
2025-01-02,2,2025-01-02 22:53,22:53,EST,S  7,10.0,Fair,CLR,30.0,17.1,58.0,24.0,,30.15,1021.2,0.0,0.0,0.0,2025-01-05,1,2025,22,KCHO,0.0,0.0,0.0,0.0,7
2025-01-02,2,2025-01-02 23:53,23:53,EST,SW  3,10.0,Fair,CLR,35.1,17.1,48.0,,,30.14,1021.1,0.0,0.0,0.0,2025-01-05,1,2025,23,KCHO,0.0,0.0,0.0,0.0,3
2025-01-03,3,2025-01-03 00:53,00:53,EST,Calm,10.0,Fair,CLR,32.0,17.1,54.0,,,30.13,1020.5,0.0,0.0,0.0,2025-01-06,1,2025,0,KCHO,0.0,0.0,0.0,0.0,0
2025-01-03,3,2025-01-03 01:53,01:53,EST,Calm,10.0,Fair,CLR,33.1,17.1,52.0,,,30.12,1020.4,0.0,0.0,0.0,2025-01-06,1,2025,1,KCHO,0.0,0.0,0.0,0.0,0
2025-01-03,3,2025-01-03 02:53,02:53,EST,Calm,10.0,Fair,CLR,33.1,17.1,52.0,,,30.12,1020.3,0.0,0.0,0.0,2025-01-06,1,2025,2,KCHO,0.0,0.0,0.0,0.0,0
2025-01-03,3,2025-01-03 03:53,03:53,EST,S  6,10.0,Fair,CLR,33.1,19.0,56.0,28.0,,30.1,1019.6,0.0,0.0,0.0,2025-01-06,1,2025,3,KCHO,0.0,0.0,0.0,0.0,6
2025-01-03,3,2025-01-03 04:53,04:53,EST,S  7,10.0,Fair,CLR,32.0,19.0,59.0,26.0,,30.09,1019.2,0.0,0.0,0.0,2025-01-06,1,2025,4,KCHO,0.0,0.0,0.0,0.0,7
2025-01-03,3,2025-01-03 05:53,05:53,EST,S  6,10.0,Fair,CLR,30.9,19.0,61.0,26.0,,30.08,1019.1,0.0,0.0,0.0,2025-01-06,1,2025,5,KCHO,0.0,0.0,0.0,0.0,6
2025-01-03,3,2025-01-03 06:53,06:53,EST,S  7,10.0,Fair,CLR,30.0,19.9,66.0,24.0,,30.07,1018.7,0.0,0.0,0.0,2025-01-06,1,2025,6,KCHO,0.0,0.0,0.0,0.0,7
2025-01-03,3,2025-01-03 07:53,07:53,EST,S  9,10.0,Fair,CLR,30.9,19.9,64.0,24.0,,30.06,1018.1,0.0,0.0,0.0,2025-01-06,1,2025,7,KCHO,0.0,0.0,0.0,0.0,9
2025-01-03,3,2025-01-03 08:53,08:53,EST,S  8,10.0,A Few Clouds,FEW110,32.0,21.9,66.0,25.0,,30.03,1017.3,0.0,0.0,0.0,2025-01-06,1,2025,8,KCHO,0.0,0.0,0.0,0.0,8
2025-01-03,3,2025-01-03 09:53,09:53,EST,S  6,10.0,Fair,CLR,36.0,21.9,57.0,32.0,,30.0,1016.1,0.0,0.0,0.0,2025-01-06,1,2025,9,KCHO,0.0,0.0,0.0,0.0,6
2025-01-03,3,2025-01-03 10:53,10:53,EST,S  10,10.0,Fair,CLR,39.0,24.1,55.0,33.0,,29.96,1014.7,0.0,0.0,0.0,2025-01-06,1,2025,10,KCHO,0.0,0.0,0.0,0.0,10
2025-01-03,3,2025-01-03 11:53,11:53,EST,S  13,10.0,Overcast,OVC050,39.9,23.0,51.0,33.0,,29.9,1012.8,0.0,0.0,0.0,2025-01-06,1,2025,11,KCHO,0.0,0.0,0.0,0.0,13
2025-01-03,3,2025-01-03 12:53,12:53,EST,Vrbl  5  G 22,10.0,Overcast,OVC060,44.1,21.0,40.0,42.0,,29.86,1011.4,0.0,0.0,0.0,2025-01-06,1,2025,12,KCHO,0.0,0.0,0.0,0.0,5
2025-01-03,3,2025-01-03 13:53,13:53,EST,W  10,10.0,Overcast,BKN060 BKN075 OVC090,43.0,21.9,43.0,38.0,,29.84,1010.6,0.0,0.0,0.0,2025-01-06,1,2025,13,KCHO,0.0,0.0,0.0,0.0,10
2025-01-03,3,2025-01-03 14:53,14:53,EST,NW  12  G 22,10.0,Overcast,BKN060 OVC085,43.0,19.9,40.0,37.0,,29.84,1010.8,0.0,0.0,0.0,2025-01-06,1,2025,14,KCHO,0.0,0.0,0.0,0.0,12
2025-01-03,3,2025-01-03 15:53,15:53,EST,W  12  G 26,10.0,Partly Cloudy,FEW065 SCT080,41.0,17.1,38.0,35.0,,29.88,1012.1,0.0,0.0,0.0,2025-01-06,1,2025,15,KCHO,0.0,0.0,0.0,0.0,12
2025-01-03,3,2025-01-03 16:53,16:53,EST,NW  12  G 17,10.0,Mostly Cloudy,BKN055,37.0,15.1,41.0,30.0,,29.91,1013.2,0.0,0.0,0.0,2025-01-06,1,2025,16,KCHO,0.0,0.0,0.0,0.0,12
2025-01-03,3,2025-01-03 17:53,17:53,EST,W  16  G 29,10.0,A Few Clouds,FEW070,34.0,9.0,35.0,24.0,,29.94,1014.2,0.0,0.0,0.0,2025-01-06,1,2025,17,KCHO,0.0,0.0,0.0,0.0,16
2025-01-03,3,2025-01-03 18:53,18:53,EST,NW  15  G 26,10.0,A Few Clouds,FEW070,33.1,7.0,33.0,24.0,,29.98,1015.6,0.0,0.0,0.0,2025-01-06,1,2025,18,KCHO,0.0,0.0,0.0,0.0,15
2025-01-03,3,2025-01-03 19:53,19:53,EST,NW  9  G 28,10.0,Mostly Cloudy,BKN070,30.0,6.1,36.0,22.0,,30.02,1016.9,0.0,0.0,0.0,2025-01-06,1,2025,19,KCHO,0.0,0.0,0.0,0.0,9
2025-01-03,3,2025-01-03 20:53,20:53,EST,W  8  G 25,10.0,Overcast,SCT060 OVC070,30.0,8.1,39.0,23.0,,30.04,1017.6,0.0,0.0,0.0,2025-01-06,1,2025,20,KCHO,0.0,0.0,0.0,0.0,8
2025-01-03,3,2025-01-03 21:53,21:53,EST,NW  10  G 23,10.0,Overcast,OVC065,28.9,8.1,41.0,20.0,,30.04,1017.6,0.0,0.0,0.0,2025-01-06,1,2025,21,KCHO,0.0,0.0,0.0,0.0,10
2025-01-03,3,2025-01-03 22:53,22:53,EST,Vrbl  5  G 20,10.0,A Few Clouds,FEW065,28.0,6.1,39.0,24.0,,30.04,1017.5,0.0,0.0,0.0,2025-01-06,1,2025,22,KCHO,0.0,0.0,0.0,0.0,5
2025-01-04,4,2025-01-04 00:53,00:53,EST,W  9,10.0,Mostly Cloudy,BKN060,28.0,7.0,41.0,20.0,,30.03,1017.1,0.0,0.0,0.0,2025-01-07,1,2025,0,KCHO,0.0,0.0,0.0,0.0,9
2025-01-04,4,2025-01-04 01:53,01:53,EST,NW  7,10.0,Mostly Cloudy,BKN055 BKN070,27.0,9.0,46.0,20.0,,30.03,1017.3,0.0,0.0,0.0,2025-01-07,1,2025,1,KCHO,0.0,0.0,0.0,0.0,7
2025-01-04,4,2025-01-04 02:53,02:53,EST,NW  10  G 17,10.0,Fair,CLR,27.0,8.1,45.0,18.0,,30.05,1017.8,0.0,0.0,0.0,2025-01-07,1,2025,2,KCHO,0.0,0.0,0.0,0.0,10
2025-01-04,4,2025-01-04 04:53,04:53,EST,NW  7,10.0,Fair,CLR,26.1,7.0,44.0,19.0,,30.07,1018.6,0.0,0.0,0.0,2025-01-07,1,2025,4,KCHO,0.0,0.0,0.0,0.0,7
2025-01-04,4,2025-01-04 05:53,05:53,EST,Vrbl  5,10.0,Fair,CLR,26.1,7.0,44.0,21.0,,30.08,1019.1,0.0,0.0,0.0,2025-01-07,1,2025,5,KCHO,0.0,0.0,0.0,0.0,5
2025-01-04,4,2025-01-04 06:53,06:53,EST,NW  8  G 21,10.0,Fair,CLR,26.1,6.1,42.0,18.0,,30.1,1019.6,0.0,0.0,0.0,2025-01-07,1,2025,6,KCHO,0.0,0.0,0.0,0.0,8
2025-01-04,4,2025-01-04 07:53,07:53,EST,NW  9,10.0,Fair,CLR,26.1,6.1,42.0,18.0,,30.11,1020.2,0.0,0.0,0.0,2025-01-07,1,2025,7,KCHO,0.0,0.0,0.0,0.0,9
2025-01-04,4,2025-01-04 08:53,08:53,EST,NW  10  G 20,10.0,Fair,CLR,28.0,6.1,39.0,19.0,,30.12,1020.3,0.0,0.0,0.0,2025-01-07,1,2025,8,KCHO,0.0,0.0,0.0,0.0,10
2025-01-04,4,2025-01-04 09:53,09:53,EST,NW  8  G 20,10.0,Fair,CLR,28.0,5.0,37.0,21.0,,30.14,1020.9,0.0,0.0,0.0,2025-01-07,1,2025,9,KCHO,0.0,0.0,0.0,0.0,8
2025-01-04,4,2025-01-04 10:53,10:53,EST,NW  8,10.0,Fair,CLR,30.0,3.9,33.0,23.0,,30.13,1020.7,0.0,0.0,0.0,2025-01-07,1,2025,10,KCHO,0.0,0.0,0.0,0.0,8
2025-01-04,4,2025-01-04 11:53,11:53,EST,Vrbl  6  G 22,10.0,Fair,CLR,30.9,1.9,29.0,26.0,,30.12,1020.3,0.0,0.0,0.0,2025-01-07,1,2025,11,KCHO,0.0,0.0,0.0,0.0,6
2025-01-04,4,2025-01-04 12:53,12:53,EST,NW  10  G 21,10.0,Fair,CLR,32.0,1.9,27.0,24.0,,30.09,1019.3,0.0,0.0,0.0,2025-01-07,1,2025,12,KCHO,0.0,0.0,0.0,0.0,10
2025-01-04,4,2025-01-04 13:53,13:53,EST,W  10  G 20,10.0,Fair,CLR,33.1,1.0,25.0,26.0,,30.09,1019.3,0.0,0.0,0.0,2025-01-07,1,2025,13,KCHO,0.0,0.0,0.0,0.0,10
2025-01-04,4,2025-01-04 14:53,14:53,EST,NW  16  G 24,10.0,Fair,CLR,34.0,1.0,24.0,24.0,,30.09,1019.3,0.0,0.0,0.0,2025-01-07,1,2025,14,KCHO,0.0,0.0,0.0,0.0,16
2025-01-04,4,2025-01-04 15:53,15:53,EST,NW  15  G 31,10.0,Fair,CLR,33.1,-0.0,24.0,24.0,,30.09,1019.5,0.0,0.0,0.0,2025-01-07,1,2025,15,KCHO,0.0,0.0,0.0,0.0,15
2025-01-04,4,2025-01-04 16:53,16:53,EST,NW  10  G 21,10.0,Fair,CLR,30.9,1.0,28.0,23.0,,30.1,1019.6,0.0,0.0,0.0,2025-01-07,1,2025,16,KCHO,0.0,0.0,0.0,0.0,10
2025-01-04,4,2025-01-04 17:53,17:53,EST,W  8  G 20,10.0,Fair,CLR,30.0,1.0,29.0,23.0,,30.12,1020.6,0.0,0.0,0.0,2025-01-07,1,2025,17,KCHO,0.0,0.0,0.0,0.0,8
2025-01-04,4,2025-01-04 18:53,18:53,EST,W  3,10.0,Fair,CLR,28.9,1.0,30.0,,,30.14,1021.1,0.0,0.0,0.0,2025-01-07,1,2025,18,KCHO,0.0,0.0,0.0,0.0,3
2025-01-04,4,2025-01-04 19:53,19:53,EST,Vrbl  3,10.0,Fair,CLR,28.0,1.9,32.0,,,30.14,1021.3,0.0,0.0,0.0,2025-01-07,1,2025,19,KCHO,0.0,0.0,0.0,0.0,3
2025-01-04,4,2025-01-04 20:53,20:53,EST,Calm,10.0,Fair,CLR,27.0,3.0,35.0,,,30.14,1021.3,0.0,0.0,0.0,2025-01-07,1,2025,20,KCHO,0.0,0.0,0.0,0.0,0
2025-01-04,4,2025-01-04 21:53,21:53,EST,Calm,10.0,Fair,CLR,26.1,1.9,35.0,,,30.15,1021.5,0.0,0.0,0.0,2025-01-07,1,2025,21,KCHO,0.0,0.0,0.0,0.0,0
2025-01-04,4,2025-01-04 22:53,22:53,EST,Calm,10.0,Fair,CLR,23.0,6.1,48.0,,,30.16,1021.9,0.0,0.0,0.0,2025-01-07,1,2025,22,KCHO,0.0,0.0,0.0,0.0,0
2025-01-04,4,2025-01-04 23:53,23:53,EST,Vrbl  3,10.0,Fair,CLR,25.0,3.9,40.0,,,30.16,1022.0,0.0,0.0,0.0,2025-01-07,1,2025,23,KCHO,0.0,0.0,0.0,0.0,3
2025-01-05,5,2025-01-05 00:53,00:53,EST,W  3,10.0,Fair,CLR,23.0,5.0,46.0,,,30.15,1021.7,0.0,0.0,0.0,2025-01-08,1,2025,0,KCHO,0.0,0.0,0.0,0.0,3
2025-01-05,5,2025-01-05 01:53,01:53,EST,S  3,10.0,Fair,CLR,21.9,3.9,46.0,,,30.15,1021.6,0.0,0.0,0.0,2025-01-08,1,2025,1,KCHO,0.0,0.0,0.0,0.0,3
2025-01-05,5,2025-01-05 02:53,02:53,EST,SW  5,10.0,Fair,CLR,23.0,3.9,44.0,18.0,,30.17,1022.0,0.0,0.0,0.0,2025-01-08,1,2025,2,KCHO,0.0,0.0,0.0,0.0,5
2025-01-05,5,2025-01-05 03:53,03:53,EST,SW  6,10.0,Fair,CLR,23.0,3.9,44.0,17.0,,30.17,1022.3,0.0,0.0,0.0,2025-01-08,1,2025,3,KCHO,0.0,0.0,0.0,0.0,6
2025-01-05,5,2025-01-05 04:53,04:53,EST,Calm,10.0,Fair,CLR,23.0,5.0,46.0,,,30.17,1022.2,0.0,0.0,0.0,2025-01-08,1,2025,4,KCHO,0.0,0.0,0.0,0.0,0
2025-01-05,5,2025-01-05 05:53,05:53,EST,Calm,10.0,Fair,CLR,21.9,3.9,46.0,,,30.19,1022.9,0.0,0.0,0.0,2025-01-08,1,2025,5,KCHO,0.0,0.0,0.0,0.0,0
2025-01-05,5,2025-01-05 06:53,06:53,EST,S  6,10.0,Fair,CLR,18.0,6.1,59.0,11.0,,30.19,1023.1,0.0,0.0,0.0,2025-01-08,1,2025,6,KCHO,0.0,0.0,0.0,0.0,6
2025-01-05,5,2025-01-05 07:53,07:53,EST,S  5,10.0,Fair,CLR,19.9,6.1,55.0,14.0,,30.19,1023.0,0.0,0.0,0.0,2025-01-08,1,2025,7,KCHO,0.0,0.0,0.0,0.0,5
2025-01-05,5,2025-01-05 08:53,08:53,EST,S  5,10.0,Fair,CLR,25.0,9.0,50.0,20.0,,30.21,1023.7,0.0,0.0,0.0,2025-01-08,1,2025,8,KCHO,0.0,0.0,0.0,0.0,5
2025-01-05,5,2025-01-05 09:53,09:53,EST,SW  7,10.0,Fair,CLR,30.0,6.1,36.0,24.0,,30.22,1023.9,0.0,0.0,0.0,2025-01-08,1,2025,9,KCHO,0.0,0.0,0.0,0.0,7
2025-01-05,5,2025-01-05 10:53,10:53,EST,SW  7,10.0,Fair,CLR,33.1,3.9,29.0,28.0,,30.21,1023.7,0.0,0.0,0.0,2025-01-08,1,2025,10,KCHO,0.0,0.0,0.0,0.0,7
2025-01-05,5,2025-01-05 11:53,11:53,EST,Vrbl  3,10.0,Fair,CLR,35.1,3.0,26.0,,,30.19,1022.8,0.0,0.0,0.0,2025-01-08,1,2025,11,KCHO,0.0,0.0,0.0,0.0,3
2025-01-05,5,2025-01-05 12:53,12:53,EST,Calm,10.0,Fair,CLR,37.0,3.0,24.0,,,30.15,1021.4,0.0,0.0,0.0,2025-01-08,1,2025,12,KCHO,0.0,0.0,0.0,0.0,0
2025-01-05,5,2025-01-05 13:53,13:53,EST,SW  7,10.0,Fair,CLR,36.0,3.0,25.0,31.0,,30.15,1021.3,0.0,0.0,0.0,2025-01-08,1,2025,13,KCHO,0.0,0.0,0.0,0.0,7
2025-01-05,5,2025-01-05 14:53,14:53,EST,Vrbl  5,10.0,Fair,CLR,37.0,3.9,25.0,34.0,,30.12,1020.5,0.0,0.0,0.0,2025-01-08,1,2025,14,KCHO,0.0,0.0,0.0,0.0,5
2025-01-05,5,2025-01-05 15:53,15:53,EST,S  9,10.0,Mostly Cloudy,BKN100,37.0,5.0,26.0,31.0,,30.12,1020.3,0.0,0.0,0.0,2025-01-08,1,2025,15,KCHO,0.0,0.0,0.0,0.0,9
2025-01-05,5,2025-01-05 16:53,16:53,EST,S  8,10.0,Overcast,OVC080,35.1,6.1,29.0,29.0,,30.11,1020.0,0.0,0.0,0.0,2025-01-08,1,2025,16,KCHO,0.0,0.0,0.0,0.0,8
2025-01-05,5,2025-01-05 17:53,17:53,EST,S  6,10.0,Overcast,OVC075,35.1,7.0,31.0,31.0,,30.12,1020.4,0.0,0.0,0.0,2025-01-08,1,2025,17,KCHO,0.0,0.0,0.0,0.0,6
2025-01-05,5,2025-01-05 18:53,18:53,EST,S  7,10.0,Overcast,FEW055 OVC075,35.1,8.1,32.0,30.0,,30.11,1020.2,0.0,0.0,0.0,2025-01-08,1,2025,18,KCHO,0.0,0.0,0.0,0.0,7
2025-01-05,5,2025-01-05 19:53,19:53,EST,S  9,10.0,Overcast,BKN050 OVC070,34.0,14.0,44.0,27.0,,30.09,1019.6,0.0,0.0,0.0,2025-01-08,1,2025,19,KCHO,0.0,0.0,0.0,0.0,9
2025-01-05,5,2025-01-05 20:53,20:53,EST,S  12,2.5,Light Snow,OVC031,30.0,24.1,79.0,21.0,,30.12,1020.4,0.0,0.0,0.0,2025-01-08,1,2025,20,KCHO,0.0,0.0,0.0,0.0,12
2025-01-05,5,2025-01-05 21:53,21:53,EST,SW  5,1.0,Light Snow Fog/Mist,VV015,28.0,26.1,92.0,24.0,,30.12,1020.4,0.0,0.0,0.0,2025-01-08,1,2025,21,KCHO,0.0,0.0,0.0,0.0,5
2025-01-05,5,2025-01-05 22:53,22:53,EST,SW  3,0.75,Light Snow Fog/Mist,VV012,28.0,26.1,92.0,,,30.12,1020.3,0.0,0.0,0.0,2025-01-08,1,2025,22,KCHO,0.0,0.0,0.0,0.0,3
2025-01-05,5,2025-01-05 23:53,23:53,EST,S  6,2.5,Light Snow Fog/Mist,BKN006 OVC036,28.9,27.0,92.0,23.0,,30.09,1019.4,0.01,0.0,0.0,2025-01-08,1,2025,23,KCHO,0.01,0.01,0.01,0.01,6
2025-01-06,6,2025-01-06 00:53,00:53,EST,S  3,1.0,Light Snow Fog/Mist,FEW005 OVC017,28.9,27.0,92.0,,,30.06,1018.1,0.0,0.0,0.01,2025-01-09,1,2025,0,KCHO,0.01,0.01,0.01,0.01,3
2025-01-06,6,2025-01-06 01:53,01:53,EST,SE  5,1.25,Light Snow Fog/Mist,FEW003 BKN020 OVC027,28.0,26.1,92.0,24.0,,30.02,1016.9,0.01,0.0,0.0,2025-01-09,1,2025,1,KCHO,0.02,0.02,0.02,0.02,5
2025-01-06,6,2025-01-06 02:53,02:53,EST,SE  3,1.0,Light Snow Fog/Mist,VV014,28.0,26.1,92.0,,,29.99,1015.9,0.02,0.0,0.0,2025-01-09,1,2025,2,KCHO,0.03,0.04,0.04,0.04,3
2025-01-06,6,2025-01-06 03:53,03:53,EST,Calm,4.0,Light Snow Fog/Mist,SCT016 OVC041,28.0,26.1,92.0,,,29.96,1015.0,0.02,0.05,0.0,2025-01-09,1,2025,3,KCHO,0.05,0.06,0.06,0.06,0
2025-01-06,6,2025-01-06 04:53,04:53,EST,E  6,1.0,Unknown Precip Fog/Mist,VV010,28.0,26.1,92.0,22.0,,29.88,1012.2,0.02,0.0,0.0,2025-01-07,1,2025,4,KCHO,0.06,0.08,0.08,0.08,6
2025-01-06,6,2025-01-06 05:53,05:53,EST,N  6,4.0,Freezing Rain Fog/Mist,BKN006 OVC009,28.9,27.0,92.0,23.0,,29.86,1011.6,0.0,0.0,0.0,2025-01-09,1,2025,5,KCHO,0.04000000000000001,0.07,0.08,0.08,6
2025-01-06,6,2025-01-06 06:53,06:53,EST,NE  6,1.25,Light Snow Fog/Mist,BKN008 OVC011,28.9,27.0,92.0,23.0,,29.84,1010.6,0.11,0.0,0.0,2025-01-09,1,2025,6,KCHO,0.13,0.18,0.19,0.19,6
2025-01-06,6,2025-01-06 07:53,07:53,EST,N  6,2.0,Light Snow Fog/Mist,FEW003 OVC007,28.9,26.1,89.0,23.0,,29.81,1009.7,0.06,0.0,0.0,2025-01-09,1,2025,7,KCHO,0.16999999999999998,0.22999999999999998,0.25,0.25,6
2025-01-06,6,2025-01-06 08:53,08:53,EST,N  7,0.5,Light Snow,OVC008,28.0,26.1,92.0,22.0,,29.79,1009.4,0.08,0.0,0.0,2025-01-09,1,2025,8,KCHO,0.25,0.29000000000000004,0.33,0.33,7
2025-01-06,6,2025-01-06 09:53,09:53,EST,NE  8,0.5,Light Snow,OVC008,28.9,26.1,89.0,22.0,,29.77,1008.7,0.07,0.21,0.0,2025-01-09,1,2025,9,KCHO,0.21000000000000002,0.33999999999999997,0.4,0.4,8
2025-01-06,6,2025-01-06 10:53,10:53,EST,NE  8,2.0,Light Snow Fog/Mist,BKN005 OVC010,28.9,27.0,92.0,22.0,,29.75,1007.8,0.06,0.0,0.0,2025-01-09,1,2025,10,KCHO,0.21000000000000002,0.38,0.46,0.46,8
2025-01-06,6,2025-01-06 11:53,11:53,EST,NE  12,3.0,Fog/Mist,OVC005,28.9,26.1,89.0,20.0,,29.7,1006.0,0.07,0.0,0.0,2025-01-09,1,2025,11,KCHO,0.2,0.44999999999999996,0.52,0.53,12
2025-01-06,6,2025-01-06 12:53,12:53,EST,NE  9,10.0,Overcast,OVC006,28.9,26.1,89.0,21.0,,29.64,1004.1,0.04,0.0,0.38,2025-01-09,1,2025,12,KCHO,0.17,0.38,0.56,0.5700000000000001,9
2025-01-06,6,2025-01-06 13:53,13:53,EST,NE  10,10.0,Overcast,OVC008,28.9,25.0,85.0,20.0,,29.61,1003.0,0.0,0.0,0.0,2025-01-09,1,2025,13,KCHO,0.11000000000000001,0.32,0.55,0.5700000000000001,10
2025-01-06,6,2025-01-06 14:53,14:53,EST,NE  10,10.0,Overcast,OVC008,27.0,24.1,89.0,18.0,,29.61,1003.2,0.0,0.0,0.0,2025-01-09,1,2025,14,KCHO,0.04,0.24000000000000002,0.53,0.5700000000000001,10
2025-01-06,6,2025-01-06 15:53,15:53,EST,NE  10,1.5,Light Snow Fog/Mist,SCT009 BKN012 OVC027,27.0,24.1,89.0,18.0,,29.64,1004.1,0.0,0.0,0.0,2025-01-09,1,2025,15,KCHO,0.0,0.17,0.51,0.5700000000000001,10
2025-01-06,6,2025-01-06 16:53,16:53,EST,N  8,2.0,Light Snow Fog/Mist,OVC009,26.1,23.0,88.0,18.0,,29.66,1005.0,0.0,0.0,0.0,2025-01-09,1,2025,16,KCHO,0.0,0.11000000000000001,0.49,0.5700000000000001,8
2025-01-06,6,2025-01-06 17:53,17:53,EST,NE  3,2.5,Light Snow Fog/Mist,FEW008 SCT014 OVC040,26.1,23.0,88.0,,,29.69,1005.9,0.01,0.0,0.0,2025-01-09,1,2025,17,KCHO,0.01,0.05,0.5,0.58,3
2025-01-06,6,2025-01-06 18:53,18:53,EST,N  3,7.0,Overcast,OVC008,26.1,23.0,88.0,,,29.72,1007.0,0.0,0.0,0.01,2025-01-09,1,2025,18,KCHO,0.01,0.01,0.39,0.58,3
2025-01-06,6,2025-01-06 19:53,19:53,EST,NW  5,4.0,Light Snow Fog/Mist,SCT029 OVC037,26.1,21.9,84.0,21.0,,29.78,1009.0,0.01,0.0,0.0,2025-01-09,1,2025,19,KCHO,0.02,0.02,0.34,0.59,5
2025-01-06,6,2025-01-06 20:53,20:53,EST,NW  7,8.0,Overcast,FEW034 OVC085,27.0,21.0,78.0,20.0,,29.81,1009.8,0.01,0.0,0.0,2025-01-09,1,2025,20,KCHO,0.02,0.03,0.27,0.6,7
2025-01-06,6,2025-01-06 21:53,21:53,EST,NW  3,10.0,Partly Cloudy,SCT033,27.0,19.0,72.0,,,29.83,1010.6,0.0,0.02,0.0,2025-01-09,1,2025,21,KCHO,0.02,0.03,0.19999999999999998,0.6,3
2025-01-06,6,2025-01-06 22:53,22:53,EST,NW  7,10.0,Mostly Cloudy,BKN036,28.0,18.0,66.0,22.0,,29.86,1011.5,0.0,0.0,0.0,2025-01-09,1,2025,22,KCHO,0.01,0.03,0.14,0.6,7
2025-01-06,6,2025-01-06 23:53,23:53,EST,Calm,10.0,Partly Cloudy,SCT038,27.0,17.1,66.0,,,29.88,1012.3,0.0,0.0,0.0,2025-01-09,1,2025,23,KCHO,0.0,0.019999999999999997,0.07,0.59,0
2025-01-07,7,2025-01-07 00:53,00:53,EST,Calm,10.0,A Few Clouds,FEW039,27.0,16.0,63.0,,,29.89,1012.7,0.0,0.0,0.02,2025-01-10,1,2025,0,KCHO,0.0,0.019999999999999997,0.03,0.59,0
2025-01-07,7,2025-01-07 01:53,01:53,EST,N  6  G 17,10.0,Fair,CLR,28.0,16.0,60.0,22.0,,29.91,1013.4,0.0,0.0,0.0,2025-01-10,1,2025,1,KCHO,0.0,0.01,0.03,0.58,6
2025-01-07,7,2025-01-07 02:53,02:53,EST,NW  7  G 20,10.0,Fair,CLR,27.0,14.0,58.0,20.0,,29.94,1014.5,0.0,0.0,0.0,2025-01-10,1,2025,2,KCHO,0.0,0.0,0.03,0.5599999999999999,7
2025-01-07,7,2025-01-07 03:53,03:53,EST,Calm,10.0,Fair,CLR,26.1,12.9,57.0,,,29.96,1014.9,0.0,0.0,0.0,2025-01-10,1,2025,3,KCHO,0.0,0.0,0.03,0.5399999999999999,0
2025-01-07,7,2025-01-07 04:53,04:53,EST,NW  9,10.0,Fair,CLR,26.1,12.0,55.0,18.0,,29.98,1015.6,0.0,0.0,0.0,2025-01-10,1,2025,4,KCHO,0.0,0.0,0.03,0.52,9
2025-01-07,7,2025-01-07 05:53,05:53,EST,NW  12  G 21,10.0,Fair,CLR,26.1,12.0,55.0,16.0,,30.0,1016.6,0.0,0.0,0.0,2025-01-10,1,2025,5,KCHO,0.0,0.0,0.019999999999999997,0.52,12
2025-01-07,7,2025-01-07 06:53,06:53,EST,NW  13  G 26,10.0,Fair,CLR,26.1,10.0,51.0,16.0,,30.03,1017.5,0.0,0.0,0.0,2025-01-10,1,2025,6,KCHO,0.0,0.0,0.019999999999999997,0.41000000000000003,13
2025-01-07,7,2025-01-07 07:53,07:53,EST,NW  10,10.0,Fair,CLR,25.0,9.0,50.0,16.0,,30.06,1018.5,0.0,0.0,0.0,2025-01-10,1,2025,7,KCHO,0.0,0.0,0.01,0.35000000000000003,10
2025-01-07,7,2025-01-07 08:53,08:53,EST,NW  7,10.0,Fair,CLR,26.1,9.0,48.0,19.0,,30.09,1019.7,0.0,0.0,0.0,2025-01-10,1,2025,8,KCHO,0.0,0.0,0.0,0.27,7
2025-01-07,7,2025-01-07 09:53,09:53,EST,NW  12  G 18,10.0,Fair,CLR,28.0,9.0,44.0,19.0,,30.12,1020.6,0.0,0.0,0.0,2025-01-10,1,2025,9,KCHO,0.0,0.0,0.0,0.19999999999999998,12
2025-01-07,7,2025-01-07 10:53,10:53,EST,Vrbl  6  G 18,10.0,Fair,CLR,30.0,10.0,43.0,25.0,,30.13,1020.7,0.0,0.0,0.0,2025-01-10,1,2025,10,KCHO,0.0,0.0,0.0,0.14,6
2025-01-07,7,2025-01-07 11:53,11:53,EST,Vrbl  7,10.0,Fair,CLR,32.0,10.9,41.0,26.0,,30.12,1020.3,0.0,0.0,0.0,2025-01-10,1,2025,11,KCHO,0.0,0.0,0.0,0.07,7
2025-01-07,7,2025-01-07 12:53,12:53,EST,Vrbl  3,10.0,Fair,CLR,33.1,12.0,42.0,,,30.1,1019.8,0.0,0.0,0.0,2025-01-10,1,2025,12,KCHO,0.0,0.0,0.0,0.03,3
2025-01-07,7,2025-01-07 13:53,13:53,EST,Vrbl  5,10.0,Fair,CLR,35.1,12.0,38.0,32.0,,30.1,1019.6,0.0,0.0,0.0,2025-01-10,1,2025,13,KCHO,0.0,0.0,0.0,0.03,5
2025-01-07,7,2025-01-07 14:53,14:53,EST,NW  8,10.0,Fair,CLR,35.1,12.9,40.0,29.0,,30.11,1020.1,0.0,0.0,0.0,2025-01-10,1,2025,14,KCHO,0.0,0.0,0.0,0.03,8
2025-01-07,7,2025-01-07 15:53,15:53,EST,NW  3,10.0,Fair,CLR,35.1,12.0,38.0,,,30.12,1020.6,0.0,0.0,0.0,2025-01-10,1,2025,15,KCHO,0.0,0.0,0.0,0.03,3
2025-01-07,7,2025-01-07 16:53,16:53,EST,Vrbl  3,10.0,Fair,CLR,32.0,10.9,41.0,,,30.14,1021.0,0.0,0.0,0.0,2025-01-10,1,2025,16,KCHO,0.0,0.0,0.0,0.03,3
2025-01-07,7,2025-01-07 17:53,17:53,EST,NW  8,10.0,Fair,CLR,30.0,10.0,43.0,23.0,,30.16,1021.9,0.0,0.0,0.0,2025-01-10,1,2025,17,KCHO,0.0,0.0,0.0,0.019999999999999997,8
2025-01-07,7,2025-01-07 18:53,18:53,EST,NW  12,10.0,Fair,CLR,30.0,8.1,39.0,21.0,,30.16,1022.0,0.0,0.0,0.0,2025-01-10,1,2025,18,KCHO,0.0,0.0,0.0,0.019999999999999997,12
2025-01-07,7,2025-01-07 19:53,19:53,EST,Vrbl  6,10.0,Fair,CLR,28.9,8.1,41.0,23.0,,30.17,1022.2,0.0,0.0,0.0,2025-01-10,1,2025,19,KCHO,0.0,0.0,0.0,0.01,6
2025-01-07,7,2025-01-07 20:53,20:53,EST,Vrbl  6,10.0,Fair,CLR,28.0,9.0,44.0,22.0,,30.17,1022.2,0.0,0.0,0.0,2025-01-10,1,2025,20,KCHO,0.0,0.0,0.0,0.0,6
2025-01-07,7,2025-01-07 21:53,21:53,EST,NW  5,10.0,Fair,CLR,27.0,9.0,46.0,22.0,,30.18,1022.5,0.0,0.0,0.0,2025-01-10,1,2025,21,KCHO,0.0,0.0,0.0,0.0,5
2025-01-07,7,2025-01-07 22:53,22:53,EST,NW  7,10.0,Fair,CLR,27.0,8.1,45.0,20.0,,30.19,1022.6,0.0,0.0,0.0,2025-01-10,1,2025,22,KCHO,0.0,0.0,0.0,0.0,7
2025-01-07,7,2025-01-07 23:53,23:53,EST,Vrbl  3,10.0,Fair,CLR,25.0,8.1,48.0,,,30.19,1022.9,0.0,0.0,0.0,2025-01-10,1,2025,23,KCHO,0.0,0.0,0.0,0.0,3
2025-01-08,8,2025-01-08 00:53,00:53,EST,Vrbl  5,10.0,Fair,CLR,25.0,8.1,48.0,20.0,,30.19,1022.8,0.0,0.0,0.0,2025-01-11,1,2025,0,KCHO,0.0,0.0,0.0,0.0,5
2025-01-08,8,2025-01-08 01:53,01:53,EST,NW  5,10.0,Fair,CLR,24.1,7.0,48.0,19.0,,30.19,1023.0,0.0,0.0,0.0,2025-01-11,1,2025,1,KCHO,0.0,0.0,0.0,0.0,5
2025-01-08,8,2025-01-08 02:53,02:53,EST,NW  8,10.0,Fair,CLR,23.0,7.0,50.0,15.0,,30.2,1023.1,0.0,0.0,0.0,2025-01-11,1,2025,2,KCHO,0.0,0.0,0.0,0.0,8
2025-01-08,8,2025-01-08 03:53,03:53,EST,NW  6,10.0,Fair,CLR,23.0,6.1,48.0,17.0,,30.19,1022.7,0.0,0.0,0.0,2025-01-11,1,2025,3,KCHO,0.0,0.0,0.0,0.0,6
2025-01-08,8,2025-01-08 04:53,04:53,EST,Vrbl  5,10.0,Fair,CLR,21.9,6.1,50.0,16.0,,30.19,1022.8,0.0,0.0,0.0,2025-01-11,1,2025,4,KCHO,0.0,0.0,0.0,0.0,5
2025-01-08,8,2025-01-08 05:53,05:53,EST,Calm,10.0,Fair,CLR,21.0,5.0,50.0,,,30.19,1022.9,0.0,0.0,0.0,2025-01-11,1,2025,5,KCHO,0.0,0.0,0.0,0.0,0
2025-01-08,8,2025-01-08 06:53,06:53,EST,Vrbl  5,10.0,Fair,CLR,21.0,5.0,50.0,15.0,,30.2,1023.1,0.0,0.0,0.0,2025-01-11,1,2025,6,KCHO,0.0,0.0,0.0,0.0,5
2025-01-08,8,2025-01-08 07:53,07:53,EST,S  8,10.0,Fair,CLR,19.0,5.0,54.0,10.0,,30.19,1023.0,0.0,0.0,0.0,2025-01-11,1,2025,7,KCHO,0.0,0.0,0.0,0.0,8
2025-01-08,8,2025-01-08 08:53,08:53,EST,SW  6,10.0,Fair,CLR,19.0,5.0,54.0,12.0,,30.19,1023.1,0.0,0.0,0.0,2025-01-11,1,2025,8,KCHO,0.0,0.0,0.0,0.0,6
2025-01-08,8,2025-01-08 09:53,09:53,EST,S  8,10.0,Fair,CLR,21.0,7.0,54.0,12.0,,30.18,1022.8,0.0,0.0,0.0,2025-01-11,1,2025,9,KCHO,0.0,0.0,0.0,0.0,8
2025-01-08,8,2025-01-08 11:53,11:53,EST,S  6,10.0,Fair,CLR,28.9,9.0,43.0,23.0,,30.12,1020.6,0.0,0.0,0.0,2025-01-11,1,2025,11,KCHO,0.0,0.0,0.0,0.0,6
2025-01-08,8,2025-01-08 12:53,12:53,EST,W  10,10.0,Fair,CLR,32.0,9.0,38.0,24.0,,30.07,1018.9,0.0,0.0,0.0,2025-01-11,1,2025,12,KCHO,0.0,0.0,0.0,0.0,10
2025-01-08,8,2025-01-08 13:53,13:53,EST,W  7,10.0,Fair,CLR,33.1,9.0,36.0,28.0,,30.03,1017.4,0.0,0.0,0.0,2025-01-11,1,2025,13,KCHO,0.0,0.0,0.0,0.0,7
2025-01-08,8,2025-01-08 14:53,14:53,EST,NW  10  G 16,10.0,Fair,CLR,30.9,8.1,38.0,23.0,,30.02,1017.2,0.0,0.0,0.0,2025-01-11,1,2025,14,KCHO,0.0,0.0,0.0,0.0,10
2025-01-08,8,2025-01-08 15:53,15:53,EST,NW  10  G 18,10.0,Fair,CLR,30.9,8.1,38.0,23.0,,30.02,1017.2,0.0,0.0,0.0,2025-01-11,1,2025,15,KCHO,0.0,0.0,0.0,0.0,10
2025-01-08,8,2025-01-08 16:53,16:53,EST,NW  7,10.0,Fair,CLR,30.0,8.1,39.0,24.0,,30.03,1017.3,0.0,0.0,0.0,2025-01-11,1,2025,16,KCHO,0.0,0.0,0.0,0.0,7
2025-01-08,8,2025-01-08 17:53,17:53,EST,NW  9  G 18,10.0,Fair,CLR,28.0,8.1,43.0,20.0,,30.04,1017.9,0.0,0.0,0.0,2025-01-11,1,2025,17,KCHO,0.0,0.0,0.0,0.0,9
2025-01-08,8,2025-01-08 18:53,18:53,EST,Vrbl  5,10.0,A Few Clouds,FEW050,27.0,8.1,45.0,22.0,,30.05,1018.3,0.0,0.0,0.0,2025-01-11,1,2025,18,KCHO,0.0,0.0,0.0,0.0,5
2025-01-08,8,2025-01-08 19:53,19:53,EST,W  3,10.0,Mostly Cloudy,BKN050,26.1,8.1,46.0,,,30.05,1018.2,0.0,0.0,0.0,2025-01-11,1,2025,19,KCHO,0.0,0.0,0.0,0.0,3
2025-01-08,8,2025-01-08 20:53,20:53,EST,NW  7,10.0,Partly Cloudy,SCT050,26.1,7.0,44.0,19.0,,30.05,1018.3,0.0,0.0,0.0,2025-01-11,1,2025,20,KCHO,0.0,0.0,0.0,0.0,7
2025-01-08,8,2025-01-08 21:53,21:53,EST,NW  6,10.0,A Few Clouds,FEW050,25.0,6.1,44.0,19.0,,30.05,1018.3,0.0,0.0,0.0,2025-01-11,1,2025,21,KCHO,0.0,0.0,0.0,0.0,6
2025-01-08,8,2025-01-08 22:53,22:53,EST,Calm,10.0,Partly Cloudy,SCT055,24.1,5.0,44.0,,,30.04,1018.0,0.0,0.0,0.0,2025-01-11,1,2025,22,KCHO,0.0,0.0,0.0,0.0,0
2025-01-08,8,2025-01-08 23:53,23:53,EST,Vrbl  3,10.0,Fair,CLR,24.1,3.9,42.0,,,30.04,1017.7,0.0,0.0,0.0,2025-01-11,1,2025,23,KCHO,0.0,0.0,0.0,0.0,3
2025-01-09,9,2025-01-09 00:53,00:53,EST,NW  3,10.0,Fair,CLR,23.0,3.9,44.0,,,30.02,1017.2,0.0,0.0,0.0,2025-01-12,1,2025,0,KCHO,0.0,0.0,0.0,0.0,3
2025-01-09,9,2025-01-09 01:53,01:53,EST,Vrbl  5,10.0,Fair,CLR,23.0,3.9,44.0,18.0,,30.03,1017.3,0.0,0.0,0.0,2025-01-12,1,2025,1,KCHO,0.0,0.0,0.0,0.0,5
2025-01-09,9,2025-01-09 03:53,03:53,EST,NW  6,10.0,A Few Clouds,FEW050,24.1,5.0,44.0,18.0,,30.03,1017.3,0.0,0.0,0.0,2025-01-12,1,2025,3,KCHO,0.0,0.0,0.0,0.0,6
2025-01-09,9,2025-01-09 04:53,04:53,EST,NW  10  G 22,10.0,Fair,CLR,24.1,6.1,46.0,15.0,,30.02,1017.0,0.0,0.0,0.0,2025-01-12,1,2025,4,KCHO,0.0,0.0,0.0,0.0,10
2025-01-09,9,2025-01-09 05:53,05:53,EST,NW  13  G 23,10.0,Fair,CLR,24.1,5.0,44.0,13.0,,30.03,1017.3,0.0,0.0,0.0,2025-01-12,1,2025,5,KCHO,0.0,0.0,0.0,0.0,13
2025-01-09,9,2025-01-09 06:53,06:53,EST,Vrbl  5  G 20,10.0,Fair,CLR,24.1,5.0,44.0,19.0,,30.04,1017.9,0.0,0.0,0.0,2025-01-12,1,2025,6,KCHO,0.0,0.0,0.0,0.0,5
2025-01-09,9,2025-01-09 07:53,07:53,EST,NW  8,10.0,Fair,CLR,25.0,6.1,44.0,17.0,,30.05,1018.3,0.0,0.0,0.0,2025-01-12,1,2025,7,KCHO,0.0,0.0,0.0,0.0,8
2025-01-09,9,2025-01-09 08:53,08:53,EST,NW  9  G 20,10.0,Fair,CLR,26.1,6.1,42.0,18.0,,30.07,1018.9,0.0,0.0,0.0,2025-01-12,1,2025,8,KCHO,0.0,0.0,0.0,0.0,9
2025-01-09,9,2025-01-09 09:53,09:53,EST,NW  10  G 21,10.0,Fair,CLR,28.0,6.1,39.0,19.0,,30.09,1019.5,0.0,0.0,0.0,2025-01-12,1,2025,9,KCHO,0.0,0.0,0.0,0.0,10
2025-01-09,9,2025-01-09 10:53,10:53,EST,W  10  G 18,10.0,Fair,CLR,28.9,6.1,38.0,20.0,,30.1,1019.8,0.0,0.0,0.0,2025-01-12,1,2025,10,KCHO,0.0,0.0,0.0,0.0,10
2025-01-09,9,2025-01-09 11:53,11:53,EST,NW  9  G 20,10.0,Fair,CLR,30.9,5.0,33.0,24.0,,30.08,1019.3,0.0,0.0,0.0,2025-01-12,1,2025,11,KCHO,0.0,0.0,0.0,0.0,9
2025-01-09,9,2025-01-09 12:53,12:53,EST,NW  14  G 23,10.0,Fair,CLR,32.0,5.0,32.0,23.0,,30.07,1018.7,0.0,0.0,0.0,2025-01-12,1,2025,12,KCHO,0.0,0.0,0.0,0.0,14
2025-01-09,9,2025-01-09 13:53,13:53,EST,NW  12  G 21,10.0,Fair,CLR,33.1,5.0,30.0,25.0,,30.06,1018.6,0.0,0.0,0.0,2025-01-12,1,2025,13,KCHO,0.0,0.0,0.0,0.0,12
2025-01-09,9,2025-01-09 14:53,14:53,EST,NW  12  G 23,10.0,Fair,CLR,33.1,5.0,30.0,25.0,,30.06,1018.6,0.0,0.0,0.0,2025-01-12,1,2025,14,KCHO,0.0,0.0,0.0,0.0,12
2025-01-09,9,2025-01-09 15:53,15:53,EST,NW  10  G 26,10.0,Fair,CLR,33.1,3.9,29.0,26.0,,30.08,1019.0,0.0,0.0,0.0,2025-01-12,1,2025,15,KCHO,0.0,0.0,0.0,0.0,10
2025-01-09,9,2025-01-09 16:53,16:53,EST,Vrbl  3,10.0,Fair,CLR,32.0,3.9,30.0,,,30.07,1018.8,0.0,0.0,0.0,2025-01-12,1,2025,16,KCHO,0.0,0.0,0.0,0.0,3
2025-01-09,9,2025-01-09 17:53,17:53,EST,NW  8,10.0,Fair,CLR,30.0,3.9,33.0,23.0,,30.08,1019.0,0.0,0.0,0.0,2025-01-12,1,2025,17,KCHO,0.0,0.0,0.0,0.0,8
2025-01-09,9,2025-01-09 18:53,18:53,EST,Vrbl  6,10.0,Fair,CLR,28.9,3.9,34.0,23.0,,30.1,1020.0,0.0,0.0,0.0,2025-01-12,1,2025,18,KCHO,0.0,0.0,0.0,0.0,6
2025-01-09,9,2025-01-09 19:53,19:53,EST,Vrbl  5,10.0,Fair,CLR,28.0,3.9,35.0,24.0,,30.11,1020.3,0.0,0.0,0.0,2025-01-12,1,2025,19,KCHO,0.0,0.0,0.0,0.0,5
2025-01-09,9,2025-01-09 20:53,20:53,EST,NW  9  G 21,10.0,Fair,CLR,28.0,3.9,35.0,20.0,,30.11,1020.3,0.0,0.0,0.0,2025-01-12,1,2025,20,KCHO,0.0,0.0,0.0,0.0,9
2025-01-09,9,2025-01-09 21:53,21:53,EST,NW  7  G 20,10.0,Fair,CLR,27.0,3.9,37.0,20.0,,30.11,1020.3,0.0,0.0,0.0,2025-01-12,1,2025,21,KCHO,0.0,0.0,0.0,0.0,7
2025-01-09,9,2025-01-09 22:53,22:53,EST,N  10,10.0,Fair,CLR,27.0,3.0,35.0,18.0,,30.11,1020.2,0.0,0.0,0.0,2025-01-12,1,2025,22,KCHO,0.0,0.0,0.0,0.0,10
2025-01-09,9,2025-01-09 23:53,23:53,EST,W  3,10.0,Fair,CLR,26.1,3.0,37.0,,,30.1,1019.6,0.0,0.0,0.0,2025-01-12,1,2025,23,KCHO,0.0,0.0,0.0,0.0,3
2025-01-10,10,2025-01-10 00:53,00:53,EST,SW  3,10.0,Fair,CLR,21.0,3.0,45.0,,,30.1,1020.0,0.0,0.0,0.0,2025-01-13,1,2025,0,KCHO,0.0,0.0,0.0,0.0,3
2025-01-10,10,2025-01-10 01:53,01:53,EST,SW  3,10.0,Fair,CLR,21.9,3.9,46.0,,,30.12,1020.4,0.0,0.0,0.0,2025-01-13,1,2025,1,KCHO,0.0,0.0,0.0,0.0,3
2025-01-10,10,2025-01-10 02:53,02:53,EST,SW  3,10.0,Fair,CLR,21.0,1.9,43.0,,,30.11,1020.0,0.0,0.0,0.0,2025-01-13,1,2025,2,KCHO,0.0,0.0,0.0,0.0,3
2025-01-10,10,2025-01-10 03:53,03:53,EST,SW  5,10.0,Fair,CLR,21.0,3.9,47.0,15.0,,30.12,1020.6,0.0,0.0,0.0,2025-01-13,1,2025,3,KCHO,0.0,0.0,0.0,0.0,5
2025-01-10,10,2025-01-10 04:53,04:53,EST,Calm,10.0,Fair,CLR,23.0,3.0,42.0,,,30.11,1020.1,0.0,0.0,0.0,2025-01-13,1,2025,4,KCHO,0.0,0.0,0.0,0.0,0
2025-01-10,10,2025-01-10 05:53,05:53,EST,W  3,10.0,Fair,CLR,21.0,3.0,45.0,,,30.12,1020.6,0.0,0.0,0.0,2025-01-13,1,2025,5,KCHO,0.0,0.0,0.0,0.0,3
2025-01-10,10,2025-01-10 06:53,06:53,EST,Calm,10.0,Fair,CLR,19.9,3.0,48.0,,,30.12,1020.6,0.0,0.0,0.0,2025-01-12,1,2025,6,KCHO,0.0,0.0,0.0,0.0,0
2025-01-10,10,2025-01-10 07:53,07:53,EST,Calm,10.0,Fair,CLR,19.0,3.9,52.0,,,30.12,1020.7,0.0,0.0,0.0,2025-01-13,1,2025,7,KCHO,0.0,0.0,0.0,0.0,0
2025-01-10,10,2025-01-10 08:53,08:53,EST,Calm,10.0,Fair,CLR,19.9,6.1,55.0,,,30.12,1020.5,0.0,0.0,0.0,2025-01-13,1,2025,8,KCHO,0.0,0.0,0.0,0.0,0
2025-01-10,10,2025-01-10 09:53,09:53,EST,Calm,10.0,Fair,CLR,24.1,6.1,46.0,,,30.11,1020.1,0.0,0.0,0.0,2025-01-13,1,2025,9,KCHO,0.0,0.0,0.0,0.0,0
2025-01-10,10,2025-01-10 10:53,10:53,EST,Calm,10.0,Fair,CLR,27.0,6.1,41.0,,,30.09,1019.6,0.0,0.0,0.0,2025-01-13,1,2025,10,KCHO,0.0,0.0,0.0,0.0,0
2025-01-10,10,2025-01-10 11:53,11:53,EST,Calm,10.0,Fair,CLR,30.0,3.0,31.0,,,30.1,1019.8,0.0,0.0,0.0,2025-01-13,1,2025,11,KCHO,0.0,0.0,0.0,0.0,0
2025-01-10,10,2025-01-10 12:53,12:53,EST,S  5,10.0,Fair,CLR,30.9,6.1,35.0,27.0,,30.05,1018.2,0.0,0.0,0.0,2025-01-13,1,2025,12,KCHO,0.0,0.0,0.0,0.0,5
2025-01-10,10,2025-01-10 13:53,13:53,EST,S  6,10.0,Fair,CLR,32.0,9.0,38.0,27.0,,30.01,1016.8,0.0,0.0,0.0,2025-01-13,1,2025,13,KCHO,0.0,0.0,0.0,0.0,6
2025-01-10,10,2025-01-10 14:53,14:53,EST,S  6,10.0,A Few Clouds,FEW120,33.1,7.0,33.0,28.0,,29.98,1015.8,0.0,0.0,0.0,2025-01-13,1,2025,14,KCHO,0.0,0.0,0.0,0.0,6
2025-01-10,10,2025-01-10 15:53,15:53,EST,SE  7,10.0,Overcast,OVC110,32.0,7.0,35.0,26.0,,29.91,1013.3,0.0,0.0,0.0,2025-01-13,1,2025,15,KCHO,0.0,0.0,0.0,0.0,7
2025-01-10,10,2025-01-10 16:53,16:53,EST,S  6,10.0,Overcast,OVC090,30.9,9.0,40.0,26.0,,29.91,1013.4,0.0,0.0,0.0,2025-01-13,1,2025,16,KCHO,0.0,0.0,0.0,0.0,6
2025-01-10,10,2025-01-10 17:53,17:53,EST,S  8,10.0,Overcast,OVC085,30.9,10.0,42.0,24.0,,29.89,1012.6,0.0,0.0,0.0,2025-01-13,1,2025,17,KCHO,0.0,0.0,0.0,0.0,8
2025-01-10,10,2025-01-10 18:53,18:53,EST,S  8,10.0,Overcast,OVC065,30.9,12.0,45.0,24.0,,29.88,1012.4,0.0,0.0,0.0,2025-01-13,1,2025,18,KCHO,0.0,0.0,0.0,0.0,8
2025-01-10,10,2025-01-10 19:53,19:53,EST,S  7,10.0,Overcast,OVC055,30.0,12.9,49.0,24.0,,29.83,1010.9,0.0,0.0,0.0,2025-01-13,1,2025,19,KCHO,0.0,0.0,0.0,0.0,7
2025-01-10,10,2025-01-10 20:53,20:53,EST,S  5,10.0,Overcast,OVC048,30.0,15.1,54.0,26.0,,29.81,1010.1,0.0,0.0,0.0,2025-01-13,1,2025,20,KCHO,0.0,0.0,0.0,0.0,5
2025-01-10,10,2025-01-10 21:53,21:53,EST,S  8,9.0,Light Snow,OVC030,30.0,16.0,56.0,23.0,,29.79,1009.1,0.0,0.0,0.0,2025-01-13,1,2025,21,KCHO,0.0,0.0,0.0,0.0,8
2025-01-10,10,2025-01-10 22:53,22:53,EST,S  9,4.0,Light Snow Fog/Mist,OVC034,27.0,23.0,85.0,19.0,,29.77,1008.7,0.0,0.0,0.0,2025-01-13,1,2025,22,KCHO,0.0,0.0,0.0,0.0,9
2025-01-10,10,2025-01-10 23:53,23:53,EST,S  7,2.5,Light Snow Fog/Mist,SCT006 OVC031,27.0,24.1,89.0,20.0,,29.71,1006.6,0.01,0.0,0.0,2025-01-13,1,2025,23,KCHO,0.01,0.01,0.01,0.01,7
2025-01-11,11,2025-01-11 00:53,00:53,EST,S  7,3.0,Light Snow Fog/Mist,SCT009 SCT014 OVC039,27.0,23.0,85.0,20.0,,29.67,1004.9,0.0,0.0,0.01,2025-01-14,1,2025,0,KCHO,0.01,0.01,0.01,0.01,7
2025-01-11,11,2025-01-11 01:53,01:53,EST,S  7,8.0,Light Snow,BKN007 OVC070,27.0,24.1,89.0,20.0,,29.62,1003.3,0.0,0.0,0.0,2025-01-14,1,2025,1,KCHO,0.01,0.01,0.01,0.01,7
2025-01-11,11,2025-01-11 02:53,02:53,EST,S  8,10.0,Overcast,OVC008,27.0,23.0,85.0,19.0,,29.6,1002.6,0.0,0.0,0.0,2025-01-14,1,2025,2,KCHO,0.0,0.01,0.01,0.01,8
2025-01-11,11,2025-01-11 03:53,03:53,EST,Calm,10.0,Overcast,SCT008 BKN070 OVC110,26.1,23.0,88.0,,,29.56,1001.2,0.0,0.0,0.0,2025-01-14,1,2025,3,KCHO,0.0,0.01,0.01,0.01,0
2025-01-11,11,2025-01-11 04:53,04:53,EST,Calm,10.0,Mostly Cloudy,BKN100,26.1,21.9,84.0,,,29.54,1000.7,0.0,0.0,0.0,2025-01-14,1,2025,4,KCHO,0.0,0.01,0.01,0.01,0
2025-01-11,11,2025-01-11 05:53,05:53,EST,Calm,9.0,Partly Cloudy,SCT008,24.1,21.0,88.0,,,29.55,1001.0,0.0,0.0,0.0,2025-01-14,1,2025,5,KCHO,0.0,0.0,0.01,0.01,0
2025-01-11,11,2025-01-11 06:53,06:53,EST,Calm,9.0,Overcast,OVC047,23.0,19.9,88.0,,,29.55,1001.3,0.0,0.0,0.0,2025-01-14,1,2025,6,KCHO,0.0,0.0,0.01,0.01,0
2025-01-11,11,2025-01-11 07:53,07:53,EST,NW  3,10.0,A Few Clouds,FEW049,23.0,21.0,92.0,,,29.57,1001.9,0.0,0.0,0.0,2025-01-14,1,2025,7,KCHO,0.0,0.0,0.01,0.01,3
2025-01-11,11,2025-01-11 08:53,08:53,EST,Calm,9.0,Mostly Cloudy,BKN050,27.0,24.1,89.0,,,29.6,1002.6,0.0,0.0,0.0,2025-01-14,1,2025,8,KCHO,0.0,0.0,0.01,0.01,0
2025-01-11,11,2025-01-11 09:53,09:53,EST,Calm,10.0,Fair,CLR,28.0,25.0,88.0,,,29.62,1003.3,0.0,0.0,0.0,2025-01-14,1,2025,9,KCHO,0.0,0.0,0.01,0.01,0
2025-01-11,11,2025-01-11 10:53,10:53,EST,S  6,10.0,Fair,CLR,30.9,24.1,76.0,26.0,,29.64,1004.0,0.0,0.0,0.0,2025-01-14,1,2025,10,KCHO,0.0,0.0,0.01,0.01,6
2025-01-11,11,2025-01-11 11:53,11:53,EST,W  6,10.0,Fair,CLR,37.0,21.0,52.0,33.0,,29.62,1003.4,0.0,0.0,0.0,2025-01-14,1,2025,11,KCHO,0.0,0.0,0.0,0.01,6
2025-01-11,11,2025-01-11 12:53,12:53,EST,NW  13  G 26,10.0,A Few Clouds,FEW060,39.9,15.1,36.0,33.0,,29.63,1003.6,0.0,0.0,0.0,2025-01-14,1,2025,12,KCHO,0.0,0.0,0.0,0.01,13
2025-01-11,11,2025-01-11 13:53,13:53,EST,W  8  G 17,10.0,Fair,CLR,39.0,14.0,36.0,34.0,,29.65,1004.4,0.0,0.0,0.0,2025-01-14,1,2025,13,KCHO,0.0,0.0,0.0,0.01,8
2025-01-11,11,2025-01-11 14:53,14:53,EST,W  10  G 18,10.0,Fair,CLR,37.9,12.9,36.0,32.0,,29.7,1006.0,0.0,0.0,0.0,2025-01-14,1,2025,14,KCHO,0.0,0.0,0.0,0.01,10
2025-01-11,11,2025-01-11 15:53,15:53,EST,NW  9,10.0,Overcast,BKN060 OVC080,37.9,14.0,37.0,32.0,,29.75,1007.6,0.0,0.0,0.0,2025-01-14,1,2025,15,KCHO,0.0,0.0,0.0,0.01,9
2025-01-11,11,2025-01-11 16:53,16:53,EST,Vrbl  7  G 18,10.0,Partly Cloudy,SCT060,36.0,14.0,40.0,31.0,,29.78,1008.7,0.0,0.0,0.0,2025-01-14,1,2025,16,KCHO,0.0,0.0,0.0,0.01,7
2025-01-11,11,2025-01-11 17:53,17:53,EST,NW  9  G 20,10.0,Mostly Cloudy,BKN055,35.1,14.0,42.0,29.0,,29.81,1009.7,0.0,0.0,0.0,2025-01-14,1,2025,17,KCHO,0.0,0.0,0.0,0.01,9
2025-01-11,11,2025-01-11 18:53,18:53,EST,Vrbl  3,10.0,Fair,CLR,33.1,14.0,45.0,,,29.87,1011.9,0.0,0.0,0.0,2025-01-14,1,2025,18,KCHO,0.0,0.0,0.0,0.01,3
2025-01-11,11,2025-01-11 19:53,19:53,EST,NW  8,10.0,Mostly Cloudy,BKN050,32.0,14.0,47.0,25.0,,29.89,1012.5,0.0,0.0,0.0,2025-01-14,1,2025,19,KCHO,0.0,0.0,0.0,0.01,8
2025-01-11,11,2025-01-11 20:53,20:53,EST,Vrbl  5,10.0,Fair,CLR,32.0,14.0,47.0,28.0,,29.9,1012.8,0.0,0.0,0.0,2025-01-14,1,2025,20,KCHO,0.0,0.0,0.0,0.01,5
2025-01-11,11,2025-01-11 21:53,21:53,EST,Vrbl  3,10.0,A Few Clouds,FEW047,30.9,14.0,49.0,,,29.92,1013.7,0.0,0.0,0.0,2025-01-14,1,2025,21,KCHO,0.0,0.0,0.0,0.01,3
2025-01-11,11,2025-01-11 22:53,22:53,EST,N  5,10.0,A Few Clouds,FEW049,30.9,14.0,49.0,27.0,,29.96,1014.9,0.0,0.0,0.0,2025-01-14,1,2025,22,KCHO,0.0,0.0,0.0,0.01,5
2025-01-11,11,2025-01-11 23:53,23:53,EST,S  5,10.0,Fair,CLR,28.9,14.0,54.0,25.0,,29.96,1015.0,0.0,0.0,0.0,2025-01-14,1,2025,23,KCHO,0.0,0.0,0.0,0.0,5
2025-01-12,12,2025-01-12 00:53,00:53,EST,Vrbl  3,10.0,Fair,CLR,30.0,12.9,49.0,,,29.98,1015.6,0.0,0.0,0.0,2025-01-15,1,2025,0,KCHO,0.0,0.0,0.0,0.0,3
2025-01-12,12,2025-01-12 01:53,01:53,EST,N  7,10.0,Fair,CLR,30.0,14.0,51.0,24.0,,29.97,1015.2,0.0,0.0,0.0,2025-01-15,1,2025,1,KCHO,0.0,0.0,0.0,0.0,7
2025-01-12,12,2025-01-12 02:53,02:53,EST,N  3,10.0,Fair,CLR,28.0,14.0,56.0,,,29.98,1015.5,0.0,0.0,0.0,2025-01-15,1,2025,2,KCHO,0.0,0.0,0.0,0.0,3
2025-01-12,12,2025-01-12 03:53,03:53,EST,Calm,10.0,Fair,CLR,27.0,12.9,55.0,,,29.99,1015.8,0.0,0.0,0.0,2025-01-15,1,2025,3,KCHO,0.0,0.0,0.0,0.0,0
2025-01-12,12,2025-01-12 04:53,04:53,EST,Calm,10.0,Fair,CLR,24.1,14.0,65.0,,,30.0,1016.3,0.0,0.0,0.0,2025-01-15,1,2025,4,KCHO,0.0,0.0,0.0,0.0,0
2025-01-12,12,2025-01-12 05:53,05:53,EST,W  3,10.0,Fair,CLR,24.1,12.9,62.0,,,30.02,1016.9,0.0,0.0,0.0,2025-01-15,1,2025,5,KCHO,0.0,0.0,0.0,0.0,3
2025-01-12,12,2025-01-12 06:53,06:53,EST,W  3,10.0,Fair,CLR,26.1,14.0,60.0,,,30.05,1017.9,0.0,0.0,0.0,2025-01-15,1,2025,6,KCHO,0.0,0.0,0.0,0.0,3
2025-01-12,12,2025-01-12 07:53,07:53,EST,W  3,10.0,Fair,CLR,24.1,14.0,65.0,,,30.06,1018.4,0.0,0.0,0.0,2025-01-15,1,2025,7,KCHO,0.0,0.0,0.0,0.0,3
2025-01-12,12,2025-01-12 08:53,08:53,EST,W  3,10.0,Fair,CLR,27.0,15.1,61.0,,,30.09,1019.4,0.0,0.0,0.0,2025-01-15,1,2025,8,KCHO,0.0,0.0,0.0,0.0,3
2025-01-12,12,2025-01-12 09:53,09:53,EST,SW  3,10.0,Fair,CLR,28.9,16.0,58.0,,,30.12,1020.5,0.0,0.0,0.0,2025-01-15,1,2025,9,KCHO,0.0,0.0,0.0,0.0,3
2025-01-12,12,2025-01-12 10:53,10:53,EST,Calm,10.0,Fair,CLR,34.0,17.1,50.0,,,30.13,1020.6,0.0,0.0,0.0,2025-01-15,1,2025,10,KCHO,0.0,0.0,0.0,0.0,0
2025-01-12,12,2025-01-12 11:53,11:53,EST,Calm,10.0,Fair,CLR,36.0,16.0,44.0,,,30.12,1020.2,0.0,0.0,0.0,2025-01-15,1,2025,11,KCHO,0.0,0.0,0.0,0.0,0
2025-01-12,12,2025-01-12 12:53,12:53,EST,Vrbl  5,10.0,Fair,CLR,36.0,16.0,44.0,33.0,,30.08,1018.8,0.0,0.0,0.0,2025-01-15,1,2025,12,KCHO,0.0,0.0,0.0,0.0,5
2025-01-12,12,2025-01-12 13:53,13:53,EST,SW  7,10.0,Fair,CLR,37.0,16.0,42.0,32.0,,30.05,1017.9,0.0,0.0,0.0,2025-01-13,1,2025,13,KCHO,0.0,0.0,0.0,0.0,7
2025-01-12,12,2025-01-12 15:53,15:53,EST,SW  6,10.0,Fair,CLR,37.0,17.1,44.0,33.0,,30.05,1017.9,0.0,0.0,0.0,2025-01-13,1,2025,15,KCHO,0.0,0.0,0.0,0.0,6
2025-01-12,12,2025-01-12 16:53,16:53,EST,S  5,10.0,Fair,CLR,37.0,17.1,44.0,34.0,,30.03,1017.4,0.0,0.0,0.0,2025-01-15,1,2025,16,KCHO,0.0,0.0,0.0,0.0,5
2025-01-12,12,2025-01-12 17:53,17:53,EST,S  6,10.0,Fair,CLR,33.1,17.1,52.0,28.0,,30.06,1018.5,0.0,0.0,0.0,2025-01-15,1,2025,17,KCHO,0.0,0.0,0.0,0.0,6
2025-01-12,12,2025-01-12 18:53,18:53,EST,S  9,10.0,Fair,CLR,32.0,17.1,54.0,25.0,,30.07,1018.8,0.0,0.0,0.0,2025-01-15,1,2025,18,KCHO,0.0,0.0,0.0,0.0,9
2025-01-12,12,2025-01-12 19:53,19:53,EST,SW  8,10.0,Fair,CLR,30.9,17.1,56.0,24.0,,30.08,1019.0,0.0,0.0,0.0,2025-01-15,1,2025,19,KCHO,0.0,0.0,0.0,0.0,8
2025-01-12,12,2025-01-12 20:53,20:53,EST,S  3,10.0,Fair,CLR,32.0,17.1,54.0,,,30.08,1019.0,0.0,0.0,0.0,2025-01-15,1,2025,20,KCHO,0.0,0.0,0.0,0.0,3
2025-01-12,12,2025-01-12 21:53,21:53,EST,Calm,10.0,Fair,CLR,30.0,17.1,58.0,,,30.07,1018.6,0.0,0.0,0.0,2025-01-15,1,2025,21,KCHO,0.0,0.0,0.0,0.0,0
2025-01-12,12,2025-01-12 22:53,22:53,EST,Calm,10.0,Fair,CLR,28.0,17.1,63.0,,,30.05,1018.2,0.0,0.0,0.0,2025-01-15,1,2025,22,KCHO,0.0,0.0,0.0,0.0,0
2025-01-12,12,2025-01-12 23:53,23:53,EST,S  7,10.0,Fair,CLR,28.0,17.1,63.0,22.0,,30.04,1017.5,0.0,0.0,0.0,2025-01-15,1,2025,23,KCHO,0.0,0.0,0.0,0.0,7
2025-01-13,13,2025-01-13 00:53,00:53,EST,S  5,10.0,Fair,CLR,28.9,17.1,61.0,25.0,,30.03,1017.2,0.0,0.0,0.0,2025-01-16,1,2025,0,KCHO,0.0,0.0,0.0,0.0,5
2025-01-13,13,2025-01-13 01:53,01:53,EST,S  5,10.0,Fair,CLR,26.1,17.1,69.0,21.0,,30.03,1017.2,0.0,0.0,0.0,2025-01-16,1,2025,1,KCHO,0.0,0.0,0.0,0.0,5
2025-01-13,13,2025-01-13 02:53,02:53,EST,S  7,10.0,Fair,CLR,27.0,17.1,66.0,20.0,,30.03,1017.1,0.0,0.0,0.0,2025-01-16,1,2025,2,KCHO,0.0,0.0,0.0,0.0,7
2025-01-13,13,2025-01-13 03:53,03:53,EST,SW  3,10.0,Fair,CLR,28.0,17.1,63.0,,,30.01,1016.7,0.0,0.0,0.0,2025-01-16,1,2025,3,KCHO,0.0,0.0,0.0,0.0,3
2025-01-13,13,2025-01-13 04:53,04:53,EST,Vrbl  3,10.0,Fair,CLR,26.1,17.1,69.0,,,30.02,1016.9,0.0,0.0,0.0,2025-01-16,1,2025,4,KCHO,0.0,0.0,0.0,0.0,3
2025-01-13,13,2025-01-13 05:53,05:53,EST,S  5,10.0,Fair,CLR,24.1,17.1,75.0,19.0,,30.03,1017.5,0.0,0.0,0.0,2025-01-16,1,2025,5,KCHO,0.0,0.0,0.0,0.0,5
2025-01-13,13,2025-01-13 06:53,06:53,EST,SW  3,10.0,Fair,CLR,30.0,19.0,64.0,,,30.03,1017.4,0.0,0.0,0.0,2025-01-16,1,2025,6,KCHO,0.0,0.0,0.0,0.0,3
2025-01-13,13,2025-01-13 07:53,07:53,EST,S  5,10.0,Fair,CLR,32.0,19.9,61.0,28.0,,30.05,1017.9,0.0,0.0,0.0,2025-01-16,1,2025,7,KCHO,0.0,0.0,0.0,0.0,5
2025-01-13,13,2025-01-13 08:53,08:53,EST,Calm,10.0,Fair,CLR,36.0,21.9,57.0,,,30.04,1017.7,0.0,0.0,0.0,2025-01-16,1,2025,8,KCHO,0.0,0.0,0.0,0.0,0
2025-01-13,13,2025-01-13 09:53,09:53,EST,SW  7,10.0,Partly Cloudy,SCT049,41.0,25.0,53.0,37.0,,30.06,1018.2,0.0,0.0,0.0,2025-01-16,1,2025,9,KCHO,0.0,0.0,0.0,0.0,7
2025-01-13,13,2025-01-13 10:53,10:53,EST,SW  7,10.0,Partly Cloudy,SCT050,43.0,26.1,51.0,39.0,,30.05,1017.9,0.0,0.0,0.0,2025-01-16,1,2025,10,KCHO,0.0,0.0,0.0,0.0,7
2025-01-13,13,2025-01-13 11:53,11:53,EST,SW  7,10.0,Fair,CLR,45.0,25.0,46.0,42.0,,30.02,1016.7,0.0,0.0,0.0,2025-01-16,1,2025,11,KCHO,0.0,0.0,0.0,0.0,7
2025-01-13,13,2025-01-13 12:53,12:53,EST,Calm,10.0,Fair,CLR,46.0,25.0,44.0,,,29.99,1015.8,0.0,0.0,0.0,2025-01-16,1,2025,12,KCHO,0.0,0.0,0.0,0.0,0
2025-01-13,13,2025-01-13 13:53,13:53,EST,Vrbl  7  G 18,10.0,Fair,CLR,46.9,24.1,41.0,44.0,,29.96,1014.8,0.0,0.0,0.0,2025-01-16,1,2025,13,KCHO,0.0,0.0,0.0,0.0,7
2025-01-13,13,2025-01-13 14:53,14:53,EST,Vrbl  3  G 18,10.0,Fair,CLR,46.9,23.0,39.0,,,29.98,1015.4,0.0,0.0,0.0,2025-01-16,1,2025,14,KCHO,0.0,0.0,0.0,0.0,3
2025-01-13,13,2025-01-13 15:53,15:53,EST,Vrbl  6,10.0,Fair,CLR,46.0,21.9,38.0,44.0,,29.99,1016.0,0.0,0.0,0.0,2025-01-16,1,2025,15,KCHO,0.0,0.0,0.0,0.0,6
2025-01-13,13,2025-01-13 16:53,16:53,EST,W  10,10.0,Fair,CLR,44.1,19.9,38.0,39.0,,30.01,1016.4,0.0,0.0,0.0,2025-01-16,1,2025,16,KCHO,0.0,0.0,0.0,0.0,10
2025-01-13,13,2025-01-13 17:53,17:53,EST,W  6,10.0,Fair,CLR,42.1,19.0,40.0,39.0,,30.02,1017.0,0.0,0.0,0.0,2025-01-16,1,2025,17,KCHO,0.0,0.0,0.0,0.0,6
2025-01-13,13,2025-01-13 18:53,18:53,EST,W  8,10.0,Fair,CLR,41.0,19.0,41.0,36.0,,30.03,1017.2,0.0,0.0,0.0,2025-01-16,1,2025,18,KCHO,0.0,0.0,0.0,0.0,8
2025-01-13,13,2025-01-13 19:53,19:53,EST,SE  5,10.0,Fair,CLR,37.0,19.9,50.0,34.0,,30.04,1017.5,0.0,0.0,0.0,2025-01-16,1,2025,19,KCHO,0.0,0.0,0.0,0.0,5
2025-01-13,13,2025-01-13 20:53,20:53,EST,SE  6,10.0,Fair,CLR,36.0,19.9,52.0,32.0,,30.04,1017.4,0.0,0.0,0.0,2025-01-16,1,2025,20,KCHO,0.0,0.0,0.0,0.0,6
2025-01-13,13,2025-01-13 21:53,21:53,EST,Vrbl  5,10.0,Fair,CLR,37.9,19.0,46.0,35.0,,30.02,1016.9,0.0,0.0,0.0,2025-01-16,1,2025,21,KCHO,0.0,0.0,0.0,0.0,5
2025-01-13,13,2025-01-13 22:53,22:53,EST,SW  6,10.0,Fair,CLR,37.0,18.0,46.0,33.0,,30.03,1017.1,0.0,0.0,0.0,2025-01-16,1,2025,22,KCHO,0.0,0.0,0.0,0.0,6
2025-01-13,13,2025-01-13 23:53,23:53,EST,S  9  G 20,10.0,Fair,CLR,36.0,17.1,46.0,30.0,,30.03,1017.2,0.0,0.0,0.0,2025-01-17,1,2025,23,KCHO,0.0,0.0,0.0,0.0,9
2025-01-14,14,2025-01-14 00:53,00:53,EST,Calm,10.0,Fair,CLR,36.0,15.1,42.0,,,30.03,1017.2,0.0,0.0,0.0,2025-01-17,1,2025,0,KCHO,0.0,0.0,0.0,0.0,0
2025-01-14,14,2025-01-14 01:53,01:53,EST,S  5,10.0,Fair,CLR,32.0,12.9,45.0,28.0,,30.04,1017.6,0.0,0.0,0.0,2025-01-17,1,2025,1,KCHO,0.0,0.0,0.0,0.0,5
2025-01-14,14,2025-01-14 02:53,02:53,EST,Calm,10.0,Fair,CLR,32.0,12.0,43.0,,,30.07,1018.3,0.0,0.0,0.0,2025-01-17,1,2025,2,KCHO,0.0,0.0,0.0,0.0,0
2025-01-14,14,2025-01-14 03:53,03:53,EST,Vrbl  3,10.0,Fair,CLR,32.0,10.0,40.0,,,30.08,1018.6,0.0,0.0,0.0,2025-01-17,1,2025,3,KCHO,0.0,0.0,0.0,0.0,3
2025-01-14,14,2025-01-14 04:53,04:53,EST,Vrbl  3,10.0,Fair,CLR,32.0,7.0,35.0,,,30.08,1019.0,0.0,0.0,0.0,2025-01-17,1,2025,4,KCHO,0.0,0.0,0.0,0.0,3
2025-01-14,14,2025-01-14 05:53,05:53,EST,Calm,10.0,Fair,CLR,30.9,6.1,35.0,,,30.11,1019.9,0.0,0.0,0.0,2025-01-17,1,2025,5,KCHO,0.0,0.0,0.0,0.0,0
2025-01-14,14,2025-01-14 06:53,06:53,EST,NW  6  G 21,10.0,Fair,CLR,30.0,5.0,34.0,25.0,,30.14,1020.7,0.0,0.0,0.0,2025-01-17,1,2025,6,KCHO,0.0,0.0,0.0,0.0,6
2025-01-14,14,2025-01-14 07:53,07:53,EST,NW  5,10.0,Fair,CLR,28.0,5.0,37.0,24.0,,30.17,1022.0,0.0,0.0,0.0,2025-01-17,1,2025,7,KCHO,0.0,0.0,0.0,0.0,5
2025-01-14,14,2025-01-14 08:53,08:53,EST,NE  3,10.0,Fair,CLR,30.0,6.1,36.0,,,30.19,1022.8,0.0,0.0,0.0,2025-01-17,1,2025,8,KCHO,0.0,0.0,0.0,0.0,3
2025-01-14,14,2025-01-14 09:53,09:53,EST,NW  6,10.0,Fair,CLR,30.9,3.9,31.0,26.0,,30.2,1023.0,0.0,0.0,0.0,2025-01-17,1,2025,9,KCHO,0.0,0.0,0.0,0.0,6
2025-01-14,14,2025-01-14 10:53,10:53,EST,S  5,10.0,Fair,CLR,32.0,3.9,30.0,28.0,,30.2,1022.9,0.0,0.0,0.0,2025-01-17,1,2025,10,KCHO,0.0,0.0,0.0,0.0,5
2025-01-14,14,2025-01-14 11:53,11:53,EST,Vrbl  7  G 17,10.0,Fair,CLR,32.0,6.1,33.0,26.0,,30.16,1021.8,0.0,0.0,0.0,2025-01-17,1,2025,11,KCHO,0.0,0.0,0.0,0.0,7
2025-01-14,14,2025-01-14 12:53,12:53,EST,SW  12  G 18,10.0,Fair,CLR,33.1,6.1,32.0,25.0,,30.12,1020.3,0.0,0.0,0.0,2025-01-17,1,2025,12,KCHO,0.0,0.0,0.0,0.0,12
2025-01-14,14,2025-01-14 13:53,13:53,EST,Vrbl  6,10.0,Fair,CLR,36.0,5.0,27.0,32.0,,30.1,1019.8,0.0,0.0,0.0,2025-01-17,1,2025,13,KCHO,0.0,0.0,0.0,0.0,6
2025-01-14,14,2025-01-14 14:53,14:53,EST,Vrbl  6,10.0,Fair,CLR,37.0,5.0,26.0,33.0,,30.06,1018.3,0.0,0.0,0.0,2025-01-17,1,2025,14,KCHO,0.0,0.0,0.0,0.0,6
2025-01-14,14,2025-01-14 15:53,15:53,EST,Vrbl  7,10.0,Fair,CLR,37.9,6.1,26.0,33.0,,30.06,1018.3,0.0,0.0,0.0,2025-01-17,1,2025,15,KCHO,0.0,0.0,0.0,0.0,7
2025-01-14,14,2025-01-14 16:53,16:53,EST,SW  6,10.0,Mostly Cloudy,FEW075 BKN100,37.0,8.1,30.0,33.0,,30.06,1018.2,0.0,0.0,0.0,2025-01-17,1,2025,16,KCHO,0.0,0.0,0.0,0.0,6
2025-01-14,14,2025-01-14 17:53,17:53,EST,S  7,10.0,Overcast,OVC070,36.0,12.0,37.0,31.0,,30.06,1018.2,0.0,0.0,0.0,2025-01-17,1,2025,17,KCHO,0.0,0.0,0.0,0.0,7
2025-01-14,14,2025-01-14 18:53,18:53,EST,SW  5,10.0,Overcast,BKN065 OVC090,35.1,12.0,38.0,32.0,,30.06,1018.2,0.0,0.0,0.0,2025-01-17,1,2025,18,KCHO,0.0,0.0,0.0,0.0,5
2025-01-14,14,2025-01-14 19:53,19:53,EST,Vrbl  3,10.0,Overcast,BKN070 OVC080,36.0,12.9,39.0,,,30.08,1019.0,0.0,0.0,0.0,2025-01-17,1,2025,19,KCHO,0.0,0.0,0.0,0.0,3
2025-01-14,14,2025-01-14 20:53,20:53,EST,NW  8  G 21,10.0,Overcast,BKN070 OVC080,37.0,12.0,36.0,32.0,,30.09,1019.2,0.0,0.0,0.0,2025-01-17,1,2025,20,KCHO,0.0,0.0,0.0,0.0,8
2025-01-14,14,2025-01-14 21:53,21:53,EST,NW  12  G 23,10.0,Mostly Cloudy,BKN070,36.0,10.9,35.0,29.0,,30.11,1020.0,0.0,0.0,0.0,2025-01-17,1,2025,21,KCHO,0.0,0.0,0.0,0.0,12
2025-01-14,14,2025-01-14 22:53,22:53,EST,NW  13  G 33,10.0,Partly Cloudy,SCT060,32.0,8.1,36.0,23.0,,30.16,1021.8,0.0,0.0,0.0,2025-01-17,1,2025,22,KCHO,0.0,0.0,0.0,0.0,13
2025-01-14,14,2025-01-14 23:53,23:53,EST,NW  9  G 18,10.0,A Few Clouds,FEW060,28.9,7.0,39.0,21.0,,30.21,1023.4,0.0,0.0,0.0,2025-01-17,1,2025,23,KCHO,0.0,0.0,0.0,0.0,9
2025-01-15,15,2025-01-15 00:53,00:53,EST,NW  9  G 23,10.0,Mostly Cloudy,BKN055,26.1,6.1,42.0,18.0,,30.24,1024.4,0.0,0.0,0.0,2025-01-18,1,2025,0,KCHO,0.0,0.0,0.0,0.0,9
2025-01-15,15,2025-01-15 01:53,01:53,EST,N  8  G 18,10.0,A Few Clouds,FEW055,24.1,6.1,46.0,16.0,,30.28,1025.7,0.0,0.0,0.0,2025-01-18,1,2025,1,KCHO,0.0,0.0,0.0,0.0,8
2025-01-15,15,2025-01-15 02:53,02:53,EST,N  5,10.0,Fair,CLR,23.0,5.0,46.0,18.0,,30.29,1026.3,0.0,0.0,0.0,2025-01-18,1,2025,2,KCHO,0.0,0.0,0.0,0.0,5
2025-01-15,15,2025-01-15 03:53,03:53,EST,Vrbl  5,10.0,Fair,CLR,21.9,3.9,46.0,16.0,,30.32,1027.1,0.0,0.0,0.0,2025-01-18,1,2025,3,KCHO,0.0,0.0,0.0,0.0,5
2025-01-15,15,2025-01-15 04:53,04:53,EST,W  5,10.0,Fair,CLR,21.0,3.0,45.0,15.0,,30.33,1027.7,0.0,0.0,0.0,2025-01-18,1,2025,4,KCHO,0.0,0.0,0.0,0.0,5
2025-01-15,15,2025-01-15 05:53,05:53,EST,NW  3,10.0,Fair,CLR,19.9,3.0,48.0,,,30.35,1028.2,0.0,0.0,0.0,2025-01-18,1,2025,5,KCHO,0.0,0.0,0.0,0.0,3
2025-01-15,15,2025-01-15 06:53,06:53,EST,Calm,10.0,Fair,CLR,19.0,1.9,47.0,,,30.35,1028.4,0.0,0.0,0.0,2025-01-18,1,2025,6,KCHO,0.0,0.0,0.0,0.0,0
2025-01-15,15,2025-01-15 07:53,07:53,EST,S  3,10.0,Fair,CLR,19.0,1.9,47.0,,,30.36,1028.8,0.0,0.0,0.0,2025-01-18,1,2025,7,KCHO,0.0,0.0,0.0,0.0,3
2025-01-15,15,2025-01-15 08:53,08:53,EST,Calm,10.0,Fair,CLR,21.0,3.0,45.0,,,30.38,1029.2,0.0,0.0,0.0,2025-01-18,1,2025,8,KCHO,0.0,0.0,0.0,0.0,0
2025-01-15,15,2025-01-15 09:53,09:53,EST,Calm,10.0,Fair,CLR,24.1,3.0,40.0,,,30.39,1029.5,0.0,0.0,0.0,2025-01-18,1,2025,9,KCHO,0.0,0.0,0.0,0.0,0
2025-01-15,15,2025-01-15 10:53,10:53,EST,Vrbl  6,10.0,Fair,CLR,26.1,1.9,35.0,20.0,,30.39,1029.6,0.0,0.0,0.0,2025-01-18,1,2025,10,KCHO,0.0,0.0,0.0,0.0,6
2025-01-15,15,2025-01-15 11:53,11:53,EST,N  6,10.0,Fair,CLR,28.0,1.9,32.0,22.0,,30.36,1028.5,0.0,0.0,0.0,2025-01-18,1,2025,11,KCHO,0.0,0.0,0.0,0.0,6
2025-01-15,15,2025-01-15 12:53,12:53,EST,Vrbl  6,10.0,Fair,CLR,28.9,3.0,33.0,23.0,,30.32,1027.4,0.0,0.0,0.0,2025-01-18,1,2025,12,KCHO,0.0,0.0,0.0,0.0,6
2025-01-15,15,2025-01-15 13:53,13:53,EST,NW  8,10.0,Fair,CLR,30.0,3.0,31.0,23.0,,30.3,1026.5,0.0,0.0,0.0,2025-01-18,1,2025,13,KCHO,0.0,0.0,0.0,0.0,8
2025-01-15,15,2025-01-15 14:53,14:53,EST,Vrbl  3,10.0,Fair,CLR,32.0,5.0,32.0,,,30.29,1026.4,0.0,0.0,0.0,2025-01-18,1,2025,14,KCHO,0.0,0.0,0.0,0.0,3
2025-01-15,15,2025-01-15 15:53,15:53,EST,Calm,10.0,Fair,CLR,32.0,3.9,30.0,,,30.28,1026.1,0.0,0.0,0.0,2025-01-18,1,2025,15,KCHO,0.0,0.0,0.0,0.0,0
2025-01-15,15,2025-01-15 16:53,16:53,EST,N  3,10.0,Fair,CLR,30.9,3.9,31.0,,,30.28,1025.8,0.0,0.0,0.0,2025-01-18,1,2025,16,KCHO,0.0,0.0,0.0,0.0,3
2025-01-15,15,2025-01-15 18:53,18:53,EST,NW  3,10.0,Fair,CLR,28.0,3.9,35.0,,,30.28,1026.0,0.0,0.0,0.0,2025-01-18,1,2025,18,KCHO,0.0,0.0,0.0,0.0,3
2025-01-15,15,2025-01-15 19:53,19:53,EST,N  3,10.0,Fair,CLR,26.1,3.9,38.0,,,30.28,1026.0,0.0,0.0,0.0,2025-01-18,1,2025,19,KCHO,0.0,0.0,0.0,0.0,3
2025-01-15,15,2025-01-15 20:53,20:53,EST,Calm,10.0,Fair,CLR,24.1,5.0,44.0,,,30.26,1025.5,0.0,0.0,0.0,2025-01-18,1,2025,20,KCHO,0.0,0.0,0.0,0.0,0
2025-01-15,15,2025-01-15 21:53,21:53,EST,Calm,10.0,Fair,CLR,23.0,6.1,48.0,,,30.27,1025.6,0.0,0.0,0.0,2025-01-18,1,2025,21,KCHO,0.0,0.0,0.0,0.0,0
2025-01-15,15,2025-01-15 22:53,22:53,EST,SW  3,10.0,Fair,CLR,21.9,5.0,48.0,,,30.26,1025.3,0.0,0.0,0.0,2025-01-18,1,2025,22,KCHO,0.0,0.0,0.0,0.0,3
2025-01-15,15,2025-01-15 23:53,23:53,EST,W  3,10.0,Fair,CLR,21.9,6.1,50.0,,,30.24,1024.8,0.0,0.0,0.0,2025-01-18,1,2025,23,KCHO,0.0,0.0,0.0,0.0,3
2025-01-16,16,2025-01-16 00:53,00:53,EST,Calm,10.0,Fair,CLR,21.9,5.0,48.0,,,30.21,1023.7,0.0,0.0,0.0,2025-01-19,1,2025,0,KCHO,0.0,0.0,0.0,0.0,0
2025-01-16,16,2025-01-16 01:53,01:53,EST,Calm,10.0,Fair,CLR,21.9,3.9,46.0,,,30.19,1023.0,0.0,0.0,0.0,2025-01-19,1,2025,1,KCHO,0.0,0.0,0.0,0.0,0
2025-01-16,16,2025-01-16 02:53,02:53,EST,S  3,10.0,Fair,CLR,21.9,1.9,42.0,,,30.17,1022.3,0.0,0.0,0.0,2025-01-19,1,2025,2,KCHO,0.0,0.0,0.0,0.0,3
2025-01-16,16,2025-01-16 03:53,03:53,EST,SW  5,10.0,Fair,CLR,21.9,3.0,44.0,16.0,,30.15,1021.5,0.0,0.0,0.0,2025-01-19,1,2025,3,KCHO,0.0,0.0,0.0,0.0,5
2025-01-16,16,2025-01-16 04:53,04:53,EST,S  5,10.0,Overcast,OVC090,19.0,8.1,62.0,13.0,,30.11,1020.4,0.0,0.0,0.0,2025-01-19,1,2025,4,KCHO,0.0,0.0,0.0,0.0,5
2025-01-16,16,2025-01-16 05:53,05:53,EST,S  5,10.0,Overcast,OVC085,21.0,10.0,62.0,15.0,,30.1,1019.9,0.0,0.0,0.0,2025-01-19,1,2025,5,KCHO,0.0,0.0,0.0,0.0,5
2025-01-16,16,2025-01-16 06:53,06:53,EST,S  5,10.0,Mostly Cloudy,BKN090,21.0,8.1,57.0,15.0,,30.09,1019.4,0.0,0.0,0.0,2025-01-19,1,2025,6,KCHO,0.0,0.0,0.0,0.0,5
2025-01-16,16,2025-01-16 08:53,08:53,EST,S  5,10.0,Overcast,OVC095,23.0,10.0,57.0,18.0,,30.05,1018.2,0.0,0.0,0.0,2025-01-19,1,2025,8,KCHO,0.0,0.0,0.0,0.0,5
2025-01-16,16,2025-01-16 09:53,09:53,EST,SW  7,10.0,Overcast,OVC100,24.1,10.0,55.0,17.0,,30.01,1016.8,0.0,0.0,0.0,2025-01-19,1,2025,9,KCHO,0.0,0.0,0.0,0.0,7
2025-01-16,16,2025-01-16 10:53,10:53,EST,S  9,10.0,Mostly Cloudy,BKN085,26.1,12.0,55.0,18.0,,29.98,1015.7,0.0,0.0,0.0,2025-01-19,1,2025,10,KCHO,0.0,0.0,0.0,0.0,9
2025-01-16,16,2025-01-16 11:53,11:53,EST,S  9,10.0,A Few Clouds,FEW120,28.9,14.0,54.0,21.0,,29.92,1013.6,0.0,0.0,0.0,2025-01-19,1,2025,11,KCHO,0.0,0.0,0.0,0.0,9
2025-01-16,16,2025-01-16 12:53,12:53,EST,S  12,10.0,Mostly Cloudy,BKN050 BKN100,34.0,16.0,48.0,26.0,,29.86,1011.5,0.0,0.0,0.0,2025-01-19,1,2025,12,KCHO,0.0,0.0,0.0,0.0,12
2025-01-16,16,2025-01-16 13:53,13:53,EST,S  10,10.0,Fair,CLR,37.9,18.0,44.0,32.0,,29.81,1009.9,0.0,0.0,0.0,2025-01-19,1,2025,13,KCHO,0.0,0.0,0.0,0.0,10
2025-01-16,16,2025-01-16 14:53,14:53,EST,SW  8,10.0,A Few Clouds,FEW050,42.1,21.0,43.0,38.0,,29.78,1008.9,0.0,0.0,0.0,2025-01-19,1,2025,14,KCHO,0.0,0.0,0.0,0.0,8
2025-01-16,16,2025-01-16 15:53,15:53,EST,SW  9,10.0,Partly Cloudy,SCT120,42.1,21.9,45.0,37.0,,29.78,1008.6,0.0,0.0,0.0,2025-01-19,1,2025,15,KCHO,0.0,0.0,0.0,0.0,9
2025-01-16,16,2025-01-16 16:53,16:53,EST,S  8,10.0,A Few Clouds,FEW110,41.0,21.9,47.0,36.0,,29.77,1008.5,0.0,0.0,0.0,2025-01-19,1,2025,16,KCHO,0.0,0.0,0.0,0.0,8
2025-01-16,16,2025-01-16 17:53,17:53,EST,SW  5,10.0,Overcast,OVC060,41.0,21.0,45.0,38.0,,29.79,1009.1,0.0,0.0,0.0,2025-01-19,1,2025,17,KCHO,0.0,0.0,0.0,0.0,5
2025-01-16,16,2025-01-16 18:53,18:53,EST,SW  3,10.0,Overcast,OVC065,42.1,21.9,45.0,,,29.8,1009.4,0.0,0.0,0.0,2025-01-19,1,2025,18,KCHO,0.0,0.0,0.0,0.0,3
2025-01-16,16,2025-01-16 19:53,19:53,EST,NW  6,10.0,Overcast,OVC075,44.1,24.1,45.0,41.0,,29.82,1010.1,0.0,0.0,0.0,2025-01-19,1,2025,19,KCHO,0.0,0.0,0.0,0.0,6
2025-01-16,16,2025-01-16 20:53,20:53,EST,NW  8  G 28,10.0,Overcast,BKN070 OVC080,42.1,24.1,49.0,38.0,,29.86,1011.3,0.0,0.0,0.0,2025-01-19,1,2025,20,KCHO,0.0,0.0,0.0,0.0,8
2025-01-16,16,2025-01-16 21:53,21:53,EST,NW  7,10.0,Fair,CLR,41.0,21.9,47.0,37.0,,29.87,1011.7,0.0,0.0,0.0,2025-01-19,1,2025,21,KCHO,0.0,0.0,0.0,0.0,7
2025-01-16,16,2025-01-16 22:53,22:53,EST,W  10  G 21,10.0,A Few Clouds,FEW060,41.0,21.9,47.0,35.0,,29.9,1012.9,0.0,0.0,0.0,2025-01-19,1,2025,22,KCHO,0.0,0.0,0.0,0.0,10
2025-01-16,16,2025-01-16 23:53,23:53,EST,W  10  G 22,10.0,Fair,CLR,39.0,21.0,48.0,33.0,,29.95,1014.5,0.0,0.0,0.0,2025-01-19,1,2025,23,KCHO,0.0,0.0,0.0,0.0,10
2025-01-17,17,2025-01-17 00:53,00:53,EST,Vrbl  3,10.0,Fair,CLR,37.0,19.9,50.0,,,29.96,1014.8,0.0,0.0,0.0,2025-01-20,1,2025,0,KCHO,0.0,0.0,0.0,0.0,3
2025-01-17,17,2025-01-17 01:53,01:53,EST,Vrbl  3,10.0,Overcast,OVC050,37.0,19.0,48.0,,,29.98,1015.6,0.0,0.0,0.0,2025-01-20,1,2025,1,KCHO,0.0,0.0,0.0,0.0,3
2025-01-17,17,2025-01-17 02:53,02:53,EST,NW  7,10.0,Partly Cloudy,SCT048,36.0,19.0,50.0,31.0,,29.99,1015.7,0.0,0.0,0.0,2025-01-20,1,2025,2,KCHO,0.0,0.0,0.0,0.0,7
2025-01-17,17,2025-01-17 03:53,03:53,EST,N  3,10.0,A Few Clouds,FEW050,35.1,19.0,52.0,,,30.01,1016.2,0.0,0.0,0.0,2025-01-20,1,2025,3,KCHO,0.0,0.0,0.0,0.0,3
2025-01-17,17,2025-01-17 04:53,04:53,EST,Calm,10.0,Mostly Cloudy,BKN050,35.1,19.0,52.0,,,30.04,1017.5,0.0,0.0,0.0,2025-01-20,1,2025,4,KCHO,0.0,0.0,0.0,0.0,0
2025-01-17,17,2025-01-17 05:53,05:53,EST,S  6,10.0,Mostly Cloudy,BKN050,30.0,19.9,66.0,25.0,,30.08,1018.9,0.0,0.0,0.0,2025-01-20,1,2025,5,KCHO,0.0,0.0,0.0,0.0,6
2025-01-17,17,2025-01-17 06:53,06:53,EST,SW  5,10.0,Overcast,OVC050,34.0,19.9,56.0,30.0,,30.11,1020.0,0.0,0.0,0.0,2025-01-20,1,2025,6,KCHO,0.0,0.0,0.0,0.0,5
2025-01-17,17,2025-01-17 07:53,07:53,EST,SW  3,10.0,Overcast,OVC050,34.0,19.9,56.0,,,30.14,1020.7,0.0,0.0,0.0,2025-01-20,1,2025,7,KCHO,0.0,0.0,0.0,0.0,3
2025-01-17,17,2025-01-17 08:53,08:53,EST,Calm,10.0,Overcast,OVC050,34.0,23.0,64.0,,,30.16,1021.6,0.0,0.0,0.0,2025-01-20,1,2025,8,KCHO,0.0,0.0,0.0,0.0,0
2025-01-17,17,2025-01-17 09:53,09:53,EST,Calm,10.0,Overcast,OVC050,36.0,21.0,55.0,,,30.18,1022.1,0.0,0.0,0.0,2025-01-20,1,2025,9,KCHO,0.0,0.0,0.0,0.0,0
2025-01-17,17,2025-01-17 11:53,11:53,EST,W  7,10.0,Fair,CLR,39.9,19.0,43.0,36.0,,30.13,1020.5,0.0,0.0,0.0,2025-01-20,1,2025,11,KCHO,0.0,0.0,0.0,0.0,7
2025-01-17,17,2025-01-17 12:53,12:53,EST,Vrbl  6,10.0,Fair,CLR,41.0,21.0,45.0,38.0,,30.11,1019.6,0.0,0.0,0.0,2025-01-20,1,2025,12,KCHO,0.0,0.0,0.0,0.0,6
2025-01-17,17,2025-01-17 13:53,13:53,EST,Vrbl  6,10.0,Fair,CLR,42.1,19.9,41.0,39.0,,30.08,1018.9,0.0,0.0,0.0,2025-01-20,1,2025,13,KCHO,0.0,0.0,0.0,0.0,6
2025-01-17,17,2025-01-17 14:53,14:53,EST,S  3,10.0,Fair,CLR,44.1,21.0,40.0,,,30.07,1018.5,0.0,0.0,0.0,2025-01-20,1,2025,14,KCHO,0.0,0.0,0.0,0.0,3
2025-01-17,17,2025-01-17 15:53,15:53,EST,S  7,10.0,Fair,CLR,43.0,21.0,42.0,39.0,,30.07,1018.5,0.0,0.0,0.0,2025-01-20,1,2025,15,KCHO,0.0,0.0,0.0,0.0,7
2025-01-17,17,2025-01-17 16:53,16:53,EST,S  8,10.0,Fair,CLR,42.1,21.0,43.0,38.0,,30.08,1018.6,0.0,0.0,0.0,2025-01-20,1,2025,16,KCHO,0.0,0.0,0.0,0.0,8
2025-01-17,17,2025-01-17 17:53,17:53,EST,S  5,10.0,Fair,CLR,39.0,21.9,50.0,36.0,,30.08,1018.9,0.0,0.0,0.0,2025-01-20,1,2025,17,KCHO,0.0,0.0,0.0,0.0,5
2025-01-17,17,2025-01-17 18:53,18:53,EST,S  3,10.0,Fair,CLR,37.9,21.0,51.0,,,30.08,1018.8,0.0,0.0,0.0,2025-01-20,1,2025,18,KCHO,0.0,0.0,0.0,0.0,3
2025-01-17,17,2025-01-17 19:53,19:53,EST,S  6,10.0,Fair,CLR,35.1,21.9,59.0,31.0,,30.08,1018.8,0.0,0.0,0.0,2025-01-20,1,2025,19,KCHO,0.0,0.0,0.0,0.0,6
2025-01-17,17,2025-01-17 20:53,20:53,EST,S  6,10.0,Fair,CLR,36.0,21.0,55.0,32.0,,30.09,1019.2,0.0,0.0,0.0,2025-01-20,1,2025,20,KCHO,0.0,0.0,0.0,0.0,6
2025-01-17,17,2025-01-17 21:53,21:53,EST,Calm,10.0,Fair,CLR,34.0,21.0,59.0,,,30.07,1018.7,0.0,0.0,0.0,2025-01-20,1,2025,21,KCHO,0.0,0.0,0.0,0.0,0
2025-01-17,17,2025-01-17 22:53,22:53,EST,Calm,10.0,Fair,CLR,28.9,23.0,78.0,,,30.06,1018.3,0.0,0.0,0.0,2025-01-20,1,2025,22,KCHO,0.0,0.0,0.0,0.0,0
2025-01-17,17,2025-01-17 23:53,23:53,EST,Calm,10.0,Fair,CLR,30.0,19.9,66.0,,,30.05,1017.8,0.0,0.0,0.0,2025-01-20,1,2025,23,KCHO,0.0,0.0,0.0,0.0,0
2025-01-18,18,2025-01-18 00:53,00:53,EST,S  12,10.0,Fair,CLR,33.1,21.9,64.0,25.0,,30.02,1016.9,0.0,0.0,0.0,2025-01-21,1,2025,0,KCHO,0.0,0.0,0.0,0.0,12
2025-01-18,18,2025-01-18 01:53,01:53,EST,SW  3,10.0,Fair,CLR,32.0,21.9,66.0,,,30.0,1016.3,0.0,0.0,0.0,2025-01-21,1,2025,1,KCHO,0.0,0.0,0.0,0.0,3
2025-01-18,18,2025-01-18 02:53,02:53,EST,S  6,10.0,Fair,CLR,30.9,23.0,72.0,26.0,,29.99,1015.9,0.0,0.0,0.0,2025-01-21,1,2025,2,KCHO,0.0,0.0,0.0,0.0,6
2025-01-18,18,2025-01-18 03:53,03:53,EST,SW  6,10.0,Fair,CLR,33.1,23.0,66.0,28.0,,29.98,1015.4,0.0,0.0,0.0,2025-01-21,1,2025,3,KCHO,0.0,0.0,0.0,0.0,6
2025-01-18,18,2025-01-18 04:53,04:53,EST,S  5,10.0,Fair,CLR,33.1,24.1,70.0,29.0,,29.95,1014.5,0.0,0.0,0.0,2025-01-21,1,2025,4,KCHO,0.0,0.0,0.0,0.0,5
2025-01-18,18,2025-01-18 05:53,05:53,EST,S  8,10.0,Overcast,BKN100 OVC120,34.0,25.0,70.0,28.0,,29.95,1014.5,0.0,0.0,0.0,2025-01-21,1,2025,5,KCHO,0.0,0.0,0.0,0.0,8
2025-01-18,18,2025-01-18 06:53,06:53,EST,Calm,10.0,Light Rain,OVC046,33.1,28.0,82.0,,,29.94,1014.3,0.0,0.0,0.0,2025-01-21,1,2025,6,KCHO,0.0,0.0,0.0,0.0,0
2025-01-18,18,2025-01-18 07:53,07:53,EST,Calm,10.0,Light Rain,BKN055 OVC075,33.1,28.9,85.0,,,29.91,1013.2,0.0,0.0,0.0,2025-01-21,1,2025,7,KCHO,0.0,0.0,0.0,0.0,0
2025-01-18,18,2025-01-18 09:53,09:53,EST,S  9,10.0,Overcast,SCT024 OVC060,34.0,28.9,82.0,27.0,,29.91,1013.2,0.0,0.0,0.0,2025-01-21,1,2025,9,KCHO,0.0,0.0,0.0,0.0,9
2025-01-18,18,2025-01-18 11:53,11:53,EST,S  10,10.0,Overcast,OVC060,36.0,30.0,79.0,29.0,,29.84,1010.9,0.0,0.0,0.0,2025-01-21,1,2025,11,KCHO,0.0,0.0,0.0,0.0,10
2025-01-18,18,2025-01-18 12:53,12:53,EST,S  9,10.0,Overcast,OVC055,37.9,30.9,76.0,32.0,,29.77,1008.5,0.0,0.0,0.0,2025-01-21,1,2025,12,KCHO,0.0,0.0,0.0,0.0,9
2025-01-18,18,2025-01-18 13:53,13:53,EST,S  5,10.0,Mostly Cloudy,BKN060,41.0,33.1,73.0,38.0,,29.74,1007.3,0.0,0.0,0.0,2025-01-21,1,2025,13,KCHO,0.0,0.0,0.0,0.0,5
2025-01-18,18,2025-01-18 14:53,14:53,EST,S  10,10.0,Fair,CLR,44.1,34.0,68.0,39.0,,29.72,1006.7,0.0,0.0,0.0,2025-01-21,1,2025,14,KCHO,0.0,0.0,0.0,0.0,10
2025-01-18,18,2025-01-18 15:53,15:53,EST,SW  7,10.0,Fair,CLR,45.0,34.0,66.0,42.0,,29.72,1006.5,0.0,0.0,0.0,2025-01-21,1,2025,15,KCHO,0.0,0.0,0.0,0.0,7
2025-01-18,18,2025-01-18 16:53,16:53,EST,S  7,10.0,Fair,CLR,42.1,34.0,73.0,38.0,,29.74,1007.4,0.0,0.0,0.0,2025-01-21,1,2025,16,KCHO,0.0,0.0,0.0,0.0,7
2025-01-18,18,2025-01-18 17:53,17:53,EST,S  5,10.0,Mostly Cloudy,BKN100,43.0,33.1,68.0,41.0,,29.76,1007.9,0.0,0.0,0.0,2025-01-21,1,2025,17,KCHO,0.0,0.0,0.0,0.0,5
2025-01-18,18,2025-01-18 18:53,18:53,EST,SW  6,10.0,Fair,CLR,41.0,33.1,73.0,38.0,,29.78,1008.6,0.0,0.0,0.0,2025-01-21,1,2025,18,KCHO,0.0,0.0,0.0,0.0,6
2025-01-18,18,2025-01-18 19:53,19:53,EST,W  3,10.0,A Few Clouds,FEW065,41.0,34.0,76.0,,,29.78,1008.7,0.0,0.0,0.0,2025-01-21,1,2025,19,KCHO,0.0,0.0,0.0,0.0,3
2025-01-18,18,2025-01-18 20:53,20:53,EST,Calm,10.0,Mostly Cloudy,BKN100,39.0,33.1,79.0,,,29.79,1009.0,0.0,0.0,0.0,2025-01-21,1,2025,20,KCHO,0.0,0.0,0.0,0.0,0
2025-01-18,18,2025-01-18 21:53,21:53,EST,Calm,10.0,Fair,CLR,39.0,33.1,79.0,,,29.79,1009.1,0.0,0.0,0.0,2025-01-21,1,2025,21,KCHO,0.0,0.0,0.0,0.0,0
2025-01-18,18,2025-01-18 22:53,22:53,EST,Calm,10.0,Mostly Cloudy,BKN100,37.0,32.0,82.0,,,29.8,1009.3,0.0,0.0,0.0,2025-01-21,1,2025,22,KCHO,0.0,0.0,0.0,0.0,0
2025-01-18,18,2025-01-18 23:53,23:53,EST,SW  3,10.0,Mostly Cloudy,BKN100,37.9,34.0,86.0,,,29.8,1009.4,0.0,0.0,0.0,2025-01-21,1,2025,23,KCHO,0.0,0.0,0.0,0.0,3
2025-01-19,19,2025-01-19 00:53,00:53,EST,N  3,10.0,Overcast,OVC100,36.0,32.0,86.0,,,29.78,1008.5,0.0,0.0,0.0,2025-01-22,1,2025,0,KCHO,0.0,0.0,0.0,0.0,3
2025-01-19,19,2025-01-19 01:53,01:53,EST,Calm,10.0,Overcast,OVC100,35.1,32.0,89.0,,,29.78,1008.8,0.0,0.0,0.0,2025-01-22,1,2025,1,KCHO,0.0,0.0,0.0,0.0,0
2025-01-19,19,2025-01-19 02:53,02:53,EST,NE  3,10.0,Overcast,OVC100,36.0,32.0,86.0,,,29.79,1008.9,0.0,0.0,0.0,2025-01-22,1,2025,2,KCHO,0.0,0.0,0.0,0.0,3
2025-01-19,19,2025-01-19 03:53,03:53,EST,Calm,10.0,Overcast,SCT070 OVC095,35.1,30.9,85.0,,,29.79,1008.8,0.0,0.0,0.0,2025-01-22,1,2025,3,KCHO,0.0,0.0,0.0,0.0,0
2025-01-19,19,2025-01-19 04:53,04:53,EST,Calm,10.0,Overcast,BKN070 OVC100,36.0,32.0,86.0,,,29.78,1008.5,0.0,0.0,0.0,2025-01-22,1,2025,4,KCHO,0.0,0.0,0.0,0.0,0
2025-01-19,19,2025-01-19 05:53,05:53,EST,Calm,10.0,Overcast,SCT065 OVC095,35.1,32.0,89.0,,,29.8,1009.2,0.0,0.0,0.0,2025-01-22,1,2025,5,KCHO,0.0,0.0,0.0,0.0,0
2025-01-19,19,2025-01-19 06:53,06:53,EST,N  3,10.0,Overcast,FEW032 BKN065 OVC080,37.0,32.0,82.0,,,29.8,1009.3,0.0,0.0,0.0,2025-01-22,1,2025,6,KCHO,0.0,0.0,0.0,0.0,3
2025-01-19,19,2025-01-19 07:53,07:53,EST,NE  6,10.0,Overcast,OVC032,37.0,33.1,86.0,33.0,,29.8,1009.3,0.0,0.0,0.0,2025-01-22,1,2025,7,KCHO,0.0,0.0,0.0,0.0,6
2025-01-19,19,2025-01-19 08:53,08:53,EST,N  6,10.0,Overcast,OVC032,37.0,33.1,86.0,33.0,,29.81,1009.7,0.0,0.0,0.0,2025-01-22,1,2025,8,KCHO,0.0,0.0,0.0,0.0,6
2025-01-19,19,2025-01-19 09:53,09:53,EST,E  5,7.0,Light Rain,SCT019 OVC032,37.0,34.0,89.0,34.0,,29.8,1009.4,0.0,0.0,0.0,2025-01-22,1,2025,9,KCHO,0.0,0.0,0.0,0.0,5
2025-01-19,19,2025-01-19 10:53,10:53,EST,N  3,5.0,Light Rain Fog/Mist,BKN010 OVC018,36.0,34.0,93.0,,,29.79,1009.0,0.01,0.0,0.0,2025-01-22,1,2025,10,KCHO,0.01,0.01,0.01,0.01,3
2025-01-19,19,2025-01-19 11:53,11:53,EST,N  8,2.0,Light Rain Fog/Mist,BKN006 OVC012,35.1,33.1,93.0,29.0,,29.73,1007.0,0.04,0.0,0.0,2025-01-22,1,2025,11,KCHO,0.05,0.05,0.05,0.05,8
2025-01-19,19,2025-01-19 12:53,12:53,EST,N  5,1.25,Overcast,OVC004,34.0,32.0,92.0,30.0,,29.67,1005.0,0.02,0.0,0.07,2025-01-22,1,2025,12,KCHO,0.07,0.07,0.07,0.07,5
2025-01-19,19,2025-01-19 13:53,13:53,EST,N  5,1.5,Overcast,OVC004,34.0,33.1,97.0,30.0,,29.64,1004.1,0.0,0.0,0.0,2025-01-22,1,2025,13,KCHO,0.06,0.07,0.07,0.07,5
2025-01-19,19,2025-01-19 14:53,14:53,EST,Vrbl  6,4.0,Overcast,BKN003 OVC018,35.1,33.1,93.0,31.0,,29.68,1005.2,0.02,0.0,0.0,2025-01-22,1,2025,14,KCHO,0.04,0.09,0.09,0.09,6
2025-01-19,19,2025-01-19 15:53,15:53,EST,N  8,10.0,Light Rain,FEW035 SCT046 OVC055,36.0,32.0,86.0,30.0,,29.7,1006.1,0.02,0.04,0.0,2025-01-22,1,2025,15,KCHO,0.04,0.11,0.11,0.11,8
2025-01-19,19,2025-01-19 16:53,16:53,EST,N  9  G 17,10.0,Overcast,BKN070 OVC090,36.0,30.0,79.0,30.0,,29.73,1006.9,0.0,0.0,0.0,2025-01-22,1,2025,16,KCHO,0.04,0.1,0.11,0.11,9
2025-01-19,19,2025-01-19 17:53,17:53,EST,NW  8,10.0,Overcast,SCT030 BKN036 OVC055,35.1,28.0,76.0,29.0,,29.79,1009.2,0.0,0.0,0.0,2025-01-22,1,2025,17,KCHO,0.02,0.06,0.11,0.11,8
2025-01-19,19,2025-01-19 18:53,18:53,EST,N  7,10.0,A Few Clouds,FEW046,33.1,25.0,72.0,28.0,,29.84,1010.7,0.0,0.0,0.04,2025-01-22,1,2025,18,KCHO,0.0,0.039999999999999994,0.11,0.11,7
2025-01-19,19,2025-01-19 19:53,19:53,EST,Vrbl  3,10.0,A Few Clouds,FEW041,32.0,19.0,59.0,,,29.88,1012.0,0.0,0.0,0.0,2025-01-22,1,2025,19,KCHO,0.0,0.039999999999999994,0.11,0.11,3
2025-01-19,19,2025-01-19 20:53,20:53,EST,N  8,10.0,Overcast,OVC044,30.9,17.1,56.0,24.0,,29.92,1013.6,0.0,0.0,0.0,2025-01-22,1,2025,20,KCHO,0.0,0.02,0.11,0.11,8
2025-01-19,19,2025-01-19 21:53,21:53,EST,NW  10,10.0,Fair,CLR,28.9,14.0,54.0,20.0,,29.96,1014.9,0.0,0.0,0.0,2025-01-22,1,2025,21,KCHO,0.0,0.0,0.11,0.11,10
2025-01-19,19,2025-01-19 22:53,22:53,EST,Vrbl  3,10.0,Fair,CLR,28.0,12.9,53.0,,,29.99,1015.8,0.0,0.0,0.0,2025-01-22,1,2025,22,KCHO,0.0,0.0,0.1,0.11,3
2025-01-19,19,2025-01-19 23:53,23:53,EST,Vrbl  5,10.0,Fair,CLR,28.0,12.0,51.0,24.0,,30.02,1017.0,0.0,0.0,0.0,2025-01-22,1,2025,23,KCHO,0.0,0.0,0.06,0.11,5
2025-01-20,20,2025-01-20 00:53,00:53,EST,NW  7,10.0,Fair,CLR,28.0,12.0,51.0,22.0,,30.05,1017.9,0.0,0.0,0.0,2025-01-23,1,2025,0,KCHO,0.0,0.0,0.039999999999999994,0.11,7
2025-01-20,20,2025-01-20 01:53,01:53,EST,NW  7,10.0,Fair,CLR,26.1,12.9,57.0,19.0,,30.07,1018.8,0.0,0.0,0.0,2025-01-23,1,2025,1,KCHO,0.0,0.0,0.039999999999999994,0.11,7
2025-01-20,20,2025-01-20 02:53,02:53,EST,NW  6,10.0,Partly Cloudy,SCT060,25.0,14.0,63.0,19.0,,30.11,1020.2,0.0,0.0,0.0,2025-01-23,1,2025,2,KCHO,0.0,0.0,0.02,0.11,6
2025-01-20,20,2025-01-20 03:53,03:53,EST,N  8  G 18,10.0,Overcast,FEW040 SCT048 OVC055,24.1,12.9,62.0,16.0,,30.14,1021.2,0.0,0.0,0.0,2025-01-23,1,2025,3,KCHO,0.0,0.0,0.0,0.11,8
2025-01-20,20,2025-01-20 04:53,04:53,EST,Calm,10.0,Fair,CLR,21.9,12.0,66.0,,,30.15,1021.5,0.0,0.0,0.0,2025-01-23,1,2025,4,KCHO,0.0,0.0,0.0,0.11,0
2025-01-20,20,2025-01-20 05:53,05:53,EST,NW  3,10.0,Fair,CLR,21.9,10.9,63.0,,,30.18,1022.5,0.0,0.0,0.0,2025-01-23,1,2025,5,KCHO,0.0,0.0,0.0,0.11,3
2025-01-20,20,2025-01-20 06:53,06:53,EST,Calm,10.0,A Few Clouds,FEW060,21.0,12.0,68.0,,,30.23,1024.1,0.0,0.0,0.0,2025-01-23,1,2025,6,KCHO,0.0,0.0,0.0,0.11,0
2025-01-20,20,2025-01-20 07:53,07:53,EST,Calm,10.0,Overcast,OVC055,21.9,12.9,68.0,,,30.26,1025.2,0.0,0.0,0.0,2025-01-23,1,2025,7,KCHO,0.0,0.0,0.0,0.11,0
2025-01-20,20,2025-01-20 08:53,08:53,EST,NW  8,10.0,Fair,CLR,24.1,8.1,50.0,16.0,,30.28,1026.1,0.0,0.0,0.0,2025-01-23,1,2025,8,KCHO,0.0,0.0,0.0,0.11,8
2025-01-20,20,2025-01-20 09:53,09:53,EST,NW  9,10.0,Fair,CLR,24.1,3.0,40.0,15.0,,30.34,1028.1,0.0,0.0,0.0,2025-01-23,1,2025,9,KCHO,0.0,0.0,0.0,0.11,9
2025-01-20,20,2025-01-20 10:53,10:53,EST,Vrbl  7,10.0,Fair,CLR,25.0,5.0,42.0,18.0,,30.37,1029.0,0.0,0.0,0.0,2025-01-23,1,2025,10,KCHO,0.0,0.0,0.0,0.1,7
2025-01-20,20,2025-01-20 11:53,11:53,EST,NW  6  G 17,10.0,Fair,CLR,25.0,-0.0,33.0,19.0,,30.36,1028.8,0.0,0.0,0.0,2025-01-23,1,2025,11,KCHO,0.0,0.0,0.0,0.06,6
2025-01-20,20,2025-01-20 12:53,12:53,EST,W  8  G 18,10.0,Fair,CLR,25.0,1.0,35.0,17.0,,30.36,1028.7,0.0,0.0,0.0,2025-01-23,1,2025,12,KCHO,0.0,0.0,0.0,0.039999999999999994,8
2025-01-20,20,2025-01-20 13:53,13:53,EST,NW  12  G 17,10.0,Fair,CLR,25.0,-4.0,28.0,15.0,,30.37,1029.0,0.0,0.0,0.0,2025-01-23,1,2025,13,KCHO,0.0,0.0,0.0,0.039999999999999994,12
2025-01-20,20,2025-01-20 14:53,14:53,EST,Vrbl  6,10.0,Fair,CLR,25.0,-5.1,26.0,19.0,,30.39,1029.7,0.0,0.0,0.0,2025-01-23,1,2025,14,KCHO,0.0,0.0,0.0,0.02,6
2025-01-20,20,2025-01-20 15:53,15:53,EST,NW  6,10.0,Fair,CLR,24.1,-4.0,29.0,18.0,,30.4,1030.2,0.0,0.0,0.0,2025-01-23,1,2025,15,KCHO,0.0,0.0,0.0,0.0,6
2025-01-20,20,2025-01-20 16:53,16:53,EST,Vrbl  6,10.0,Fair,CLR,23.0,-6.0,27.0,17.0,,30.4,1030.2,0.0,0.0,0.0,2025-01-23,1,2025,16,KCHO,0.0,0.0,0.0,0.0,6
2025-01-20,20,2025-01-20 17:53,17:53,EST,N  5,10.0,Fair,CLR,21.0,-4.0,33.0,15.0,,30.43,1031.1,0.0,0.0,0.0,2025-01-23,1,2025,17,KCHO,0.0,0.0,0.0,0.0,5
2025-01-20,20,2025-01-20 18:53,18:53,EST,Calm,10.0,Fair,CLR,19.0,-4.0,36.0,,,30.46,1032.2,0.0,0.0,0.0,2025-01-23,1,2025,18,KCHO,0.0,0.0,0.0,0.0,0
2025-01-20,20,2025-01-20 19:53,19:53,EST,N  3,10.0,Fair,CLR,18.0,-4.0,37.0,,,30.48,1033.1,0.0,0.0,0.0,2025-01-23,1,2025,19,KCHO,0.0,0.0,0.0,0.0,3
2025-01-20,20,2025-01-20 20:53,20:53,EST,N  5,10.0,Fair,CLR,17.1,-4.0,39.0,11.0,,30.5,1033.6,0.0,0.0,0.0,2025-01-23,1,2025,20,KCHO,0.0,0.0,0.0,0.0,5
2025-01-20,20,2025-01-20 21:53,21:53,EST,Calm,10.0,Fair,CLR,16.0,-2.9,43.0,,,30.52,1034.2,0.0,0.0,0.0,2025-01-23,1,2025,21,KCHO,0.0,0.0,0.0,0.0,0
2025-01-20,20,2025-01-20 22:53,22:53,EST,Calm,10.0,Fair,CLR,15.1,-0.9,49.0,,,30.53,1034.8,0.0,0.0,0.0,2025-01-23,1,2025,22,KCHO,0.0,0.0,0.0,0.0,0
2025-01-20,20,2025-01-20 23:53,23:53,EST,NW  5,10.0,Fair,CLR,15.1,-4.0,42.0,9.0,,30.54,1035.1,0.0,0.0,0.0,2025-01-23,1,2025,23,KCHO,0.0,0.0,0.0,0.0,5
2025-01-21,21,2025-01-21 00:53,00:53,EST,E  3,10.0,Fair,CLR,12.0,-0.9,56.0,,,30.52,1034.2,0.0,0.0,0.0,2025-01-24,1,2025,0,KCHO,0.0,0.0,0.0,0.0,3
2025-01-21,21,2025-01-21 01:53,01:53,EST,Calm,10.0,Fair,CLR,12.9,-0.9,54.0,,,30.52,1034.3,0.0,0.0,0.0,2025-01-24,1,2025,1,KCHO,0.0,0.0,0.0,0.0,0
2025-01-21,21,2025-01-21 02:53,02:53,EST,Calm,10.0,Fair,CLR,12.9,1.0,59.0,,,30.52,1034.4,0.0,0.0,0.0,2025-01-24,1,2025,2,KCHO,0.0,0.0,0.0,0.0,0
2025-01-21,21,2025-01-21 03:53,03:53,EST,Calm,10.0,A Few Clouds,FEW120,12.9,1.9,61.0,,,30.56,1035.7,0.0,0.0,0.0,2025-01-24,1,2025,3,KCHO,0.0,0.0,0.0,0.0,0
2025-01-21,21,2025-01-21 04:53,04:53,EST,S  5,10.0,Fair,CLR,12.0,3.9,70.0,5.0,,30.57,1036.1,0.0,0.0,0.0,2025-01-24,1,2025,4,KCHO,0.0,0.0,0.0,0.0,5
2025-01-21,21,2025-01-21 05:53,05:53,EST,S  5,10.0,Fair,CLR,12.0,1.0,61.0,5.0,,30.56,1035.7,0.0,0.0,0.0,2025-01-24,1,2025,5,KCHO,0.0,0.0,0.0,0.0,5
2025-01-21,21,2025-01-21 06:53,06:53,EST,SW  3,10.0,A Few Clouds,FEW110,10.9,-0.0,61.0,,,30.56,1036.0,0.0,0.0,0.0,2025-01-24,1,2025,6,KCHO,0.0,0.0,0.0,0.0,3
2025-01-21,21,2025-01-21 07:53,07:53,EST,S  5,10.0,Fair,CLR,12.0,1.9,64.0,5.0,,30.55,1035.7,0.0,0.0,0.0,2025-01-24,1,2025,7,KCHO,0.0,0.0,0.0,0.0,5
2025-01-21,21,2025-01-21 08:53,08:53,EST,SW  7,10.0,Fair,CLR,15.1,3.0,59.0,6.0,,30.58,1036.6,0.0,0.0,0.0,2025-01-24,1,2025,8,KCHO,0.0,0.0,0.0,0.0,7
2025-01-21,21,2025-01-21 09:53,09:53,EST,Calm,10.0,Fair,CLR,16.0,1.0,51.0,,,30.58,1036.5,0.0,0.0,0.0,2025-01-24,1,2025,9,KCHO,0.0,0.0,0.0,0.0,0
2025-01-21,21,2025-01-21 10:53,10:53,EST,Calm,10.0,Fair,CLR,18.0,1.0,47.0,,,30.55,1035.5,0.0,0.0,0.0,2025-01-24,1,2025,10,KCHO,0.0,0.0,0.0,0.0,0
2025-01-21,21,2025-01-21 11:53,11:53,EST,E  3,10.0,Fair,CLR,19.0,1.0,45.0,,,30.52,1034.5,0.0,0.0,0.0,2025-01-24,1,2025,11,KCHO,0.0,0.0,0.0,0.0,3
2025-01-21,21,2025-01-21 12:53,12:53,EST,Vrbl  5,10.0,Mostly Cloudy,BKN100,19.9,1.0,43.0,14.0,,30.45,1032.2,0.0,0.0,0.0,2025-01-24,1,2025,12,KCHO,0.0,0.0,0.0,0.0,5
2025-01-21,21,2025-01-21 13:53,13:53,EST,S  7,10.0,Overcast,OVC100,21.0,1.9,43.0,13.0,,30.44,1031.7,0.0,0.0,0.0,2025-01-24,1,2025,13,KCHO,0.0,0.0,0.0,0.0,7
2025-01-21,21,2025-01-21 14:53,14:53,EST,Vrbl  5,10.0,Overcast,OVC100,19.9,1.9,45.0,14.0,,30.44,1031.6,0.0,0.0,0.0,2025-01-24,1,2025,14,KCHO,0.0,0.0,0.0,0.0,5
2025-01-21,21,2025-01-21 15:53,15:53,EST,S  8,10.0,Overcast,OVC100,19.9,1.9,45.0,11.0,,30.42,1030.9,0.0,0.0,0.0,2025-01-24,1,2025,15,KCHO,0.0,0.0,0.0,0.0,8
2025-01-21,21,2025-01-21 16:53,16:53,EST,S  7,10.0,Overcast,BKN075 OVC100,19.9,1.9,45.0,12.0,,30.42,1031.1,0.0,0.0,0.0,2025-01-24,1,2025,16,KCHO,0.0,0.0,0.0,0.0,7
2025-01-21,21,2025-01-21 17:53,17:53,EST,S  5,10.0,Mostly Cloudy,BKN100,19.9,1.0,43.0,14.0,,30.45,1031.9,0.0,0.0,0.0,2025-01-24,1,2025,17,KCHO,0.0,0.0,0.0,0.0,5
2025-01-21,21,2025-01-21 18:53,18:53,EST,SE  5,10.0,Fair,CLR,19.9,1.0,43.0,14.0,,30.44,1031.5,0.0,0.0,0.0,2025-01-24,1,2025,18,KCHO,0.0,0.0,0.0,0.0,5
2025-01-21,21,2025-01-21 19:53,19:53,EST,Calm,10.0,Fair,CLR,19.0,1.9,47.0,,,30.44,1031.7,0.0,0.0,0.0,2025-01-24,1,2025,19,KCHO,0.0,0.0,0.0,0.0,0
2025-01-21,21,2025-01-21 20:53,20:53,EST,Calm,10.0,Fair,CLR,19.9,3.9,50.0,,,30.43,1031.3,0.0,0.0,0.0,2025-01-24,1,2025,20,KCHO,0.0,0.0,0.0,0.0,0
2025-01-21,21,2025-01-21 21:53,21:53,EST,Calm,10.0,Fair,CLR,18.0,5.0,57.0,,,30.44,1031.7,0.0,0.0,0.0,2025-01-24,1,2025,21,KCHO,0.0,0.0,0.0,0.0,0
2025-01-21,21,2025-01-21 22:53,22:53,EST,Calm,10.0,Fair,CLR,17.1,5.0,59.0,,,30.44,1031.7,0.0,0.0,0.0,2025-01-24,1,2025,22,KCHO,0.0,0.0,0.0,0.0,0
2025-01-21,21,2025-01-21 23:53,23:53,EST,Calm,10.0,Fair,CLR,17.1,6.1,62.0,,,30.45,1032.1,0.0,0.0,0.0,2025-01-24,1,2025,23,KCHO,0.0,0.0,0.0,0.0,0
2025-01-22,22,2025-01-22 00:53,00:53,EST,N  3,10.0,Fair,CLR,16.0,6.1,65.0,,,30.44,1031.6,0.0,0.0,0.0,2025-01-25,1,2025,0,KCHO,0.0,0.0,0.0,0.0,3
2025-01-22,22,2025-01-22 01:53,01:53,EST,NW  3,10.0,Fair,CLR,17.1,1.0,49.0,,,30.46,1032.4,0.0,0.0,0.0,2025-01-25,1,2025,1,KCHO,0.0,0.0,0.0,0.0,3
2025-01-22,22,2025-01-22 02:53,02:53,EST,NW  3,10.0,Fair,CLR,16.0,-2.0,45.0,,,30.44,1031.8,0.0,0.0,0.0,2025-01-25,1,2025,2,KCHO,0.0,0.0,0.0,0.0,3
2025-01-22,22,2025-01-22 03:53,03:53,EST,N  5,10.0,Fair,CLR,14.0,-2.0,49.0,7.0,,30.43,1031.3,0.0,0.0,0.0,2025-01-25,1,2025,3,KCHO,0.0,0.0,0.0,0.0,5
2025-01-22,22,2025-01-22 04:53,04:53,EST,N  3,10.0,Fair,CLR,14.0,-2.0,49.0,,,30.43,1031.5,0.0,0.0,0.0,2025-01-25,1,2025,4,KCHO,0.0,0.0,0.0,0.0,3
2025-01-22,22,2025-01-22 05:53,05:53,EST,NE  6,10.0,Fair,CLR,12.9,-0.9,54.0,5.0,,30.46,1032.3,0.0,0.0,0.0,2025-01-25,1,2025,5,KCHO,0.0,0.0,0.0,0.0,6
2025-01-22,22,2025-01-22 06:53,06:53,EST,NE  7,10.0,Fair,CLR,12.0,1.9,64.0,2.0,,30.45,1032.1,0.0,0.0,0.0,2025-01-25,1,2025,6,KCHO,0.0,0.0,0.0,0.0,7
2025-01-22,22,2025-01-22 07:53,07:53,EST,NE  6,10.0,Fair,CLR,10.9,1.0,64.0,2.0,,30.48,1033.0,0.0,0.0,0.0,2025-01-25,1,2025,7,KCHO,0.0,0.0,0.0,0.0,6
2025-01-22,22,2025-01-22 08:53,08:53,EST,N  7,10.0,Fair,CLR,12.9,1.0,59.0,4.0,,30.5,1033.6,0.0,0.0,0.0,2025-01-25,1,2025,8,KCHO,0.0,0.0,0.0,0.0,7
2025-01-22,22,2025-01-22 09:53,09:53,EST,NE  3,10.0,Fair,CLR,15.1,1.0,53.0,,,30.51,1034.2,0.0,0.0,0.0,2025-01-25,1,2025,9,KCHO,0.0,0.0,0.0,0.0,3
2025-01-22,22,2025-01-22 10:53,10:53,EST,Calm,10.0,Fair,CLR,17.1,1.0,49.0,,,30.53,1034.9,0.0,0.0,0.0,2025-01-25,1,2025,10,KCHO,0.0,0.0,0.0,0.0,0
2025-01-22,22,2025-01-22 11:53,11:53,EST,Calm,10.0,Fair,CLR,18.0,1.0,47.0,,,30.51,1034.2,0.0,0.0,0.0,2025-01-25,1,2025,11,KCHO,0.0,0.0,0.0,0.0,0
2025-01-22,22,2025-01-22 12:53,12:53,EST,N  5,10.0,Fair,CLR,19.9,-2.0,38.0,14.0,,30.48,1033.1,0.0,0.0,0.0,2025-01-25,1,2025,12,KCHO,0.0,0.0,0.0,0.0,5
2025-01-22,22,2025-01-22 13:53,13:53,EST,S  3,10.0,Fair,CLR,21.9,-0.9,36.0,,,30.45,1032.0,0.0,0.0,0.0,2025-01-25,1,2025,13,KCHO,0.0,0.0,0.0,0.0,3
2025-01-22,22,2025-01-22 14:53,14:53,EST,Calm,10.0,Fair,CLR,23.0,-2.9,32.0,,,30.42,1031.1,0.0,0.0,0.0,2025-01-25,1,2025,14,KCHO,0.0,0.0,0.0,0.0,0
2025-01-22,22,2025-01-22 15:53,15:53,EST,Vrbl  5,10.0,Fair,CLR,23.0,-4.0,30.0,18.0,,30.41,1030.6,0.0,0.0,0.0,2025-01-25,1,2025,15,KCHO,0.0,0.0,0.0,0.0,5
2025-01-22,22,2025-01-22 16:53,16:53,EST,E  6,10.0,Fair,CLR,23.0,-2.0,33.0,17.0,,30.42,1030.8,0.0,0.0,0.0,2025-01-25,1,2025,16,KCHO,0.0,0.0,0.0,0.0,6
2025-01-22,22,2025-01-22 17:53,17:53,EST,E  5,10.0,Fair,CLR,21.0,-0.9,38.0,15.0,,30.42,1031.0,0.0,0.0,0.0,2025-01-25,1,2025,17,KCHO,0.0,0.0,0.0,0.0,5
2025-01-22,22,2025-01-22 18:53,18:53,EST,E  3,10.0,Fair,CLR,19.0,-0.9,41.0,,,30.42,1030.9,0.0,0.0,0.0,2025-01-25,1,2025,18,KCHO,0.0,0.0,0.0,0.0,3
2025-01-22,22,2025-01-22 19:53,19:53,EST,Calm,10.0,Fair,CLR,17.1,-0.9,45.0,,,30.43,1031.5,0.0,0.0,0.0,2025-01-25,1,2025,19,KCHO,0.0,0.0,0.0,0.0,0
2025-01-22,22,2025-01-22 20:53,20:53,EST,N  3,10.0,Fair,CLR,16.0,-0.0,49.0,,,30.43,1031.5,0.0,0.0,0.0,2025-01-25,1,2025,20,KCHO,0.0,0.0,0.0,0.0,3
2025-01-22,22,2025-01-22 21:53,21:53,EST,Calm,10.0,Fair,CLR,15.1,-0.0,51.0,,,30.42,1031.1,0.0,0.0,0.0,2025-01-25,1,2025,21,KCHO,0.0,0.0,0.0,0.0,0
2025-01-22,22,2025-01-22 22:53,22:53,EST,Calm,10.0,Fair,CLR,15.1,-0.9,49.0,,,30.41,1030.6,0.0,0.0,0.0,2025-01-25,1,2025,22,KCHO,0.0,0.0,0.0,0.0,0
2025-01-22,22,2025-01-22 23:53,23:53,EST,Calm,10.0,Fair,CLR,12.9,1.0,59.0,,,30.41,1030.7,0.0,0.0,0.0,2025-01-25,1,2025,23,KCHO,0.0,0.0,0.0,0.0,0
2025-01-23,23,2025-01-23 00:53,00:53,EST,Calm,10.0,Fair,CLR,14.0,1.0,56.0,,,30.39,1030.1,0.0,0.0,0.0,2025-01-26,1,2025,0,KCHO,0.0,0.0,0.0,0.0,0
2025-01-23,23,2025-01-23 01:53,01:53,EST,Calm,10.0,Fair,CLR,10.9,-0.0,61.0,,,30.36,1029.1,0.0,0.0,0.0,2025-01-26,1,2025,1,KCHO,0.0,0.0,0.0,0.0,0
2025-01-23,23,2025-01-23 02:53,02:53,EST,Calm,10.0,Fair,CLR,10.9,1.0,64.0,,,30.34,1028.2,0.0,0.0,0.0,2025-01-26,1,2025,2,KCHO,0.0,0.0,0.0,0.0,0
2025-01-23,23,2025-01-23 03:53,03:53,EST,Calm,10.0,Fair,CLR,10.0,1.9,69.0,,,30.31,1027.3,0.0,0.0,0.0,2025-01-26,1,2025,3,KCHO,0.0,0.0,0.0,0.0,0
2025-01-23,23,2025-01-23 04:53,04:53,EST,W  3,10.0,Fair,CLR,7.0,3.0,84.0,,,30.3,1027.1,0.0,0.0,0.0,2025-01-26,1,2025,4,KCHO,0.0,0.0,0.0,0.0,3
2025-01-23,23,2025-01-23 05:53,05:53,EST,Calm,10.0,Fair,CLR,8.1,1.9,76.0,,,30.3,1027.1,0.0,0.0,0.0,2025-01-26,1,2025,5,KCHO,0.0,0.0,0.0,0.0,0
2025-01-23,23,2025-01-23 06:53,06:53,EST,SW  5,10.0,Fair,CLR,10.0,1.9,69.0,3.0,,30.29,1026.8,0.0,0.0,0.0,2025-01-26,1,2025,6,KCHO,0.0,0.0,0.0,0.0,5
2025-01-23,23,2025-01-23 07:53,07:53,EST,Calm,10.0,Fair,CLR,7.0,1.0,76.0,,,30.29,1026.8,0.0,0.0,0.0,2025-01-26,1,2025,7,KCHO,0.0,0.0,0.0,0.0,0
2025-01-23,23,2025-01-23 08:53,08:53,EST,Calm,10.0,Fair,CLR,12.0,1.9,64.0,,,30.28,1026.4,0.0,0.0,0.0,2025-01-26,1,2025,8,KCHO,0.0,0.0,0.0,0.0,0
2025-01-23,23,2025-01-23 09:53,09:53,EST,Calm,10.0,Fair,CLR,15.1,3.9,61.0,,,30.27,1026.2,0.0,0.0,0.0,2025-01-26,1,2025,9,KCHO,0.0,0.0,0.0,0.0,0
2025-01-23,23,2025-01-23 10:53,10:53,EST,Calm,10.0,Fair,CLR,18.0,6.1,59.0,,,30.27,1025.9,0.0,0.0,0.0,2025-01-26,1,2025,10,KCHO,0.0,0.0,0.0,0.0,0
2025-01-23,23,2025-01-23 11:53,11:53,EST,S  5,10.0,Fair,CLR,23.0,8.1,53.0,18.0,,30.23,1024.7,0.0,0.0,0.0,2025-01-26,1,2025,11,KCHO,0.0,0.0,0.0,0.0,5
2025-01-23,23,2025-01-23 12:53,12:53,EST,S  7,10.0,Fair,CLR,27.0,9.0,46.0,20.0,,30.19,1023.2,0.0,0.0,0.0,2025-01-26,1,2025,12,KCHO,0.0,0.0,0.0,0.0,7
2025-01-23,23,2025-01-23 13:53,13:53,EST,S  7,10.0,Fair,CLR,32.0,10.0,40.0,26.0,,30.16,1022.0,0.0,0.0,0.0,2025-01-26,1,2025,13,KCHO,0.0,0.0,0.0,0.0,7
2025-01-23,23,2025-01-23 14:53,14:53,EST,S  13,10.0,Fair,CLR,34.0,7.0,32.0,26.0,,30.13,1021.1,0.0,0.0,0.0,2025-01-26,1,2025,14,KCHO,0.0,0.0,0.0,0.0,13
2025-01-23,23,2025-01-23 15:53,15:53,EST,S  8,10.0,Fair,CLR,35.1,8.1,32.0,29.0,,30.13,1020.9,0.0,0.0,0.0,2025-01-26,1,2025,15,KCHO,0.0,0.0,0.0,0.0,8
2025-01-23,23,2025-01-23 16:53,16:53,EST,SW  5,10.0,Fair,CLR,35.1,8.1,32.0,32.0,,30.14,1021.3,0.0,0.0,0.0,2025-01-26,1,2025,16,KCHO,0.0,0.0,0.0,0.0,5
2025-01-23,23,2025-01-23 17:53,17:53,EST,SW  7,10.0,Fair,CLR,32.0,8.1,36.0,26.0,,30.15,1021.9,0.0,0.0,0.0,2025-01-26,1,2025,17,KCHO,0.0,0.0,0.0,0.0,7
2025-01-23,23,2025-01-23 18:53,18:53,EST,SW  5,10.0,Fair,CLR,32.0,9.0,38.0,28.0,,30.16,1022.0,0.0,0.0,0.0,2025-01-26,1,2025,18,KCHO,0.0,0.0,0.0,0.0,5
2025-01-23,23,2025-01-23 19:53,19:53,EST,S  5,10.0,Fair,CLR,28.0,9.0,44.0,24.0,,30.17,1022.4,0.0,0.0,0.0,2025-01-26,1,2025,19,KCHO,0.0,0.0,0.0,0.0,5
2025-01-23,23,2025-01-23 20:53,20:53,EST,W  3,10.0,Fair,CLR,32.0,8.1,36.0,,,30.17,1022.3,0.0,0.0,0.0,2025-01-26,1,2025,20,KCHO,0.0,0.0,0.0,0.0,3
2025-01-23,23,2025-01-23 21:53,21:53,EST,S  5,10.0,Fair,CLR,28.0,9.0,44.0,24.0,,30.18,1022.7,0.0,0.0,0.0,2025-01-26,1,2025,21,KCHO,0.0,0.0,0.0,0.0,5
2025-01-23,23,2025-01-23 22:53,22:53,EST,S  5,10.0,Fair,CLR,23.0,10.9,60.0,18.0,,30.18,1022.6,0.0,0.0,0.0,2025-01-26,1,2025,22,KCHO,0.0,0.0,0.0,0.0,5
2025-01-23,23,2025-01-23 23:53,23:53,EST,SW  3,10.0,A Few Clouds,FEW060,28.9,10.9,47.0,,,30.18,1022.5,0.0,0.0,0.0,2025-01-26,1,2025,23,KCHO,0.0,0.0,0.0,0.0,3
2025-01-24,24,2025-01-24 00:53,00:53,EST,Calm,10.0,Overcast,OVC055,30.9,12.9,47.0,,,30.18,1022.3,0.0,0.0,0.0,2025-01-27,1,2025,0,KCHO,0.0,0.0,0.0,0.0,0
2025-01-24,24,2025-01-24 01:53,01:53,EST,SE  5,10.0,Mostly Cloudy,BKN055,27.0,12.9,55.0,22.0,,30.18,1022.3,0.0,0.0,0.0,2025-01-27,1,2025,1,KCHO,0.0,0.0,0.0,0.0,5
2025-01-24,24,2025-01-24 02:53,02:53,EST,Calm,10.0,A Few Clouds,FEW055,28.9,12.9,51.0,,,30.18,1022.2,0.0,0.0,0.0,2025-01-27,1,2025,2,KCHO,0.0,0.0,0.0,0.0,0
2025-01-24,24,2025-01-24 03:53,03:53,EST,Calm,10.0,Partly Cloudy,SCT055,27.0,12.9,55.0,,,30.18,1022.3,0.0,0.0,0.0,2025-01-27,1,2025,3,KCHO,0.0,0.0,0.0,0.0,0
2025-01-24,24,2025-01-24 04:53,04:53,EST,S  5,10.0,Mostly Cloudy,BKN055,23.0,12.9,65.0,18.0,,30.18,1022.3,0.0,0.0,0.0,2025-01-27,1,2025,4,KCHO,0.0,0.0,0.0,0.0,5
2025-01-24,24,2025-01-24 05:53,05:53,EST,W  3,10.0,Mostly Cloudy,BKN055,24.1,12.9,62.0,,,30.19,1022.9,0.0,0.0,0.0,2025-01-27,1,2025,5,KCHO,0.0,0.0,0.0,0.0,3
2025-01-24,24,2025-01-24 06:53,06:53,EST,Calm,10.0,Overcast,OVC055,25.0,14.0,63.0,,,30.19,1022.9,0.0,0.0,0.0,2025-01-27,1,2025,6,KCHO,0.0,0.0,0.0,0.0,0
2025-01-24,24,2025-01-24 07:53,07:53,EST,Calm,10.0,Overcast,OVC055,23.0,15.1,72.0,,,30.21,1023.6,0.0,0.0,0.0,2025-01-27,1,2025,7,KCHO,0.0,0.0,0.0,0.0,0
2025-01-24,24,2025-01-24 08:53,08:53,EST,Calm,10.0,Mostly Cloudy,BKN050,27.0,16.0,63.0,,,30.22,1023.9,0.0,0.0,0.0,2025-01-27,1,2025,8,KCHO,0.0,0.0,0.0,0.0,0
2025-01-24,24,2025-01-24 09:53,09:53,EST,Calm,10.0,Mostly Cloudy,BKN055,30.0,17.1,58.0,,,30.24,1024.6,0.0,0.0,0.0,2025-01-27,1,2025,9,KCHO,0.0,0.0,0.0,0.0,0
2025-01-24,24,2025-01-24 10:53,10:53,EST,W  5,10.0,Mostly Cloudy,BKN055,34.0,15.1,46.0,30.0,,30.25,1024.8,0.0,0.0,0.0,2025-01-27,1,2025,10,KCHO,0.0,0.0,0.0,0.0,5
2025-01-24,24,2025-01-24 11:53,11:53,EST,Vrbl  6,10.0,Partly Cloudy,SCT055,37.0,14.0,39.0,33.0,,30.21,1023.5,0.0,0.0,0.0,2025-01-27,1,2025,11,KCHO,0.0,0.0,0.0,0.0,6
2025-01-24,24,2025-01-24 12:53,12:53,EST,NW  6,10.0,Mostly Cloudy,BKN055,36.0,12.0,37.0,32.0,,30.18,1022.4,0.0,0.0,0.0,2025-01-27,1,2025,12,KCHO,0.0,0.0,0.0,0.0,6
2025-01-24,24,2025-01-24 13:53,13:53,EST,Vrbl  7,10.0,Mostly Cloudy,BKN060,37.9,12.0,34.0,33.0,,30.16,1021.6,0.0,0.0,0.0,2025-01-27,1,2025,13,KCHO,0.0,0.0,0.0,0.0,7
2025-01-24,24,2025-01-24 14:53,14:53,EST,W  6,10.0,Mostly Cloudy,BKN060,36.0,12.0,37.0,32.0,,30.16,1021.7,0.0,0.0,0.0,2025-01-27,1,2025,14,KCHO,0.0,0.0,0.0,0.0,6
2025-01-24,24,2025-01-24 15:53,15:53,EST,Calm,10.0,Overcast,OVC070,36.0,10.9,35.0,,,30.18,1022.2,0.0,0.0,0.0,2025-01-27,1,2025,15,KCHO,0.0,0.0,0.0,0.0,0
2025-01-24,24,2025-01-24 16:53,16:53,EST,S  5,10.0,Overcast,OVC075,35.1,12.0,38.0,32.0,,30.18,1022.6,0.0,0.0,0.0,2025-01-27,1,2025,16,KCHO,0.0,0.0,0.0,0.0,5
2025-01-24,24,2025-01-24 17:53,17:53,EST,S  5,10.0,Mostly Cloudy,BKN075,30.9,12.0,45.0,27.0,,30.18,1022.7,0.0,0.0,0.0,2025-01-27,1,2025,17,KCHO,0.0,0.0,0.0,0.0,5
2025-01-24,24,2025-01-24 18:53,18:53,EST,SW  3,10.0,Fair,CLR,32.0,12.0,43.0,,,30.2,1023.2,0.0,0.0,0.0,2025-01-27,1,2025,18,KCHO,0.0,0.0,0.0,0.0,3
2025-01-24,24,2025-01-24 19:53,19:53,EST,Calm,10.0,Fair,CLR,32.0,10.9,41.0,,,30.23,1024.1,0.0,0.0,0.0,2025-01-27,1,2025,19,KCHO,0.0,0.0,0.0,0.0,0
2025-01-24,24,2025-01-24 20:53,20:53,EST,W  3,10.0,Fair,CLR,30.9,12.0,45.0,,,30.25,1024.7,0.0,0.0,0.0,2025-01-27,1,2025,20,KCHO,0.0,0.0,0.0,0.0,3
2025-01-24,24,2025-01-24 21:53,21:53,EST,NW  5,10.0,Fair,CLR,30.0,9.0,41.0,26.0,,30.27,1025.4,0.0,0.0,0.0,2025-01-27,1,2025,21,KCHO,0.0,0.0,0.0,0.0,5
2025-01-24,24,2025-01-24 22:53,22:53,EST,Calm,10.0,Fair,CLR,28.0,7.0,41.0,,,30.28,1025.9,0.0,0.0,0.0,2025-01-27,1,2025,22,KCHO,0.0,0.0,0.0,0.0,0
2025-01-24,24,2025-01-24 23:53,23:53,EST,SE  3,10.0,Fair,CLR,26.1,8.1,46.0,,,30.29,1026.0,0.0,0.0,0.0,2025-01-27,1,2025,23,KCHO,0.0,0.0,0.0,0.0,3
2025-01-25,25,2025-01-25 00:53,00:53,EST,Calm,10.0,Fair,CLR,27.0,8.1,45.0,,,30.3,1026.5,0.0,0.0,0.0,2025-01-28,1,2025,0,KCHO,0.0,0.0,0.0,0.0,0
2025-01-25,25,2025-01-25 01:53,01:53,EST,SE  3,10.0,Fair,CLR,21.0,8.1,57.0,,,30.31,1026.9,0.0,0.0,0.0,2025-01-28,1,2025,1,KCHO,0.0,0.0,0.0,0.0,3
2025-01-25,25,2025-01-25 02:53,02:53,EST,Calm,10.0,Fair,CLR,25.0,12.0,58.0,,,30.32,1027.1,0.0,0.0,0.0,2025-01-28,1,2025,2,KCHO,0.0,0.0,0.0,0.0,0
2025-01-25,25,2025-01-25 03:53,03:53,EST,Calm,10.0,Fair,CLR,24.1,10.0,55.0,,,30.33,1027.7,0.0,0.0,0.0,2025-01-28,1,2025,3,KCHO,0.0,0.0,0.0,0.0,0
2025-01-25,25,2025-01-25 04:53,04:53,EST,Calm,10.0,Fair,CLR,19.0,10.9,71.0,,,30.34,1027.9,0.0,0.0,0.0,2025-01-28,1,2025,4,KCHO,0.0,0.0,0.0,0.0,0
2025-01-25,25,2025-01-25 05:53,05:53,EST,Calm,10.0,Fair,CLR,17.1,10.0,74.0,,,30.36,1028.8,0.0,0.0,0.0,2025-01-28,1,2025,5,KCHO,0.0,0.0,0.0,0.0,0
2025-01-25,25,2025-01-25 06:53,06:53,EST,Calm,10.0,Fair,CLR,21.0,9.0,59.0,,,30.38,1029.3,0.0,0.0,0.0,2025-01-28,1,2025,6,KCHO,0.0,0.0,0.0,0.0,0
2025-01-25,25,2025-01-25 07:53,07:53,EST,S  5,10.0,Fair,CLR,16.0,10.0,77.0,10.0,,30.4,1030.1,0.0,0.0,0.0,2025-01-28,1,2025,7,KCHO,0.0,0.0,0.0,0.0,5
2025-01-25,25,2025-01-25 08:53,08:53,EST,S  6,10.0,Fair,CLR,25.0,16.0,69.0,19.0,,30.41,1030.2,0.0,0.0,0.0,2025-01-28,1,2025,8,KCHO,0.0,0.0,0.0,0.0,6
2025-01-25,25,2025-01-25 09:53,09:53,EST,S  8,10.0,Fair,CLR,28.9,16.0,58.0,22.0,,30.41,1030.1,0.0,0.0,0.0,2025-01-28,1,2025,9,KCHO,0.0,0.0,0.0,0.0,8
2025-01-25,25,2025-01-25 10:53,10:53,EST,S  7,10.0,Fair,CLR,32.0,16.0,52.0,26.0,,30.39,1029.8,0.0,0.0,0.0,2025-01-28,1,2025,10,KCHO,0.0,0.0,0.0,0.0,7
2025-01-25,25,2025-01-25 11:53,11:53,EST,S  12  G 18,10.0,Fair,CLR,36.0,12.0,37.0,29.0,,30.37,1029.0,0.0,0.0,0.0,2025-01-28,1,2025,11,KCHO,0.0,0.0,0.0,0.0,12
2025-01-25,25,2025-01-25 12:53,12:53,EST,S  10,10.0,Fair,CLR,37.9,12.0,34.0,32.0,,30.33,1027.5,0.0,0.0,0.0,2025-01-28,1,2025,12,KCHO,0.0,0.0,0.0,0.0,10
2025-01-25,25,2025-01-25 13:53,13:53,EST,SW  9,10.0,Fair,CLR,41.0,10.9,29.0,36.0,,30.3,1026.7,0.0,0.0,0.0,2025-01-28,1,2025,13,KCHO,0.0,0.0,0.0,0.0,9
2025-01-25,25,2025-01-25 14:53,14:53,EST,S  10  G 17,10.0,Fair,CLR,43.0,10.9,27.0,38.0,,30.28,1025.7,0.0,0.0,0.0,2025-01-28,1,2025,14,KCHO,0.0,0.0,0.0,0.0,10
2025-01-25,25,2025-01-25 15:53,15:53,EST,S  14,10.0,Fair,CLR,43.0,10.9,27.0,37.0,,30.27,1025.4,0.0,0.0,0.0,2025-01-28,1,2025,15,KCHO,0.0,0.0,0.0,0.0,14
2025-01-25,25,2025-01-25 16:53,16:53,EST,S  9,10.0,Fair,CLR,42.1,10.9,28.0,37.0,,30.27,1025.6,0.0,0.0,0.0,2025-01-28,1,2025,16,KCHO,0.0,0.0,0.0,0.0,9
2025-01-25,25,2025-01-25 17:53,17:53,EST,S  8,10.0,Fair,CLR,37.0,12.0,36.0,32.0,,30.26,1025.2,0.0,0.0,0.0,2025-01-28,1,2025,17,KCHO,0.0,0.0,0.0,0.0,8
2025-01-25,25,2025-01-25 18:53,18:53,EST,SW  8,10.0,Fair,CLR,37.0,10.9,34.0,32.0,,30.27,1025.5,0.0,0.0,0.0,2025-01-28,1,2025,18,KCHO,0.0,0.0,0.0,0.0,8
2025-01-25,25,2025-01-25 19:53,19:53,EST,S  9,10.0,Fair,CLR,35.1,12.0,38.0,29.0,,30.26,1025.4,0.0,0.0,0.0,2025-01-28,1,2025,19,KCHO,0.0,0.0,0.0,0.0,9
2025-01-25,25,2025-01-25 20:53,20:53,EST,SW  8,10.0,Fair,CLR,35.1,10.9,37.0,29.0,,30.26,1025.3,0.0,0.0,0.0,2025-01-28,1,2025,20,KCHO,0.0,0.0,0.0,0.0,8
2025-01-25,25,2025-01-25 21:53,21:53,EST,S  8,10.0,Fair,CLR,33.1,12.0,42.0,27.0,,30.25,1025.0,0.0,0.0,0.0,2025-01-28,1,2025,21,KCHO,0.0,0.0,0.0,0.0,8
2025-01-25,25,2025-01-25 22:53,22:53,EST,S  8,10.0,Fair,CLR,32.0,10.9,41.0,25.0,,30.25,1024.9,0.0,0.0,0.0,2025-01-28,1,2025,22,KCHO,0.0,0.0,0.0,0.0,8
2025-01-25,25,2025-01-25 23:53,23:53,EST,S  10,10.0,Fair,CLR,32.0,12.0,43.0,24.0,,30.24,1024.5,0.0,0.0,0.0,2025-01-28,1,2025,23,KCHO,0.0,0.0,0.0,0.0,10
2025-01-26,26,2025-01-26 00:53,00:53,EST,S  12,10.0,Fair,CLR,30.9,12.0,45.0,22.0,,30.23,1024.1,0.0,0.0,0.0,2025-01-29,1,2025,0,KCHO,0.0,0.0,0.0,0.0,12
2025-01-26,26,2025-01-26 01:53,01:53,EST,S  8,10.0,Fair,CLR,30.9,12.0,45.0,24.0,,30.22,1023.7,0.0,0.0,0.0,2025-01-29,1,2025,1,KCHO,0.0,0.0,0.0,0.0,8
2025-01-26,26,2025-01-26 02:53,02:53,EST,SW  7,10.0,Fair,CLR,30.9,12.9,47.0,25.0,,30.22,1023.5,0.0,0.0,0.0,2025-01-29,1,2025,2,KCHO,0.0,0.0,0.0,0.0,7
2025-01-26,26,2025-01-26 03:53,03:53,EST,S  8,10.0,Fair,CLR,30.9,14.0,49.0,24.0,,30.2,1023.1,0.0,0.0,0.0,2025-01-29,1,2025,3,KCHO,0.0,0.0,0.0,0.0,8
2025-01-26,26,2025-01-26 04:53,04:53,EST,SW  6,10.0,Fair,CLR,39.9,15.1,36.0,36.0,,30.2,1022.7,0.0,0.0,0.0,2025-01-29,1,2025,4,KCHO,0.0,0.0,0.0,0.0,6
2025-01-26,26,2025-01-26 05:53,05:53,EST,SW  9,10.0,Fair,CLR,39.0,16.0,39.0,33.0,,30.21,1023.1,0.0,0.0,0.0,2025-01-29,1,2025,5,KCHO,0.0,0.0,0.0,0.0,9
2025-01-26,26,2025-01-26 06:53,06:53,EST,SW  8,10.0,Fair,CLR,41.0,17.1,38.0,36.0,,30.21,1023.2,0.0,0.0,0.0,2025-01-29,1,2025,6,KCHO,0.0,0.0,0.0,0.0,8
2025-01-26,26,2025-01-26 07:53,07:53,EST,SW  10  G 20,10.0,Fair,CLR,42.1,18.0,38.0,37.0,,30.22,1023.5,0.0,0.0,0.0,2025-01-29,1,2025,7,KCHO,0.0,0.0,0.0,0.0,10
2025-01-26,26,2025-01-26 08:53,08:53,EST,SW  8,10.0,Fair,CLR,43.0,19.0,38.0,39.0,,30.23,1023.7,0.0,0.0,0.0,2025-01-27,1,2025,8,KCHO,0.0,0.0,0.0,0.0,8
2025-01-26,26,2025-01-26 09:53,09:53,EST,SW  5,10.0,Fair,CLR,44.1,19.9,38.0,42.0,,30.23,1023.9,0.0,0.0,0.0,2025-01-29,1,2025,9,KCHO,0.0,0.0,0.0,0.0,5
2025-01-26,26,2025-01-26 10:53,10:53,EST,S  7,10.0,Fair,CLR,44.1,21.0,40.0,41.0,,30.24,1024.3,0.0,0.0,0.0,2025-01-29,1,2025,10,KCHO,0.0,0.0,0.0,0.0,7
2025-01-26,26,2025-01-26 11:53,11:53,EST,Vrbl  7,10.0,Fair,CLR,45.0,21.0,39.0,42.0,,30.23,1023.9,0.0,0.0,0.0,2025-01-29,1,2025,11,KCHO,0.0,0.0,0.0,0.0,7
2025-01-26,26,2025-01-26 12:53,12:53,EST,SW  8  G 17,10.0,Fair,CLR,46.9,21.9,37.0,44.0,,30.19,1022.6,0.0,0.0,0.0,2025-01-29,1,2025,12,KCHO,0.0,0.0,0.0,0.0,8
2025-01-26,26,2025-01-26 13:53,13:53,EST,SW  8,10.0,Fair,CLR,48.9,23.0,36.0,46.0,,30.18,1022.0,0.0,0.0,0.0,2025-01-29,1,2025,13,KCHO,0.0,0.0,0.0,0.0,8
2025-01-26,26,2025-01-26 14:53,14:53,EST,Calm,10.0,Fair,CLR,50.0,23.0,35.0,,,30.17,1021.7,0.0,0.0,0.0,2025-01-29,1,2025,14,KCHO,0.0,0.0,0.0,0.0,0
2025-01-26,26,2025-01-26 15:53,15:53,EST,Vrbl  3,10.0,Fair,CLR,51.1,21.0,31.0,,,30.17,1021.7,0.0,0.0,0.0,2025-01-29,1,2025,15,KCHO,0.0,0.0,0.0,0.0,3
2025-01-26,26,2025-01-26 16:53,16:53,EST,Vrbl  3,10.0,Fair,CLR,48.9,19.0,31.0,,,30.17,1021.8,0.0,0.0,0.0,2025-01-29,1,2025,16,KCHO,0.0,0.0,0.0,0.0,3
2025-01-26,26,2025-01-26 17:53,17:53,EST,SW  3,10.0,Fair,CLR,45.0,21.0,39.0,,,30.17,1021.9,0.0,0.0,0.0,2025-01-29,1,2025,17,KCHO,0.0,0.0,0.0,0.0,3
2025-01-26,26,2025-01-26 18:53,18:53,EST,SW  5,10.0,Fair,CLR,43.0,21.0,42.0,41.0,,30.18,1022.2,0.0,0.0,0.0,2025-01-27,1,2025,18,KCHO,0.0,0.0,0.0,0.0,5
2025-01-26,26,2025-01-26 19:53,19:53,EST,Vrbl  3,10.0,Fair,CLR,43.0,19.9,40.0,,,30.17,1021.8,0.0,0.0,0.0,2025-01-29,1,2025,19,KCHO,0.0,0.0,0.0,0.0,3
2025-01-26,26,2025-01-26 20:53,20:53,EST,Vrbl  5,10.0,Fair,CLR,43.0,19.9,40.0,41.0,,30.17,1021.9,0.0,0.0,0.0,2025-01-29,1,2025,20,KCHO,0.0,0.0,0.0,0.0,5
2025-01-26,26,2025-01-26 21:53,21:53,EST,SW  3,10.0,Fair,CLR,42.1,19.9,41.0,,,30.16,1021.5,0.0,0.0,0.0,2025-01-29,1,2025,21,KCHO,0.0,0.0,0.0,0.0,3
2025-01-26,26,2025-01-26 22:53,22:53,EST,SW  3,10.0,Fair,CLR,42.1,19.9,41.0,,,30.16,1021.2,0.0,0.0,0.0,2025-01-29,1,2025,22,KCHO,0.0,0.0,0.0,0.0,3
2025-01-26,26,2025-01-26 23:53,23:53,EST,Calm,10.0,Overcast,OVC085,39.9,19.9,45.0,,,30.14,1020.6,0.0,0.0,0.0,2025-01-29,1,2025,23,KCHO,0.0,0.0,0.0,0.0,0
2025-01-27,27,2025-01-27 00:53,00:53,EST,Calm,10.0,Partly Cloudy,SCT070,39.0,19.9,46.0,,,30.12,1020.0,0.0,0.0,0.0,2025-01-30,1,2025,0,KCHO,0.0,0.0,0.0,0.0,0
2025-01-27,27,2025-01-27 01:53,01:53,EST,Calm,10.0,Overcast,OVC090,37.9,21.9,52.0,,,30.11,1019.5,0.0,0.0,0.0,2025-01-30,1,2025,1,KCHO,0.0,0.0,0.0,0.0,0
2025-01-27,27,2025-01-27 02:53,02:53,EST,S  6,10.0,Partly Cloudy,FEW060 SCT090,36.0,21.0,55.0,32.0,,30.11,1019.6,0.0,0.0,0.0,2025-01-30,1,2025,2,KCHO,0.0,0.0,0.0,0.0,6
2025-01-27,27,2025-01-27 03:53,03:53,EST,S  5,10.0,Fair,CLR,34.0,21.9,61.0,30.0,,30.08,1018.7,0.0,0.0,0.0,2025-01-30,1,2025,3,KCHO,0.0,0.0,0.0,0.0,5
2025-01-27,27,2025-01-27 04:53,04:53,EST,S  6,10.0,Fair,CLR,33.1,21.0,61.0,28.0,,30.08,1018.7,0.0,0.0,0.0,2025-01-30,1,2025,4,KCHO,0.0,0.0,0.0,0.0,6
2025-01-27,27,2025-01-27 05:53,05:53,EST,SW  7,10.0,Fair,CLR,37.0,23.0,57.0,32.0,,30.07,1018.5,0.0,0.0,0.0,2025-01-30,1,2025,5,KCHO,0.0,0.0,0.0,0.0,7
2025-01-27,27,2025-01-27 06:53,06:53,EST,Calm,10.0,Fair,CLR,28.9,21.9,75.0,,,30.08,1018.7,0.0,0.0,0.0,2025-01-30,1,2025,6,KCHO,0.0,0.0,0.0,0.0,0
2025-01-27,27,2025-01-27 07:53,07:53,EST,Calm,10.0,Fair,CLR,36.0,24.1,62.0,,,30.09,1019.0,0.0,0.0,0.0,2025-01-30,1,2025,7,KCHO,0.0,0.0,0.0,0.0,0
2025-01-27,27,2025-01-27 08:53,08:53,EST,Calm,10.0,Fair,CLR,39.9,25.0,55.0,,,30.1,1019.3,0.0,0.0,0.0,2025-01-30,1,2025,8,KCHO,0.0,0.0,0.0,0.0,0
2025-01-27,27,2025-01-27 09:53,09:53,EST,Vrbl  3,10.0,Fair,CLR,43.0,25.0,49.0,,,30.1,1019.4,0.0,0.0,0.0,2025-01-30,1,2025,9,KCHO,0.0,0.0,0.0,0.0,3
2025-01-27,27,2025-01-27 10:53,10:53,EST,SW  7,10.0,Fair,CLR,45.0,23.0,42.0,42.0,,30.09,1019.1,0.0,0.0,0.0,2025-01-30,1,2025,10,KCHO,0.0,0.0,0.0,0.0,7
2025-01-27,27,2025-01-27 11:53,11:53,EST,SW  8,10.0,Fair,CLR,46.9,18.0,31.0,44.0,,30.05,1017.7,0.0,0.0,0.0,2025-01-30,1,2025,11,KCHO,0.0,0.0,0.0,0.0,8
2025-01-27,27,2025-01-27 12:53,12:53,EST,SW  8,10.0,Fair,CLR,50.0,17.1,27.0,47.0,,30.0,1015.8,0.0,0.0,0.0,2025-01-27,1,2025,12,KCHO,0.0,0.0,0.0,0.0,8
2025-01-27,27,2025-01-27 13:53,13:53,EST,Vrbl  7,10.0,Fair,CLR,51.1,19.0,28.0,,,29.96,1014.4,0.0,0.0,0.0,2025-01-30,1,2025,13,KCHO,0.0,0.0,0.0,0.0,7
2025-01-27,27,2025-01-27 14:53,14:53,EST,Vrbl  7,10.0,Fair,CLR,51.1,19.0,28.0,,,29.92,1013.2,0.0,0.0,0.0,2025-01-30,1,2025,14,KCHO,0.0,0.0,0.0,0.0,7
2025-01-27,27,2025-01-27 15:53,15:53,EST,Vrbl  3,10.0,Fair,CLR,51.1,17.1,26.0,,,29.9,1012.4,0.0,0.0,0.0,2025-01-30,1,2025,15,KCHO,0.0,0.0,0.0,0.0,3
2025-01-27,27,2025-01-27 16:53,16:53,EST,Vrbl  3,10.0,Fair,CLR,48.9,15.1,26.0,,,29.88,1011.8,0.0,0.0,0.0,2025-01-30,1,2025,16,KCHO,0.0,0.0,0.0,0.0,3
2025-01-27,27,2025-01-27 17:53,17:53,EST,Calm,10.0,Fair,CLR,45.0,15.1,30.0,,,29.86,1011.2,0.0,0.0,0.0,2025-01-30,1,2025,17,KCHO,0.0,0.0,0.0,0.0,0
2025-01-27,27,2025-01-27 18:53,18:53,EST,Calm,10.0,Fair,CLR,42.1,16.0,35.0,,,29.85,1011.0,0.0,0.0,0.0,2025-01-30,1,2025,18,KCHO,0.0,0.0,0.0,0.0,0
2025-01-27,27,2025-01-27 19:53,19:53,EST,Vrbl  5,10.0,Fair,CLR,42.1,17.1,36.0,40.0,,29.84,1010.6,0.0,0.0,0.0,2025-01-30,1,2025,19,KCHO,0.0,0.0,0.0,0.0,5
2025-01-27,27,2025-01-27 20:53,20:53,EST,Calm,10.0,Fair,CLR,39.9,17.1,40.0,,,29.82,1010.0,0.0,0.0,0.0,2025-01-30,1,2025,20,KCHO,0.0,0.0,0.0,0.0,0
2025-01-27,27,2025-01-27 21:53,21:53,EST,SW  6,10.0,Fair,CLR,39.9,18.0,41.0,36.0,,29.8,1009.3,0.0,0.0,0.0,2025-01-30,1,2025,21,KCHO,0.0,0.0,0.0,0.0,6
2025-01-27,27,2025-01-27 22:53,22:53,EST,Vrbl  3,10.0,Fair,CLR,43.0,17.1,35.0,,,29.78,1008.6,0.0,0.0,0.0,2025-01-30,1,2025,22,KCHO,0.0,0.0,0.0,0.0,3
2025-01-27,27,2025-01-27 23:53,23:53,EST,Vrbl  6,10.0,Fair,CLR,42.1,15.1,33.0,39.0,,29.76,1007.7,0.0,0.0,0.0,2025-01-30,1,2025,23,KCHO,0.0,0.0,0.0,0.0,6
2025-01-28,28,2025-01-28 00:53,00:53,EST,W  12  G 22,10.0,Fair,CLR,43.0,12.9,29.0,37.0,,29.74,1006.9,0.0,0.0,0.0,2025-01-31,1,2025,0,KCHO,0.0,0.0,0.0,0.0,12
2025-01-28,28,2025-01-28 01:53,01:53,EST,Calm,10.0,Fair,CLR,42.1,10.9,28.0,,,29.73,1006.7,0.0,0.0,0.0,2025-01-31,1,2025,1,KCHO,0.0,0.0,0.0,0.0,0
2025-01-28,28,2025-01-28 02:53,02:53,EST,SW  15  G 24,10.0,Fair,CLR,41.0,9.0,27.0,34.0,,29.73,1006.6,0.0,0.0,0.0,2025-01-31,1,2025,2,KCHO,0.0,0.0,0.0,0.0,15
2025-01-28,28,2025-01-28 03:53,03:53,EST,SW  6,10.0,Fair,CLR,41.0,8.1,25.0,38.0,,29.71,1006.0,0.0,0.0,0.0,2025-01-31,1,2025,3,KCHO,0.0,0.0,0.0,0.0,6
2025-01-28,28,2025-01-28 04:53,04:53,EST,Vrbl  7,10.0,Fair,CLR,39.9,8.1,27.0,36.0,,29.71,1006.2,0.0,0.0,0.0,2025-01-31,1,2025,4,KCHO,0.0,0.0,0.0,0.0,7
2025-01-28,28,2025-01-28 05:53,05:53,EST,SW  8,10.0,Fair,CLR,37.9,10.9,33.0,33.0,,29.71,1006.3,0.0,0.0,0.0,2025-01-31,1,2025,5,KCHO,0.0,0.0,0.0,0.0,8
2025-01-28,28,2025-01-28 07:53,07:53,EST,SW  13  G 17,10.0,Fair,CLR,39.0,15.1,38.0,32.0,,29.72,1006.4,0.0,0.0,0.0,2025-01-31,1,2025,7,KCHO,0.0,0.0,0.0,0.0,13
2025-01-28,28,2025-01-28 08:53,08:53,EST,S  9,10.0,Fair,CLR,43.0,16.0,34.0,38.0,,29.72,1006.6,0.0,0.0,0.0,2025-01-31,1,2025,8,KCHO,0.0,0.0,0.0,0.0,9
2025-01-28,28,2025-01-28 09:53,09:53,EST,S  9,10.0,Fair,CLR,46.9,18.0,31.0,43.0,,29.75,1007.3,0.0,0.0,0.0,2025-01-31,1,2025,9,KCHO,0.0,0.0,0.0,0.0,9
2025-01-28,28,2025-01-28 10:53,10:53,EST,W  5,10.0,Fair,CLR,48.9,19.0,31.0,48.0,,29.76,1007.6,0.0,0.0,0.0,2025-01-31,1,2025,10,KCHO,0.0,0.0,0.0,0.0,5
2025-01-28,28,2025-01-28 11:53,11:53,EST,Vrbl  7,10.0,Fair,CLR,51.1,21.0,31.0,,,29.76,1007.5,0.0,0.0,0.0,2025-01-31,1,2025,11,KCHO,0.0,0.0,0.0,0.0,7
2025-01-28,28,2025-01-28 12:53,12:53,EST,S  8,10.0,Fair,CLR,52.0,21.9,31.0,,,29.75,1007.2,0.0,0.0,0.0,2025-01-31,1,2025,12,KCHO,0.0,0.0,0.0,0.0,8
2025-01-28,28,2025-01-28 13:53,13:53,EST,S  6,10.0,Fair,CLR,54.0,23.0,30.0,,,29.73,1006.6,0.0,0.0,0.0,2025-01-31,1,2025,13,KCHO,0.0,0.0,0.0,0.0,6
2025-01-28,28,2025-01-28 14:53,14:53,EST,Calm,10.0,Fair,CLR,55.0,23.0,29.0,,,29.71,1006.0,0.0,0.0,0.0,2025-01-31,1,2025,14,KCHO,0.0,0.0,0.0,0.0,0
2025-01-28,28,2025-01-28 15:53,15:53,EST,SW  7,10.0,Fair,CLR,55.0,21.9,28.0,,,29.7,1005.6,0.0,0.0,0.0,2025-01-31,1,2025,15,KCHO,0.0,0.0,0.0,0.0,7
2025-01-28,28,2025-01-28 16:53,16:53,EST,SW  6,10.0,Fair,CLR,53.1,19.9,27.0,,,29.71,1006.1,0.0,0.0,0.0,2025-01-31,1,2025,16,KCHO,0.0,0.0,0.0,0.0,6
2025-01-28,28,2025-01-28 17:53,17:53,EST,Vrbl  5,10.0,Fair,CLR,50.0,19.9,30.0,49.0,,29.72,1006.5,0.0,0.0,0.0,2025-01-31,1,2025,17,KCHO,0.0,0.0,0.0,0.0,5
2025-01-28,28,2025-01-28 18:53,18:53,EST,SW  6,10.0,Fair,CLR,48.9,19.9,32.0,47.0,,29.73,1006.7,0.0,0.0,0.0,2025-01-31,1,2025,18,KCHO,0.0,0.0,0.0,0.0,6
2025-01-28,28,2025-01-28 19:53,19:53,EST,Vrbl  7,10.0,Fair,CLR,46.9,19.9,34.0,44.0,,29.73,1006.7,0.0,0.0,0.0,2025-01-31,1,2025,19,KCHO,0.0,0.0,0.0,0.0,7
2025-01-28,28,2025-01-28 20:53,20:53,EST,SW  6,10.0,Fair,CLR,46.9,19.9,34.0,45.0,,29.72,1006.5,0.0,0.0,0.0,2025-01-31,1,2025,20,KCHO,0.0,0.0,0.0,0.0,6
2025-01-28,28,2025-01-28 21:53,21:53,EST,SW  8  G 18,10.0,Fair,CLR,46.9,21.0,36.0,44.0,,29.71,1005.8,0.0,0.0,0.0,2025-01-31,1,2025,21,KCHO,0.0,0.0,0.0,0.0,8
2025-01-28,28,2025-01-28 22:53,22:53,EST,S  13,10.0,Fair,CLR,45.0,21.0,39.0,39.0,,29.67,1004.6,0.0,0.0,0.0,2025-01-31,1,2025,22,KCHO,0.0,0.0,0.0,0.0,13
2025-01-28,28,2025-01-28 23:53,23:53,EST,S  16  G 26,10.0,Fair,CLR,45.0,21.0,39.0,38.0,,29.65,1004.0,0.0,0.0,0.0,2025-01-31,1,2025,23,KCHO,0.0,0.0,0.0,0.0,16
2025-01-29,29,2025-01-29 00:53,00:53,EST,S  17,10.0,Fair,CLR,45.0,21.0,39.0,38.0,,29.63,1003.3,0.0,0.0,0.0,2025-02-01,1,2025,0,KCHO,0.0,0.0,0.0,0.0,17
2025-01-29,29,2025-01-29 01:53,01:53,EST,S  16  G 25,10.0,Fair,CLR,44.1,21.0,40.0,37.0,,29.61,1002.5,0.0,0.0,0.0,2025-02-01,1,2025,1,KCHO,0.0,0.0,0.0,0.0,16
2025-01-29,29,2025-01-29 02:53,02:53,EST,S  14,10.0,Fair,CLR,45.0,21.0,39.0,39.0,,29.6,1002.1,0.0,0.0,0.0,2025-02-01,1,2025,2,KCHO,0.0,0.0,0.0,0.0,14
2025-01-29,29,2025-01-29 03:53,03:53,EST,S  9  G 18,10.0,Fair,CLR,43.0,21.9,43.0,38.0,,29.6,1002.1,0.0,0.0,0.0,2025-02-01,1,2025,3,KCHO,0.0,0.0,0.0,0.0,9
2025-01-29,29,2025-01-29 04:53,04:53,EST,S  12,10.0,Fair,CLR,42.1,23.0,47.0,36.0,,29.59,1001.8,0.0,0.0,0.0,2025-02-01,1,2025,4,KCHO,0.0,0.0,0.0,0.0,12
2025-01-29,29,2025-01-29 05:53,05:53,EST,S  10,10.0,Fair,CLR,42.1,23.0,47.0,37.0,,29.59,1002.0,0.0,0.0,0.0,2025-02-01,1,2025,5,KCHO,0.0,0.0,0.0,0.0,10
2025-01-29,29,2025-01-29 06:53,06:53,EST,SW  8  G 17,10.0,Fair,CLR,50.0,24.1,36.0,47.0,,29.58,1001.6,0.0,0.0,0.0,2025-02-01,1,2025,6,KCHO,0.0,0.0,0.0,0.0,8
2025-01-29,29,2025-01-29 07:53,07:53,EST,SW  8  G 20,10.0,Fair,CLR,50.0,23.0,35.0,47.0,,29.6,1002.1,0.0,0.0,0.0,2025-02-01,1,2025,7,KCHO,0.0,0.0,0.0,0.0,8
2025-01-29,29,2025-01-29 08:53,08:53,EST,W  9  G 20,10.0,Fair,CLR,52.0,23.0,32.0,,,29.61,1002.5,0.0,0.0,0.0,2025-02-01,1,2025,8,KCHO,0.0,0.0,0.0,0.0,9
2025-01-29,29,2025-01-29 09:53,09:53,EST,SW  12  G 22,10.0,Fair,CLR,55.0,23.0,29.0,,,29.62,1002.8,0.0,0.0,0.0,2025-02-01,1,2025,9,KCHO,0.0,0.0,0.0,0.0,12
2025-01-29,29,2025-01-29 10:53,10:53,EST,SW  10  G 22,10.0,Fair,CLR,57.9,23.0,26.0,,,29.63,1003.2,0.0,0.0,0.0,2025-02-01,1,2025,10,KCHO,0.0,0.0,0.0,0.0,10
2025-01-29,29,2025-01-29 11:53,11:53,EST,W  8  G 20,10.0,Fair,CLR,61.0,19.0,20.0,,,29.62,1003.0,0.0,0.0,0.0,2025-02-01,1,2025,11,KCHO,0.0,0.0,0.0,0.0,8
2025-01-29,29,2025-01-29 12:53,12:53,EST,Vrbl  7  G 23,10.0,Fair,CLR,62.1,16.0,17.0,,,29.61,1002.5,0.0,0.0,0.0,2025-02-01,1,2025,12,KCHO,0.0,0.0,0.0,0.0,7
2025-01-29,29,2025-01-29 13:53,13:53,EST,Vrbl  7  G 20,10.0,Fair,CLR,63.0,16.0,16.0,,,29.62,1002.8,0.0,0.0,0.0,2025-02-01,1,2025,13,KCHO,0.0,0.0,0.0,0.0,7
2025-01-29,29,2025-01-29 14:53,14:53,EST,W  14  G 29,10.0,Fair,CLR,62.1,15.1,16.0,,,29.66,1004.0,0.0,0.0,0.0,2025-02-01,1,2025,14,KCHO,0.0,0.0,0.0,0.0,14
2025-01-29,29,2025-01-29 15:53,15:53,EST,Vrbl  5  G 22,10.0,Fair,CLR,60.1,16.0,18.0,,,29.7,1005.4,0.0,0.0,0.0,2025-02-01,1,2025,15,KCHO,0.0,0.0,0.0,0.0,5
2025-01-29,29,2025-01-29 16:53,16:53,EST,W  6,10.0,Fair,CLR,57.0,16.0,20.0,,,29.74,1006.9,0.0,0.0,0.0,2025-02-01,1,2025,16,KCHO,0.0,0.0,0.0,0.0,6
2025-01-29,29,2025-01-29 17:53,17:53,EST,Calm,10.0,Fair,CLR,54.0,16.0,22.0,,,29.8,1009.0,0.0,0.0,0.0,2025-02-01,1,2025,17,KCHO,0.0,0.0,0.0,0.0,0
2025-01-29,29,2025-01-29 18:53,18:53,EST,NW  10  G 20,10.0,Fair,CLR,51.1,16.0,25.0,,,29.85,1010.5,0.0,0.0,0.0,2025-02-01,1,2025,18,KCHO,0.0,0.0,0.0,0.0,10
2025-01-29,29,2025-01-29 19:53,19:53,EST,NW  12  G 26,10.0,Fair,CLR,50.0,14.0,24.0,46.0,,29.89,1012.0,0.0,0.0,0.0,2025-02-01,1,2025,19,KCHO,0.0,0.0,0.0,0.0,12
2025-01-29,29,2025-01-29 20:53,20:53,EST,NW  7  G 24,10.0,Fair,CLR,48.0,12.9,24.0,45.0,,29.92,1013.1,0.0,0.0,0.0,2025-02-01,1,2025,20,KCHO,0.0,0.0,0.0,0.0,7
2025-01-29,29,2025-01-29 21:53,21:53,EST,Vrbl  5,10.0,Fair,CLR,46.9,14.0,26.0,45.0,,29.96,1014.2,0.0,0.0,0.0,2025-02-01,1,2025,21,KCHO,0.0,0.0,0.0,0.0,5
2025-01-29,29,2025-01-29 22:53,22:53,EST,NW  7,10.0,Fair,CLR,46.0,14.0,27.0,43.0,,29.98,1014.9,0.0,0.0,0.0,2025-02-01,1,2025,22,KCHO,0.0,0.0,0.0,0.0,7
2025-01-29,29,2025-01-29 23:53,23:53,EST,W  9  G 18,10.0,Fair,CLR,46.0,15.1,29.0,42.0,,30.0,1015.5,0.0,0.0,0.0,2025-02-01,1,2025,23,KCHO,0.0,0.0,0.0,0.0,9
2025-01-30,30,2025-01-30 00:53,00:53,EST,Calm,10.0,Fair,CLR,44.1,14.0,30.0,,,30.02,1016.5,0.0,0.0,0.0,2025-02-02,1,2025,0,KCHO,0.0,0.0,0.0,0.0,0
2025-01-30,30,2025-01-30 01:53,01:53,EST,Calm,10.0,Fair,CLR,41.0,12.9,32.0,,,30.04,1017.0,0.0,0.0,0.0,2025-02-02,1,2025,1,KCHO,0.0,0.0,0.0,0.0,0
2025-01-30,30,2025-01-30 02:53,02:53,EST,W  3,10.0,Fair,CLR,41.0,12.9,32.0,,,30.07,1018.2,0.0,0.0,0.0,2025-02-02,1,2025,2,KCHO,0.0,0.0,0.0,0.0,3
2025-01-30,30,2025-01-30 03:53,03:53,EST,Calm,10.0,Fair,CLR,39.9,12.9,33.0,,,30.09,1018.9,0.0,0.0,0.0,2025-02-02,1,2025,3,KCHO,0.0,0.0,0.0,0.0,0
2025-01-30,30,2025-01-30 04:53,04:53,EST,Calm,10.0,Fair,CLR,39.9,15.1,36.0,,,30.1,1019.3,0.0,0.0,0.0,2025-02-02,1,2025,4,KCHO,0.0,0.0,0.0,0.0,0
2025-01-30,30,2025-01-30 05:53,05:53,EST,Calm,10.0,Fair,CLR,36.0,17.1,46.0,,,30.14,1020.8,0.0,0.0,0.0,2025-02-02,1,2025,5,KCHO,0.0,0.0,0.0,0.0,0
2025-01-30,30,2025-01-30 06:53,06:53,EST,W  3,10.0,Fair,CLR,36.0,15.1,42.0,,,30.18,1022.2,0.0,0.0,0.0,2025-02-02,1,2025,6,KCHO,0.0,0.0,0.0,0.0,3
2025-01-30,30,2025-01-30 07:53,07:53,EST,NW  3,10.0,Fair,CLR,34.0,16.0,48.0,,,30.21,1023.3,0.0,0.0,0.0,2025-02-02,1,2025,7,KCHO,0.0,0.0,0.0,0.0,3
2025-01-30,30,2025-01-30 08:53,08:53,EST,W  3,10.0,Fair,CLR,39.0,19.0,45.0,,,30.24,1024.1,0.0,0.0,0.0,2025-02-02,1,2025,8,KCHO,0.0,0.0,0.0,0.0,3
2025-01-30,30,2025-01-30 09:53,09:53,EST,SW  3,10.0,Fair,CLR,39.9,19.0,43.0,,,30.26,1024.6,0.0,0.0,0.0,2025-02-02,1,2025,9,KCHO,0.0,0.0,0.0,0.0,3
2025-01-30,30,2025-01-30 10:53,10:53,EST,W  3,10.0,Fair,CLR,44.1,19.0,37.0,,,30.26,1024.9,0.0,0.0,0.0,2025-02-02,1,2025,10,KCHO,0.0,0.0,0.0,0.0,3
2025-01-30,30,2025-01-30 11:53,11:53,EST,S  10,10.0,Fair,CLR,48.9,18.0,29.0,45.0,,30.23,1023.7,0.0,0.0,0.0,2025-02-02,1,2025,11,KCHO,0.0,0.0,0.0,0.0,10
2025-01-30,30,2025-01-30 12:53,12:53,EST,SW  14  G 22,10.0,Fair,CLR,52.0,16.0,24.0,,,30.2,1022.6,0.0,0.0,0.0,2025-02-02,1,2025,12,KCHO,0.0,0.0,0.0,0.0,14
2025-01-30,30,2025-01-30 13:53,13:53,EST,S  9,10.0,Fair,CLR,53.1,18.0,25.0,,,30.18,1021.9,0.0,0.0,0.0,2025-02-02,1,2025,13,KCHO,0.0,0.0,0.0,0.0,9
2025-01-30,30,2025-01-30 14:53,14:53,EST,S  9,10.0,Fair,CLR,54.0,16.0,22.0,,,30.14,1020.8,0.0,0.0,0.0,2025-02-02,1,2025,14,KCHO,0.0,0.0,0.0,0.0,9
2025-01-30,30,2025-01-30 15:53,15:53,EST,S  8,10.0,A Few Clouds,FEW120,55.0,17.1,22.0,,,30.14,1020.6,0.0,0.0,0.0,2025-02-02,1,2025,15,KCHO,0.0,0.0,0.0,0.0,8
2025-01-30,30,2025-01-30 16:53,16:53,EST,S  6,10.0,Partly Cloudy,SCT120,53.1,18.0,25.0,,,30.15,1020.9,0.0,0.0,0.0,2025-02-02,1,2025,16,KCHO,0.0,0.0,0.0,0.0,6
2025-01-30,30,2025-01-30 17:53,17:53,EST,S  5,10.0,Mostly Cloudy,BKN120,50.0,19.0,29.0,49.0,,30.15,1021.1,0.0,0.0,0.0,2025-02-02,1,2025,17,KCHO,0.0,0.0,0.0,0.0,5
2025-01-30,30,2025-01-30 18:53,18:53,EST,S  5,10.0,Partly Cloudy,SCT120,50.0,19.9,30.0,49.0,,30.18,1021.9,0.0,0.0,0.0,2025-02-02,1,2025,18,KCHO,0.0,0.0,0.0,0.0,5
2025-01-30,30,2025-01-30 19:53,19:53,EST,S  6,10.0,Fair,CLR,48.9,21.0,33.0,47.0,,30.17,1021.7,0.0,0.0,0.0,2025-02-02,1,2025,19,KCHO,0.0,0.0,0.0,0.0,6
2025-01-30,30,2025-01-30 20:53,20:53,EST,SW  6,10.0,Mostly Cloudy,BKN110,50.0,19.9,30.0,48.0,,30.15,1020.9,0.0,0.0,0.0,2025-02-02,1,2025,20,KCHO,0.0,0.0,0.0,0.0,6
2025-01-30,30,2025-01-30 21:53,21:53,EST,SW  9,10.0,Light Rain,OVC075,46.0,30.9,56.0,42.0,,30.15,1021.1,0.0,0.0,0.0,2025-02-02,1,2025,21,KCHO,0.0,0.0,0.0,0.0,9
2025-01-30,30,2025-01-30 22:53,22:53,EST,S  6,10.0,Light Rain,OVC070,45.0,37.0,74.0,42.0,,30.13,1020.5,0.0,0.0,0.0,2025-02-02,1,2025,22,KCHO,0.0,0.0,0.0,0.0,6
2025-01-30,30,2025-01-30 23:53,23:53,EST,SW  3,10.0,Overcast,BKN075 OVC090,45.0,37.9,77.0,,,30.12,1019.8,0.0,0.0,0.0,2025-02-02,1,2025,23,KCHO,0.0,0.0,0.0,0.0,3
2025-01-31,31,2025-01-31 00:53,00:53,EST,Calm,10.0,Overcast,OVC075,44.1,39.0,83.0,,,30.09,1019.1,0.0,0.0,0.0,2025-02-03,1,2025,0,KCHO,0.0,0.0,0.0,0.0,0
2025-01-31,31,2025-01-31 01:53,01:53,EST,S  7,10.0,Light Rain,FEW060 OVC075,44.1,39.0,83.0,41.0,,30.07,1018.2,0.0,0.0,0.0,2025-02-03,1,2025,1,KCHO,0.0,0.0,0.0,0.0,7
2025-01-31,31,2025-01-31 02:53,02:53,EST,S  3,9.0,Light Rain,OVC070,43.0,39.9,89.0,,,30.08,1018.7,0.01,0.0,0.0,2025-02-03,1,2025,2,KCHO,0.01,0.01,0.01,0.01,3
2025-01-31,31,2025-01-31 03:53,03:53,EST,S  7,10.0,Light Rain,FEW065 BKN090 OVC110,43.0,39.9,89.0,39.0,,30.03,1016.7,0.01,0.02,0.0,2025-02-03,1,2025,3,KCHO,0.02,0.02,0.02,0.02,7
2025-01-31,31,2025-01-31 04:53,04:53,EST,S  10,10.0,Light Rain,BKN050 OVC080,43.0,39.9,89.0,38.0,,29.99,1015.6,0.0,0.0,0.0,2025-02-03,1,2025,4,KCHO,0.02,0.02,0.02,0.02,10
2025-01-31,31,2025-01-31 05:53,05:53,EST,S  9,10.0,Overcast,FEW031 SCT045 OVC065,43.0,39.9,89.0,38.0,,29.98,1015.0,0.04,0.0,0.0,2025-02-03,1,2025,5,KCHO,0.05,0.06,0.06,0.06,9
2025-01-31,31,2025-01-31 07:53,07:53,EST,SW  9,6.0,Light Rain Fog/Mist,BKN005 OVC065,44.1,42.1,93.0,40.0,,29.97,1014.7,0.0,0.0,0.0,2025-02-03,1,2025,7,KCHO,0.04,0.060000000000000005,0.060000000000000005,0.060000000000000005,9
2025-01-31,31,2025-01-31 08:53,08:53,EST,S  13,6.0,Light Rain Fog/Mist,BKN005 OVC090,44.1,43.0,96.0,38.0,,29.94,1013.9,0.03,0.0,0.0,2025-02-03,1,2025,8,KCHO,0.07,0.09,0.09,0.09,13
2025-01-31,31,2025-01-31 09:53,09:53,EST,S  12,4.0,Light Rain Fog/Mist,BKN007 OVC090,45.0,43.0,93.0,40.0,,29.94,1014.0,0.05,0.08,0.0,2025-02-03,1,2025,9,KCHO,0.08,0.13,0.14,0.14,12
2025-01-31,31,2025-01-31 10:53,10:53,EST,S  12,3.0,Rain Fog/Mist,SCT004 SCT010 OVC048,46.9,45.0,93.0,42.0,,29.94,1013.8,0.15,0.0,0.0,2025-02-03,1,2025,10,KCHO,0.22999999999999998,0.27,0.29000000000000004,0.29000000000000004,12
2025-01-31,31,2025-01-31 11:53,11:53,EST,S  8,6.0,Light Rain Fog/Mist,BKN006 OVC046,46.9,46.0,97.0,44.0,,29.89,1012.2,0.17,0.0,0.0,2025-02-03,1,2025,11,KCHO,0.37,0.44,0.46,0.46,8
2025-01-31,31,2025-01-31 12:53,12:53,EST,S  9,10.0,Partly Cloudy,FEW044 SCT110,48.0,45.0,89.0,44.0,,29.84,1010.6,0.01,0.0,0.41,2025-02-03,1,2025,12,KCHO,0.33,0.41000000000000003,0.47000000000000003,0.47000000000000003,9
2025-01-31,31,2025-01-31 13:53,13:53,EST,SW  9  G 20,10.0,Fair,CLR,50.0,45.0,83.0,47.0,,29.83,1010.2,0.0,0.0,0.0,2025-02-03,1,2025,13,KCHO,0.18000000000000002,0.41000000000000003,0.47000000000000003,0.47000000000000003,9
2025-01-31,31,2025-01-31 14:53,14:53,EST,S  8,10.0,Overcast,OVC085,51.1,46.0,83.0,,,29.8,1009.0,0.0,0.0,0.0,2025-02-03,1,2025,14,KCHO,0.01,0.38,0.47000000000000003,0.47000000000000003,8
2025-01-31,31,2025-01-31 15:53,15:53,EST,S  12,10.0,Light Rain,OVC075,50.0,46.9,89.0,46.0,,29.8,1009.1,0.01,0.01,0.0,2025-02-03,1,2025,15,KCHO,0.01,0.34,0.47000000000000003,0.48000000000000004,12
2025-01-31,31,2025-01-31 16:53,16:53,EST,S  10,10.0,Overcast,OVC075,50.0,46.0,86.0,46.0,,29.8,1009.2,0.0,0.0,0.0,2025-02-03,1,2025,16,KCHO,0.01,0.19,0.46,0.48000000000000004,10
2025-01-31,31,2025-01-31 17:53,17:53,EST,SW  3,10.0,Overcast,OVC075,51.1,46.0,83.0,,,29.79,1008.7,0.0,0.0,0.0,2025-02-03,1,2025,17,KCHO,0.01,0.02,0.46,0.48000000000000004,3
2025-01-31,31,2025-01-31 18:53,18:53,EST,S  3,8.0,Light Rain,SCT070 OVC090,48.0,46.9,96.0,,,29.77,1008.0,0.06,0.0,0.07,2025-02-03,1,2025,18,KCHO,0.06,0.06999999999999999,0.48000000000000004,0.54,3
2025-01-31,31,2025-01-31 19:53,19:53,EST,S  7,4.0,Rain Fog/Mist,OVC075,48.0,46.9,96.0,45.0,,29.75,1007.6,0.05,0.0,0.0,2025-02-03,1,2025,19,KCHO,0.11,0.12,0.53,0.5900000000000001,7
2025-01-31,31,2025-01-31 20:53,20:53,EST,Vrbl  3,4.0,Light Rain Fog/Mist,FEW039 SCT048 OVC075,48.9,46.9,93.0,,,29.75,1007.2,0.05,0.0,0.0,2025-02-03,1,2025,20,KCHO,0.16,0.17,0.55,0.64,3
2025-01-31,31,2025-01-31 21:53,21:53,EST,S  8,2.0,Light Rain Fog/Mist,OVC085,48.0,46.9,96.0,45.0,,29.71,1006.1,0.04,0.14,0.0,2025-02-03,1,2025,21,KCHO,0.14,0.2,0.54,0.68,8
2025-01-31,31,2025-01-31 22:53,22:53,EST,S  6,10.0,Overcast,SCT075 OVC090,48.0,46.9,96.0,46.0,,29.7,1005.6,0.01,0.0,0.0,2025-02-03,1,2025,22,KCHO,0.1,0.21,0.4,0.6900000000000001,6
2025-01-31,31,2025-01-31 23:53,23:53,EST,Calm,10.0,A Few Clouds,FEW120,50.0,46.0,86.0,,,29.68,1005.1,0.0,0.0,0.0,2025-02-03,1,2025,23,KCHO,0.05,0.21,0.23000000000000004,0.6900000000000001,0
2025-02-01,1,2025-02-01 00:53,00:53,EST,Calm,10.0,Fair,CLR,50.0,45.0,83.0,,,29.69,1005.4,0.0,0.0,0.15,2025-02-04,2,2025,0,KCHO,0.01,0.15,0.22000000000000003,0.6900000000000001,0
2025-02-01,1,2025-02-01 01:53,01:53,EST,S  5,10.0,Fair,CLR,46.9,43.0,86.0,45.0,,29.69,1005.4,0.0,0.0,0.0,2025-02-04,2,2025,1,KCHO,0.0,0.1,0.22000000000000003,0.6900000000000001,5
2025-02-01,1,2025-02-01 02:53,02:53,EST,S  3,10.0,A Few Clouds,FEW055,50.0,42.1,74.0,,,29.7,1005.6,0.0,0.0,0.0,2025-02-04,2,2025,2,KCHO,0.0,0.05,0.22000000000000003,0.6900000000000001,3
2025-02-01,1,2025-02-01 03:53,03:53,EST,Vrbl  3,10.0,Partly Cloudy,SCT055,52.0,39.9,64.0,,,29.73,1006.7,0.0,0.0,0.0,2025-02-04,2,2025,3,KCHO,0.0,0.01,0.21000000000000005,0.68,3
2025-02-01,1,2025-02-01 04:53,04:53,EST,W  7,10.0,Partly Cloudy,SCT060,51.1,37.0,59.0,,,29.78,1008.4,0.0,0.0,0.0,2025-02-04,2,2025,4,KCHO,0.0,0.0,0.21000000000000005,0.67,7
2025-02-01,1,2025-02-01 05:53,05:53,EST,Vrbl  3,10.0,Fair,CLR,51.1,36.0,56.0,,,29.83,1009.8,0.0,0.0,0.0,2025-02-04,2,2025,5,KCHO,0.0,0.0,0.21000000000000005,0.67,3
2025-02-01,1,2025-02-01 06:53,06:53,EST,Calm,10.0,Mostly Cloudy,BKN050,48.9,36.0,61.0,,,29.88,1011.9,0.0,0.0,0.0,2025-02-04,2,2025,6,KCHO,0.0,0.0,0.15000000000000002,0.6300000000000001,0
2025-02-01,1,2025-02-01 07:53,07:53,EST,N  6,10.0,Mostly Cloudy,BKN044 BKN055,50.0,37.9,63.0,48.0,,29.95,1014.2,0.0,0.0,0.0,2025-02-04,2,2025,7,KCHO,0.0,0.0,0.10000000000000003,0.6300000000000001,6
2025-02-01,1,2025-02-01 08:53,08:53,EST,N  7,10.0,Fair,CLR,48.9,34.0,56.0,46.0,,30.01,1016.3,0.0,0.0,0.0,2025-02-04,2,2025,8,KCHO,0.0,0.0,0.05000000000000003,0.6000000000000001,7
2025-02-01,1,2025-02-01 09:53,09:53,EST,Vrbl  7  G 22,10.0,Fair,CLR,48.9,32.0,52.0,46.0,,30.07,1018.3,0.0,0.0,0.0,2025-02-04,2,2025,9,KCHO,0.0,0.0,0.010000000000000028,0.55,7
2025-02-01,1,2025-02-01 10:53,10:53,EST,N  9  G 21,10.0,Fair,CLR,48.9,28.9,46.0,45.0,,30.12,1020.0,0.0,0.0,0.0,2025-02-04,2,2025,10,KCHO,0.0,0.0,0.0,0.4,9
2025-02-01,1,2025-02-01 11:53,11:53,EST,N  9  G 18,10.0,Fair,CLR,48.0,28.0,46.0,44.0,,30.17,1021.5,0.0,0.0,0.0,2025-02-04,2,2025,11,KCHO,0.0,0.0,0.0,0.23000000000000004,9
2025-02-01,1,2025-02-01 12:53,12:53,EST,N  12  G 24,10.0,Fair,CLR,48.9,26.1,41.0,45.0,,30.18,1021.9,0.0,0.0,0.0,2025-02-04,2,2025,12,KCHO,0.0,0.0,0.0,0.22000000000000003,12
2025-02-01,1,2025-02-01 13:53,13:53,EST,N  7,10.0,Fair,CLR,48.9,23.0,36.0,46.0,,30.19,1022.5,0.0,0.0,0.0,2025-02-04,2,2025,13,KCHO,0.0,0.0,0.0,0.22000000000000003,7
2025-02-01,1,2025-02-01 14:53,14:53,EST,N  12,10.0,Fair,CLR,48.9,21.9,35.0,45.0,,30.21,1023.0,0.0,0.0,0.0,2025-02-04,2,2025,14,KCHO,0.0,0.0,0.0,0.22000000000000003,12
2025-02-01,1,2025-02-01 15:53,15:53,EST,N  9,10.0,Fair,CLR,48.0,21.0,34.0,44.0,,30.24,1024.0,0.0,0.0,0.0,2025-02-04,2,2025,15,KCHO,0.0,0.0,0.0,0.21000000000000005,9
2025-02-01,1,2025-02-01 16:53,16:53,EST,N  7  G 16,10.0,Fair,CLR,46.0,19.9,35.0,43.0,,30.26,1024.7,0.0,0.0,0.0,2025-02-04,2,2025,16,KCHO,0.0,0.0,0.0,0.21000000000000005,7
2025-02-01,1,2025-02-01 17:53,17:53,EST,N  5,10.0,Fair,CLR,42.1,17.1,36.0,40.0,,30.29,1025.6,0.0,0.0,0.0,2025-02-04,2,2025,17,KCHO,0.0,0.0,0.0,0.21000000000000005,5
2025-02-01,1,2025-02-01 18:53,18:53,EST,N  7,10.0,Fair,CLR,39.9,17.1,40.0,36.0,,30.32,1026.9,0.0,0.0,0.0,2025-02-04,2,2025,18,KCHO,0.0,0.0,0.0,0.15000000000000002,7
2025-02-01,1,2025-02-01 19:53,19:53,EST,NE  9,10.0,Fair,CLR,37.9,10.9,33.0,32.0,,30.35,1027.8,0.0,0.0,0.0,2025-02-04,2,2025,19,KCHO,0.0,0.0,0.0,0.10000000000000003,9
2025-02-01,1,2025-02-01 20:53,20:53,EST,E  6,10.0,Fair,CLR,35.1,8.1,32.0,31.0,,30.37,1028.6,0.0,0.0,0.0,2025-02-04,2,2025,20,KCHO,0.0,0.0,0.0,0.05000000000000003,6
2025-02-01,1,2025-02-01 21:53,21:53,EST,NE  6,10.0,Fair,CLR,34.0,7.0,32.0,29.0,,30.4,1029.6,0.0,0.0,0.0,2025-02-04,2,2025,21,KCHO,0.0,0.0,0.0,0.010000000000000028,6
2025-02-01,1,2025-02-01 22:53,22:53,EST,NE  6,10.0,Fair,CLR,30.9,9.0,40.0,26.0,,30.42,1030.5,0.0,0.0,0.0,2025-02-04,2,2025,22,KCHO,0.0,0.0,0.0,0.0,6
2025-02-01,1,2025-02-01 23:53,23:53,EST,NE  6,10.0,Fair,CLR,30.9,7.0,36.0,26.0,,30.43,1030.5,0.0,0.0,0.0,2025-02-04,2,2025,23,KCHO,0.0,0.0,0.0,0.0,6
2025-02-02,2,2025-02-02 00:53,00:53,EST,N  3,10.0,Fair,CLR,30.0,8.1,39.0,,,30.44,1030.9,0.0,0.0,0.0,2025-02-05,2,2025,0,KCHO,0.0,0.0,0.0,0.0,3
2025-02-02,2,2025-02-02 01:53,01:53,EST,Calm,10.0,Fair,CLR,28.9,7.0,39.0,,,30.44,1031.1,0.0,0.0,0.0,2025-02-05,2,2025,1,KCHO,0.0,0.0,0.0,0.0,0
2025-02-02,2,2025-02-02 02:53,02:53,EST,NE  5,10.0,Fair,CLR,26.1,8.1,46.0,21.0,,30.46,1031.7,0.0,0.0,0.0,2025-02-05,2,2025,2,KCHO,0.0,0.0,0.0,0.0,5
2025-02-02,2,2025-02-02 03:53,03:53,EST,Calm,10.0,Mostly Cloudy,BKN047,27.0,10.9,51.0,,,30.47,1032.0,0.0,0.0,0.0,2025-02-05,2,2025,3,KCHO,0.0,0.0,0.0,0.0,0
2025-02-02,2,2025-02-02 04:53,04:53,EST,NE  5,10.0,Overcast,OVC047,28.0,12.9,53.0,24.0,,30.47,1032.0,0.0,0.0,0.0,2025-02-05,2,2025,4,KCHO,0.0,0.0,0.0,0.0,5
2025-02-02,2,2025-02-02 05:53,05:53,EST,NE  6,10.0,Overcast,OVC050,28.0,10.9,49.0,22.0,,30.46,1032.0,0.0,0.0,0.0,2025-02-05,2,2025,5,KCHO,0.0,0.0,0.0,0.0,6
2025-02-02,2,2025-02-02 06:53,06:53,EST,NE  6,10.0,Overcast,OVC055,28.9,12.0,49.0,23.0,,30.48,1032.5,0.0,0.0,0.0,2025-02-05,2,2025,6,KCHO,0.0,0.0,0.0,0.0,6
2025-02-02,2,2025-02-02 07:53,07:53,EST,NE  5,10.0,Overcast,OVC055,28.0,12.9,53.0,24.0,,30.49,1032.8,0.0,0.0,0.0,2025-02-05,2,2025,7,KCHO,0.0,0.0,0.0,0.0,5
2025-02-02,2,2025-02-02 08:53,08:53,EST,NE  3,10.0,Overcast,OVC042,30.0,12.9,49.0,,,30.47,1032.4,0.0,0.0,0.0,2025-02-05,2,2025,8,KCHO,0.0,0.0,0.0,0.0,3
2025-02-02,2,2025-02-02 09:53,09:53,EST,Calm,10.0,Overcast,OVC041,30.9,14.0,49.0,,,30.46,1031.7,0.0,0.0,0.0,2025-02-05,2,2025,9,KCHO,0.0,0.0,0.0,0.0,0
2025-02-02,2,2025-02-02 10:53,10:53,EST,S  3,10.0,Overcast,OVC041,32.0,15.1,50.0,,,30.44,1031.3,0.0,0.0,0.0,2025-02-05,2,2025,10,KCHO,0.0,0.0,0.0,0.0,3
2025-02-02,2,2025-02-02 11:53,11:53,EST,S  3,10.0,Overcast,OVC040,34.0,17.1,50.0,,,30.41,1030.0,0.0,0.0,0.0,2025-02-05,2,2025,11,KCHO,0.0,0.0,0.0,0.0,3
2025-02-02,2,2025-02-02 12:53,12:53,EST,SE  7,10.0,Overcast,OVC039,35.1,18.0,50.0,30.0,,30.35,1028.3,0.0,0.0,0.0,2025-02-05,2,2025,12,KCHO,0.0,0.0,0.0,0.0,7
2025-02-02,2,2025-02-02 13:53,13:53,EST,SE  10,10.0,Overcast,OVC036,39.0,19.9,46.0,33.0,,30.32,1027.1,0.0,0.0,0.0,2025-02-05,2,2025,13,KCHO,0.0,0.0,0.0,0.0,10
2025-02-02,2,2025-02-02 14:53,14:53,EST,S  9,10.0,Overcast,OVC035,39.0,21.0,48.0,33.0,,30.28,1025.8,0.0,0.0,0.0,2025-02-05,2,2025,14,KCHO,0.0,0.0,0.0,0.0,9
2025-02-02,2,2025-02-02 15:53,15:53,EST,S  12,10.0,Mostly Cloudy,BKN034,39.0,21.0,48.0,32.0,,30.27,1025.5,0.0,0.0,0.0,2025-02-05,2,2025,15,KCHO,0.0,0.0,0.0,0.0,12
2025-02-02,2,2025-02-02 16:53,16:53,EST,S  9,10.0,Fair,CLR,37.9,21.9,52.0,32.0,,30.26,1025.0,0.0,0.0,0.0,2025-02-05,2,2025,16,KCHO,0.0,0.0,0.0,0.0,9
2025-02-02,2,2025-02-02 17:53,17:53,EST,S  6,10.0,Fair,CLR,35.1,23.0,61.0,31.0,,30.25,1024.9,0.0,0.0,0.0,2025-02-05,2,2025,17,KCHO,0.0,0.0,0.0,0.0,6
2025-02-02,2,2025-02-02 18:53,18:53,EST,S  3,10.0,Fair,CLR,35.1,23.0,61.0,,,30.25,1024.8,0.0,0.0,0.0,2025-02-05,2,2025,18,KCHO,0.0,0.0,0.0,0.0,3
2025-02-02,2,2025-02-02 19:53,19:53,EST,Calm,10.0,Fair,CLR,35.1,23.0,61.0,,,30.24,1024.6,0.0,0.0,0.0,2025-02-05,2,2025,19,KCHO,0.0,0.0,0.0,0.0,0
2025-02-02,2,2025-02-02 20:53,20:53,EST,Calm,10.0,Fair,CLR,33.1,23.0,66.0,,,30.25,1024.7,0.0,0.0,0.0,2025-02-05,2,2025,20,KCHO,0.0,0.0,0.0,0.0,0
2025-02-02,2,2025-02-02 21:53,21:53,EST,Calm,10.0,Fair,CLR,33.1,23.0,66.0,,,30.24,1024.3,0.0,0.0,0.0,2025-02-05,2,2025,21,KCHO,0.0,0.0,0.0,0.0,0
2025-02-02,2,2025-02-02 22:53,22:53,EST,W  3,10.0,Fair,CLR,32.0,24.1,73.0,,,30.23,1024.0,0.0,0.0,0.0,2025-02-05,2,2025,22,KCHO,0.0,0.0,0.0,0.0,3
2025-02-02,2,2025-02-02 23:53,23:53,EST,Calm,10.0,Fair,CLR,32.0,23.0,69.0,,,30.22,1023.6,0.0,0.0,0.0,2025-02-05,2,2025,23,KCHO,0.0,0.0,0.0,0.0,0
2025-02-03,3,2025-02-03 00:53,00:53,EST,SW  6,10.0,Fair,CLR,33.1,23.0,66.0,28.0,,30.19,1022.7,0.0,0.0,0.0,2025-02-06,2,2025,0,KCHO,0.0,0.0,0.0,0.0,6
2025-02-03,3,2025-02-03 01:53,01:53,EST,SW  6,10.0,Fair,CLR,30.0,23.0,75.0,25.0,,30.17,1022.0,0.0,0.0,0.0,2025-02-06,2,2025,1,KCHO,0.0,0.0,0.0,0.0,6
2025-02-03,3,2025-02-03 02:53,02:53,EST,SW  5,10.0,Fair,CLR,32.0,24.1,73.0,28.0,,30.15,1021.3,0.0,0.0,0.0,2025-02-06,2,2025,2,KCHO,0.0,0.0,0.0,0.0,5
2025-02-03,3,2025-02-03 03:53,03:53,EST,W  3,10.0,Fair,CLR,30.9,24.1,76.0,,,30.14,1020.9,0.0,0.0,0.0,2025-02-06,2,2025,3,KCHO,0.0,0.0,0.0,0.0,3
2025-02-03,3,2025-02-03 04:53,04:53,EST,SW  3,10.0,Fair,CLR,30.9,24.1,76.0,,,30.13,1020.7,0.0,0.0,0.0,2025-02-06,2,2025,4,KCHO,0.0,0.0,0.0,0.0,3
2025-02-03,3,2025-02-03 05:53,05:53,EST,Calm,10.0,Fair,CLR,32.0,24.1,73.0,,,30.13,1020.5,0.0,0.0,0.0,2025-02-06,2,2025,5,KCHO,0.0,0.0,0.0,0.0,0
2025-02-03,3,2025-02-03 06:53,06:53,EST,Calm,10.0,Fair,CLR,32.0,25.0,75.0,,,30.14,1021.0,0.0,0.0,0.0,2025-02-06,2,2025,6,KCHO,0.0,0.0,0.0,0.0,0
2025-02-03,3,2025-02-03 07:53,07:53,EST,Calm,10.0,Fair,CLR,33.1,26.1,75.0,,,30.16,1021.8,0.0,0.0,0.0,2025-02-06,2,2025,7,KCHO,0.0,0.0,0.0,0.0,0
2025-02-03,3,2025-02-03 08:53,08:53,EST,Calm,10.0,Fair,CLR,35.1,28.0,76.0,,,30.16,1021.5,0.0,0.0,0.0,2025-02-06,2,2025,8,KCHO,0.0,0.0,0.0,0.0,0
2025-02-03,3,2025-02-03 09:53,09:53,EST,Calm,10.0,Fair,CLR,37.9,28.9,70.0,,,30.16,1021.7,0.0,0.0,0.0,2025-02-06,2,2025,9,KCHO,0.0,0.0,0.0,0.0,0
2025-02-03,3,2025-02-03 10:53,10:53,EST,SW  3,10.0,Fair,CLR,43.0,32.0,65.0,,,30.14,1020.9,0.0,0.0,0.0,2025-02-06,2,2025,10,KCHO,0.0,0.0,0.0,0.0,3
2025-02-03,3,2025-02-03 11:53,11:53,EST,S  6,10.0,Fair,CLR,46.9,34.0,61.0,45.0,,30.11,1019.7,0.0,0.0,0.0,2025-02-06,2,2025,11,KCHO,0.0,0.0,0.0,0.0,6
2025-02-03,3,2025-02-03 12:53,12:53,EST,S  6,10.0,Fair,CLR,48.0,35.1,61.0,46.0,,30.07,1018.5,0.0,0.0,0.0,2025-02-06,2,2025,12,KCHO,0.0,0.0,0.0,0.0,6
2025-02-03,3,2025-02-03 13:53,13:53,EST,S  3,10.0,Fair,CLR,50.0,36.0,59.0,,,30.04,1017.3,0.0,0.0,0.0,2025-02-06,2,2025,13,KCHO,0.0,0.0,0.0,0.0,3
2025-02-03,3,2025-02-03 14:53,14:53,EST,S  6,10.0,Fair,CLR,53.1,37.9,57.0,,,30.0,1015.9,0.0,0.0,0.0,2025-02-06,2,2025,14,KCHO,0.0,0.0,0.0,0.0,6
2025-02-03,3,2025-02-03 15:53,15:53,EST,S  15,10.0,Fair,CLR,60.1,39.0,46.0,,,29.97,1014.9,0.0,0.0,0.0,2025-02-06,2,2025,15,KCHO,0.0,0.0,0.0,0.0,15
2025-02-03,3,2025-02-03 16:53,16:53,EST,SW  9,10.0,Fair,CLR,57.9,39.0,50.0,,,29.96,1014.4,0.0,0.0,0.0,2025-02-06,2,2025,16,KCHO,0.0,0.0,0.0,0.0,9
2025-02-03,3,2025-02-03 17:53,17:53,EST,SW  8,10.0,Fair,CLR,57.0,37.9,49.0,,,29.94,1014.0,0.0,0.0,0.0,2025-02-06,2,2025,17,KCHO,0.0,0.0,0.0,0.0,8
2025-02-03,3,2025-02-03 18:53,18:53,EST,S  14,10.0,Fair,CLR,55.9,39.0,53.0,,,29.93,1013.6,0.0,0.0,0.0,2025-02-06,2,2025,18,KCHO,0.0,0.0,0.0,0.0,14
2025-02-03,3,2025-02-03 19:53,19:53,EST,SW  15  G 24,10.0,Fair,CLR,59.0,37.9,46.0,,,29.92,1013.1,0.0,0.0,0.0,2025-02-06,2,2025,19,KCHO,0.0,0.0,0.0,0.0,15
2025-02-03,3,2025-02-03 20:53,20:53,EST,S  10,10.0,Fair,CLR,55.9,37.9,51.0,,,29.91,1012.9,0.0,0.0,0.0,2025-02-06,2,2025,20,KCHO,0.0,0.0,0.0,0.0,10
2025-02-03,3,2025-02-03 21:53,21:53,EST,S  7,10.0,Fair,CLR,52.0,37.9,59.0,,,29.89,1012.2,0.0,0.0,0.0,2025-02-06,2,2025,21,KCHO,0.0,0.0,0.0,0.0,7
2025-02-03,3,2025-02-03 22:53,22:53,EST,S  6,10.0,Fair,CLR,51.1,39.0,64.0,,,29.89,1012.0,0.0,0.0,0.0,2025-02-06,2,2025,22,KCHO,0.0,0.0,0.0,0.0,6
2025-02-03,3,2025-02-03 23:53,23:53,EST,S  7,10.0,Fair,CLR,50.0,39.0,66.0,48.0,,29.88,1011.7,0.0,0.0,0.0,2025-02-06,2,2025,23,KCHO,0.0,0.0,0.0,0.0,7
2025-02-04,4,2025-02-04 00:53,00:53,EST,S  9,10.0,Fair,CLR,48.9,39.0,69.0,45.0,,29.87,1011.4,0.0,0.0,0.0,2025-02-07,2,2025,0,KCHO,0.0,0.0,0.0,0.0,9
2025-02-04,4,2025-02-04 01:53,01:53,EST,S  12,10.0,Fair,CLR,50.0,39.9,68.0,46.0,,29.85,1010.6,0.0,0.0,0.0,2025-02-07,2,2025,1,KCHO,0.0,0.0,0.0,0.0,12
2025-02-04,4,2025-02-04 02:53,02:53,EST,S  8,10.0,Fair,CLR,51.1,39.9,66.0,,,29.84,1010.4,0.0,0.0,0.0,2025-02-07,2,2025,2,KCHO,0.0,0.0,0.0,0.0,8
2025-02-04,4,2025-02-04 03:53,03:53,EST,Calm,10.0,Fair,CLR,61.0,37.0,41.0,,,29.82,1009.4,0.0,0.0,0.0,2025-02-07,2,2025,3,KCHO,0.0,0.0,0.0,0.0,0
2025-02-04,4,2025-02-04 04:53,04:53,EST,Vrbl  3,10.0,Fair,CLR,60.1,39.0,46.0,,,29.83,1009.9,0.0,0.0,0.0,2025-02-07,2,2025,4,KCHO,0.0,0.0,0.0,0.0,3
2025-02-04,4,2025-02-04 05:53,05:53,EST,Vrbl  3,10.0,Fair,CLR,61.0,39.9,46.0,,,29.85,1010.4,0.0,0.0,0.0,2025-02-07,2,2025,5,KCHO,0.0,0.0,0.0,0.0,3
2025-02-04,4,2025-02-04 06:53,06:53,EST,S  5,10.0,Fair,CLR,57.9,41.0,53.0,,,29.86,1010.8,0.0,0.0,0.0,2025-02-07,2,2025,6,KCHO,0.0,0.0,0.0,0.0,5
2025-02-04,4,2025-02-04 07:53,07:53,EST,Calm,10.0,Fair,CLR,62.1,43.0,50.0,,,29.89,1011.8,0.0,0.0,0.0,2025-02-07,2,2025,7,KCHO,0.0,0.0,0.0,0.0,0
2025-02-04,4,2025-02-04 08:53,08:53,EST,Vrbl  5,10.0,Overcast,OVC070,64.0,44.1,48.0,,,29.94,1013.4,0.0,0.0,0.0,2025-02-07,2,2025,8,KCHO,0.0,0.0,0.0,0.0,5
2025-02-04,4,2025-02-04 09:53,09:53,EST,W  10  G 18,10.0,Mostly Cloudy,BKN070,66.9,43.0,42.0,,,29.95,1013.9,0.0,0.0,0.0,2025-02-07,2,2025,9,KCHO,0.0,0.0,0.0,0.0,10
2025-02-04,4,2025-02-04 10:53,10:53,EST,NW  10  G 23,10.0,Mostly Cloudy,BKN065,69.1,42.1,38.0,,,29.97,1014.7,0.0,0.0,0.0,2025-02-07,2,2025,10,KCHO,0.0,0.0,0.0,0.0,10
2025-02-04,4,2025-02-04 11:53,11:53,EST,NW  13  G 22,10.0,Fair,CLR,66.9,39.9,37.0,,,30.0,1015.4,0.0,0.0,0.0,2025-02-07,2,2025,11,KCHO,0.0,0.0,0.0,0.0,13
2025-02-04,4,2025-02-04 12:53,12:53,EST,N  7,10.0,Fair,CLR,68.0,37.9,33.0,,,30.0,1015.6,0.0,0.0,0.0,2025-02-07,2,2025,12,KCHO,0.0,0.0,0.0,0.0,7
2025-02-04,4,2025-02-04 14:53,14:53,EST,NW  7,10.0,Fair,CLR,66.0,34.0,30.0,,,30.02,1016.3,0.0,0.0,0.0,2025-02-07,2,2025,14,KCHO,0.0,0.0,0.0,0.0,7
2025-02-04,4,2025-02-04 15:53,15:53,EST,N  10  G 16,10.0,Fair,CLR,64.0,32.0,30.0,,,30.06,1017.5,0.0,0.0,0.0,2025-02-07,2,2025,15,KCHO,0.0,0.0,0.0,0.0,10
2025-02-04,4,2025-02-04 16:53,16:53,EST,N  7,10.0,Fair,CLR,59.0,32.0,36.0,,,30.09,1018.6,0.0,0.0,0.0,2025-02-07,2,2025,16,KCHO,0.0,0.0,0.0,0.0,7
2025-02-04,4,2025-02-04 17:53,17:53,EST,N  7,10.0,Fair,CLR,51.1,30.9,46.0,,,30.14,1020.5,0.0,0.0,0.0,2025-02-07,2,2025,17,KCHO,0.0,0.0,0.0,0.0,7
2025-02-04,4,2025-02-04 18:53,18:53,EST,NE  8,10.0,Fair,CLR,46.9,28.0,48.0,44.0,,30.18,1021.8,0.0,0.0,0.0,2025-02-07,2,2025,18,KCHO,0.0,0.0,0.0,0.0,8
2025-02-04,4,2025-02-04 19:53,19:53,EST,NE  7,10.0,Fair,CLR,44.1,25.0,47.0,41.0,,30.21,1022.8,0.0,0.0,0.0,2025-02-07,2,2025,19,KCHO,0.0,0.0,0.0,0.0,7
2025-02-04,4,2025-02-04 20:53,20:53,EST,E  6,10.0,Fair,CLR,42.1,23.0,47.0,39.0,,30.23,1023.5,0.0,0.0,0.0,2025-02-07,2,2025,20,KCHO,0.0,0.0,0.0,0.0,6
2025-02-04,4,2025-02-04 21:53,21:53,EST,NE  7,10.0,Fair,CLR,39.9,21.9,49.0,36.0,,30.25,1024.2,0.0,0.0,0.0,2025-02-07,2,2025,21,KCHO,0.0,0.0,0.0,0.0,7
2025-02-04,4,2025-02-04 22:53,22:53,EST,NE  3,10.0,Fair,CLR,39.0,21.9,50.0,,,30.27,1024.9,0.0,0.0,0.0,2025-02-07,2,2025,22,KCHO,0.0,0.0,0.0,0.0,3
2025-02-04,4,2025-02-04 23:53,23:53,EST,E  3,10.0,Fair,CLR,37.9,21.9,52.0,,,30.28,1025.4,0.0,0.0,0.0,2025-02-07,2,2025,23,KCHO,0.0,0.0,0.0,0.0,3
2025-02-05,5,2025-02-05 00:53,00:53,EST,E  5,10.0,A Few Clouds,FEW070,37.9,21.0,51.0,35.0,,30.28,1025.4,0.0,0.0,0.0,2025-02-08,2,2025,0,KCHO,0.0,0.0,0.0,0.0,5
2025-02-05,5,2025-02-05 01:53,01:53,EST,Calm,10.0,Overcast,OVC060,37.9,23.0,55.0,,,30.3,1025.8,0.0,0.0,0.0,2025-02-08,2,2025,1,KCHO,0.0,0.0,0.0,0.0,0
2025-02-05,5,2025-02-05 02:53,02:53,EST,S  5,10.0,Overcast,OVC055,37.9,24.1,57.0,35.0,,30.3,1025.9,0.0,0.0,0.0,2025-02-08,2,2025,2,KCHO,0.0,0.0,0.0,0.0,5
2025-02-05,5,2025-02-05 03:53,03:53,EST,Calm,10.0,Overcast,OVC055,37.9,21.9,52.0,,,30.3,1026.0,0.0,0.0,0.0,2025-02-08,2,2025,3,KCHO,0.0,0.0,0.0,0.0,0
2025-02-05,5,2025-02-05 04:53,04:53,EST,E  3,10.0,Overcast,OVC048,39.0,21.9,50.0,,,30.31,1026.4,0.0,0.0,0.0,2025-02-08,2,2025,4,KCHO,0.0,0.0,0.0,0.0,3
2025-02-05,5,2025-02-05 05:53,05:53,EST,NE  7,10.0,Overcast,OVC046,37.0,19.9,50.0,32.0,,30.33,1027.3,0.0,0.0,0.0,2025-02-08,2,2025,5,KCHO,0.0,0.0,0.0,0.0,7
2025-02-05,5,2025-02-05 06:53,06:53,EST,NE  7,10.0,Overcast,OVC043,36.0,19.0,50.0,31.0,,30.34,1027.6,0.0,0.0,0.0,2025-02-08,2,2025,6,KCHO,0.0,0.0,0.0,0.0,7
2025-02-05,5,2025-02-05 07:53,07:53,EST,NE  9,10.0,Overcast,OVC041,36.0,19.0,50.0,30.0,,30.35,1028.1,0.0,0.0,0.0,2025-02-08,2,2025,7,KCHO,0.0,0.0,0.0,0.0,9
2025-02-05,5,2025-02-05 08:53,08:53,EST,NE  8,10.0,Overcast,OVC043,36.0,19.0,50.0,30.0,,30.38,1028.9,0.0,0.0,0.0,2025-02-08,2,2025,8,KCHO,0.0,0.0,0.0,0.0,8
2025-02-05,5,2025-02-05 09:53,09:53,EST,NE  8,10.0,Overcast,OVC043,36.0,19.0,50.0,30.0,,30.39,1029.4,0.0,0.0,0.0,2025-02-08,2,2025,9,KCHO,0.0,0.0,0.0,0.0,8
2025-02-05,5,2025-02-05 10:53,10:53,EST,NE  7,10.0,Overcast,OVC043,37.0,19.9,50.0,32.0,,30.39,1029.3,0.0,0.0,0.0,2025-02-08,2,2025,10,KCHO,0.0,0.0,0.0,0.0,7
2025-02-05,5,2025-02-05 11:53,11:53,EST,NE  8,10.0,Overcast,OVC042,37.0,19.9,50.0,32.0,,30.37,1028.8,0.0,0.0,0.0,2025-02-08,2,2025,11,KCHO,0.0,0.0,0.0,0.0,8
2025-02-05,5,2025-02-05 12:53,12:53,EST,NE  6,10.0,Overcast,OVC040,36.0,19.0,50.0,32.0,,30.34,1027.8,0.0,0.0,0.0,2025-02-08,2,2025,12,KCHO,0.0,0.0,0.0,0.0,6
2025-02-05,5,2025-02-05 13:53,13:53,EST,E  6,10.0,Overcast,OVC040,36.0,19.9,52.0,32.0,,30.33,1027.3,0.0,0.0,0.0,2025-02-08,2,2025,13,KCHO,0.0,0.0,0.0,0.0,6
2025-02-05,5,2025-02-05 14:53,14:53,EST,E  7,10.0,Overcast,OVC044,36.0,19.9,52.0,31.0,,30.31,1026.6,0.0,0.0,0.0,2025-02-08,2,2025,14,KCHO,0.0,0.0,0.0,0.0,7
2025-02-05,5,2025-02-05 15:53,15:53,EST,NE  6,10.0,Overcast,OVC042,35.1,19.9,54.0,31.0,,30.31,1026.5,0.0,0.0,0.0,2025-02-08,2,2025,15,KCHO,0.0,0.0,0.0,0.0,6
2025-02-05,5,2025-02-05 16:53,16:53,EST,E  5,10.0,Overcast,OVC041,35.1,18.0,50.0,32.0,,30.3,1026.3,0.0,0.0,0.0,2025-02-08,2,2025,16,KCHO,0.0,0.0,0.0,0.0,5
2025-02-05,5,2025-02-05 17:53,17:53,EST,E  6,10.0,Overcast,OVC041,35.1,19.0,52.0,31.0,,30.29,1025.9,0.0,0.0,0.0,2025-02-08,2,2025,17,KCHO,0.0,0.0,0.0,0.0,6
2025-02-05,5,2025-02-05 18:53,18:53,EST,NE  5,10.0,Overcast,OVC039,35.1,19.0,52.0,32.0,,30.29,1026.1,0.0,0.0,0.0,2025-02-08,2,2025,18,KCHO,0.0,0.0,0.0,0.0,5
2025-02-05,5,2025-02-05 19:53,19:53,EST,Calm,10.0,Overcast,OVC040,35.1,19.9,54.0,,,30.3,1026.5,0.0,0.0,0.0,2025-02-08,2,2025,19,KCHO,0.0,0.0,0.0,0.0,0
2025-02-05,5,2025-02-05 20:53,20:53,EST,NE  5,10.0,Overcast,OVC039,35.1,19.9,54.0,32.0,,30.29,1026.0,0.0,0.0,0.0,2025-02-08,2,2025,20,KCHO,0.0,0.0,0.0,0.0,5
2025-02-05,5,2025-02-05 21:53,21:53,EST,N  3,10.0,Overcast,OVC039,34.0,21.0,59.0,,,30.29,1026.2,0.0,0.0,0.0,2025-02-08,2,2025,21,KCHO,0.0,0.0,0.0,0.0,3
2025-02-05,5,2025-02-05 22:53,22:53,EST,N  3,10.0,Overcast,OVC037,34.0,21.0,59.0,,,30.27,1025.5,0.0,0.0,0.0,2025-02-08,2,2025,22,KCHO,0.0,0.0,0.0,0.0,3
2025-02-05,5,2025-02-05 23:53,23:53,EST,Calm,5.0,Light Rain,OVC035,32.0,25.0,75.0,,,30.26,1025.0,0.02,0.0,0.0,2025-02-08,2,2025,23,KCHO,0.02,0.02,0.020000000000000028,0.020000000000000028,0
2025-02-06,6,2025-02-06 00:53,00:53,EST,Calm,2.5,Unknown Precip Fog/Mist,FEW036 BKN050 OVC060,30.9,27.0,85.0,,,30.25,1024.6,0.13,0.0,0.15,2025-02-09,2,2025,0,KCHO,0.15,0.15,0.15000000000000002,0.15000000000000002,0
2025-02-06,6,2025-02-06 01:53,01:53,EST,Calm,2.5,Freezing Rain Fog/Mist,FEW008 OVC055,30.9,28.9,92.0,,,30.19,1022.7,0.13,0.0,0.0,2025-02-09,2,2025,1,KCHO,0.28,0.28,0.28,0.28,0
2025-02-06,6,2025-02-06 02:53,02:53,EST,Calm,4.0,Light Freezing Rain Fog/Mist,BKN006 BKN009 OVC030,30.9,28.9,92.0,,,30.16,1021.5,0.07,0.0,0.0,2025-02-09,2,2025,2,KCHO,0.32999999999999996,0.35,0.35000000000000003,0.35000000000000003,0
2025-02-06,6,2025-02-06 03:53,03:53,EST,S  3,5.0,Light Freezing Rain Fog/Mist,FEW005 BKN016 OVC027,30.9,28.9,92.0,,,30.14,1021.0,0.03,0.23,0.0,2025-02-09,2,2025,3,KCHO,0.23,0.38,0.38,0.38,3
2025-02-06,6,2025-02-06 04:49,04:49,EST,S  3,5.0,Unknown Precip Fog/Mist,BKN026 OVC055,30.9,28.9,92.0,,,30.14,1020.9,0.07,0.0,0.0,2025-02-09,2,2025,4,KCHO,0.17,0.45,0.45000000000000007,0.45000000000000007,3
2025-02-06,6,2025-02-06 05:53,05:53,EST,S  6,4.0,Light Freezing Rain Fog/Mist,BKN005 OVC050,30.9,28.9,92.0,26.0,,30.09,1019.2,0.12,0.0,0.0,2025-02-09,2,2025,5,KCHO,0.22,0.55,0.5700000000000001,0.5700000000000001,6
2025-02-06,6,2025-02-06 06:53,06:53,EST,S  5,3.0,Freezing Rain Fog/Mist,BKN005 OVC080,32.0,30.0,92.0,28.0,,30.08,1018.9,0.17,0.0,0.59,2025-02-09,2,2025,6,KCHO,0.36,0.59,0.74,0.74,5
2025-02-06,6,2025-02-06 07:50,07:50,EST,SW  10,2.5,Freezing Rain Fog/Mist,BKN004 BKN007 OVC050,32.0,30.0,92.0,24.0,,30.01,1016.5,0.25,0.0,0.0,2025-02-09,2,2025,7,KCHO,0.54,0.71,0.99,0.99,10
2025-02-06,6,2025-02-06 08:53,08:53,EST,S  9,10.0,Overcast,BKN006 OVC017,32.0,30.9,96.0,25.0,,30.03,1017.2,0.04,0.0,0.0,2025-02-09,2,2025,8,KCHO,0.45999999999999996,0.68,1.03,1.03,9
2025-02-06,6,2025-02-06 09:53,09:53,EST,S  10  G 16,3.0,Light Rain Fog/Mist,BKN004 OVC050,33.1,30.9,92.0,26.0,,30.02,1017.1,0.0,0.29,0.0,2025-02-09,2,2025,9,KCHO,0.2899999999999999,0.65,1.03,1.03,10
2025-02-06,6,2025-02-06 10:53,10:53,EST,SW  10,5.0,Light Rain Fog/Mist,BKN003 OVC095,34.0,33.1,97.0,27.0,,29.97,1015.3,0.08,0.0,0.0,2025-02-09,2,2025,10,KCHO,0.11999999999999997,0.66,1.11,1.11,10
2025-02-06,6,2025-02-06 11:53,11:53,EST,SW  7,10.0,Overcast,BKN003 BKN065 OVC095,37.9,36.0,93.0,33.0,,29.94,1014.2,0.0,0.0,0.0,2025-02-09,2,2025,11,KCHO,0.07999999999999996,0.54,1.09,1.11,7
2025-02-06,6,2025-02-06 12:53,12:53,EST,S  12,10.0,Mostly Cloudy,BKN006,39.9,37.0,89.0,34.0,,29.9,1012.7,0.0,0.0,0.37,2025-02-09,2,2025,12,KCHO,0.07999999999999996,0.37,0.96,1.11,12
2025-02-06,6,2025-02-06 13:53,13:53,EST,S  10,10.0,Overcast,OVC007,43.0,39.0,86.0,38.0,,29.87,1011.8,0.0,0.0,0.0,2025-02-09,2,2025,13,KCHO,0.0,0.12,0.8300000000000001,1.11,10
2025-02-06,6,2025-02-06 14:53,14:53,EST,S  8,10.0,Fair,CLR,46.0,41.0,83.0,42.0,,29.85,1011.1,0.0,0.0,0.0,2025-02-09,2,2025,14,KCHO,0.0,0.07999999999999999,0.76,1.11,8
2025-02-06,6,2025-02-06 15:53,15:53,EST,S  12,10.0,Fair,CLR,50.0,42.1,74.0,46.0,,29.84,1010.6,0.0,0.0,0.0,2025-02-09,2,2025,15,KCHO,0.0,0.07999999999999999,0.73,1.11,12
2025-02-06,6,2025-02-06 16:53,16:53,EST,S  15,10.0,Fair,CLR,48.9,42.1,77.0,44.0,,29.84,1010.5,0.0,0.0,0.0,2025-02-09,2,2025,16,KCHO,0.0,0.0,0.6599999999999999,1.11,15
2025-02-06,6,2025-02-06 17:53,17:53,EST,S  8,10.0,Fair,CLR,46.9,42.1,83.0,44.0,,29.85,1010.8,0.0,0.0,0.0,2025-02-09,2,2025,17,KCHO,0.0,0.0,0.54,1.11,8
2025-02-06,6,2025-02-06 18:53,18:53,EST,S  8,10.0,Fair,CLR,48.0,43.0,83.0,45.0,,29.87,1011.5,0.0,0.0,0.0,2025-02-09,2,2025,18,KCHO,0.0,0.0,0.37000000000000005,1.11,8
2025-02-06,6,2025-02-06 19:53,19:53,EST,S  9,10.0,Fair,CLR,46.9,43.0,86.0,43.0,,29.85,1011.1,0.0,0.0,0.0,2025-02-09,2,2025,19,KCHO,0.0,0.0,0.12000000000000005,1.11,9
2025-02-06,6,2025-02-06 20:53,20:53,EST,S  9,10.0,Fair,CLR,46.9,43.0,86.0,43.0,,29.85,1010.9,0.0,0.0,0.0,2025-02-09,2,2025,20,KCHO,0.0,0.0,0.08000000000000004,1.11,9
2025-02-06,6,2025-02-06 21:53,21:53,EST,S  8,10.0,Fair,CLR,46.9,44.1,90.0,44.0,,29.83,1010.3,0.0,0.0,0.0,2025-02-09,2,2025,21,KCHO,0.0,0.0,0.08000000000000004,1.11,8
2025-02-06,6,2025-02-06 22:53,22:53,EST,SW  6,10.0,Fair,CLR,48.9,45.0,86.0,47.0,,29.84,1010.7,0.0,0.0,0.0,2025-02-09,2,2025,22,KCHO,0.0,0.0,0.0,1.11,6
2025-02-06,6,2025-02-06 23:53,23:53,EST,S  5,10.0,A Few Clouds,FEW075,48.0,46.0,93.0,47.0,,29.83,1010.2,0.0,0.0,0.0,2025-02-09,2,2025,23,KCHO,0.0,0.0,0.0,1.09,5
2025-02-07,7,2025-02-07 00:53,00:53,EST,Vrbl  5,10.0,Partly Cloudy,FEW080 SCT110,48.9,46.0,90.0,48.0,,29.83,1010.1,0.0,0.0,0.0,2025-02-10,2,2025,0,KCHO,0.0,0.0,0.0,0.96,5
2025-02-07,7,2025-02-07 01:53,01:53,EST,S  6,10.0,Fair,CLR,50.0,46.9,89.0,48.0,,29.84,1010.3,0.0,0.0,0.0,2025-02-10,2,2025,1,KCHO,0.0,0.0,0.0,0.8300000000000001,6
2025-02-07,7,2025-02-07 02:53,02:53,EST,Calm,10.0,Fair,CLR,51.1,46.9,86.0,,,29.85,1010.8,0.0,0.0,0.0,2025-02-10,2,2025,2,KCHO,0.0,0.0,0.0,0.76,0
2025-02-07,7,2025-02-07 03:53,03:53,EST,NW  7,10.0,Fair,CLR,55.9,41.0,57.0,,,29.88,1011.5,0.0,0.0,0.0,2025-02-10,2,2025,3,KCHO,0.0,0.0,0.0,0.73,7
2025-02-07,7,2025-02-07 04:53,04:53,EST,Vrbl  3,10.0,Fair,CLR,52.0,36.0,55.0,,,29.9,1012.3,0.0,0.0,0.0,2025-02-10,2,2025,4,KCHO,0.0,0.0,0.0,0.6599999999999999,3
2025-02-07,7,2025-02-07 05:53,05:53,EST,SW  6,10.0,Fair,CLR,48.0,26.1,42.0,46.0,,29.91,1012.6,0.0,0.0,0.0,2025-02-10,2,2025,5,KCHO,0.0,0.0,0.0,0.54,6
2025-02-07,7,2025-02-07 06:53,06:53,EST,Vrbl  6,10.0,Fair,CLR,48.0,16.0,28.0,46.0,,29.93,1013.6,0.0,0.0,0.0,2025-02-10,2,2025,6,KCHO,0.0,0.0,0.0,0.37000000000000005,6
2025-02-07,7,2025-02-07 07:53,07:53,EST,SW  6,10.0,Fair,CLR,46.0,17.1,31.0,44.0,,29.97,1014.7,0.0,0.0,0.0,2025-02-10,2,2025,7,KCHO,0.0,0.0,0.0,0.12000000000000005,6
2025-02-07,7,2025-02-07 08:53,08:53,EST,SW  6,10.0,Fair,CLR,50.0,18.0,28.0,48.0,,30.0,1015.8,0.0,0.0,0.0,2025-02-10,2,2025,8,KCHO,0.0,0.0,0.0,0.08000000000000004,6
2025-02-07,7,2025-02-07 09:53,09:53,EST,Vrbl  6,10.0,Fair,CLR,52.0,17.1,25.0,,,30.02,1016.3,0.0,0.0,0.0,2025-02-10,2,2025,9,KCHO,0.0,0.0,0.0,0.08000000000000004,6
2025-02-07,7,2025-02-07 10:53,10:53,EST,Vrbl  3,10.0,Fair,CLR,53.1,18.0,25.0,,,30.04,1017.1,0.0,0.0,0.0,2025-02-10,2,2025,10,KCHO,0.0,0.0,0.0,0.0,3
2025-02-07,7,2025-02-07 11:53,11:53,EST,Vrbl  6,10.0,Fair,CLR,55.0,19.0,24.0,,,30.05,1017.4,0.0,0.0,0.0,2025-02-10,2,2025,11,KCHO,0.0,0.0,0.0,0.0,6
2025-02-07,7,2025-02-07 12:53,12:53,EST,SW  6,10.0,Fair,CLR,57.0,19.0,23.0,,,30.04,1017.1,0.0,0.0,0.0,2025-02-10,2,2025,12,KCHO,0.0,0.0,0.0,0.0,6
2025-02-07,7,2025-02-07 13:53,13:53,EST,Vrbl  6,10.0,Fair,CLR,57.9,18.0,21.0,,,30.04,1016.9,0.0,0.0,0.0,2025-02-10,2,2025,13,KCHO,0.0,0.0,0.0,0.0,6
2025-02-07,7,2025-02-07 14:53,14:53,EST,Calm,10.0,Fair,CLR,59.0,19.9,22.0,,,30.04,1016.9,0.0,0.0,0.0,2025-02-10,2,2025,14,KCHO,0.0,0.0,0.0,0.0,0
2025-02-07,7,2025-02-07 15:53,15:53,EST,S  6,10.0,Fair,CLR,57.9,18.0,21.0,,,30.05,1017.2,0.0,0.0,0.0,2025-02-10,2,2025,15,KCHO,0.0,0.0,0.0,0.0,6
2025-02-07,7,2025-02-07 16:53,16:53,EST,S  3,10.0,Fair,CLR,57.0,18.0,22.0,,,30.08,1018.2,0.0,0.0,0.0,2025-02-10,2,2025,16,KCHO,0.0,0.0,0.0,0.0,3
2025-02-07,7,2025-02-07 17:53,17:53,EST,Calm,10.0,Fair,CLR,54.0,14.0,20.0,,,30.1,1019.1,0.0,0.0,0.0,2025-02-10,2,2025,17,KCHO,0.0,0.0,0.0,0.0,0
2025-02-07,7,2025-02-07 18:53,18:53,EST,NE  10,10.0,Fair,CLR,48.9,18.0,29.0,45.0,,30.14,1020.7,0.0,0.0,0.0,2025-02-10,2,2025,18,KCHO,0.0,0.0,0.0,0.0,10
2025-02-07,7,2025-02-07 19:53,19:53,EST,E  9,10.0,Fair,CLR,46.0,19.9,35.0,42.0,,30.17,1021.7,0.0,0.0,0.0,2025-02-10,2,2025,19,KCHO,0.0,0.0,0.0,0.0,9
2025-02-07,7,2025-02-07 20:53,20:53,EST,NE  6,10.0,Fair,CLR,43.0,19.0,38.0,40.0,,30.19,1022.2,0.0,0.0,0.0,2025-02-10,2,2025,20,KCHO,0.0,0.0,0.0,0.0,6
2025-02-07,7,2025-02-07 21:53,21:53,EST,Calm,10.0,Fair,CLR,42.1,18.0,38.0,,,30.23,1023.5,0.0,0.0,0.0,2025-02-10,2,2025,21,KCHO,0.0,0.0,0.0,0.0,0
2025-02-07,7,2025-02-07 22:53,22:53,EST,Calm,10.0,Mostly Cloudy,BKN120,39.9,19.0,43.0,,,30.24,1024.1,0.0,0.0,0.0,2025-02-10,2,2025,22,KCHO,0.0,0.0,0.0,0.0,0
2025-02-07,7,2025-02-07 23:53,23:53,EST,NE  5,10.0,Overcast,OVC120,39.9,19.0,43.0,37.0,,30.23,1023.8,0.0,0.0,0.0,2025-02-10,2,2025,23,KCHO,0.0,0.0,0.0,0.0,5
2025-02-08,8,2025-02-08 00:53,00:53,EST,NE  5,10.0,Mostly Cloudy,BKN120,39.0,19.0,45.0,36.0,,30.25,1024.5,0.0,0.0,0.0,2025-02-11,2,2025,0,KCHO,0.0,0.0,0.0,0.0,5
2025-02-08,8,2025-02-08 01:53,01:53,EST,NE  3,10.0,Overcast,OVC110,39.0,19.9,46.0,,,30.26,1024.6,0.0,0.0,0.0,2025-02-11,2,2025,1,KCHO,0.0,0.0,0.0,0.0,3
2025-02-08,8,2025-02-08 02:53,02:53,EST,NE  5,10.0,Overcast,FEW070 OVC090,37.9,21.9,52.0,35.0,,30.25,1024.3,0.0,0.0,0.0,2025-02-11,2,2025,2,KCHO,0.0,0.0,0.0,0.0,5
2025-02-08,8,2025-02-08 03:53,03:53,EST,NE  3,10.0,Overcast,OVC080,37.9,21.9,52.0,,,30.23,1023.7,0.0,0.0,0.0,2025-02-11,2,2025,3,KCHO,0.0,0.0,0.0,0.0,3
2025-02-08,8,2025-02-08 04:53,04:53,EST,Calm,10.0,Light Rain,OVC070,37.0,21.0,52.0,,,30.23,1023.7,0.0,0.0,0.0,2025-02-11,2,2025,4,KCHO,0.0,0.0,0.0,0.0,0
2025-02-08,8,2025-02-08 05:53,05:53,EST,Calm,5.0,Light Snow,BKN050 OVC065,37.0,21.0,52.0,,,30.27,1025.2,0.0,0.0,0.0,2025-02-11,2,2025,5,KCHO,0.0,0.0,0.0,0.0,0
2025-02-08,8,2025-02-08 06:53,06:53,EST,Calm,4.0,Light Snow Fog/Mist,OVC017,32.0,30.0,92.0,,,30.29,1025.7,0.0,0.0,0.0,2025-02-11,2,2025,6,KCHO,0.0,0.0,0.0,0.0,0
2025-02-08,8,2025-02-08 07:53,07:53,EST,NE  5,3.0,Light Freezing Rain Fog/Mist,SCT017 BKN039 OVC070,32.0,30.0,92.0,28.0,,30.27,1025.3,0.06,0.0,0.0,2025-02-11,2,2025,7,KCHO,0.05999999999999997,0.06,0.06000000000000005,0.06000000000000005,5
2025-02-08,8,2025-02-08 08:53,08:53,EST,N  3,3.0,Light Freezing Rain Fog/Mist,OVC023,32.0,30.0,92.0,,,30.3,1026.2,0.07,0.0,0.0,2025-02-11,2,2025,8,KCHO,0.12999999999999998,0.13,0.13000000000000006,0.13000000000000006,3
2025-02-08,8,2025-02-08 09:53,09:53,EST,N  5,4.0,Unknown Precip Fog/Mist,FEW003 BKN034 OVC055,32.0,30.0,92.0,28.0,,30.27,1025.3,0.01,0.14,0.0,2025-02-11,2,2025,9,KCHO,0.13999999999999999,0.14,0.14000000000000007,0.14000000000000007,5
2025-02-08,8,2025-02-08 10:53,10:53,EST,N  3,6.0,Fog/Mist,BKN005 OVC009,33.1,30.9,92.0,,,30.27,1025.4,0.03,0.0,0.0,2025-02-11,2,2025,10,KCHO,0.10999999999999999,0.17,0.17000000000000007,0.17000000000000007,3
2025-02-08,8,2025-02-08 11:53,11:53,EST,E  3,6.0,Fog/Mist,OVC007,33.1,30.9,92.0,,,30.24,1024.2,0.0,0.0,0.0,2025-02-11,2,2025,11,KCHO,0.03999999999999997,0.17,0.17000000000000007,0.17000000000000007,3
2025-02-08,8,2025-02-08 12:53,12:53,EST,SE  6,4.0,Light Rain Fog/Mist,BKN007 OVC010,33.1,30.9,92.0,28.0,,30.2,1023.0,0.0,0.0,0.17,2025-02-11,2,2025,12,KCHO,0.02999999999999997,0.17,0.17000000000000007,0.17000000000000007,6
2025-02-08,8,2025-02-08 13:53,13:53,EST,SE  5,5.0,Light Rain Fog/Mist,BKN006 OVC012,34.0,30.9,89.0,30.0,,30.17,1021.8,0.01,0.0,0.0,2025-02-11,2,2025,13,KCHO,0.009999999999999972,0.12000000000000001,0.18000000000000005,0.18000000000000005,5
2025-02-08,8,2025-02-08 14:53,14:53,EST,SE  5,2.5,Light Rain Fog/Mist,BKN004 OVC012,33.1,30.9,92.0,29.0,,30.14,1020.7,0.02,0.0,0.0,2025-02-11,2,2025,14,KCHO,0.02999999999999997,0.07,0.20000000000000007,0.20000000000000007,5
2025-02-08,8,2025-02-08 15:53,15:53,EST,SE  5,9.0,Overcast,BKN006 OVC014,33.1,30.9,92.0,29.0,,30.11,1019.9,0.01,0.04,0.0,2025-02-11,2,2025,15,KCHO,0.03999999999999997,0.06999999999999999,0.21000000000000005,0.21000000000000005,5
2025-02-08,8,2025-02-08 16:53,16:53,EST,SE  5,2.0,Fog/Mist,OVC003,32.0,30.9,96.0,28.0,,30.09,1019.3,0.0,0.0,0.0,2025-02-11,2,2025,16,KCHO,0.02999999999999997,0.04,0.21000000000000005,0.21000000000000005,5
2025-02-08,8,2025-02-08 17:53,17:53,EST,S  6,4.0,Fog/Mist,OVC003,32.0,30.0,92.0,27.0,,30.06,1018.2,0.0,0.0,0.0,2025-02-11,2,2025,17,KCHO,0.009999999999999976,0.04,0.21000000000000005,0.21000000000000005,6
2025-02-08,8,2025-02-08 18:53,18:53,EST,S  9,2.0,Fog/Mist,OVC002,32.0,30.0,92.0,25.0,,30.03,1017.3,0.0,0.0,0.04,2025-02-11,2,2025,18,KCHO,0.0,0.04,0.21000000000000005,0.21000000000000005,9
2025-02-08,8,2025-02-08 19:53,19:53,EST,S  9,2.0,Fog/Mist,OVC002,32.0,30.9,96.0,25.0,,30.0,1016.2,0.0,0.0,0.0,2025-02-11,2,2025,19,KCHO,0.0,0.03,0.15000000000000005,0.21000000000000005,9
2025-02-08,8,2025-02-08 20:53,20:53,EST,S  8,4.0,Fog/Mist,OVC002,32.0,30.9,96.0,25.0,,29.94,1014.2,0.0,0.0,0.0,2025-02-11,2,2025,20,KCHO,0.0,0.01,0.08000000000000006,0.21000000000000005,8
2025-02-08,8,2025-02-08 21:53,21:53,EST,S  13,7.0,Overcast,OVC003,34.0,32.0,92.0,26.0,,29.89,1012.5,0.0,0.0,0.0,2025-02-11,2,2025,21,KCHO,0.0,0.0,0.07000000000000006,0.21000000000000005,13
2025-02-08,8,2025-02-08 22:53,22:53,EST,S  10,6.0,Fog/Mist,OVC004,34.0,33.1,97.0,27.0,,29.85,1011.0,0.0,0.0,0.0,2025-02-11,2,2025,22,KCHO,0.0,0.0,0.040000000000000056,0.21000000000000005,10
2025-02-08,8,2025-02-08 23:53,23:53,EST,S  10,7.0,Overcast,OVC004,35.1,34.0,96.0,28.0,,29.81,1009.6,0.0,0.0,0.0,2025-02-12,2,2025,23,KCHO,0.0,0.0,0.040000000000000056,0.21000000000000005,10
2025-02-09,9,2025-02-09 00:53,00:53,EST,SW  6,6.0,Fog/Mist,FEW004 BKN050 OVC065,36.0,35.1,97.0,32.0,,29.8,1009.3,0.0,0.0,0.0,2025-02-12,2,2025,0,KCHO,0.0,0.0,0.040000000000000056,0.21000000000000005,6
2025-02-09,9,2025-02-09 01:53,01:53,EST,S  8,6.0,Fog/Mist,SCT060 SCT070 OVC090,37.0,35.1,93.0,32.0,,29.78,1008.8,0.0,0.0,0.0,2025-02-12,2,2025,1,KCHO,0.0,0.0,0.030000000000000054,0.21000000000000005,8
2025-02-09,9,2025-02-09 02:53,02:53,EST,S  8,6.0,Fog/Mist,CLR,36.0,34.0,93.0,30.0,,29.79,1009.0,0.0,0.0,0.0,2025-02-12,2,2025,2,KCHO,0.0,0.0,0.010000000000000056,0.21000000000000005,8
2025-02-09,9,2025-02-09 03:53,03:53,EST,Calm,1.0,Fog/Mist,CLR,34.0,33.1,97.0,,,29.81,1009.6,0.0,0.0,0.0,2025-02-12,2,2025,3,KCHO,0.0,0.0,0.0,0.21000000000000005,0
2025-02-09,9,2025-02-09 04:53,04:53,EST,Calm,3.0,Fog/Mist,CLR,35.1,33.1,93.0,,,29.84,1010.7,0.0,0.0,0.0,2025-02-12,2,2025,4,KCHO,0.0,0.0,0.0,0.21000000000000005,0
2025-02-09,9,2025-02-09 05:53,05:53,EST,Calm,6.0,Fog/Mist,CLR,34.0,33.1,97.0,,,29.88,1012.1,0.0,0.0,0.0,2025-02-12,2,2025,5,KCHO,0.0,0.0,0.0,0.21000000000000005,0
2025-02-09,9,2025-02-09 06:53,06:53,EST,Calm,7.0,Fair,CLR,35.1,33.1,93.0,,,29.92,1013.6,0.0,0.0,0.0,2025-02-12,2,2025,6,KCHO,0.0,0.0,0.0,0.21000000000000005,0
2025-02-09,9,2025-02-09 07:53,07:53,EST,NW  6,10.0,Fair,CLR,44.1,35.1,71.0,41.0,,29.97,1015.1,0.0,0.0,0.0,2025-02-12,2,2025,7,KCHO,0.0,0.0,0.0,0.15000000000000005,6
2025-02-09,9,2025-02-09 08:53,08:53,EST,NE  8,10.0,Fair,CLR,48.0,37.9,68.0,45.0,,30.03,1017.2,0.0,0.0,0.0,2025-02-12,2,2025,8,KCHO,0.0,0.0,0.0,0.08000000000000006,8
2025-02-09,9,2025-02-09 09:53,09:53,EST,N  7,10.0,Fair,CLR,48.0,34.0,58.0,45.0,,30.07,1018.4,0.0,0.0,0.0,2025-02-12,2,2025,9,KCHO,0.0,0.0,0.0,0.07000000000000006,7
2025-02-09,9,2025-02-09 10:53,10:53,EST,N  9,10.0,Fair,CLR,46.9,30.9,54.0,43.0,,30.12,1020.1,0.0,0.0,0.0,2025-02-12,2,2025,10,KCHO,0.0,0.0,0.0,0.040000000000000056,9
2025-02-09,9,2025-02-09 11:53,11:53,EST,Calm,10.0,Fair,CLR,50.0,30.9,48.0,,,30.12,1019.9,0.0,0.0,0.0,2025-02-12,2,2025,11,KCHO,0.0,0.0,0.0,0.040000000000000056,0
2025-02-09,9,2025-02-09 12:53,12:53,EST,NW  6  G 17,10.0,Fair,CLR,53.1,26.1,35.0,,,30.1,1019.4,0.0,0.0,0.0,2025-02-12,2,2025,12,KCHO,0.0,0.0,0.0,0.040000000000000056,6
2025-02-09,9,2025-02-09 13:53,13:53,EST,N  10  G 21,10.0,Fair,CLR,53.1,25.0,34.0,,,30.1,1019.4,0.0,0.0,0.0,2025-02-12,2,2025,13,KCHO,0.0,0.0,0.0,0.030000000000000054,10
2025-02-09,9,2025-02-09 14:53,14:53,EST,N  9,10.0,Fair,CLR,53.1,25.0,34.0,,,30.11,1019.8,0.0,0.0,0.0,2025-02-12,2,2025,14,KCHO,0.0,0.0,0.0,0.010000000000000056,9
2025-02-09,9,2025-02-09 15:53,15:53,EST,N  5,10.0,Fair,CLR,51.1,27.0,39.0,,,30.13,1020.5,0.0,0.0,0.0,2025-02-12,2,2025,15,KCHO,0.0,0.0,0.0,0.0,5
2025-02-09,9,2025-02-09 16:53,16:53,EST,N  6,10.0,Fair,CLR,50.0,26.1,39.0,48.0,,30.15,1021.0,0.0,0.0,0.0,2025-02-12,2,2025,16,KCHO,0.0,0.0,0.0,0.0,6
2025-02-09,9,2025-02-09 17:53,17:53,EST,E  9,10.0,Fair,CLR,45.0,27.0,49.0,41.0,,30.17,1021.9,0.0,0.0,0.0,2025-02-12,2,2025,17,KCHO,0.0,0.0,0.0,0.0,9
2025-02-09,9,2025-02-09 18:53,18:53,EST,NE  9,10.0,Fair,CLR,43.0,26.1,51.0,38.0,,30.21,1023.1,0.0,0.0,0.0,2025-02-12,2,2025,18,KCHO,0.0,0.0,0.0,0.0,9
2025-02-09,9,2025-02-09 19:53,19:53,EST,NE  10,10.0,Fair,CLR,41.0,25.0,53.0,35.0,,30.25,1024.3,0.0,0.0,0.0,2025-02-12,2,2025,19,KCHO,0.0,0.0,0.0,0.0,10
2025-02-09,9,2025-02-09 20:53,20:53,EST,NE  7,10.0,Fair,CLR,39.0,24.1,55.0,35.0,,30.27,1025.0,0.0,0.0,0.0,2025-02-12,2,2025,20,KCHO,0.0,0.0,0.0,0.0,7
2025-02-09,9,2025-02-09 21:53,21:53,EST,E  5,10.0,Fair,CLR,37.9,24.1,57.0,35.0,,30.28,1025.5,0.0,0.0,0.0,2025-02-12,2,2025,21,KCHO,0.0,0.0,0.0,0.0,5
2025-02-09,9,2025-02-09 22:53,22:53,EST,NE  7,10.0,A Few Clouds,FEW120,37.0,23.0,57.0,32.0,,30.29,1025.8,0.0,0.0,0.0,2025-02-12,2,2025,22,KCHO,0.0,0.0,0.0,0.0,7
2025-02-09,9,2025-02-09 23:53,23:53,EST,NE  6,10.0,Mostly Cloudy,BKN120,36.0,23.0,59.0,32.0,,30.3,1026.2,0.0,0.0,0.0,2025-02-11,2,2025,23,KCHO,0.0,0.0,0.0,0.0,6
2025-02-10,10,2025-02-10 00:53,00:53,EST,E  3,10.0,Overcast,OVC110,36.0,21.9,57.0,,,30.32,1026.8,0.0,0.0,0.0,2025-02-13,2,2025,0,KCHO,0.0,0.0,0.0,0.0,3
2025-02-10,10,2025-02-10 01:53,01:53,EST,NE  6,10.0,Overcast,OVC044,35.1,23.0,61.0,31.0,,30.32,1026.7,0.0,0.0,0.0,2025-02-13,2,2025,1,KCHO,0.0,0.0,0.0,0.0,6
2025-02-10,10,2025-02-10 02:53,02:53,EST,E  3,10.0,Overcast,OVC046,35.1,21.9,59.0,,,30.32,1026.9,0.0,0.0,0.0,2025-02-13,2,2025,2,KCHO,0.0,0.0,0.0,0.0,3
2025-02-10,10,2025-02-10 03:53,03:53,EST,NE  5,10.0,Overcast,OVC039,35.1,23.0,61.0,32.0,,30.33,1027.2,0.0,0.0,0.0,2025-02-13,2,2025,3,KCHO,0.0,0.0,0.0,0.0,5
2025-02-10,10,2025-02-10 04:53,04:53,EST,NE  3,10.0,Overcast,OVC038,35.1,24.1,64.0,,,30.34,1027.5,0.0,0.0,0.0,2025-02-13,2,2025,4,KCHO,0.0,0.0,0.0,0.0,3
2025-02-10,10,2025-02-10 05:53,05:53,EST,Calm,10.0,Overcast,OVC038,34.0,24.1,67.0,,,30.35,1028.1,0.0,0.0,0.0,2025-02-13,2,2025,5,KCHO,0.0,0.0,0.0,0.0,0
2025-02-10,10,2025-02-10 06:53,06:53,EST,Calm,10.0,Overcast,OVC038,34.0,24.1,67.0,,,30.36,1028.4,0.0,0.0,0.0,2025-02-13,2,2025,6,KCHO,0.0,0.0,0.0,0.0,0
2025-02-10,10,2025-02-10 07:53,07:53,EST,E  3,10.0,Overcast,OVC040,34.0,24.1,67.0,,,30.38,1029.2,0.0,0.0,0.0,2025-02-13,2,2025,7,KCHO,0.0,0.0,0.0,0.0,3
2025-02-10,10,2025-02-10 08:53,08:53,EST,NE  6,10.0,Overcast,OVC043,35.1,24.1,64.0,31.0,,30.4,1029.9,0.0,0.0,0.0,2025-02-13,2,2025,8,KCHO,0.0,0.0,0.0,0.0,6
2025-02-10,10,2025-02-10 09:53,09:53,EST,Vrbl  3,10.0,Overcast,OVC043,36.0,23.0,59.0,,,30.41,1030.1,0.0,0.0,0.0,2025-02-13,2,2025,9,KCHO,0.0,0.0,0.0,0.0,3
2025-02-10,10,2025-02-10 10:53,10:53,EST,Calm,10.0,Fair,CLR,37.9,24.1,57.0,,,30.41,1030.0,0.0,0.0,0.0,2025-02-13,2,2025,10,KCHO,0.0,0.0,0.0,0.0,0
2025-02-10,10,2025-02-10 11:53,11:53,EST,Vrbl  3,10.0,A Few Clouds,FEW034,39.0,24.1,55.0,,,30.39,1029.6,0.0,0.0,0.0,2025-02-13,2,2025,11,KCHO,0.0,0.0,0.0,0.0,3
2025-02-10,10,2025-02-10 12:53,12:53,EST,Calm,10.0,A Few Clouds,FEW042,42.1,25.0,51.0,,,30.36,1028.2,0.0,0.0,0.0,2025-02-13,2,2025,12,KCHO,0.0,0.0,0.0,0.0,0
2025-02-10,10,2025-02-10 13:53,13:53,EST,SE  6,10.0,Fair,CLR,44.1,25.0,47.0,41.0,,30.34,1027.5,0.0,0.0,0.0,2025-02-13,2,2025,13,KCHO,0.0,0.0,0.0,0.0,6
2025-02-10,10,2025-02-10 14:53,14:53,EST,Calm,10.0,Fair,CLR,46.0,24.1,42.0,,,30.32,1026.8,0.0,0.0,0.0,2025-02-13,2,2025,14,KCHO,0.0,0.0,0.0,0.0,0
2025-02-10,10,2025-02-10 15:53,15:53,EST,Calm,10.0,Fair,CLR,45.0,23.0,42.0,,,30.33,1027.3,0.0,0.0,0.0,2025-02-13,2,2025,15,KCHO,0.0,0.0,0.0,0.0,0
2025-02-10,10,2025-02-10 16:53,16:53,EST,Calm,10.0,Fair,CLR,46.0,23.0,40.0,,,30.33,1027.2,0.0,0.0,0.0,2025-02-13,2,2025,16,KCHO,0.0,0.0,0.0,0.0,0
2025-02-10,10,2025-02-10 17:53,17:53,EST,NE  5,10.0,Fair,CLR,39.9,25.0,55.0,37.0,,30.35,1027.9,0.0,0.0,0.0,2025-02-13,2,2025,17,KCHO,0.0,0.0,0.0,0.0,5
2025-02-10,10,2025-02-10 18:53,18:53,EST,Calm,10.0,Fair,CLR,37.9,24.1,57.0,,,30.37,1028.9,0.0,0.0,0.0,2025-02-13,2,2025,18,KCHO,0.0,0.0,0.0,0.0,0
2025-02-10,10,2025-02-10 19:53,19:53,EST,Calm,10.0,Fair,CLR,35.1,24.1,64.0,,,30.39,1029.4,0.0,0.0,0.0,2025-02-13,2,2025,19,KCHO,0.0,0.0,0.0,0.0,0
2025-02-10,10,2025-02-10 20:53,20:53,EST,N  3,10.0,Fair,CLR,36.0,24.1,62.0,,,30.4,1029.8,0.0,0.0,0.0,2025-02-13,2,2025,20,KCHO,0.0,0.0,0.0,0.0,3
2025-02-10,10,2025-02-10 21:53,21:53,EST,Calm,10.0,Fair,CLR,35.1,23.0,61.0,,,30.42,1030.5,0.0,0.0,0.0,2025-02-13,2,2025,21,KCHO,0.0,0.0,0.0,0.0,0
2025-02-10,10,2025-02-10 22:53,22:53,EST,NE  8,10.0,Fair,CLR,30.9,23.0,72.0,24.0,,30.41,1030.3,0.0,0.0,0.0,2025-02-13,2,2025,22,KCHO,0.0,0.0,0.0,0.0,8
2025-02-10,10,2025-02-10 23:53,23:53,EST,NE  7,10.0,Fair,CLR,30.0,19.9,66.0,24.0,,30.41,1030.2,0.0,0.0,0.0,2025-02-13,2,2025,23,KCHO,0.0,0.0,0.0,0.0,7
2025-02-11,11,2025-02-11 00:53,00:53,EST,N  3,10.0,Fair,CLR,30.9,18.0,59.0,,,30.42,1030.5,0.0,0.0,0.0,2025-02-14,2,2025,0,KCHO,0.0,0.0,0.0,0.0,3
2025-02-11,11,2025-02-11 01:53,01:53,EST,Calm,10.0,Fair,CLR,30.0,18.0,61.0,,,30.42,1030.6,0.0,0.0,0.0,2025-02-14,2,2025,1,KCHO,0.0,0.0,0.0,0.0,0
2025-02-11,11,2025-02-11 02:53,02:53,EST,Calm,10.0,Fair,CLR,30.0,18.0,61.0,,,30.42,1030.3,0.0,0.0,0.0,2025-02-14,2,2025,2,KCHO,0.0,0.0,0.0,0.0,0
2025-02-11,11,2025-02-11 03:53,03:53,EST,Calm,10.0,Fair,CLR,28.9,19.9,69.0,,,30.39,1029.5,0.0,0.0,0.0,2025-02-14,2,2025,3,KCHO,0.0,0.0,0.0,0.0,0
2025-02-11,11,2025-02-11 04:53,04:53,EST,Calm,10.0,A Few Clouds,FEW120,28.9,19.9,69.0,,,30.39,1029.5,0.0,0.0,0.0,2025-02-14,2,2025,4,KCHO,0.0,0.0,0.0,0.0,0
2025-02-11,11,2025-02-11 05:53,05:53,EST,Calm,10.0,Mostly Cloudy,BKN120,28.9,19.9,69.0,,,30.4,1029.9,0.0,0.0,0.0,2025-02-14,2,2025,5,KCHO,0.0,0.0,0.0,0.0,0
2025-02-11,11,2025-02-11 06:53,06:53,EST,NE  3,10.0,Overcast,BKN045 OVC110,30.0,21.0,69.0,,,30.41,1030.0,0.0,0.0,0.0,2025-02-14,2,2025,6,KCHO,0.0,0.0,0.0,0.0,3
2025-02-11,11,2025-02-11 07:53,07:53,EST,Calm,10.0,Overcast,OVC045,30.9,21.0,67.0,,,30.42,1030.5,0.0,0.0,0.0,2025-02-14,2,2025,7,KCHO,0.0,0.0,0.0,0.0,0
2025-02-11,11,2025-02-11 08:53,08:53,EST,Calm,10.0,Overcast,OVC050,32.0,19.0,59.0,,,30.43,1030.7,0.0,0.0,0.0,2025-02-14,2,2025,8,KCHO,0.0,0.0,0.0,0.0,0
2025-02-11,11,2025-02-11 09:53,09:53,EST,S  7,2.0,Light Snow,BKN026 OVC034,30.9,25.0,79.0,25.0,,30.4,1029.9,0.0,0.0,0.0,2025-02-14,2,2025,9,KCHO,0.0,0.0,0.0,0.0,7
2025-02-11,11,2025-02-11 10:53,10:53,EST,Calm,1.0,Light Snow Fog/Mist,FEW008 BKN020 OVC035,30.0,26.1,85.0,,,30.38,1029.1,0.0,0.0,0.0,2025-02-14,2,2025,10,KCHO,0.0,0.0,0.0,0.0,0
2025-02-11,11,2025-02-11 11:53,11:53,EST,S  3,0.5,Snow Freezing Fog,BKN006 OVC016,28.9,27.0,92.0,,,30.35,1028.4,0.01,0.0,0.0,2025-02-14,2,2025,11,KCHO,0.009999999999999976,0.01,0.010000000000000056,0.010000000000000056,3
2025-02-11,11,2025-02-11 12:53,12:53,EST,Calm,0.75,Light Snow Fog/Mist,OVC002,30.0,27.0,88.0,,,30.3,1026.7,0.05,0.0,0.06,2025-02-14,2,2025,12,KCHO,0.05999999999999998,0.060000000000000005,0.06000000000000006,0.06000000000000006,0
2025-02-11,11,2025-02-11 13:53,13:53,EST,Calm,0.25,Snow Freezing Fog,BKN002 OVC015,30.0,27.0,88.0,,,30.26,1025.2,0.03,0.0,0.0,2025-02-14,2,2025,13,KCHO,0.08999999999999997,0.09,0.09000000000000005,0.09000000000000005,0
2025-02-11,11,2025-02-11 14:53,14:53,EST,NE  3,0.25,Snow Freezing Fog,FEW004 OVC008,28.9,27.0,92.0,,,30.24,1024.4,0.0,0.0,0.0,2025-02-14,2,2025,14,KCHO,0.07999999999999999,0.09,0.09000000000000005,0.09000000000000005,3
2025-02-11,11,2025-02-11 15:53,15:53,EST,N  3,0.25,Snow Freezing Fog,OVC003,28.9,27.0,92.0,,,30.22,1023.7,0.01,0.04,0.0,2025-02-14,2,2025,15,KCHO,0.03999999999999997,0.1,0.10000000000000006,0.10000000000000006,3
2025-02-11,11,2025-02-11 16:53,16:53,EST,NE  3,0.5,Light Snow Freezing Fog,BKN005 OVC012,28.9,27.0,92.0,,,30.21,1023.6,0.0,0.0,0.0,2025-02-14,2,2025,16,KCHO,0.009999999999999972,0.1,0.10000000000000006,0.10000000000000006,3
2025-02-11,11,2025-02-11 17:53,17:53,EST,NE  5,1.0,Light Snow Fog/Mist,BKN005 OVC020,28.9,27.0,92.0,25.0,,30.2,1023.2,0.03,0.0,0.0,2025-02-14,2,2025,17,KCHO,0.03999999999999997,0.12000000000000001,0.13000000000000006,0.13000000000000006,5
2025-02-11,11,2025-02-11 18:53,18:53,EST,N  5,2.0,Light Snow Fog/Mist,BKN004 OVC030,28.9,27.0,92.0,25.0,,30.19,1022.7,0.05,0.0,0.12,2025-02-14,2,2025,18,KCHO,0.07999999999999997,0.12000000000000001,0.18000000000000005,0.18000000000000005,5
2025-02-11,11,2025-02-11 19:53,19:53,EST,NE  7,2.0,Light Snow Fog/Mist,BKN004 OVC028,28.9,27.0,92.0,23.0,,30.18,1022.6,0.07,0.0,0.0,2025-02-14,2,2025,19,KCHO,0.14999999999999997,0.16,0.25000000000000006,0.25000000000000006,7
2025-02-11,11,2025-02-11 20:53,20:53,EST,NE  6,1.0,Light Snow Fog/Mist,BKN004 OVC019,28.9,27.0,92.0,23.0,,30.18,1022.4,0.04,0.0,0.0,2025-02-14,2,2025,20,KCHO,0.15999999999999998,0.2,0.2900000000000001,0.2900000000000001,6
2025-02-11,11,2025-02-11 22:53,22:53,EST,NE  7,2.0,Light Snow Fog/Mist,FEW004 OVC025,28.9,26.1,89.0,23.0,,30.15,1021.4,0.0,0.0,0.0,2025-02-14,2,2025,22,KCHO,0.10999999999999999,0.19000000000000003,0.2900000000000001,0.2900000000000001,7
2025-02-11,11,2025-02-11 23:53,23:53,EST,N  3,3.0,Light Snow Fog/Mist,SCT008 OVC042,28.9,26.1,89.0,,,30.17,1022.0,0.0,0.0,0.0,2025-02-15,2,2025,23,KCHO,0.03999999999999997,0.19000000000000003,0.2900000000000001,0.2900000000000001,3
2025-02-12,12,2025-02-12 00:53,00:53,EST,NE  5,2.5,Light Snow Fog/Mist,FEW008 OVC041,28.9,26.1,89.0,25.0,,30.14,1021.2,0.0,0.0,0.14,2025-02-15,2,2025,0,KCHO,0.0,0.16000000000000003,0.2800000000000001,0.2900000000000001,5
2025-02-12,12,2025-02-12 01:53,01:53,EST,NE  5,7.0,Light Snow,FEW008 FEW045 OVC055,28.9,26.1,89.0,25.0,,30.11,1020.2,0.04,0.0,0.0,2025-02-15,2,2025,1,KCHO,0.03999999999999997,0.15000000000000002,0.2700000000000001,0.33000000000000007,5
2025-02-12,12,2025-02-12 02:53,02:53,EST,N  3,10.0,Overcast,BKN007 OVC043,28.9,26.1,89.0,,,30.13,1020.8,0.04,0.0,0.0,2025-02-15,2,2025,2,KCHO,0.07999999999999997,0.12,0.2800000000000001,0.37000000000000005,3
2025-02-12,12,2025-02-12 03:53,03:53,EST,NE  5,10.0,Overcast,SCT007 BKN018 OVC023,28.9,26.1,89.0,25.0,,30.12,1020.5,0.01,0.09,0.0,2025-02-15,2,2025,3,KCHO,0.08999999999999997,0.09,0.2900000000000001,0.38000000000000006,5
2025-02-12,12,2025-02-12 04:53,04:53,EST,NE  7,10.0,Overcast,OVC019,28.9,25.0,85.0,23.0,,30.12,1020.5,0.0,0.0,0.0,2025-02-15,2,2025,4,KCHO,0.049999999999999975,0.09,0.2800000000000001,0.38000000000000006,7
2025-02-12,12,2025-02-12 05:53,05:53,EST,NE  5,10.0,Overcast,FEW008 OVC015,28.9,26.1,89.0,25.0,,30.14,1020.9,0.0,0.0,0.0,2025-02-15,2,2025,5,KCHO,0.009999999999999972,0.09,0.2800000000000001,0.38000000000000006,5
2025-02-12,12,2025-02-12 06:53,06:53,EST,N  6,4.0,Snow Fog/Mist,SCT007 OVC015,28.9,26.1,89.0,23.0,,30.14,1021.1,0.03,0.0,0.12,2025-02-15,2,2025,6,KCHO,0.02999999999999997,0.12,0.2800000000000001,0.4100000000000001,6
2025-02-12,12,2025-02-12 07:53,07:53,EST,NE  3,1.25,Light Snow Fog/Mist,OVC005,28.9,27.0,92.0,,,30.16,1021.9,0.02,0.0,0.0,2025-02-15,2,2025,7,KCHO,0.049999999999999975,0.1,0.25000000000000006,0.43000000000000005,3
2025-02-12,12,2025-02-12 08:53,08:53,EST,N  3,4.0,Light Snow Fog/Mist,OVC005,30.0,28.0,92.0,,,30.18,1022.5,0.0,0.0,0.0,2025-02-15,2,2025,8,KCHO,0.049999999999999975,0.06,0.18000000000000005,0.43000000000000005,3
2025-02-12,12,2025-02-12 09:53,09:53,EST,NE  3,2.5,Fog/Mist,OVC005,30.9,28.0,89.0,,,30.19,1022.7,0.03,0.05,0.0,2025-02-15,2,2025,9,KCHO,0.049999999999999975,0.08,0.17000000000000007,0.4600000000000001,3
2025-02-12,12,2025-02-12 11:53,11:53,EST,NE  6,1.75,Fog/Mist,OVC003,30.9,28.9,92.0,26.0,,30.15,1021.5,0.0,0.0,0.0,2025-02-15,2,2025,11,KCHO,0.02999999999999997,0.08,0.17000000000000007,0.4600000000000001,6
2025-02-12,12,2025-02-12 12:53,12:53,EST,N  5,1.25,Fog/Mist,OVC003,32.0,28.9,88.0,28.0,,30.15,1021.3,0.0,0.0,0.11,2025-02-15,2,2025,12,KCHO,0.02999999999999997,0.08,0.17000000000000007,0.4600000000000001,5
2025-02-12,12,2025-02-12 13:53,13:53,EST,Calm,1.75,Fog/Mist,OVC005,32.0,28.9,88.0,,,30.14,1021.2,0.0,0.0,0.0,2025-02-15,2,2025,13,KCHO,0.0,0.05,0.17000000000000007,0.45000000000000007,0
2025-02-12,12,2025-02-12 14:53,14:53,EST,NE  5,1.5,Unknown Precip Fog/Mist,OVC003,32.0,30.0,92.0,28.0,,30.12,1020.4,0.01,0.0,0.0,2025-02-15,2,2025,14,KCHO,0.009999999999999972,0.04,0.14000000000000007,0.4100000000000001,5
2025-02-12,12,2025-02-12 15:53,15:53,EST,N  3,2.0,Unknown Precip Fog/Mist,OVC007,32.0,30.0,92.0,,,30.14,1021.2,0.04,0.05,0.0,2025-02-15,2,2025,15,KCHO,0.049999999999999975,0.08,0.14000000000000004,0.42000000000000004,3
2025-02-12,12,2025-02-12 16:53,16:53,EST,NE  7,2.0,Unknown Precip Fog/Mist,BKN004 OVC017,32.0,30.0,92.0,26.0,,30.12,1020.6,0.05,0.0,0.0,2025-02-15,2,2025,16,KCHO,0.09999999999999998,0.1,0.18000000000000008,0.47000000000000003,7
2025-02-12,12,2025-02-12 17:53,17:53,EST,NE  6,2.0,Light Freezing Rain Fog/Mist,BKN004 OVC017,32.0,30.0,92.0,27.0,,30.13,1020.8,0.03,0.0,0.0,2025-02-15,2,2025,17,KCHO,0.11999999999999998,0.13,0.21000000000000008,0.4900000000000001,6
2025-02-12,12,2025-02-12 18:53,18:53,EST,NE  6,2.0,Light Freezing Rain Fog/Mist,BKN004 OVC017,32.0,30.0,92.0,27.0,,30.12,1020.5,0.03,0.0,0.16,2025-02-15,2,2025,18,KCHO,0.10999999999999997,0.16,0.24000000000000007,0.5200000000000001,6
2025-02-12,12,2025-02-12 19:53,19:53,EST,NE  5,2.5,Light Freezing Rain Fog/Mist,BKN004 OVC012,32.0,30.0,92.0,28.0,,30.11,1019.9,0.02,0.0,0.0,2025-02-15,2,2025,19,KCHO,0.07999999999999997,0.18,0.23000000000000007,0.5100000000000001,5
2025-02-12,12,2025-02-12 20:53,20:53,EST,N  5,1.5,Fog/Mist,BKN002 OVC007,32.0,30.9,96.0,28.0,,30.12,1020.3,0.0,0.0,0.0,2025-02-15,2,2025,20,KCHO,0.049999999999999975,0.16999999999999998,0.21000000000000005,0.4600000000000001,5
2025-02-12,12,2025-02-12 21:53,21:53,EST,Calm,1.75,Fog/Mist,BKN003 OVC009,32.0,30.9,96.0,,,30.1,1019.7,0.0,0.02,0.0,2025-02-15,2,2025,21,KCHO,0.019999999999999973,0.13,0.21000000000000005,0.39000000000000007,0
2025-02-12,12,2025-02-12 22:53,22:53,EST,Calm,1.0,Fog/Mist,VV006,32.0,30.9,96.0,,,30.07,1018.8,0.0,0.0,0.0,2025-02-15,2,2025,22,KCHO,0.0,0.08,0.18000000000000005,0.35000000000000003,0
2025-02-12,12,2025-02-12 23:53,23:53,EST,Calm,0.75,Unknown Precip Fog/Mist,VV010,32.0,30.9,96.0,,,30.05,1017.9,0.0,0.0,0.0,2025-02-15,2,2025,23,KCHO,0.0,0.05,0.18000000000000005,0.35000000000000003,0
2025-02-13,13,2025-02-13 00:53,00:53,EST,Calm,1.0,Unknown Precip Fog/Mist,VV011,32.0,30.9,96.0,,,30.03,1017.4,0.03,0.0,0.05,2025-02-16,2,2025,0,KCHO,0.02999999999999997,0.05,0.21000000000000005,0.38000000000000006,0
2025-02-13,13,2025-02-13 01:53,01:53,EST,Calm,1.5,Unknown Precip Fog/Mist,BKN019 OVC080,32.0,30.9,96.0,,,30.0,1016.1,0.04,0.0,0.0,2025-02-16,2,2025,1,KCHO,0.06999999999999998,0.06999999999999999,0.25000000000000006,0.42000000000000004,0
2025-02-13,13,2025-02-13 02:53,02:53,EST,W  3,3.0,Unknown Precip Fog/Mist,SCT010 BKN015 OVC075,32.0,30.9,96.0,,,29.97,1015.3,0.13,0.0,0.0,2025-02-16,2,2025,2,KCHO,0.19999999999999998,0.2,0.37000000000000005,0.51,3
2025-02-13,13,2025-02-13 03:53,03:53,EST,Calm,10.0,Overcast,OVC009,32.0,30.9,96.0,,,29.91,1013.2,0.02,0.19,0.0,2025-02-16,2,2025,3,KCHO,0.18999999999999997,0.22,0.3500000000000001,0.4900000000000001,0
2025-02-13,13,2025-02-13 04:53,04:53,EST,Calm,1.25,Fog/Mist,BKN001 OVC018,32.0,30.9,96.0,,,29.89,1012.5,0.0,0.0,0.0,2025-02-16,2,2025,4,KCHO,0.14999999999999997,0.22,0.3000000000000001,0.4800000000000001,0
2025-02-13,13,2025-02-13 05:53,05:53,EST,Calm,0.5,Fog,BKN009 OVC014,32.0,30.9,96.0,,,29.88,1012.1,0.0,0.0,0.0,2025-02-16,2,2025,5,KCHO,0.019999999999999973,0.22,0.2700000000000001,0.4800000000000001,0
2025-02-13,13,2025-02-13 06:53,06:53,EST,Calm,2.0,Fog/Mist,OVC002,32.0,30.9,96.0,,,29.87,1011.7,0.0,0.0,0.19,2025-02-16,2,2025,6,KCHO,0.0,0.19,0.24000000000000005,0.4800000000000001,0
2025-02-13,13,2025-02-13 07:53,07:53,EST,SW  9,3.0,Fog/Mist,BKN004 OVC010,33.1,30.9,92.0,26.0,,29.86,1011.3,0.0,0.0,0.0,2025-02-16,2,2025,7,KCHO,0.0,0.15,0.22000000000000006,0.45000000000000007,9
2025-02-13,13,2025-02-13 08:53,08:53,EST,S  12,10.0,Overcast,FEW010 BKN055 OVC075,34.0,32.0,92.0,26.0,,29.84,1010.7,0.0,0.0,0.0,2025-02-16,2,2025,8,KCHO,0.0,0.02,0.22000000000000006,0.4300000000000001,12
2025-02-13,13,2025-02-13 09:53,09:53,EST,SW  6,10.0,Overcast,OVC004,35.1,33.1,93.0,31.0,,29.85,1011.0,0.0,0.0,0.0,2025-02-16,2,2025,9,KCHO,0.0,0.0,0.22000000000000006,0.4300000000000001,6
2025-02-13,13,2025-02-13 10:53,10:53,EST,SW  7,10.0,Overcast,OVC003,36.0,34.0,93.0,31.0,,29.85,1011.0,0.0,0.0,0.0,2025-02-16,2,2025,10,KCHO,0.0,0.0,0.22000000000000006,0.4000000000000001,7
2025-02-13,13,2025-02-13 11:53,11:53,EST,S  9,10.0,Fair,CLR,39.0,36.0,89.0,33.0,,29.86,1011.2,0.0,0.0,0.0,2025-02-16,2,2025,11,KCHO,0.0,0.0,0.22000000000000006,0.4000000000000001,9
2025-02-13,13,2025-02-13 12:53,12:53,EST,Vrbl  6  G 21,10.0,Fair,CLR,55.0,42.1,62.0,,,29.84,1010.5,0.0,0.0,0.0,2025-02-16,2,2025,12,KCHO,0.0,0.0,0.19000000000000006,0.4000000000000001,6
2025-02-13,13,2025-02-13 13:53,13:53,EST,SW  9  G 20,10.0,Fair,CLR,55.0,37.9,53.0,,,29.87,1011.5,0.0,0.0,0.0,2025-02-16,2,2025,13,KCHO,0.0,0.0,0.15000000000000005,0.4000000000000001,9
2025-02-13,13,2025-02-13 14:53,14:53,EST,SW  8  G 20,10.0,Fair,CLR,57.0,35.1,44.0,,,29.91,1012.8,0.0,0.0,0.0,2025-02-16,2,2025,14,KCHO,0.0,0.0,0.020000000000000056,0.39000000000000007,8
2025-02-13,13,2025-02-13 15:53,15:53,EST,W  14  G 22,10.0,Fair,CLR,57.0,30.9,37.0,,,29.96,1014.5,0.0,0.0,0.0,2025-02-16,2,2025,15,KCHO,0.0,0.0,0.0,0.3500000000000001,14
2025-02-13,13,2025-02-13 16:53,16:53,EST,Calm,10.0,Fair,CLR,54.0,27.0,35.0,,,30.02,1016.7,0.0,0.0,0.0,2025-02-16,2,2025,16,KCHO,0.0,0.0,0.0,0.3000000000000001,0
2025-02-13,13,2025-02-13 17:53,17:53,EST,W  9  G 26,10.0,Fair,CLR,48.9,25.0,39.0,45.0,,30.12,1020.0,0.0,0.0,0.0,2025-02-16,2,2025,17,KCHO,0.0,0.0,0.0,0.2700000000000001,9
2025-02-13,13,2025-02-13 18:53,18:53,EST,Vrbl  7,10.0,Fair,CLR,45.0,24.1,44.0,42.0,,30.18,1022.2,0.0,0.0,0.0,2025-02-16,2,2025,18,KCHO,0.0,0.0,0.0,0.24000000000000005,7
2025-02-13,13,2025-02-13 19:53,19:53,EST,NW  6,10.0,Fair,CLR,43.0,23.0,45.0,40.0,,30.23,1024.0,0.0,0.0,0.0,2025-02-16,2,2025,19,KCHO,0.0,0.0,0.0,0.22000000000000006,6
2025-02-13,13,2025-02-13 20:53,20:53,EST,Calm,10.0,Fair,CLR,39.9,19.9,45.0,,,30.27,1025.3,0.0,0.0,0.0,2025-02-16,2,2025,20,KCHO,0.0,0.0,0.0,0.22000000000000006,0
2025-02-13,13,2025-02-13 21:53,21:53,EST,Calm,10.0,Partly Cloudy,SCT050,37.9,19.9,48.0,,,30.3,1026.3,0.0,0.0,0.0,2025-02-16,2,2025,21,KCHO,0.0,0.0,0.0,0.22000000000000006,0
2025-02-13,13,2025-02-13 22:53,22:53,EST,NW  7,10.0,Fair,CLR,37.0,18.0,46.0,32.0,,30.34,1027.6,0.0,0.0,0.0,2025-02-16,2,2025,22,KCHO,0.0,0.0,0.0,0.22000000000000006,7
2025-02-13,13,2025-02-13 23:53,23:53,EST,NW  8,10.0,Fair,CLR,35.1,18.0,50.0,29.0,,30.36,1028.5,0.0,0.0,0.0,2025-02-16,2,2025,23,KCHO,0.0,0.0,0.0,0.22000000000000006,8
2025-02-14,14,2025-02-14 00:53,00:53,EST,NW  9  G 25,10.0,Fair,CLR,35.1,16.0,46.0,29.0,,30.38,1029.0,0.0,0.0,0.0,2025-02-17,2,2025,0,KCHO,0.0,0.0,0.0,0.19000000000000006,9
2025-02-14,14,2025-02-14 01:53,01:53,EST,W  10  G 20,10.0,Fair,CLR,34.0,14.0,44.0,27.0,,30.4,1029.6,0.0,0.0,0.0,2025-02-17,2,2025,1,KCHO,0.0,0.0,0.0,0.15000000000000005,10
2025-02-14,14,2025-02-14 02:53,02:53,EST,NW  6,10.0,Fair,CLR,33.1,15.1,48.0,28.0,,30.43,1030.4,0.0,0.0,0.0,2025-02-17,2,2025,2,KCHO,0.0,0.0,0.0,0.020000000000000056,6
2025-02-14,14,2025-02-14 03:53,03:53,EST,Calm,10.0,Fair,CLR,33.1,15.1,48.0,,,30.44,1031.0,0.0,0.0,0.0,2025-02-17,2,2025,3,KCHO,0.0,0.0,0.0,0.0,0
2025-02-14,14,2025-02-14 04:53,04:53,EST,Calm,10.0,Fair,CLR,30.0,14.0,51.0,,,30.48,1032.4,0.0,0.0,0.0,2025-02-17,2,2025,4,KCHO,0.0,0.0,0.0,0.0,0
2025-02-14,14,2025-02-14 05:53,05:53,EST,Calm,10.0,Fair,CLR,30.0,12.0,47.0,,,30.53,1034.0,0.0,0.0,0.0,2025-02-17,2,2025,5,KCHO,0.0,0.0,0.0,0.0,0
2025-02-14,14,2025-02-14 06:53,06:53,EST,Calm,10.0,Fair,CLR,28.9,14.0,54.0,,,30.55,1034.9,0.0,0.0,0.0,2025-02-17,2,2025,6,KCHO,0.0,0.0,0.0,0.0,0
2025-02-14,14,2025-02-14 07:53,07:53,EST,Calm,10.0,Fair,CLR,28.9,14.0,54.0,,,30.59,1036.0,0.0,0.0,0.0,2025-02-17,2,2025,7,KCHO,0.0,0.0,0.0,0.0,0
2025-02-14,14,2025-02-14 08:53,08:53,EST,Vrbl  6,10.0,Fair,CLR,33.1,12.9,43.0,28.0,,30.6,1036.7,0.0,0.0,0.0,2025-02-17,2,2025,8,KCHO,0.0,0.0,0.0,0.0,6
2025-02-14,14,2025-02-14 09:53,09:53,EST,Vrbl  3  G 17,10.0,Fair,CLR,35.1,9.0,34.0,,,30.64,1038.0,0.0,0.0,0.0,2025-02-17,2,2025,9,KCHO,0.0,0.0,0.0,0.0,3
2025-02-14,14,2025-02-14 10:53,10:53,EST,NW  9,10.0,Fair,CLR,37.0,7.0,28.0,31.0,,30.63,1037.5,0.0,0.0,0.0,2025-02-17,2,2025,10,KCHO,0.0,0.0,0.0,0.0,9
2025-02-14,14,2025-02-14 11:53,11:53,EST,Calm,10.0,Fair,CLR,39.0,7.0,26.0,,,30.61,1037.0,0.0,0.0,0.0,2025-02-17,2,2025,11,KCHO,0.0,0.0,0.0,0.0,0
2025-02-14,14,2025-02-14 12:53,12:53,EST,W  3,10.0,Fair,CLR,42.1,12.0,29.0,,,30.58,1035.7,0.0,0.0,0.0,2025-02-17,2,2025,12,KCHO,0.0,0.0,0.0,0.0,3
2025-02-14,14,2025-02-14 13:53,13:53,EST,NE  6,10.0,Fair,CLR,44.1,7.0,22.0,41.0,,30.56,1034.9,0.0,0.0,0.0,2025-02-17,2,2025,13,KCHO,0.0,0.0,0.0,0.0,6
2025-02-14,14,2025-02-14 14:53,14:53,EST,Vrbl  3,10.0,Fair,CLR,45.0,8.1,22.0,,,30.54,1034.5,0.0,0.0,0.0,2025-02-17,2,2025,14,KCHO,0.0,0.0,0.0,0.0,3
2025-02-14,14,2025-02-14 15:53,15:53,EST,Calm,10.0,Fair,CLR,46.0,6.1,19.0,,,30.53,1033.9,0.0,0.0,0.0,2025-02-17,2,2025,15,KCHO,0.0,0.0,0.0,0.0,0
2025-02-14,14,2025-02-14 16:53,16:53,EST,S  6,10.0,Fair,CLR,44.1,7.0,22.0,41.0,,30.53,1034.0,0.0,0.0,0.0,2025-02-17,2,2025,16,KCHO,0.0,0.0,0.0,0.0,6
2025-02-14,14,2025-02-14 17:53,17:53,EST,SE  6,10.0,Fair,CLR,39.9,8.1,27.0,36.0,,30.52,1034.1,0.0,0.0,0.0,2025-02-17,2,2025,17,KCHO,0.0,0.0,0.0,0.0,6
2025-02-14,14,2025-02-14 18:53,18:53,EST,Vrbl  6,10.0,Fair,CLR,37.0,12.9,37.0,33.0,,30.55,1035.0,0.0,0.0,0.0,2025-02-17,2,2025,18,KCHO,0.0,0.0,0.0,0.0,6
2025-02-14,14,2025-02-14 19:53,19:53,EST,Calm,10.0,Fair,CLR,37.0,12.9,37.0,,,30.55,1035.0,0.0,0.0,0.0,2025-02-17,2,2025,19,KCHO,0.0,0.0,0.0,0.0,0
2025-02-14,14,2025-02-14 20:53,20:53,EST,Calm,10.0,Fair,CLR,33.1,18.0,54.0,,,30.54,1034.6,0.0,0.0,0.0,2025-02-17,2,2025,20,KCHO,0.0,0.0,0.0,0.0,0
2025-02-14,14,2025-02-14 21:53,21:53,EST,N  3,10.0,Fair,CLR,34.0,12.9,42.0,,,30.55,1035.0,0.0,0.0,0.0,2025-02-17,2,2025,21,KCHO,0.0,0.0,0.0,0.0,3
2025-02-14,14,2025-02-14 22:53,22:53,EST,Calm,10.0,Fair,CLR,34.0,10.9,38.0,,,30.51,1033.5,0.0,0.0,0.0,2025-02-17,2,2025,22,KCHO,0.0,0.0,0.0,0.0,0
2025-02-14,14,2025-02-14 23:53,23:53,EST,Calm,10.0,Mostly Cloudy,BKN110,33.1,18.0,54.0,,,30.5,1033.2,0.0,0.0,0.0,2025-02-17,2,2025,23,KCHO,0.0,0.0,0.0,0.0,0
2025-02-15,15,2025-02-15 00:53,00:53,EST,S  8,10.0,Mostly Cloudy,BKN100 BKN120,35.1,15.1,44.0,29.0,,30.48,1032.4,0.0,0.0,0.0,2025-02-18,2,2025,0,KCHO,0.0,0.0,0.0,0.0,8
2025-02-15,15,2025-02-15 01:53,01:53,EST,S  6,10.0,Overcast,OVC095,35.1,16.0,46.0,31.0,,30.45,1031.5,0.0,0.0,0.0,2025-02-18,2,2025,1,KCHO,0.0,0.0,0.0,0.0,6
2025-02-15,15,2025-02-15 02:53,02:53,EST,S  3,10.0,Overcast,OVC110,35.1,17.1,48.0,,,30.44,1031.0,0.0,0.0,0.0,2025-02-18,2,2025,2,KCHO,0.0,0.0,0.0,0.0,3
2025-02-15,15,2025-02-15 03:53,03:53,EST,S  5,10.0,Mostly Cloudy,BKN100 BKN120,34.0,19.9,56.0,30.0,,30.43,1030.5,0.0,0.0,0.0,2025-02-18,2,2025,3,KCHO,0.0,0.0,0.0,0.0,5
2025-02-15,15,2025-02-15 04:53,04:53,EST,S  6,10.0,Overcast,OVC090,34.0,21.0,59.0,29.0,,30.41,1030.0,0.0,0.0,0.0,2025-02-18,2,2025,4,KCHO,0.0,0.0,0.0,0.0,6
2025-02-15,15,2025-02-15 05:53,05:53,EST,S  5,10.0,Overcast,OVC095,34.0,21.9,61.0,30.0,,30.41,1029.9,0.0,0.0,0.0,2025-02-18,2,2025,5,KCHO,0.0,0.0,0.0,0.0,5
2025-02-15,15,2025-02-15 06:53,06:53,EST,S  6,10.0,Overcast,BKN080 OVC095,34.0,23.0,64.0,29.0,,30.39,1029.3,0.0,0.0,0.0,2025-02-18,2,2025,6,KCHO,0.0,0.0,0.0,0.0,6
2025-02-15,15,2025-02-15 07:53,07:53,EST,S  6,10.0,Mostly Cloudy,BKN100,35.1,24.1,64.0,31.0,,30.39,1029.3,0.0,0.0,0.0,2025-02-18,2,2025,7,KCHO,0.0,0.0,0.0,0.0,6
2025-02-15,15,2025-02-15 08:53,08:53,EST,SW  7,10.0,Mostly Cloudy,BKN100,35.1,25.0,67.0,30.0,,30.38,1029.2,0.0,0.0,0.0,2025-02-18,2,2025,8,KCHO,0.0,0.0,0.0,0.0,7
2025-02-15,15,2025-02-15 09:53,09:53,EST,S  6,10.0,Overcast,BKN043 OVC090,36.0,25.0,64.0,32.0,,30.35,1028.0,0.0,0.0,0.0,2025-02-18,2,2025,9,KCHO,0.0,0.0,0.0,0.0,6
2025-02-15,15,2025-02-15 10:53,10:53,EST,S  9,10.0,Overcast,OVC044,37.0,26.1,65.0,31.0,,30.32,1026.9,0.0,0.0,0.0,2025-02-18,2,2025,10,KCHO,0.0,0.0,0.0,0.0,9
2025-02-15,15,2025-02-15 11:53,11:53,EST,S  7,7.0,Light Rain,OVC036,37.0,27.0,67.0,32.0,,30.3,1026.3,0.0,0.0,0.0,2025-02-18,2,2025,11,KCHO,0.0,0.0,0.0,0.0,7
2025-02-15,15,2025-02-15 12:53,12:53,EST,SE  5,3.0,Rain Fog/Mist,BKN039 OVC049,34.0,30.0,85.0,30.0,,30.23,1024.2,0.09,0.0,0.09,2025-02-18,2,2025,12,KCHO,0.08999999999999997,0.09,0.09000000000000005,0.09000000000000005,5
2025-02-15,15,2025-02-15 13:53,13:53,EST,S  8,5.0,Light Rain Fog/Mist,BKN027 OVC034,33.1,30.0,89.0,27.0,,30.18,1022.3,0.07,0.0,0.0,2025-02-18,2,2025,13,KCHO,0.15999999999999998,0.16,0.16000000000000006,0.16000000000000006,8
2025-02-15,15,2025-02-15 14:53,14:53,EST,S  6,3.0,Light Rain Fog/Mist,SCT007 BKN022 OVC041,33.1,30.9,92.0,28.0,,30.13,1020.7,0.08,0.0,0.0,2025-02-18,2,2025,14,KCHO,0.24,0.24,0.24000000000000005,0.24000000000000005,6
2025-02-15,15,2025-02-15 15:53,15:53,EST,S  5,2.5,Rain Fog/Mist,BKN004 OVC013,32.0,30.9,96.0,28.0,,30.11,1019.9,0.16,0.31,0.0,2025-02-18,2,2025,15,KCHO,0.30999999999999994,0.4,0.4000000000000001,0.4000000000000001,5
2025-02-15,15,2025-02-15 16:53,16:53,EST,S  5,2.0,Unknown Precip Fog/Mist,BKN005 OVC013,33.1,30.9,92.0,29.0,,30.08,1018.8,0.13,0.0,0.0,2025-02-18,2,2025,16,KCHO,0.37,0.53,0.53,0.53,5
2025-02-15,15,2025-02-15 17:53,17:53,EST,S  3,2.0,Light Rain Fog/Mist,OVC004,33.1,30.9,92.0,,,30.04,1017.6,0.13,0.0,0.0,2025-02-18,2,2025,17,KCHO,0.41999999999999993,0.66,0.6600000000000001,0.6600000000000001,3
2025-02-15,15,2025-02-15 18:53,18:53,EST,S  7,6.0,Light Rain Fog/Mist,SCT003 OVC012,33.1,30.9,92.0,28.0,,30.0,1016.2,0.04,0.0,0.61,2025-02-18,2,2025,18,KCHO,0.3,0.6100000000000001,0.7000000000000001,0.7000000000000001,7
2025-02-15,15,2025-02-15 19:53,19:53,EST,Calm,5.0,Light Rain Fog/Mist,OVC002,33.1,32.0,96.0,,,29.97,1015.3,0.01,0.0,0.0,2025-02-18,2,2025,19,KCHO,0.17999999999999997,0.55,0.7100000000000001,0.7100000000000001,0
2025-02-15,15,2025-02-15 20:53,20:53,EST,S  5,6.0,Light Rain Fog/Mist,SCT002 BKN008 OVC095,33.1,32.0,96.0,29.0,,29.94,1014.3,0.01,0.0,0.0,2025-02-18,2,2025,20,KCHO,0.05999999999999997,0.48000000000000004,0.7200000000000001,0.7200000000000001,5
2025-02-15,15,2025-02-15 21:53,21:53,EST,Calm,6.0,Fog/Mist,OVC002,34.0,32.0,92.0,,,29.92,1013.4,0.0,0.02,0.0,2025-02-18,2,2025,21,KCHO,0.019999999999999973,0.32,0.7200000000000001,0.7200000000000001,0
2025-02-15,15,2025-02-15 22:53,22:53,EST,Calm,0.75,Fog/Mist,VV002,34.0,32.0,92.0,,,29.88,1011.9,0.0,0.0,0.0,2025-02-18,2,2025,22,KCHO,0.009999999999999972,0.19,0.7200000000000001,0.7200000000000001,0
2025-02-15,15,2025-02-15 23:53,23:53,EST,S  5,1.5,Light Rain Fog/Mist,OVC003,34.0,33.1,97.0,30.0,,29.83,1010.5,0.0,0.0,0.0,2025-02-18,2,2025,23,KCHO,0.0,0.06,0.7200000000000001,0.7200000000000001,5
2025-02-16,16,2025-02-16 00:53,00:53,EST,SW  3,4.0,Fog/Mist,OVC004,35.1,34.0,96.0,,,29.79,1009.2,0.0,0.0,0.02,2025-02-19,2,2025,0,KCHO,0.0,0.02,0.6300000000000001,0.7200000000000001,3
2025-02-16,16,2025-02-16 01:53,01:53,EST,S  12,6.0,Fog/Mist,OVC004,37.0,35.1,93.0,30.0,,29.75,1007.6,0.0,0.0,0.0,2025-02-19,2,2025,1,KCHO,0.0,0.01,0.56,0.7200000000000001,12
2025-02-16,16,2025-02-16 02:53,02:53,EST,S  10  G 21,10.0,Overcast,OVC004,37.0,35.1,93.0,30.0,,29.69,1005.7,0.0,0.0,0.0,2025-02-19,2,2025,2,KCHO,0.0,0.0,0.4800000000000001,0.7200000000000001,10
2025-02-16,16,2025-02-16 03:53,03:53,EST,S  7,6.0,Fog/Mist,OVC002,37.0,35.1,93.0,32.0,,29.65,1004.2,0.0,0.0,0.0,2025-02-19,2,2025,3,KCHO,0.0,0.0,0.32000000000000006,0.7200000000000001,7
2025-02-16,16,2025-02-16 04:53,04:53,EST,SW  7,5.0,Fog/Mist,OVC002,37.0,36.0,96.0,32.0,,29.61,1002.9,0.0,0.0,0.0,2025-02-19,2,2025,4,KCHO,0.0,0.0,0.19000000000000006,0.7200000000000001,7
2025-02-16,16,2025-02-16 05:53,05:53,EST,SW  3,0.5,Fog,VV002,37.0,36.0,96.0,,,29.55,1000.8,0.0,0.0,0.0,2025-02-19,2,2025,5,KCHO,0.0,0.0,0.06000000000000005,0.7200000000000001,3
2025-02-16,16,2025-02-16 06:53,06:53,EST,S  6,0.5,Fog,VV002,37.0,36.0,96.0,33.0,,29.52,999.9,0.0,0.0,0.0,2025-02-19,2,2025,6,KCHO,0.0,0.0,0.020000000000000056,0.7200000000000001,6
2025-02-16,16,2025-02-16 07:53,07:53,EST,S  5,0.25,Fog,VV002,37.0,37.0,100.0,34.0,,29.48,998.4,0.0,0.0,0.0,2025-02-19,2,2025,7,KCHO,0.0,0.0,0.010000000000000056,0.7200000000000001,5
2025-02-16,16,2025-02-16 08:53,08:53,EST,Calm,1.25,Rain Fog/Mist,BKN003 BKN007 OVC032,37.9,37.9,100.0,,,29.44,997.0,0.16,0.0,0.0,2025-02-19,2,2025,8,KCHO,0.15999999999999998,0.16,0.16000000000000006,0.8800000000000001,0
2025-02-16,16,2025-02-16 09:53,09:53,EST,SW  5,1.0,Light Rain Fog/Mist,BKN003 BKN012 OVC032,39.0,37.9,96.0,36.0,,29.4,995.7,0.27,0.43,0.0,2025-02-19,2,2025,9,KCHO,0.43,0.43000000000000005,0.43000000000000005,1.1500000000000001,5
2025-02-16,16,2025-02-16 10:53,10:53,EST,SW  6,1.0,Fog/Mist,OVC002,39.9,39.9,100.0,36.0,,29.32,992.9,0.01,0.0,0.0,2025-02-19,2,2025,10,KCHO,0.44,0.44000000000000006,0.44000000000000006,1.1600000000000001,6
2025-02-16,16,2025-02-16 11:53,11:53,EST,Calm,1.75,Fog/Mist,OVC002,43.0,42.1,97.0,,,29.25,990.5,0.0,0.0,0.0,2025-02-19,2,2025,11,KCHO,0.28,0.44000000000000006,0.44000000000000006,1.1600000000000001,0
2025-02-16,16,2025-02-16 12:53,12:53,EST,SW  12  G 20,10.0,Fair,CLR,51.1,48.0,89.0,,,29.19,988.5,0.0,0.0,0.44,2025-02-19,2,2025,12,KCHO,0.01,0.44000000000000006,0.44000000000000006,1.07,12
2025-02-16,16,2025-02-16 13:53,13:53,EST,SW  15  G 31,10.0,Overcast,BKN060 OVC070,60.1,48.9,67.0,,,29.2,988.7,0.0,0.0,0.0,2025-02-19,2,2025,13,KCHO,0.0,0.44000000000000006,0.44000000000000006,1.0000000000000002,15
2025-02-16,16,2025-02-16 14:53,14:53,EST,W  15  G 33,10.0,Mostly Cloudy,BKN050,61.0,43.0,52.0,,,29.27,991.1,0.0,0.0,0.0,2025-02-19,2,2025,14,KCHO,0.0,0.28,0.44000000000000006,0.9200000000000002,15
2025-02-16,16,2025-02-16 15:53,15:53,EST,W  21  G 44,10.0,Fair and Breezy,CLR,52.0,30.0,43.0,,,29.4,995.6,0.0,0.0,0.0,2025-02-19,2,2025,15,KCHO,0.0,0.01,0.44000000000000006,0.7600000000000001,21
2025-02-16,16,2025-02-16 16:53,16:53,EST,Vrbl  6  G 20,10.0,A Few Clouds,FEW055,48.9,28.0,44.0,47.0,,29.44,997.0,0.0,0.0,0.0,2025-02-19,2,2025,16,KCHO,0.0,0.0,0.44000000000000006,0.6300000000000001,6
2025-02-16,16,2025-02-16 17:53,17:53,EST,W  16  G 40,10.0,A Few Clouds,FEW050,46.0,39.9,79.0,40.0,,29.52,999.6,0.0,0.0,0.0,2025-02-19,2,2025,17,KCHO,0.0,0.0,0.44000000000000006,0.5000000000000001,16
2025-02-16,16,2025-02-16 18:53,18:53,EST,W  13  G 26,10.0,Fair,CLR,42.1,23.0,47.0,36.0,,29.6,1002.3,0.0,0.0,0.0,2025-02-19,2,2025,18,KCHO,0.0,0.0,0.44000000000000006,0.46000000000000013,13
2025-02-16,16,2025-02-16 19:53,19:53,EST,W  12  G 31,10.0,Fair,CLR,39.9,19.0,43.0,34.0,,29.66,1004.4,0.0,0.0,0.0,2025-02-19,2,2025,19,KCHO,0.0,0.0,0.44000000000000006,0.4500000000000001,12
2025-02-16,16,2025-02-16 21:53,21:53,EST,Calm,10.0,Partly Cloudy,SCT060,37.9,18.0,44.0,,,29.74,1007.1,0.0,0.0,0.0,2025-02-19,2,2025,21,KCHO,0.0,0.0,0.28,0.4400000000000001,0
2025-02-16,16,2025-02-16 22:53,22:53,EST,W  16  G 23,10.0,A Few Clouds,FEW060,37.0,16.0,42.0,28.0,,29.76,1007.9,0.0,0.0,0.0,2025-02-19,2,2025,22,KCHO,0.0,0.0,0.01,0.4400000000000001,16
2025-02-16,16,2025-02-16 23:53,23:53,EST,W  13  G 24,10.0,Mostly Cloudy,BKN060,36.0,15.1,42.0,28.0,,29.8,1009.1,0.0,0.0,0.0,2025-02-20,2,2025,23,KCHO,0.0,0.0,0.0,0.4400000000000001,13
2025-02-17,17,2025-02-17 00:53,00:53,EST,W  8  G 20,10.0,Mostly Cloudy,BKN060,35.1,14.0,42.0,29.0,,29.82,1009.9,0.0,0.0,0.0,2025-02-20,2,2025,0,KCHO,0.0,0.0,0.0,0.4400000000000001,8
2025-02-17,17,2025-02-17 01:53,01:53,EST,Calm,10.0,Mostly Cloudy,BKN060,34.0,15.1,46.0,,,29.85,1010.9,0.0,0.0,0.0,2025-02-20,2,2025,1,KCHO,0.0,0.0,0.0,0.4400000000000001,0
2025-02-17,17,2025-02-17 02:53,02:53,EST,W  9  G 25,10.0,Mostly Cloudy,BKN060,34.0,12.9,42.0,27.0,,29.88,1011.6,0.0,0.0,0.0,2025-02-20,2,2025,2,KCHO,0.0,0.0,0.0,0.4400000000000001,9
2025-02-17,17,2025-02-17 03:53,03:53,EST,W  7  G 23,10.0,A Few Clouds,FEW060,33.1,12.9,43.0,28.0,,29.88,1011.9,0.0,0.0,0.0,2025-02-20,2,2025,3,KCHO,0.0,0.0,0.0,0.4400000000000001,7
2025-02-17,17,2025-02-17 04:53,04:53,EST,NW  12  G 23,10.0,A Few Clouds,FEW050,30.9,12.0,45.0,22.0,,29.92,1013.3,0.0,0.0,0.0,2025-02-20,2,2025,4,KCHO,0.0,0.0,0.0,0.4400000000000001,12
2025-02-17,17,2025-02-17 05:53,05:53,EST,Calm,10.0,Fair,CLR,30.9,9.0,40.0,,,29.96,1014.6,0.0,0.0,0.0,2025-02-20,2,2025,5,KCHO,0.0,0.0,0.0,0.4400000000000001,0
2025-02-17,17,2025-02-17 06:53,06:53,EST,W  13  G 28,10.0,Fair,CLR,30.9,8.1,38.0,22.0,,29.98,1015.4,0.0,0.0,0.0,2025-02-20,2,2025,6,KCHO,0.0,0.0,0.0,0.4400000000000001,13
2025-02-17,17,2025-02-17 07:53,07:53,EST,NW  7,10.0,Fair,CLR,30.9,9.0,40.0,25.0,,30.03,1017.0,0.0,0.0,0.0,2025-02-20,2,2025,7,KCHO,0.0,0.0,0.0,0.4400000000000001,7
2025-02-17,17,2025-02-17 08:53,08:53,EST,NW  10  G 23,10.0,Fair,CLR,32.0,8.1,36.0,24.0,,30.05,1017.8,0.0,0.0,0.0,2025-02-20,2,2025,8,KCHO,0.0,0.0,0.0,0.4400000000000001,10
2025-02-17,17,2025-02-17 09:53,09:53,EST,NW  10  G 22,10.0,Fair,CLR,34.0,8.1,34.0,27.0,,30.06,1018.3,0.0,0.0,0.0,2025-02-20,2,2025,9,KCHO,0.0,0.0,0.0,0.28000000000000014,10
2025-02-17,17,2025-02-17 10:53,10:53,EST,W  10  G 25,10.0,Fair,CLR,37.0,8.1,30.0,30.0,,30.07,1018.4,0.0,0.0,0.0,2025-02-20,2,2025,10,KCHO,0.0,0.0,0.0,0.010000000000000111,10
2025-02-17,17,2025-02-17 11:53,11:53,EST,W  9  G 22,10.0,Fair,CLR,39.0,8.1,28.0,33.0,,30.07,1018.4,0.0,0.0,0.0,2025-02-20,2,2025,11,KCHO,0.0,0.0,0.0,0.0,9
2025-02-17,17,2025-02-17 12:53,12:53,EST,Vrbl  7  G 20,10.0,Fair,CLR,39.9,8.1,27.0,36.0,,30.05,1017.7,0.0,0.0,0.0,2025-02-20,2,2025,12,KCHO,0.0,0.0,0.0,0.0,7
2025-02-17,17,2025-02-17 13:53,13:53,EST,Vrbl  5,10.0,Fair,CLR,41.0,10.0,28.0,38.0,,30.04,1017.5,0.0,0.0,0.0,2025-02-20,2,2025,13,KCHO,0.0,0.0,0.0,0.0,5
2025-02-17,17,2025-02-17 14:53,14:53,EST,W  8,10.0,Fair,CLR,42.1,9.0,25.0,38.0,,30.03,1017.2,0.0,0.0,0.0,2025-02-20,2,2025,14,KCHO,0.0,0.0,0.0,0.0,8
2025-02-17,17,2025-02-17 15:53,15:53,EST,W  9,10.0,Fair,CLR,42.1,7.0,23.0,37.0,,30.03,1017.3,0.0,0.0,0.0,2025-02-20,2,2025,15,KCHO,0.0,0.0,0.0,0.0,9
2025-02-17,17,2025-02-17 16:53,16:53,EST,Calm,10.0,Fair,CLR,41.0,6.1,23.0,,,30.05,1017.8,0.0,0.0,0.0,2025-02-20,2,2025,16,KCHO,0.0,0.0,0.0,0.0,0
2025-02-17,17,2025-02-17 17:53,17:53,EST,Calm,10.0,Fair,CLR,37.9,6.1,26.0,,,30.07,1018.7,0.0,0.0,0.0,2025-02-20,2,2025,17,KCHO,0.0,0.0,0.0,0.0,0
2025-02-17,17,2025-02-17 18:53,18:53,EST,Calm,10.0,Fair,CLR,36.0,6.1,28.0,,,30.09,1019.2,0.0,0.0,0.0,2025-02-20,2,2025,18,KCHO,0.0,0.0,0.0,0.0,0
2025-02-17,17,2025-02-17 19:53,19:53,EST,SW  3,10.0,Fair,CLR,35.1,7.0,31.0,,,30.1,1019.5,0.0,0.0,0.0,2025-02-20,2,2025,19,KCHO,0.0,0.0,0.0,0.0,3
2025-02-17,17,2025-02-17 20:53,20:53,EST,Calm,10.0,Fair,CLR,33.1,9.0,36.0,,,30.11,1019.9,0.0,0.0,0.0,2025-02-20,2,2025,20,KCHO,0.0,0.0,0.0,0.0,0
2025-02-17,17,2025-02-17 21:53,21:53,EST,SW  5,10.0,Fair,CLR,30.9,9.0,40.0,27.0,,30.12,1020.4,0.0,0.0,0.0,2025-02-20,2,2025,21,KCHO,0.0,0.0,0.0,0.0,5
2025-02-17,17,2025-02-17 22:53,22:53,EST,Vrbl  3,10.0,Fair,CLR,30.9,9.0,40.0,,,30.13,1020.6,0.0,0.0,0.0,2025-02-20,2,2025,22,KCHO,0.0,0.0,0.0,0.0,3
2025-02-17,17,2025-02-17 23:53,23:53,EST,Calm,10.0,Fair,CLR,30.9,8.1,38.0,,,30.14,1020.9,0.0,0.0,0.0,2025-02-20,2,2025,23,KCHO,0.0,0.0,0.0,0.0,0
2025-02-18,18,2025-02-18 01:53,01:53,EST,W  3,10.0,Fair,CLR,30.9,8.1,38.0,,,30.14,1020.9,0.0,0.0,0.0,2025-02-21,2,2025,1,KCHO,0.0,0.0,0.0,0.0,3
2025-02-18,18,2025-02-18 02:53,02:53,EST,Calm,10.0,Fair,CLR,30.0,9.0,41.0,,,30.14,1020.9,0.0,0.0,0.0,2025-02-21,2,2025,2,KCHO,0.0,0.0,0.0,0.0,0
2025-02-18,18,2025-02-18 03:53,03:53,EST,SW  5,10.0,Fair,CLR,28.0,10.0,47.0,24.0,,30.16,1021.7,0.0,0.0,0.0,2025-02-21,2,2025,3,KCHO,0.0,0.0,0.0,0.0,5
2025-02-18,18,2025-02-18 04:53,04:53,EST,Calm,10.0,Fair,CLR,28.0,9.0,44.0,,,30.16,1021.8,0.0,0.0,0.0,2025-02-21,2,2025,4,KCHO,0.0,0.0,0.0,0.0,0
2025-02-18,18,2025-02-18 05:53,05:53,EST,Calm,10.0,Fair,CLR,28.0,9.0,44.0,,,30.18,1022.3,0.0,0.0,0.0,2025-02-21,2,2025,5,KCHO,0.0,0.0,0.0,0.0,0
2025-02-18,18,2025-02-18 06:53,06:53,EST,Calm,10.0,Fair,CLR,28.0,7.0,41.0,,,30.2,1023.0,0.0,0.0,0.0,2025-02-21,2,2025,6,KCHO,0.0,0.0,0.0,0.0,0
2025-02-18,18,2025-02-18 07:53,07:53,EST,Calm,10.0,Fair,CLR,28.9,9.0,43.0,,,30.22,1023.7,0.0,0.0,0.0,2025-02-21,2,2025,7,KCHO,0.0,0.0,0.0,0.0,0
2025-02-18,18,2025-02-18 08:53,08:53,EST,Calm,10.0,Fair,CLR,30.0,10.0,43.0,,,30.25,1024.8,0.0,0.0,0.0,2025-02-21,2,2025,8,KCHO,0.0,0.0,0.0,0.0,0
2025-02-18,18,2025-02-18 09:53,09:53,EST,Vrbl  5,10.0,Fair,CLR,32.0,9.0,38.0,28.0,,30.26,1025.2,0.0,0.0,0.0,2025-02-21,2,2025,9,KCHO,0.0,0.0,0.0,0.0,5
2025-02-18,18,2025-02-18 10:53,10:53,EST,SW  7,10.0,Fair,CLR,34.0,10.0,37.0,29.0,,30.26,1025.2,0.0,0.0,0.0,2025-02-21,2,2025,10,KCHO,0.0,0.0,0.0,0.0,7
2025-02-18,18,2025-02-18 11:53,11:53,EST,Vrbl  6,10.0,Fair,CLR,34.0,10.0,37.0,29.0,,30.25,1024.9,0.0,0.0,0.0,2025-02-21,2,2025,11,KCHO,0.0,0.0,0.0,0.0,6
2025-02-18,18,2025-02-18 12:53,12:53,EST,SW  3,10.0,Fair,CLR,36.0,10.9,35.0,,,30.24,0.0,0.0,0.0,0.0,2025-02-21,2,2025,12,KCHO,0.0,0.0,0.0,0.0,3
2025-02-18,18,2025-02-18 13:53,13:53,EST,Vrbl  3,10.0,Fair,CLR,39.0,12.9,34.0,,,30.2,1023.1,0.0,0.0,0.0,2025-02-21,2,2025,13,KCHO,0.0,0.0,0.0,0.0,3
2025-02-18,18,2025-02-18 14:53,14:53,EST,Calm,10.0,Fair,CLR,41.0,14.0,33.0,,,30.19,1022.6,0.0,0.0,0.0,2025-02-21,2,2025,14,KCHO,0.0,0.0,0.0,0.0,0
2025-02-18,18,2025-02-18 15:53,15:53,EST,NW  5,10.0,A Few Clouds,FEW120,43.0,14.0,31.0,41.0,,30.2,1022.8,0.0,0.0,0.0,2025-02-21,2,2025,15,KCHO,0.0,0.0,0.0,0.0,5
2025-02-18,18,2025-02-18 16:53,16:53,EST,Vrbl  6,10.0,A Few Clouds,FEW120,42.1,15.1,33.0,39.0,,30.2,1023.1,0.0,0.0,0.0,2025-02-21,2,2025,16,KCHO,0.0,0.0,0.0,0.0,6
2025-02-18,18,2025-02-18 17:53,17:53,EST,Calm,10.0,Fair,CLR,37.9,15.1,39.0,,,30.22,1023.6,0.0,0.0,0.0,2025-02-21,2,2025,17,KCHO,0.0,0.0,0.0,0.0,0
2025-02-18,18,2025-02-18 18:53,18:53,EST,NW  5,10.0,Fair,CLR,35.1,15.1,44.0,32.0,,30.24,1024.5,0.0,0.0,0.0,2025-02-21,2,2025,18,KCHO,0.0,0.0,0.0,0.0,5
2025-02-18,18,2025-02-18 19:53,19:53,EST,NE  5,10.0,Fair,CLR,35.1,15.1,44.0,32.0,,30.27,1025.4,0.0,0.0,0.0,2025-02-21,2,2025,19,KCHO,0.0,0.0,0.0,0.0,5
2025-02-18,18,2025-02-18 20:53,20:53,EST,NE  8,10.0,A Few Clouds,FEW120,33.1,14.0,45.0,27.0,,30.28,1025.7,0.0,0.0,0.0,2025-02-21,2,2025,20,KCHO,0.0,0.0,0.0,0.0,8
2025-02-18,18,2025-02-18 21:53,21:53,EST,NE  12,10.0,Fair,CLR,30.0,8.1,39.0,21.0,,30.3,1026.4,0.0,0.0,0.0,2025-02-21,2,2025,21,KCHO,0.0,0.0,0.0,0.0,12
2025-02-18,18,2025-02-18 22:53,22:53,EST,E  9,10.0,Fair,CLR,27.0,5.0,39.0,19.0,,30.3,1026.7,0.0,0.0,0.0,2025-02-21,2,2025,22,KCHO,0.0,0.0,0.0,0.0,9
2025-02-18,18,2025-02-18 23:53,23:53,EST,E  9,10.0,Fair,CLR,25.0,3.9,40.0,16.0,,30.32,1027.3,0.0,0.0,0.0,2025-02-21,2,2025,23,KCHO,0.0,0.0,0.0,0.0,9
2025-02-19,19,2025-02-19 00:53,00:53,EST,NE  12,10.0,Fair,CLR,24.1,3.9,42.0,14.0,,30.33,1027.7,0.0,0.0,0.0,2025-02-22,2,2025,0,KCHO,0.0,0.0,0.0,0.0,12
2025-02-19,19,2025-02-19 01:53,01:53,EST,E  9,10.0,Fair,CLR,21.9,5.0,48.0,13.0,,30.36,1028.5,0.0,0.0,0.0,2025-02-22,2,2025,1,KCHO,0.0,0.0,0.0,0.0,9
2025-02-19,19,2025-02-19 02:53,02:53,EST,E  7,10.0,Overcast,BKN065 OVC090,21.9,3.9,46.0,14.0,,30.37,1028.7,0.0,0.0,0.0,2025-02-22,2,2025,2,KCHO,0.0,0.0,0.0,0.0,7
2025-02-19,19,2025-02-19 03:53,03:53,EST,NE  10,10.0,Overcast,FEW070 OVC080,21.0,3.9,47.0,11.0,,30.35,1028.2,0.0,0.0,0.0,2025-02-22,2,2025,3,KCHO,0.0,0.0,0.0,0.0,10
2025-02-19,19,2025-02-19 04:53,04:53,EST,NE  7,10.0,Overcast,BKN055 OVC070,19.9,3.9,50.0,12.0,,30.37,1028.9,0.0,0.0,0.0,2025-02-22,2,2025,4,KCHO,0.0,0.0,0.0,0.0,7
2025-02-19,19,2025-02-19 05:53,05:53,EST,NE  7,10.0,Overcast,OVC042,19.9,3.9,50.0,12.0,,30.38,1029.2,0.0,0.0,0.0,2025-02-22,2,2025,5,KCHO,0.0,0.0,0.0,0.0,7
2025-02-19,19,2025-02-19 06:53,06:53,EST,E  6,10.0,Overcast,OVC042,19.9,6.1,55.0,13.0,,30.38,1029.5,0.0,0.0,0.0,2025-02-22,2,2025,6,KCHO,0.0,0.0,0.0,0.0,6
2025-02-19,19,2025-02-19 07:53,07:53,EST,E  3,9.0,Overcast,OVC047,19.0,7.0,59.0,,,30.4,1030.1,0.0,0.0,0.0,2025-02-22,2,2025,7,KCHO,0.0,0.0,0.0,0.0,3
2025-02-19,19,2025-02-19 08:53,08:53,EST,Calm,1.0,Light Snow,OVC023,18.0,10.9,74.0,,,30.43,1031.2,0.0,0.0,0.0,2025-02-22,2,2025,8,KCHO,0.0,0.0,0.0,0.0,0
2025-02-19,19,2025-02-19 09:53,09:53,EST,NE  6,1.0,Light Snow Fog/Mist,OVC010,18.0,14.0,84.0,11.0,,30.41,1030.6,0.0,0.0,0.0,2025-02-22,2,2025,9,KCHO,0.0,0.0,0.0,0.0,6
2025-02-19,19,2025-02-19 10:53,10:53,EST,NE  6,1.5,Light Snow,OVC010,19.0,12.9,77.0,12.0,,30.39,1029.8,0.0,0.0,0.0,2025-02-22,2,2025,10,KCHO,0.0,0.0,0.0,0.0,6
2025-02-19,19,2025-02-19 11:53,11:53,EST,NE  7,1.0,Light Snow,FEW011 OVC020,19.0,14.0,81.0,11.0,,30.37,1029.1,0.0,0.0,0.0,2025-02-22,2,2025,11,KCHO,0.0,0.0,0.0,0.0,7
2025-02-19,19,2025-02-19 12:53,12:53,EST,E  6,0.5,Snow,VV013,19.0,14.0,81.0,12.0,,30.34,1028.1,0.0,0.0,0.0,2025-02-22,2,2025,12,KCHO,0.0,0.0,0.0,0.0,6
2025-02-19,19,2025-02-19 13:53,13:53,EST,E  5,1.25,Light Snow,BKN010 BKN020 OVC026,19.0,14.0,81.0,13.0,,30.3,1026.9,0.01,0.0,0.0,2025-02-22,2,2025,13,KCHO,0.01,0.01,0.01,0.010000000000000111,5
2025-02-19,19,2025-02-19 14:53,14:53,EST,E  3,4.0,Light Snow,BKN012 BKN028 OVC034,19.0,14.0,81.0,,,30.27,1025.8,0.0,0.0,0.0,2025-02-22,2,2025,14,KCHO,0.01,0.01,0.01,0.010000000000000111,3
2025-02-19,19,2025-02-19 15:53,15:53,EST,NE  5,10.0,Overcast,FEW014 OVC110,19.9,12.9,74.0,14.0,,30.24,1024.8,0.01,0.02,0.0,2025-02-22,2,2025,15,KCHO,0.02,0.02,0.02,0.02000000000000011,5
2025-02-19,19,2025-02-19 16:53,16:53,EST,E  6,10.0,Overcast,BKN014 OVC070,19.9,12.9,74.0,13.0,,30.23,1024.5,0.0,0.0,0.0,2025-02-22,2,2025,16,KCHO,0.01,0.02,0.02,0.02000000000000011,6
2025-02-19,19,2025-02-19 17:53,17:53,EST,N  5,10.0,Overcast,FEW015 BKN050 OVC065,19.9,12.9,74.0,14.0,,30.24,1024.9,0.0,0.0,0.0,2025-02-22,2,2025,17,KCHO,0.01,0.02,0.02,0.02000000000000011,5
2025-02-19,19,2025-02-19 18:53,18:53,EST,Calm,10.0,Overcast,OVC043,19.9,12.9,74.0,,,30.25,1025.1,0.0,0.0,0.02,2025-02-22,2,2025,18,KCHO,0.0,0.02,0.02,0.02000000000000011,0
2025-02-19,19,2025-02-19 19:53,19:53,EST,Calm,10.0,Overcast,OVC038,19.9,12.9,74.0,,,30.24,1024.6,0.0,0.0,0.0,2025-02-22,2,2025,19,KCHO,0.0,0.01,0.02,0.02000000000000011,0
2025-02-19,19,2025-02-19 20:53,20:53,EST,Calm,10.0,Overcast,OVC038,19.9,14.0,78.0,,,30.22,1024.1,0.0,0.0,0.0,2025-02-22,2,2025,20,KCHO,0.0,0.01,0.02,0.02000000000000011,0
2025-02-19,19,2025-02-19 21:53,21:53,EST,Calm,10.0,Overcast,BKN037 OVC060,19.9,14.0,78.0,,,30.21,1023.7,0.0,0.0,0.0,2025-02-22,2,2025,21,KCHO,0.0,0.0,0.02,0.02000000000000011,0
2025-02-19,19,2025-02-19 22:53,22:53,EST,Calm,10.0,Overcast,OVC060,19.9,15.1,81.0,,,30.18,1022.9,0.0,0.0,0.0,2025-02-22,2,2025,22,KCHO,0.0,0.0,0.02,0.02000000000000011,0
2025-02-19,19,2025-02-19 23:53,23:53,EST,Calm,10.0,Overcast,OVC060,21.0,15.1,78.0,,,30.16,1022.2,0.0,0.0,0.0,2025-02-22,2,2025,23,KCHO,0.0,0.0,0.02,0.02000000000000011,0
2025-02-20,20,2025-02-20 00:53,00:53,EST,Calm,10.0,Overcast,OVC060,19.9,16.0,85.0,,,30.14,1021.4,0.0,0.0,0.0,2025-02-23,2,2025,0,KCHO,0.0,0.0,0.02,0.02000000000000011,0
2025-02-20,20,2025-02-20 01:53,01:53,EST,Calm,10.0,Overcast,OVC055,21.0,16.0,81.0,,,30.13,1020.9,0.0,0.0,0.0,2025-02-23,2,2025,1,KCHO,0.0,0.0,0.01,0.02000000000000011,0
2025-02-20,20,2025-02-20 02:53,02:53,EST,Calm,10.0,Overcast,FEW040 OVC055,21.0,16.0,81.0,,,30.1,1020.0,0.0,0.0,0.0,2025-02-23,2,2025,2,KCHO,0.0,0.0,0.01,0.02000000000000011,0
2025-02-20,20,2025-02-20 03:53,03:53,EST,Calm,10.0,Overcast,SCT039 OVC050,21.0,16.0,81.0,,,30.08,1019.3,0.0,0.0,0.0,2025-02-23,2,2025,3,KCHO,0.0,0.0,0.0,0.02000000000000011,0
2025-02-20,20,2025-02-20 04:53,04:53,EST,NE  3,10.0,Overcast,OVC045,21.0,12.9,71.0,,,30.07,1019.0,0.0,0.0,0.0,2025-02-23,2,2025,4,KCHO,0.0,0.0,0.0,0.02000000000000011,3
2025-02-20,20,2025-02-20 05:53,05:53,EST,NE  3,10.0,Overcast,OVC047,21.0,12.9,71.0,,,30.07,1019.1,0.0,0.0,0.0,2025-02-23,2,2025,5,KCHO,0.0,0.0,0.0,0.02000000000000011,3
2025-02-20,20,2025-02-20 06:53,06:53,EST,Calm,10.0,Overcast,OVC049,21.0,12.9,71.0,,,30.07,1019.0,0.0,0.0,0.0,2025-02-23,2,2025,6,KCHO,0.0,0.0,0.0,0.02000000000000011,0
2025-02-20,20,2025-02-20 07:53,07:53,EST,Calm,5.0,Light Snow,OVC035,21.9,12.0,66.0,,,30.09,1019.7,0.0,0.0,0.0,2025-02-23,2,2025,7,KCHO,0.0,0.0,0.0,0.02000000000000011,0
2025-02-20,20,2025-02-20 08:53,08:53,EST,Calm,6.0,Light Snow,BKN036 OVC044,21.0,12.9,71.0,,,30.12,1020.6,0.0,0.0,0.0,2025-02-23,2,2025,8,KCHO,0.0,0.0,0.0,0.02000000000000011,0
2025-02-20,20,2025-02-20 09:53,09:53,EST,NE  5,10.0,Overcast,OVC047,23.0,14.0,68.0,18.0,,30.11,1020.3,0.0,0.0,0.0,2025-02-23,2,2025,9,KCHO,0.0,0.0,0.0,0.02000000000000011,5
2025-02-20,20,2025-02-20 10:53,10:53,EST,Calm,10.0,Partly Cloudy,FEW035 SCT100,25.0,12.9,60.0,,,30.1,1020.0,0.0,0.0,0.0,2025-02-23,2,2025,10,KCHO,0.0,0.0,0.0,0.02000000000000011,0
2025-02-20,20,2025-02-20 11:53,11:53,EST,Calm,10.0,Mostly Cloudy,BKN039 BKN047,28.9,12.9,51.0,,,30.09,1019.7,0.0,0.0,0.0,2025-02-23,2,2025,11,KCHO,0.0,0.0,0.0,0.02000000000000011,0
2025-02-20,20,2025-02-20 12:53,12:53,EST,NW  8,10.0,Mostly Cloudy,BKN043,28.9,10.9,47.0,22.0,,30.07,1018.8,0.0,0.0,0.0,2025-02-23,2,2025,12,KCHO,0.0,0.0,0.0,0.02000000000000011,8
2025-02-20,20,2025-02-20 13:53,13:53,EST,NW  15  G 23,10.0,Mostly Cloudy,BKN060,28.9,7.0,39.0,18.0,,30.06,1018.6,0.0,0.0,0.0,2025-02-23,2,2025,13,KCHO,0.0,0.0,0.0,0.010000000000000111,15
2025-02-20,20,2025-02-20 14:53,14:53,EST,NW  9  G 20,10.0,Overcast,OVC065,28.9,6.1,38.0,21.0,,30.07,1018.8,0.0,0.0,0.0,2025-02-23,2,2025,14,KCHO,0.0,0.0,0.0,0.010000000000000111,9
2025-02-20,20,2025-02-20 15:53,15:53,EST,W  9  G 18,10.0,Overcast,OVC060,28.0,6.1,39.0,20.0,,30.09,1019.5,0.0,0.0,0.0,2025-02-23,2,2025,15,KCHO,0.0,0.0,0.0,0.0,9
2025-02-20,20,2025-02-20 16:53,16:53,EST,NW  9  G 20,10.0,Fair,CLR,27.0,3.0,35.0,19.0,,30.11,1020.3,0.0,0.0,0.0,2025-02-23,2,2025,16,KCHO,0.0,0.0,0.0,0.0,9
2025-02-20,20,2025-02-20 17:53,17:53,EST,NW  9  G 20,10.0,Fair,CLR,25.0,3.0,39.0,16.0,,30.14,1021.2,0.0,0.0,0.0,2025-02-23,2,2025,17,KCHO,0.0,0.0,0.0,0.0,9
2025-02-20,20,2025-02-20 18:53,18:53,EST,Vrbl  5  G 20,10.0,Fair,CLR,24.1,3.9,42.0,19.0,,30.16,1022.1,0.0,0.0,0.0,2025-02-23,2,2025,18,KCHO,0.0,0.0,0.0,0.0,5
2025-02-20,20,2025-02-20 19:53,19:53,EST,W  10  G 18,10.0,A Few Clouds,FEW055,24.1,3.0,40.0,15.0,,30.18,1022.7,0.0,0.0,0.0,2025-02-23,2,2025,19,KCHO,0.0,0.0,0.0,0.0,10
2025-02-20,20,2025-02-20 20:53,20:53,EST,W  8,10.0,Fair,CLR,23.0,3.9,44.0,15.0,,30.2,1023.2,0.0,0.0,0.0,2025-02-23,2,2025,20,KCHO,0.0,0.0,0.0,0.0,8
2025-02-20,20,2025-02-20 22:53,22:53,EST,S  6,10.0,Fair,CLR,21.0,5.0,50.0,14.0,,30.22,1024.0,0.0,0.0,0.0,2025-02-23,2,2025,22,KCHO,0.0,0.0,0.0,0.0,6
2025-02-20,20,2025-02-20 23:53,23:53,EST,Calm,10.0,Overcast,OVC050,23.0,5.0,46.0,,,30.23,1024.4,0.0,0.0,0.0,2025-02-23,2,2025,23,KCHO,0.0,0.0,0.0,0.0,0
2025-02-21,21,2025-02-21 00:53,00:53,EST,Vrbl  3,10.0,Fair,CLR,23.0,6.1,48.0,,,30.24,1024.5,0.0,0.0,0.0,2025-02-24,2,2025,0,KCHO,0.0,0.0,0.0,0.0,3
2025-02-21,21,2025-02-21 01:53,01:53,EST,Calm,10.0,A Few Clouds,FEW110,23.0,6.1,48.0,,,30.26,1025.2,0.0,0.0,0.0,2025-02-24,2,2025,1,KCHO,0.0,0.0,0.0,0.0,0
2025-02-21,21,2025-02-21 02:53,02:53,EST,Calm,10.0,Fair,CLR,23.0,6.1,48.0,,,30.27,1025.6,0.0,0.0,0.0,2025-02-24,2,2025,2,KCHO,0.0,0.0,0.0,0.0,0
2025-02-21,21,2025-02-21 03:53,03:53,EST,NW  8  G 17,10.0,Fair,CLR,23.0,7.0,50.0,15.0,,30.28,1026.0,0.0,0.0,0.0,2025-02-24,2,2025,3,KCHO,0.0,0.0,0.0,0.0,8
2025-02-21,21,2025-02-21 04:53,04:53,EST,N  6,10.0,Fair,CLR,23.0,8.1,53.0,17.0,,30.31,1027.1,0.0,0.0,0.0,2025-02-24,2,2025,4,KCHO,0.0,0.0,0.0,0.0,6
2025-02-21,21,2025-02-21 05:53,05:53,EST,Calm,10.0,Fair,CLR,23.0,8.1,53.0,,,30.33,1027.9,0.0,0.0,0.0,2025-02-24,2,2025,5,KCHO,0.0,0.0,0.0,0.0,0
2025-02-21,21,2025-02-21 06:53,06:53,EST,Calm,10.0,Fair,CLR,23.0,8.1,53.0,,,30.34,1028.2,0.0,0.0,0.0,2025-02-24,2,2025,6,KCHO,0.0,0.0,0.0,0.0,0
2025-02-21,21,2025-02-21 07:53,07:53,EST,NW  9  G 21,10.0,Fair,CLR,25.0,9.0,50.0,16.0,,30.38,1029.3,0.0,0.0,0.0,2025-02-24,2,2025,7,KCHO,0.0,0.0,0.0,0.0,9
2025-02-21,21,2025-02-21 08:53,08:53,EST,NW  15  G 22,10.0,Fair,CLR,27.0,9.0,46.0,16.0,,30.39,1029.8,0.0,0.0,0.0,2025-02-24,2,2025,8,KCHO,0.0,0.0,0.0,0.0,15
2025-02-21,21,2025-02-21 09:53,09:53,EST,Vrbl  5,10.0,Fair,CLR,30.0,10.0,43.0,26.0,,30.39,0.0,0.0,0.0,0.0,2025-02-24,2,2025,9,KCHO,0.0,0.0,0.0,0.0,5
2025-02-21,21,2025-02-21 10:53,10:53,EST,NW  12  G 23,10.0,Fair,CLR,33.1,10.0,38.0,25.0,,30.39,1029.7,0.0,0.0,0.0,2025-02-24,2,2025,10,KCHO,0.0,0.0,0.0,0.0,12
2025-02-21,21,2025-02-21 11:53,11:53,EST,NW  9  G 24,10.0,Fair,CLR,36.0,10.0,34.0,30.0,,30.38,1029.4,0.0,0.0,0.0,2025-02-24,2,2025,11,KCHO,0.0,0.0,0.0,0.0,9
2025-02-21,21,2025-02-21 12:53,12:53,EST,W  8  G 21,10.0,Fair,CLR,36.0,9.0,32.0,30.0,,30.37,1028.8,0.0,0.0,0.0,2025-02-24,2,2025,12,KCHO,0.0,0.0,0.0,0.0,8
2025-02-21,21,2025-02-21 13:53,13:53,EST,NW  10  G 22,10.0,Fair,CLR,37.9,9.0,30.0,32.0,,30.36,1028.5,0.0,0.0,0.0,2025-02-24,2,2025,13,KCHO,0.0,0.0,0.0,0.0,10
2025-02-21,21,2025-02-21 14:53,14:53,EST,NW  10  G 23,10.0,Fair,CLR,37.9,9.0,30.0,32.0,,30.36,1028.5,0.0,0.0,0.0,2025-02-24,2,2025,14,KCHO,0.0,0.0,0.0,0.0,10
2025-02-21,21,2025-02-21 15:53,15:53,EST,NW  12  G 22,10.0,Fair,CLR,39.9,9.0,28.0,34.0,,30.36,1028.6,0.0,0.0,0.0,2025-02-24,2,2025,15,KCHO,0.0,0.0,0.0,0.0,12
2025-02-21,21,2025-02-21 16:53,16:53,EST,NW  9  G 18,10.0,Fair,CLR,37.9,10.0,31.0,32.0,,30.37,1029.0,0.0,0.0,0.0,2025-02-24,2,2025,16,KCHO,0.0,0.0,0.0,0.0,9
2025-02-21,21,2025-02-21 17:53,17:53,EST,NW  6,10.0,Fair,CLR,35.1,9.0,34.0,31.0,,30.38,1029.4,0.0,0.0,0.0,2025-02-24,2,2025,17,KCHO,0.0,0.0,0.0,0.0,6
2025-02-21,21,2025-02-21 18:53,18:53,EST,N  3,10.0,Fair,CLR,33.1,9.0,36.0,,,30.4,1030.1,0.0,0.0,0.0,2025-02-24,2,2025,18,KCHO,0.0,0.0,0.0,0.0,3
2025-02-21,21,2025-02-21 19:53,19:53,EST,NW  7,10.0,Fair,CLR,30.9,8.1,38.0,25.0,,30.42,1030.8,0.0,0.0,0.0,2025-02-24,2,2025,19,KCHO,0.0,0.0,0.0,0.0,7
2025-02-21,21,2025-02-21 20:53,20:53,EST,NW  7,10.0,Fair,CLR,30.0,8.1,39.0,24.0,,30.44,1031.2,0.0,0.0,0.0,2025-02-24,2,2025,20,KCHO,0.0,0.0,0.0,0.0,7
2025-02-21,21,2025-02-21 21:53,21:53,EST,NW  3,10.0,Fair,CLR,28.9,8.1,41.0,,,30.44,1031.2,0.0,0.0,0.0,2025-02-24,2,2025,21,KCHO,0.0,0.0,0.0,0.0,3
2025-02-21,21,2025-02-21 22:53,22:53,EST,W  3,10.0,Fair,CLR,28.0,8.1,43.0,,,30.44,1031.2,0.0,0.0,0.0,2025-02-24,2,2025,22,KCHO,0.0,0.0,0.0,0.0,3
2025-02-21,21,2025-02-21 23:53,23:53,EST,Calm,10.0,Fair,CLR,26.1,9.0,48.0,,,30.45,1031.6,0.0,0.0,0.0,2025-02-24,2,2025,23,KCHO,0.0,0.0,0.0,0.0,0
2025-02-22,22,2025-02-22 00:53,00:53,EST,Calm,10.0,Fair,CLR,25.0,9.0,50.0,,,30.45,1031.6,0.0,0.0,0.0,2025-02-25,2,2025,0,KCHO,0.0,0.0,0.0,0.0,0
2025-02-22,22,2025-02-22 02:53,02:53,EST,Calm,10.0,Fair,CLR,23.0,9.0,55.0,,,30.44,1031.1,0.0,0.0,0.0,2025-02-25,2,2025,2,KCHO,0.0,0.0,0.0,0.0,0
2025-02-22,22,2025-02-22 03:53,03:53,EST,Calm,10.0,Fair,CLR,23.0,9.0,55.0,,,30.43,1030.9,0.0,0.0,0.0,2025-02-25,2,2025,3,KCHO,0.0,0.0,0.0,0.0,0
2025-02-22,22,2025-02-22 04:53,04:53,EST,Calm,10.0,Fair,CLR,21.0,10.0,62.0,,,30.44,1031.2,0.0,0.0,0.0,2025-02-25,2,2025,4,KCHO,0.0,0.0,0.0,0.0,0
2025-02-22,22,2025-02-22 05:53,05:53,EST,Calm,10.0,Fair,CLR,19.0,10.0,68.0,,,30.44,1031.3,0.0,0.0,0.0,2025-02-25,2,2025,5,KCHO,0.0,0.0,0.0,0.0,0
2025-02-22,22,2025-02-22 06:53,06:53,EST,Calm,10.0,Fair,CLR,18.0,10.0,71.0,,,30.43,1031.1,0.0,0.0,0.0,2025-02-25,2,2025,6,KCHO,0.0,0.0,0.0,0.0,0
2025-02-22,22,2025-02-22 07:53,07:53,EST,S  3,10.0,Fair,CLR,23.0,12.0,63.0,,,30.44,1031.4,0.0,0.0,0.0,2025-02-25,2,2025,7,KCHO,0.0,0.0,0.0,0.0,3
2025-02-22,22,2025-02-22 08:53,08:53,EST,S  8,10.0,Fair,CLR,27.0,14.0,58.0,19.0,,30.45,1031.5,0.0,0.0,0.0,2025-02-25,2,2025,8,KCHO,0.0,0.0,0.0,0.0,8
2025-02-22,22,2025-02-22 09:53,09:53,EST,S  13  G 18,10.0,Fair,CLR,32.0,12.9,45.0,23.0,,30.43,1030.8,0.0,0.0,0.0,2025-02-25,2,2025,9,KCHO,0.0,0.0,0.0,0.0,13
2025-02-22,22,2025-02-22 10:53,10:53,EST,S  9,10.0,Fair,CLR,35.1,12.9,40.0,29.0,,30.41,1030.1,0.0,0.0,0.0,2025-02-25,2,2025,10,KCHO,0.0,0.0,0.0,0.0,9
2025-02-22,22,2025-02-22 11:53,11:53,EST,S  10,10.0,Fair,CLR,36.0,12.9,39.0,29.0,,30.37,1029.0,0.0,0.0,0.0,2025-02-25,2,2025,11,KCHO,0.0,0.0,0.0,0.0,10
2025-02-22,22,2025-02-22 12:53,12:53,EST,Vrbl  3,10.0,Fair,CLR,37.9,12.9,36.0,,,30.33,1027.3,0.0,0.0,0.0,2025-02-25,2,2025,12,KCHO,0.0,0.0,0.0,0.0,3
2025-02-22,22,2025-02-22 13:53,13:53,EST,SW  8,10.0,A Few Clouds,FEW120,39.9,14.0,35.0,35.0,,30.3,1026.4,0.0,0.0,0.0,2025-02-25,2,2025,13,KCHO,0.0,0.0,0.0,0.0,8
2025-02-22,22,2025-02-22 14:53,14:53,EST,SE  10,10.0,Fair,CLR,43.0,14.0,31.0,38.0,,30.26,1025.1,0.0,0.0,0.0,2025-02-25,2,2025,14,KCHO,0.0,0.0,0.0,0.0,10
2025-02-22,22,2025-02-22 15:53,15:53,EST,S  8,10.0,Fair,CLR,42.1,12.9,30.0,38.0,,30.24,1024.6,0.0,0.0,0.0,2025-02-25,2,2025,15,KCHO,0.0,0.0,0.0,0.0,8
2025-02-22,22,2025-02-22 16:53,16:53,EST,S  8,10.0,Fair,CLR,42.1,12.9,30.0,38.0,,30.24,1024.3,0.0,0.0,0.0,2025-02-25,2,2025,16,KCHO,0.0,0.0,0.0,0.0,8
2025-02-22,22,2025-02-22 17:53,17:53,EST,SW  5,10.0,A Few Clouds,FEW120,39.0,12.0,33.0,36.0,,30.24,1024.4,0.0,0.0,0.0,2025-02-25,2,2025,17,KCHO,0.0,0.0,0.0,0.0,5
2025-02-22,22,2025-02-22 18:53,18:53,EST,SW  3,10.0,Overcast,OVC120,39.0,10.9,31.0,,,30.24,1024.6,0.0,0.0,0.0,2025-02-25,2,2025,18,KCHO,0.0,0.0,0.0,0.0,3
2025-02-22,22,2025-02-22 19:53,19:53,EST,S  5,10.0,Fair,CLR,37.0,12.0,36.0,34.0,,30.24,1024.4,0.0,0.0,0.0,2025-02-25,2,2025,19,KCHO,0.0,0.0,0.0,0.0,5
2025-02-22,22,2025-02-22 20:53,20:53,EST,SW  5,10.0,Fair,CLR,34.0,12.9,42.0,30.0,,30.22,1024.0,0.0,0.0,0.0,2025-02-25,2,2025,20,KCHO,0.0,0.0,0.0,0.0,5
2025-02-22,22,2025-02-22 21:53,21:53,EST,W  3,10.0,Fair,CLR,32.0,12.9,45.0,,,30.22,1023.8,0.0,0.0,0.0,2025-02-25,2,2025,21,KCHO,0.0,0.0,0.0,0.0,3
2025-02-22,22,2025-02-22 22:53,22:53,EST,SW  3,10.0,Fair,CLR,30.0,12.9,49.0,,,30.22,1023.6,0.0,0.0,0.0,2025-02-25,2,2025,22,KCHO,0.0,0.0,0.0,0.0,3
2025-02-22,22,2025-02-22 23:53,23:53,EST,SW  3,10.0,Fair,CLR,32.0,12.9,45.0,,,30.2,1023.2,0.0,0.0,0.0,2025-02-25,2,2025,23,KCHO,0.0,0.0,0.0,0.0,3
2025-02-23,23,2025-02-23 00:53,00:53,EST,Calm,10.0,Fair,CLR,30.0,14.0,51.0,,,30.19,1022.7,0.0,0.0,0.0,2025-02-26,2,2025,0,KCHO,0.0,0.0,0.0,0.0,0
2025-02-23,23,2025-02-23 01:53,01:53,EST,S  6,10.0,Fair,CLR,28.9,14.0,54.0,23.0,,30.18,1022.5,0.0,0.0,0.0,2025-02-26,2,2025,1,KCHO,0.0,0.0,0.0,0.0,6
2025-02-23,23,2025-02-23 02:53,02:53,EST,Calm,10.0,Fair,CLR,26.1,14.0,60.0,,,30.17,1021.9,0.0,0.0,0.0,2025-02-26,2,2025,2,KCHO,0.0,0.0,0.0,0.0,0
2025-02-23,23,2025-02-23 03:53,03:53,EST,Calm,10.0,Fair,CLR,28.9,12.9,51.0,,,30.15,1021.4,0.0,0.0,0.0,2025-02-26,2,2025,3,KCHO,0.0,0.0,0.0,0.0,0
2025-02-23,23,2025-02-23 04:53,04:53,EST,Calm,10.0,Fair,CLR,30.9,12.9,47.0,,,30.16,1021.7,0.0,0.0,0.0,2025-02-26,2,2025,4,KCHO,0.0,0.0,0.0,0.0,0
2025-02-23,23,2025-02-23 05:53,05:53,EST,Vrbl  3,10.0,Fair,CLR,30.9,12.9,47.0,,,30.17,1022.0,0.0,0.0,0.0,2025-02-26,2,2025,5,KCHO,0.0,0.0,0.0,0.0,3
2025-02-23,23,2025-02-23 06:53,06:53,EST,S  3,10.0,Fair,CLR,33.1,12.9,43.0,,,30.18,1022.3,0.0,0.0,0.0,2025-02-26,2,2025,6,KCHO,0.0,0.0,0.0,0.0,3
2025-02-23,23,2025-02-23 07:53,07:53,EST,Calm,10.0,Fair,CLR,34.0,16.0,48.0,,,30.2,1022.9,0.0,0.0,0.0,2025-02-26,2,2025,7,KCHO,0.0,0.0,0.0,0.0,0
2025-02-23,23,2025-02-23 08:53,08:53,EST,W  5,10.0,Fair,CLR,37.9,15.1,39.0,35.0,,30.22,1023.6,0.0,0.0,0.0,2025-02-26,2,2025,8,KCHO,0.0,0.0,0.0,0.0,5
2025-02-23,23,2025-02-23 09:53,09:53,EST,Calm,10.0,Fair,CLR,41.0,15.1,35.0,,,30.21,1023.5,0.0,0.0,0.0,2025-02-26,2,2025,9,KCHO,0.0,0.0,0.0,0.0,0
2025-02-23,23,2025-02-23 10:53,10:53,EST,Calm,10.0,Fair,CLR,43.0,12.0,28.0,,,30.2,1023.0,0.0,0.0,0.0,2025-02-26,2,2025,10,KCHO,0.0,0.0,0.0,0.0,0
2025-02-23,23,2025-02-23 11:53,11:53,EST,Calm,10.0,Fair,CLR,45.0,12.0,26.0,,,30.18,1022.1,0.0,0.0,0.0,2025-02-26,2,2025,11,KCHO,0.0,0.0,0.0,0.0,0
2025-02-23,23,2025-02-23 12:53,12:53,EST,S  6,10.0,Fair,CLR,48.9,12.0,22.0,47.0,,30.14,1020.9,0.0,0.0,0.0,2025-02-26,2,2025,12,KCHO,0.0,0.0,0.0,0.0,6
2025-02-23,23,2025-02-23 13:53,13:53,EST,SW  7,10.0,Fair,CLR,50.0,15.1,25.0,48.0,,30.1,1019.5,0.0,0.0,0.0,2025-02-26,2,2025,13,KCHO,0.0,0.0,0.0,0.0,7
2025-02-23,23,2025-02-23 14:53,14:53,EST,SW  5,10.0,Fair,CLR,50.0,16.0,26.0,49.0,,30.08,1018.7,0.0,0.0,0.0,2025-02-26,2,2025,14,KCHO,0.0,0.0,0.0,0.0,5
2025-02-23,23,2025-02-23 15:53,15:53,EST,NW  5,10.0,Fair,CLR,51.1,16.0,25.0,,,30.05,1017.8,0.0,0.0,0.0,2025-02-26,2,2025,15,KCHO,0.0,0.0,0.0,0.0,5
2025-02-23,23,2025-02-23 16:53,16:53,EST,S  5,10.0,Fair,CLR,51.1,16.0,25.0,,,30.05,1017.8,0.0,0.0,0.0,2025-02-26,2,2025,16,KCHO,0.0,0.0,0.0,0.0,5
2025-02-23,23,2025-02-23 17:53,17:53,EST,S  7,10.0,Fair,CLR,46.0,15.1,29.0,43.0,,30.06,1018.1,0.0,0.0,0.0,2025-02-26,2,2025,17,KCHO,0.0,0.0,0.0,0.0,7
2025-02-23,23,2025-02-23 18:53,18:53,EST,SE  3,10.0,Fair,CLR,45.0,16.0,31.0,,,30.08,1018.8,0.0,0.0,0.0,2025-02-26,2,2025,18,KCHO,0.0,0.0,0.0,0.0,3
2025-02-23,23,2025-02-23 19:53,19:53,EST,S  3,10.0,Fair,CLR,44.1,16.0,32.0,,,30.09,1019.2,0.0,0.0,0.0,2025-02-26,2,2025,19,KCHO,0.0,0.0,0.0,0.0,3
2025-02-23,23,2025-02-23 20:53,20:53,EST,Calm,10.0,Fair,CLR,37.0,17.1,44.0,,,30.08,1018.8,0.0,0.0,0.0,2025-02-26,2,2025,20,KCHO,0.0,0.0,0.0,0.0,0
2025-02-23,23,2025-02-23 21:53,21:53,EST,Calm,10.0,Fair,CLR,37.0,16.0,42.0,,,30.08,1018.8,0.0,0.0,0.0,2025-02-26,2,2025,21,KCHO,0.0,0.0,0.0,0.0,0
2025-02-23,23,2025-02-23 22:53,22:53,EST,Calm,10.0,Fair,CLR,36.0,18.0,48.0,,,30.08,1018.6,0.0,0.0,0.0,2025-02-26,2,2025,22,KCHO,0.0,0.0,0.0,0.0,0
2025-02-23,23,2025-02-23 23:53,23:53,EST,Calm,10.0,Fair,CLR,33.1,18.0,54.0,,,30.08,1018.7,0.0,0.0,0.0,2025-02-26,2,2025,23,KCHO,0.0,0.0,0.0,0.0,0
2025-02-24,24,2025-02-24 00:53,00:53,EST,Calm,10.0,Fair,CLR,30.0,18.0,61.0,,,30.08,1018.9,0.0,0.0,0.0,2025-02-27,2,2025,0,KCHO,0.0,0.0,0.0,0.0,0
2025-02-24,24,2025-02-24 01:53,01:53,EST,NW  3,10.0,A Few Clouds,FEW095,32.0,17.1,54.0,,,30.07,1018.5,0.0,0.0,0.0,2025-02-27,2,2025,1,KCHO,0.0,0.0,0.0,0.0,3
2025-02-24,24,2025-02-24 03:53,03:53,EST,Calm,10.0,Fair,CLR,30.0,17.1,58.0,,,30.07,1018.5,0.0,0.0,0.0,2025-02-27,2,2025,3,KCHO,0.0,0.0,0.0,0.0,0
2025-02-24,24,2025-02-24 04:53,04:53,EST,Calm,10.0,Fair,CLR,28.0,19.0,69.0,,,30.08,1018.6,0.0,0.0,0.0,2025-02-27,2,2025,4,KCHO,0.0,0.0,0.0,0.0,0
2025-02-24,24,2025-02-24 05:53,05:53,EST,Calm,10.0,Fair,CLR,26.1,19.0,75.0,,,30.08,1019.0,0.0,0.0,0.0,2025-02-27,2,2025,5,KCHO,0.0,0.0,0.0,0.0,0
2025-02-24,24,2025-02-24 06:53,06:53,EST,Calm,10.0,Fair,CLR,27.0,19.0,72.0,,,30.09,1019.2,0.0,0.0,0.0,2025-02-27,2,2025,6,KCHO,0.0,0.0,0.0,0.0,0
2025-02-24,24,2025-02-24 07:53,07:53,EST,Calm,10.0,Fair,CLR,30.0,23.0,75.0,,,30.12,1020.1,0.0,0.0,0.0,2025-02-27,2,2025,7,KCHO,0.0,0.0,0.0,0.0,0
2025-02-24,24,2025-02-24 08:53,08:53,EST,Calm,10.0,Fair,CLR,36.0,23.0,59.0,,,30.13,1020.4,0.0,0.0,0.0,2025-02-27,2,2025,8,KCHO,0.0,0.0,0.0,0.0,0
2025-02-24,24,2025-02-24 09:53,09:53,EST,Calm,10.0,Fair,CLR,44.1,21.9,41.0,,,30.11,1019.8,0.0,0.0,0.0,2025-02-27,2,2025,9,KCHO,0.0,0.0,0.0,0.0,0
2025-02-24,24,2025-02-24 10:53,10:53,EST,Calm,10.0,Fair,CLR,46.9,19.9,34.0,,,30.1,1019.4,0.0,0.0,0.0,2025-02-27,2,2025,10,KCHO,0.0,0.0,0.0,0.0,0
2025-02-24,24,2025-02-24 11:53,11:53,EST,Vrbl  5,10.0,Fair,CLR,51.1,19.9,29.0,,,30.06,1018.1,0.0,0.0,0.0,2025-02-27,2,2025,11,KCHO,0.0,0.0,0.0,0.0,5
2025-02-24,24,2025-02-24 12:53,12:53,EST,S  10,10.0,Fair,CLR,54.0,21.0,28.0,,,30.01,1016.3,0.0,0.0,0.0,2025-02-27,2,2025,12,KCHO,0.0,0.0,0.0,0.0,10
2025-02-24,24,2025-02-24 13:53,13:53,EST,S  8,10.0,Fair,CLR,55.9,21.9,27.0,,,29.98,1015.3,0.0,0.0,0.0,2025-02-27,2,2025,13,KCHO,0.0,0.0,0.0,0.0,8
2025-02-24,24,2025-02-24 14:53,14:53,EST,S  9,10.0,Fair,CLR,57.9,21.9,25.0,,,29.96,1014.6,0.0,0.0,0.0,2025-02-27,2,2025,14,KCHO,0.0,0.0,0.0,0.0,9
2025-02-24,24,2025-02-24 15:53,15:53,EST,S  10,10.0,Fair,CLR,55.9,21.9,27.0,,,29.94,1013.8,0.0,0.0,0.0,2025-02-27,2,2025,15,KCHO,0.0,0.0,0.0,0.0,10
2025-02-24,24,2025-02-24 16:53,16:53,EST,S  14  G 20,10.0,Fair,CLR,57.9,23.0,26.0,,,29.92,1013.3,0.0,0.0,0.0,2025-02-27,2,2025,16,KCHO,0.0,0.0,0.0,0.0,14
2025-02-24,24,2025-02-24 17:53,17:53,EST,S  12,10.0,Fair,CLR,54.0,24.1,31.0,,,29.93,1013.5,0.0,0.0,0.0,2025-02-27,2,2025,17,KCHO,0.0,0.0,0.0,0.0,12
2025-02-24,24,2025-02-24 18:53,18:53,EST,S  7,10.0,Fair,CLR,48.0,24.1,39.0,45.0,,29.93,1013.8,0.0,0.0,0.0,2025-02-27,2,2025,18,KCHO,0.0,0.0,0.0,0.0,7
2025-02-24,24,2025-02-24 19:53,19:53,EST,SE  5,10.0,Fair,CLR,50.0,24.1,36.0,49.0,,29.93,1013.6,0.0,0.0,0.0,2025-02-27,2,2025,19,KCHO,0.0,0.0,0.0,0.0,5
2025-02-24,24,2025-02-24 20:53,20:53,EST,S  9,10.0,Fair,CLR,50.0,25.0,38.0,47.0,,29.92,1013.2,0.0,0.0,0.0,2025-02-27,2,2025,20,KCHO,0.0,0.0,0.0,0.0,9
2025-02-24,24,2025-02-24 21:53,21:53,EST,Calm,10.0,Fair,CLR,48.9,24.1,38.0,,,29.93,1013.5,0.0,0.0,0.0,2025-02-27,2,2025,21,KCHO,0.0,0.0,0.0,0.0,0
2025-02-24,24,2025-02-24 22:53,22:53,EST,S  6,10.0,Fair,CLR,46.9,26.1,44.0,45.0,,29.91,1012.8,0.0,0.0,0.0,2025-02-27,2,2025,22,KCHO,0.0,0.0,0.0,0.0,6
2025-02-24,24,2025-02-24 23:53,23:53,EST,S  7,10.0,Fair,CLR,46.0,25.0,44.0,43.0,,29.89,1012.2,0.0,0.0,0.0,2025-02-27,2,2025,23,KCHO,0.0,0.0,0.0,0.0,7
2025-02-25,25,2025-02-25 01:53,01:53,EST,SW  6,10.0,Fair,CLR,46.0,24.1,42.0,44.0,,29.86,1011.1,0.0,0.0,0.0,2025-02-28,2,2025,1,KCHO,0.0,0.0,0.0,0.0,6
2025-02-25,25,2025-02-25 02:53,02:53,EST,S  7,10.0,Fair,CLR,41.0,24.1,51.0,37.0,,29.85,1010.5,0.0,0.0,0.0,2025-02-28,2,2025,2,KCHO,0.0,0.0,0.0,0.0,7
2025-02-25,25,2025-02-25 03:53,03:53,EST,S  8,10.0,Fair,CLR,41.0,25.0,53.0,36.0,,29.85,1010.6,0.0,0.0,0.0,2025-02-28,2,2025,3,KCHO,0.0,0.0,0.0,0.0,8
2025-02-25,25,2025-02-25 04:53,04:53,EST,SW  6,10.0,Fair,CLR,42.1,25.0,51.0,39.0,,29.84,1010.3,0.0,0.0,0.0,2025-02-28,2,2025,4,KCHO,0.0,0.0,0.0,0.0,6
2025-02-25,25,2025-02-25 05:53,05:53,EST,Calm,10.0,Fair,CLR,37.0,25.0,62.0,,,29.83,1010.1,0.0,0.0,0.0,2025-02-28,2,2025,5,KCHO,0.0,0.0,0.0,0.0,0
2025-02-25,25,2025-02-25 06:53,06:53,EST,SW  8,10.0,Fair,CLR,37.0,25.0,62.0,32.0,,29.82,1009.7,0.0,0.0,0.0,2025-02-28,2,2025,6,KCHO,0.0,0.0,0.0,0.0,8
2025-02-25,25,2025-02-25 07:53,07:53,EST,Calm,10.0,Fair,CLR,39.9,26.1,58.0,,,29.83,1010.2,0.0,0.0,0.0,2025-02-28,2,2025,7,KCHO,0.0,0.0,0.0,0.0,0
2025-02-25,25,2025-02-25 08:53,08:53,EST,W  3,10.0,Fair,CLR,46.9,28.0,48.0,,,29.83,1010.1,0.0,0.0,0.0,2025-02-28,2,2025,8,KCHO,0.0,0.0,0.0,0.0,3
2025-02-25,25,2025-02-25 09:53,09:53,EST,S  3,10.0,Fair,CLR,54.0,28.0,37.0,,,29.81,1009.4,0.0,0.0,0.0,2025-02-28,2,2025,9,KCHO,0.0,0.0,0.0,0.0,3
2025-02-25,25,2025-02-25 10:53,10:53,EST,Calm,10.0,A Few Clouds,FEW120,57.0,30.0,36.0,,,29.8,1009.0,0.0,0.0,0.0,2025-02-28,2,2025,10,KCHO,0.0,0.0,0.0,0.0,0
2025-02-25,25,2025-02-25 11:53,11:53,EST,Vrbl  3,10.0,Partly Cloudy,SCT120,59.0,26.1,28.0,,,29.77,1008.0,0.0,0.0,0.0,2025-02-28,2,2025,11,KCHO,0.0,0.0,0.0,0.0,3
2025-02-25,25,2025-02-25 12:53,12:53,EST,S  5,10.0,Partly Cloudy,SCT120,64.9,28.0,25.0,,,29.75,0.0,0.0,0.0,0.0,2025-02-28,2,2025,12,KCHO,0.0,0.0,0.0,0.0,5
2025-02-25,25,2025-02-25 13:53,13:53,EST,Vrbl  5,10.0,Fair,CLR,64.9,28.9,26.0,,,29.74,1006.7,0.0,0.0,0.0,2025-02-28,2,2025,13,KCHO,0.0,0.0,0.0,0.0,5
2025-02-25,25,2025-02-25 14:53,14:53,EST,Calm,10.0,Mostly Cloudy,BKN085,66.0,32.0,28.0,,,29.72,1006.2,0.0,0.0,0.0,2025-02-28,2,2025,14,KCHO,0.0,0.0,0.0,0.0,0
2025-02-25,25,2025-02-25 15:53,15:53,EST,Calm,10.0,A Few Clouds,FEW090,68.0,30.9,25.0,,,29.71,1005.9,0.0,0.0,0.0,2025-02-28,2,2025,15,KCHO,0.0,0.0,0.0,0.0,0
2025-02-25,25,2025-02-25 16:53,16:53,EST,N  7,10.0,Fair,CLR,66.0,28.9,25.0,,,29.73,1006.5,0.0,0.0,0.0,2025-02-28,2,2025,16,KCHO,0.0,0.0,0.0,0.0,7
2025-02-25,25,2025-02-25 17:53,17:53,EST,NW  5,10.0,Fair,CLR,63.0,28.9,28.0,,,29.74,1007.0,0.0,0.0,0.0,2025-02-28,2,2025,17,KCHO,0.0,0.0,0.0,0.0,5
2025-02-25,25,2025-02-25 18:53,18:53,EST,Calm,10.0,Fair,CLR,60.1,28.0,30.0,,,29.78,1008.5,0.0,0.0,0.0,2025-02-28,2,2025,18,KCHO,0.0,0.0,0.0,0.0,0
2025-02-25,25,2025-02-25 19:53,19:53,EST,N  3,10.0,Fair,CLR,55.9,28.9,36.0,,,29.8,1009.1,0.0,0.0,0.0,2025-02-28,2,2025,19,KCHO,0.0,0.0,0.0,0.0,3
2025-02-25,25,2025-02-25 20:53,20:53,EST,Calm,10.0,Partly Cloudy,SCT090,59.0,28.9,32.0,,,29.83,1009.8,0.0,0.0,0.0,2025-02-28,2,2025,20,KCHO,0.0,0.0,0.0,0.0,0
2025-02-25,25,2025-02-25 21:53,21:53,EST,S  3,10.0,Mostly Cloudy,BKN090,53.1,28.9,40.0,,,29.83,1009.8,0.0,0.0,0.0,2025-02-28,2,2025,21,KCHO,0.0,0.0,0.0,0.0,3
2025-02-25,25,2025-02-25 22:53,22:53,EST,NW  5,10.0,Fair,CLR,46.0,30.0,54.0,44.0,,29.83,1010.0,0.0,0.0,0.0,2025-02-28,2,2025,22,KCHO,0.0,0.0,0.0,0.0,5
2025-02-25,25,2025-02-25 23:53,23:53,EST,N  5,10.0,Mostly Cloudy,BKN080,46.0,30.0,54.0,44.0,,29.84,1010.1,0.0,0.0,0.0,2025-02-28,2,2025,23,KCHO,0.0,0.0,0.0,0.0,5
2025-02-26,26,2025-02-26 00:53,00:53,EST,Calm,10.0,Mostly Cloudy,BKN080,44.1,30.0,58.0,,,29.86,1010.7,0.0,0.0,0.0,2025-03-01,2,2025,0,KCHO,0.0,0.0,0.0,0.0,0
2025-02-26,26,2025-02-26 01:53,01:53,EST,N  5,10.0,Mostly Cloudy,BKN075,46.0,30.0,54.0,44.0,,29.86,1010.8,0.0,0.0,0.0,2025-03-01,2,2025,1,KCHO,0.0,0.0,0.0,0.0,5
2025-02-26,26,2025-02-26 02:53,02:53,EST,NW  3,10.0,Partly Cloudy,SCT075,42.1,28.9,60.0,,,29.86,1011.0,0.0,0.0,0.0,2025-03-01,2,2025,2,KCHO,0.0,0.0,0.0,0.0,3
2025-02-26,26,2025-02-26 03:53,03:53,EST,Calm,10.0,Fair,CLR,37.0,28.9,73.0,,,29.87,1011.3,0.0,0.0,0.0,2025-03-01,2,2025,3,KCHO,0.0,0.0,0.0,0.0,0
2025-02-26,26,2025-02-26 04:53,04:53,EST,SW  3,10.0,Fair,CLR,39.9,28.9,65.0,,,29.88,1011.6,0.0,0.0,0.0,2025-03-01,2,2025,4,KCHO,0.0,0.0,0.0,0.0,3
2025-02-26,26,2025-02-26 05:53,05:53,EST,Calm,10.0,Fair,CLR,34.0,28.0,79.0,,,29.9,1012.5,0.0,0.0,0.0,2025-03-01,2,2025,5,KCHO,0.0,0.0,0.0,0.0,0
2025-02-26,26,2025-02-26 06:53,06:53,EST,Calm,10.0,Fair,CLR,34.0,28.0,79.0,,,29.92,1013.2,0.0,0.0,0.0,2025-03-01,2,2025,6,KCHO,0.0,0.0,0.0,0.0,0
2025-02-26,26,2025-02-26 07:53,07:53,EST,Calm,10.0,Fair,CLR,41.0,32.0,70.0,,,29.96,1014.5,0.0,0.0,0.0,2025-03-01,2,2025,7,KCHO,0.0,0.0,0.0,0.0,0
2025-02-26,26,2025-02-26 08:53,08:53,EST,Calm,10.0,Fair,CLR,46.0,33.1,61.0,,,29.98,1015.2,0.0,0.0,0.0,2025-03-01,2,2025,8,KCHO,0.0,0.0,0.0,0.0,0
2025-02-26,26,2025-02-26 09:53,09:53,EST,S  5,10.0,Fair,CLR,55.0,35.1,47.0,,,30.0,1015.5,0.0,0.0,0.0,2025-03-01,2,2025,9,KCHO,0.0,0.0,0.0,0.0,5
2025-02-26,26,2025-02-26 10:53,10:53,EST,S  8,10.0,Fair,CLR,59.0,36.0,42.0,,,29.99,1015.3,0.0,0.0,0.0,2025-03-01,2,2025,10,KCHO,0.0,0.0,0.0,0.0,8
2025-02-26,26,2025-02-26 11:53,11:53,EST,S  7,10.0,Fair,CLR,59.0,35.1,41.0,,,29.99,1015.3,0.0,0.0,0.0,2025-03-01,2,2025,11,KCHO,0.0,0.0,0.0,0.0,7
2025-02-26,26,2025-02-26 12:53,12:53,EST,SE  8,10.0,Fair,CLR,63.0,34.0,34.0,,,29.95,1014.1,0.0,0.0,0.0,2025-03-01,2,2025,12,KCHO,0.0,0.0,0.0,0.0,8
2025-02-26,26,2025-02-26 13:53,13:53,EST,Vrbl  6,10.0,Fair,CLR,64.9,30.9,28.0,,,29.93,1013.4,0.0,0.0,0.0,2025-03-01,2,2025,13,KCHO,0.0,0.0,0.0,0.0,6
2025-02-26,26,2025-02-26 14:53,14:53,EST,S  9  G 16,10.0,Fair,CLR,66.9,32.0,27.0,,,29.91,1012.7,0.0,0.0,0.0,2025-03-01,2,2025,14,KCHO,0.0,0.0,0.0,0.0,9
2025-02-26,26,2025-02-26 15:53,15:53,EST,S  10,10.0,Fair,CLR,68.0,30.0,24.0,,,29.91,1012.6,0.0,0.0,0.0,2025-03-01,2,2025,15,KCHO,0.0,0.0,0.0,0.0,10
2025-02-26,26,2025-02-26 16:53,16:53,EST,S  13  G 21,10.0,Fair,CLR,66.9,28.9,24.0,,,29.89,1011.8,0.0,0.0,0.0,2025-03-01,2,2025,16,KCHO,0.0,0.0,0.0,0.0,13
2025-02-26,26,2025-02-26 17:53,17:53,EST,S  14,10.0,Fair,CLR,63.0,32.0,31.0,,,29.9,1012.3,0.0,0.0,0.0,2025-03-01,2,2025,17,KCHO,0.0,0.0,0.0,0.0,14
2025-02-26,26,2025-02-26 18:53,18:53,EST,S  9,10.0,Fair,CLR,57.0,30.9,37.0,,,29.9,1012.6,0.0,0.0,0.0,2025-03-01,2,2025,18,KCHO,0.0,0.0,0.0,0.0,9
2025-02-26,26,2025-02-26 20:53,20:53,EST,S  6,10.0,Fair,CLR,55.0,33.1,44.0,,,29.91,1012.6,0.0,0.0,0.0,2025-03-01,2,2025,20,KCHO,0.0,0.0,0.0,0.0,6
2025-02-26,26,2025-02-26 21:53,21:53,EST,S  6,10.0,Fair,CLR,55.0,33.1,44.0,,,29.91,1012.5,0.0,0.0,0.0,2025-03-01,2,2025,21,KCHO,0.0,0.0,0.0,0.0,6
2025-02-26,26,2025-02-26 22:53,22:53,EST,S  5,10.0,Fair,CLR,57.0,34.0,42.0,,,29.9,1012.0,0.0,0.0,0.0,2025-03-01,2,2025,22,KCHO,0.0,0.0,0.0,0.0,5
2025-02-26,26,2025-02-26 23:53,23:53,EST,S  8,10.0,Fair,CLR,51.1,33.1,50.0,,,29.88,1011.4,0.0,0.0,0.0,2025-03-01,2,2025,23,KCHO,0.0,0.0,0.0,0.0,8
2025-02-27,27,2025-02-27 00:53,00:53,EST,SW  5,10.0,Fair,CLR,53.1,32.0,45.0,,,29.86,1010.8,0.0,0.0,0.0,2025-03-02,2,2025,0,KCHO,0.0,0.0,0.0,0.0,5
2025-02-27,27,2025-02-27 01:53,01:53,EST,S  8,10.0,Fair,CLR,50.0,32.0,50.0,47.0,,29.83,1009.8,0.0,0.0,0.0,2025-03-02,2,2025,1,KCHO,0.0,0.0,0.0,0.0,8
2025-02-27,27,2025-02-27 02:53,02:53,EST,S  12,10.0,Fair,CLR,53.1,32.0,45.0,,,29.8,1008.7,0.0,0.0,0.0,2025-03-02,2,2025,2,KCHO,0.0,0.0,0.0,0.0,12
2025-02-27,27,2025-02-27 03:53,03:53,EST,S  14,10.0,Fair,CLR,54.0,32.0,43.0,,,29.78,1008.1,0.0,0.0,0.0,2025-03-02,2,2025,3,KCHO,0.0,0.0,0.0,0.0,14
2025-02-27,27,2025-02-27 04:53,04:53,EST,S  14,10.0,Fair,CLR,54.0,33.1,45.0,,,29.76,1007.4,0.0,0.0,0.0,2025-03-02,2,2025,4,KCHO,0.0,0.0,0.0,0.0,14
2025-02-27,27,2025-02-27 05:53,05:53,EST,S  9,10.0,A Few Clouds,FEW120,52.0,33.1,49.0,,,29.76,1007.4,0.0,0.0,0.0,2025-03-02,2,2025,5,KCHO,0.0,0.0,0.0,0.0,9
2025-02-27,27,2025-02-27 06:53,06:53,EST,S  10,10.0,Overcast,FEW075 OVC110,54.0,33.1,45.0,,,29.76,1007.4,0.0,0.0,0.0,2025-03-02,2,2025,6,KCHO,0.0,0.0,0.0,0.0,10
2025-02-27,27,2025-02-27 07:53,07:53,EST,S  7,10.0,A Few Clouds,FEW110,54.0,33.1,45.0,,,29.76,1007.5,0.0,0.0,0.0,2025-03-02,2,2025,7,KCHO,0.0,0.0,0.0,0.0,7
2025-02-27,27,2025-02-27 08:53,08:53,EST,S  5,10.0,Overcast,SCT090 OVC110,54.0,35.1,49.0,,,29.75,1007.2,0.0,0.0,0.0,2025-03-02,2,2025,8,KCHO,0.0,0.0,0.0,0.0,5
2025-02-27,27,2025-02-27 09:53,09:53,EST,S  6,10.0,Mostly Cloudy,BKN110,55.9,35.1,46.0,,,29.75,1007.0,0.0,0.0,0.0,2025-03-02,2,2025,9,KCHO,0.0,0.0,0.0,0.0,6
2025-02-27,27,2025-02-27 10:53,10:53,EST,S  12,10.0,Mostly Cloudy,BKN120,57.9,35.1,42.0,,,29.73,1006.2,0.0,0.0,0.0,2025-03-02,2,2025,10,KCHO,0.0,0.0,0.0,0.0,12
2025-02-27,27,2025-02-27 11:53,11:53,EST,SW  9  G 17,10.0,Partly Cloudy,SCT120,64.0,39.9,41.0,,,29.71,1005.7,0.0,0.0,0.0,2025-03-02,2,2025,11,KCHO,0.0,0.0,0.0,0.0,9
2025-02-27,27,2025-02-27 12:53,12:53,EST,Calm,10.0,A Few Clouds,FEW060 FEW090,64.9,41.0,42.0,,,29.69,1005.0,0.0,0.0,0.0,2025-03-02,2,2025,12,KCHO,0.0,0.0,0.0,0.0,0
2025-02-27,27,2025-02-27 13:53,13:53,EST,Vrbl  6,10.0,Mostly Cloudy,BKN065 BKN080,64.0,39.9,41.0,,,29.66,1004.2,0.0,0.0,0.0,2025-03-02,2,2025,13,KCHO,0.0,0.0,0.0,0.0,6
2025-02-27,27,2025-02-27 14:53,14:53,EST,SW  9  G 24,10.0,A Few Clouds,FEW100,63.0,39.9,43.0,,,29.65,1003.7,0.0,0.0,0.0,2025-03-02,2,2025,14,KCHO,0.0,0.0,0.0,0.0,9
2025-02-27,27,2025-02-27 15:53,15:53,EST,Vrbl  7,10.0,Fair,CLR,64.9,39.9,40.0,,,29.64,1003.4,0.0,0.0,0.0,2025-03-02,2,2025,15,KCHO,0.0,0.0,0.0,0.0,7
2025-02-27,27,2025-02-27 16:53,16:53,EST,SW  8,10.0,Mostly Cloudy,BKN080,64.0,34.0,33.0,,,29.66,1003.9,0.0,0.0,0.0,2025-03-02,2,2025,16,KCHO,0.0,0.0,0.0,0.0,8
2025-02-27,27,2025-02-27 17:53,17:53,EST,NW  12  G 20,10.0,A Few Clouds,FEW085,60.1,30.0,32.0,,,29.69,1005.0,0.0,0.0,0.0,2025-03-02,2,2025,17,KCHO,0.0,0.0,0.0,0.0,12
2025-02-27,27,2025-02-27 18:53,18:53,EST,NW  8  G 21,10.0,Fair,CLR,55.9,28.0,34.0,,,29.73,1006.4,0.0,0.0,0.0,2025-03-02,2,2025,18,KCHO,0.0,0.0,0.0,0.0,8
2025-02-27,27,2025-02-27 19:53,19:53,EST,Vrbl  7,10.0,Fair,CLR,54.0,26.1,34.0,,,29.74,1006.9,0.0,0.0,0.0,2025-03-02,2,2025,19,KCHO,0.0,0.0,0.0,0.0,7
2025-02-27,27,2025-02-27 20:53,20:53,EST,NW  6,10.0,Fair,CLR,52.0,27.0,38.0,,,29.76,1007.4,0.0,0.0,0.0,2025-03-02,2,2025,20,KCHO,0.0,0.0,0.0,0.0,6
2025-02-27,27,2025-02-27 21:53,21:53,EST,Vrbl  3,10.0,Mostly Cloudy,BKN085,52.0,26.1,37.0,,,29.76,1007.5,0.0,0.0,0.0,2025-03-02,2,2025,21,KCHO,0.0,0.0,0.0,0.0,3
2025-02-27,27,2025-02-27 22:53,22:53,EST,W  9  G 23,10.0,A Few Clouds,FEW075,50.0,30.0,46.0,47.0,,29.77,1008.0,0.0,0.0,0.0,2025-03-02,2,2025,22,KCHO,0.0,0.0,0.0,0.0,9
2025-02-27,27,2025-02-27 23:53,23:53,EST,Vrbl  3,10.0,Fair,CLR,48.0,30.9,52.0,,,29.77,1007.7,0.0,0.0,0.0,2025-03-02,2,2025,23,KCHO,0.0,0.0,0.0,0.0,3
2025-02-28,28,2025-02-28 00:53,00:53,EST,NW  8,10.0,A Few Clouds,FEW055,48.0,30.0,50.0,45.0,,29.77,1007.9,0.0,0.0,0.0,2025-03-03,2,2025,0,KCHO,0.0,0.0,0.0,0.0,8
2025-02-28,28,2025-02-28 01:53,01:53,EST,Calm,10.0,Mostly Cloudy,FEW050 BKN070,46.9,28.9,50.0,,,29.79,1008.4,0.0,0.0,0.0,2025-03-03,2,2025,1,KCHO,0.0,0.0,0.0,0.0,0
2025-02-28,28,2025-02-28 02:53,02:53,EST,W  14  G 29,10.0,Fair,CLR,46.0,26.1,46.0,40.0,,29.79,1008.6,0.0,0.0,0.0,2025-03-03,2,2025,2,KCHO,0.0,0.0,0.0,0.0,14
2025-02-28,28,2025-02-28 03:53,03:53,EST,NW  8,10.0,Partly Cloudy,FEW060 SCT080,45.0,25.0,46.0,41.0,,29.8,1008.8,0.0,0.0,0.0,2025-03-03,2,2025,3,KCHO,0.0,0.0,0.0,0.0,8
2025-02-28,28,2025-02-28 04:53,04:53,EST,NW  8  G 22,10.0,Overcast,OVC065,45.0,23.0,42.0,41.0,,29.82,1009.5,0.0,0.0,0.0,2025-03-03,2,2025,4,KCHO,0.0,0.0,0.0,0.0,8
2025-02-28,28,2025-02-28 05:53,05:53,EST,NW  9  G 20,10.0,Partly Cloudy,SCT060,44.1,19.9,38.0,40.0,,29.84,1010.4,0.0,0.0,0.0,2025-03-03,2,2025,5,KCHO,0.0,0.0,0.0,0.0,9
2025-02-28,28,2025-02-28 06:53,06:53,EST,W  9  G 23,10.0,Partly Cloudy,SCT055,42.1,21.0,43.0,37.0,,29.87,1011.3,0.0,0.0,0.0,2025-03-03,2,2025,6,KCHO,0.0,0.0,0.0,0.0,9
2025-02-28,28,2025-02-28 07:53,07:53,EST,NW  10,10.0,Fair,CLR,43.0,19.9,40.0,38.0,,29.89,1012.0,0.0,0.0,0.0,2025-03-03,2,2025,7,KCHO,0.0,0.0,0.0,0.0,10
2025-02-28,28,2025-02-28 08:53,08:53,EST,Vrbl  5,10.0,Partly Cloudy,SCT055,45.0,21.0,39.0,43.0,,29.92,1013.0,0.0,0.0,0.0,2025-03-03,2,2025,8,KCHO,0.0,0.0,0.0,0.0,5
2025-02-28,28,2025-02-28 09:53,09:53,EST,NW  6,10.0,Fair,CLR,46.9,21.0,36.0,45.0,,29.92,1012.9,0.0,0.0,0.0,2025-03-03,2,2025,9,KCHO,0.0,0.0,0.0,0.0,6
2025-02-28,28,2025-02-28 10:53,10:53,EST,SW  5,10.0,Fair,CLR,48.9,21.9,35.0,48.0,,29.92,1012.9,0.0,0.0,0.0,2025-03-03,2,2025,10,KCHO,0.0,0.0,0.0,0.0,5
2025-02-28,28,2025-02-28 11:53,11:53,EST,SW  9,10.0,Fair,CLR,51.1,21.0,31.0,,,29.88,1011.8,0.0,0.0,0.0,2025-03-03,2,2025,11,KCHO,0.0,0.0,0.0,0.0,9
2025-02-28,28,2025-02-28 12:53,12:53,EST,SW  10,10.0,Fair,CLR,52.0,19.9,28.0,,,29.85,1010.7,0.0,0.0,0.0,2025-03-03,2,2025,12,KCHO,0.0,0.0,0.0,0.0,10
2025-02-28,28,2025-02-28 13:53,13:53,EST,SW  6,10.0,Fair,CLR,54.0,19.9,26.0,,,29.81,1009.3,0.0,0.0,0.0,2025-03-03,2,2025,13,KCHO,0.0,0.0,0.0,0.0,6
2025-02-28,28,2025-02-28 14:53,14:53,EST,S  8,10.0,Fair,CLR,55.9,19.0,24.0,,,29.78,1008.3,0.0,0.0,0.0,2025-03-03,2,2025,14,KCHO,0.0,0.0,0.0,0.0,8
2025-02-28,28,2025-02-28 15:53,15:53,EST,S  9,10.0,Fair,CLR,55.9,19.0,24.0,,,29.76,1007.5,0.0,0.0,0.0,2025-03-03,2,2025,15,KCHO,0.0,0.0,0.0,0.0,9
2025-02-28,28,2025-02-28 16:53,16:53,EST,S  10  G 20,10.0,Fair,CLR,55.0,19.0,24.0,,,29.74,1006.8,0.0,0.0,0.0,2025-03-03,2,2025,16,KCHO,0.0,0.0,0.0,0.0,10
2025-02-28,28,2025-02-28 17:53,17:53,EST,S  12,10.0,Fair,CLR,53.1,18.0,25.0,,,29.73,1006.8,0.0,0.0,0.0,2025-03-03,2,2025,17,KCHO,0.0,0.0,0.0,0.0,12
2025-02-28,28,2025-02-28 18:53,18:53,EST,S  12,10.0,Fair,CLR,50.0,19.0,29.0,46.0,,29.73,1006.8,0.0,0.0,0.0,2025-03-03,2,2025,18,KCHO,0.0,0.0,0.0,0.0,12
2025-02-28,28,2025-02-28 19:53,19:53,EST,S  10,10.0,Fair,CLR,48.0,19.0,32.0,44.0,,29.72,1006.4,0.0,0.0,0.0,2025-03-03,2,2025,19,KCHO,0.0,0.0,0.0,0.0,10
2025-02-28,28,2025-02-28 20:53,20:53,EST,SW  9,10.0,Fair,CLR,46.9,19.0,33.0,43.0,,29.71,1006.2,0.0,0.0,0.0,2025-03-03,2,2025,20,KCHO,0.0,0.0,0.0,0.0,9
2025-02-28,28,2025-02-28 21:53,21:53,EST,S  14,10.0,Fair,CLR,48.0,21.9,36.0,43.0,,29.69,1005.5,0.0,0.0,0.0,2025-03-03,2,2025,21,KCHO,0.0,0.0,0.0,0.0,14
2025-02-28,28,2025-02-28 22:53,22:53,EST,SW  3,10.0,Fair,CLR,46.9,21.9,37.0,,,29.69,1005.4,0.0,0.0,0.0,2025-03-03,2,2025,22,KCHO,0.0,0.0,0.0,0.0,3
2025-02-28,28,2025-02-28 23:53,23:53,EST,S  8,10.0,Fair,CLR,42.1,24.1,49.0,38.0,,29.66,1004.4,0.0,0.0,0.0,2025-03-03,2,2025,23,KCHO,0.0,0.0,0.0,0.0,8
2025-03-01,1,2025-03-01 00:53,00:53,EST,S  7,10.0,Fair,CLR,42.1,23.0,47.0,38.0,,29.65,1003.9,0.0,0.0,0.0,2025-03-04,3,2025,0,KCHO,0.0,0.0,0.0,0.0,7
2025-03-01,1,2025-03-01 01:53,01:53,EST,S  12,10.0,Fair,CLR,42.1,24.1,49.0,36.0,,29.62,1003.0,0.0,0.0,0.0,2025-03-04,3,2025,1,KCHO,0.0,0.0,0.0,0.0,12
2025-03-01,1,2025-03-01 02:53,02:53,EST,S  10,10.0,Fair,CLR,44.1,24.1,45.0,39.0,,29.6,1002.2,0.0,0.0,0.0,2025-03-04,3,2025,2,KCHO,0.0,0.0,0.0,0.0,10
2025-03-01,1,2025-03-01 03:53,03:53,EST,S  10,10.0,Fair,CLR,44.1,24.1,45.0,39.0,,29.59,1001.7,0.0,0.0,0.0,2025-03-04,3,2025,3,KCHO,0.0,0.0,0.0,0.0,10
2025-03-01,1,2025-03-01 04:53,04:53,EST,S  10,10.0,Fair,CLR,45.0,24.1,44.0,40.0,,29.58,1001.4,0.0,0.0,0.0,2025-03-04,3,2025,4,KCHO,0.0,0.0,0.0,0.0,10
2025-03-01,1,2025-03-01 05:53,05:53,EST,S  12,10.0,Fair,CLR,44.1,24.1,45.0,39.0,,29.58,1001.5,0.0,0.0,0.0,2025-03-04,3,2025,5,KCHO,0.0,0.0,0.0,0.0,12
2025-03-01,1,2025-03-01 06:53,06:53,EST,S  12,10.0,Fair,CLR,44.1,24.1,45.0,39.0,,29.58,1001.4,0.0,0.0,0.0,2025-03-04,3,2025,6,KCHO,0.0,0.0,0.0,0.0,12
2025-03-01,1,2025-03-01 07:53,07:53,EST,S  12,10.0,Fair,CLR,46.9,25.0,42.0,42.0,,29.58,1001.7,0.0,0.0,0.0,2025-03-04,3,2025,7,KCHO,0.0,0.0,0.0,0.0,12
2025-03-01,1,2025-03-01 08:53,08:53,EST,S  12,10.0,Fair,CLR,54.0,27.0,35.0,,,29.59,1001.7,0.0,0.0,0.0,2025-03-04,3,2025,8,KCHO,0.0,0.0,0.0,0.0,12
2025-03-01,1,2025-03-01 09:53,09:53,EST,W  12  G 25,10.0,Fair,CLR,63.0,28.0,27.0,,,29.58,1001.3,0.0,0.0,0.0,2025-03-04,3,2025,9,KCHO,0.0,0.0,0.0,0.0,12
2025-03-01,1,2025-03-01 10:53,10:53,EST,Vrbl  7  G 23,10.0,Fair,CLR,63.0,27.0,26.0,,,29.57,1001.0,0.0,0.0,0.0,2025-03-04,3,2025,10,KCHO,0.0,0.0,0.0,0.0,7
2025-03-01,1,2025-03-01 11:53,11:53,EST,W  9  G 26,10.0,Fair,CLR,62.1,21.9,21.0,,,29.58,1001.5,0.0,0.0,0.0,2025-03-04,3,2025,11,KCHO,0.0,0.0,0.0,0.0,9
2025-03-01,1,2025-03-01 12:53,12:53,EST,Vrbl  5  G 22,10.0,Fair,CLR,62.1,21.0,21.0,,,29.58,1001.4,0.0,0.0,0.0,2025-03-04,3,2025,12,KCHO,0.0,0.0,0.0,0.0,5
2025-03-01,1,2025-03-01 13:53,13:53,EST,W  12  G 28,10.0,Fair,CLR,62.1,19.0,19.0,,,29.59,1001.7,0.0,0.0,0.0,2025-03-04,3,2025,13,KCHO,0.0,0.0,0.0,0.0,12
2025-03-01,1,2025-03-01 14:53,14:53,EST,NW  10  G 30,10.0,Mostly Cloudy,BKN100,60.1,18.0,19.0,,,29.61,1002.4,0.0,0.0,0.0,2025-03-04,3,2025,14,KCHO,0.0,0.0,0.0,0.0,10
2025-03-01,1,2025-03-01 15:53,15:53,EST,W  14  G 33,10.0,Fair,CLR,57.9,16.0,19.0,,,29.63,1003.1,0.0,0.0,0.0,2025-03-04,3,2025,15,KCHO,0.0,0.0,0.0,0.0,14
2025-03-01,1,2025-03-01 16:53,16:53,EST,NW  14  G 24,10.0,Fair,CLR,54.0,17.1,23.0,,,29.68,1004.8,0.0,0.0,0.0,2025-03-04,3,2025,16,KCHO,0.0,0.0,0.0,0.0,14
2025-03-01,1,2025-03-01 17:53,17:53,EST,NW  12  G 26,10.0,Mostly Cloudy,BKN100,48.9,19.0,31.0,45.0,,29.73,1006.8,0.0,0.0,0.0,2025-03-04,3,2025,17,KCHO,0.0,0.0,0.0,0.0,12
2025-03-01,1,2025-03-01 18:53,18:53,EST,NW  14  G 37,10.0,Partly Cloudy,SCT100,44.1,19.0,37.0,38.0,,29.79,1008.9,0.0,0.0,0.0,2025-03-04,3,2025,18,KCHO,0.0,0.0,0.0,0.0,14
2025-03-01,1,2025-03-01 19:53,19:53,EST,NW  10  G 25,10.0,Fair,CLR,41.0,19.0,41.0,35.0,,29.83,1010.2,0.0,0.0,0.0,2025-03-04,3,2025,19,KCHO,0.0,0.0,0.0,0.0,10
2025-03-01,1,2025-03-01 20:53,20:53,EST,N  12  G 23,10.0,A Few Clouds,FEW050,37.0,21.0,52.0,30.0,,29.87,1011.4,0.0,0.0,0.0,2025-03-04,3,2025,20,KCHO,0.0,0.0,0.0,0.0,12
2025-03-01,1,2025-03-01 21:53,21:53,EST,N  10  G 28,10.0,Fair,CLR,36.0,15.1,42.0,29.0,,29.9,1012.5,0.0,0.0,0.0,2025-03-04,3,2025,21,KCHO,0.0,0.0,0.0,0.0,10
2025-03-01,1,2025-03-01 22:53,22:53,EST,NW  14  G 24,10.0,Mostly Cloudy,FEW049 BKN060,34.0,14.0,44.0,25.0,,29.94,1013.8,0.0,0.0,0.0,2025-03-04,3,2025,22,KCHO,0.0,0.0,0.0,0.0,14
2025-03-01,1,2025-03-01 23:53,23:53,EST,NW  9,10.0,Fair,CLR,33.1,10.0,38.0,26.0,,29.97,1014.9,0.0,0.0,0.0,2025-03-04,3,2025,23,KCHO,0.0,0.0,0.0,0.0,9
2025-03-02,2,2025-03-02 00:53,00:53,EST,Vrbl  7,10.0,Fair,CLR,30.9,8.1,38.0,25.0,,30.01,1016.1,0.0,0.0,0.0,2025-03-05,3,2025,0,KCHO,0.0,0.0,0.0,0.0,7
2025-03-02,2,2025-03-02 01:53,01:53,EST,N  7,10.0,Fair,CLR,28.9,9.0,43.0,23.0,,30.03,1017.0,0.0,0.0,0.0,2025-03-05,3,2025,1,KCHO,0.0,0.0,0.0,0.0,7
2025-03-02,2,2025-03-02 02:53,02:53,EST,N  8  G 21,10.0,Fair,CLR,28.0,8.1,43.0,21.0,,30.06,1018.0,0.0,0.0,0.0,2025-03-05,3,2025,2,KCHO,0.0,0.0,0.0,0.0,8
2025-03-02,2,2025-03-02 03:53,03:53,EST,N  6  G 22,10.0,Fair,CLR,26.1,6.1,42.0,20.0,,30.09,1019.2,0.0,0.0,0.0,2025-03-05,3,2025,3,KCHO,0.0,0.0,0.0,0.0,6
2025-03-02,2,2025-03-02 04:53,04:53,EST,N  10  G 17,10.0,Fair,CLR,25.0,5.0,42.0,16.0,,30.12,1020.1,0.0,0.0,0.0,2025-03-05,3,2025,4,KCHO,0.0,0.0,0.0,0.0,10
2025-03-02,2,2025-03-02 05:53,05:53,EST,N  5,10.0,Fair,CLR,24.1,3.9,42.0,19.0,,30.15,1021.1,0.0,0.0,0.0,2025-03-05,3,2025,5,KCHO,0.0,0.0,0.0,0.0,5
2025-03-02,2,2025-03-02 06:53,06:53,EST,NW  5,10.0,Fair,CLR,23.0,3.0,42.0,18.0,,30.16,1021.7,0.0,0.0,0.0,2025-03-05,3,2025,6,KCHO,0.0,0.0,0.0,0.0,5
2025-03-02,2,2025-03-02 07:53,07:53,EST,NW  6,10.0,Fair,CLR,25.0,3.9,40.0,19.0,,30.19,1022.7,0.0,0.0,0.0,2025-03-05,3,2025,7,KCHO,0.0,0.0,0.0,0.0,6
2025-03-02,2,2025-03-02 08:53,08:53,EST,NW  9,10.0,Fair,CLR,27.0,3.9,37.0,19.0,,30.2,1023.1,0.0,0.0,0.0,2025-03-05,3,2025,8,KCHO,0.0,0.0,0.0,0.0,9
2025-03-02,2,2025-03-02 09:53,09:53,EST,N  8,10.0,Fair,CLR,30.0,3.9,33.0,23.0,,30.21,1023.3,0.0,0.0,0.0,2025-03-05,3,2025,9,KCHO,0.0,0.0,0.0,0.0,8
2025-03-02,2,2025-03-02 10:53,10:53,EST,Vrbl  5,10.0,Fair,CLR,33.1,3.9,29.0,29.0,,30.2,1023.0,0.0,0.0,0.0,2025-03-05,3,2025,10,KCHO,0.0,0.0,0.0,0.0,5
2025-03-02,2,2025-03-02 11:53,11:53,EST,Vrbl  6,10.0,Fair,CLR,35.1,3.0,26.0,31.0,,30.2,1023.0,0.0,0.0,0.0,2025-03-05,3,2025,11,KCHO,0.0,0.0,0.0,0.0,6
2025-03-02,2,2025-03-02 12:53,12:53,EST,Vrbl  3,10.0,Fair,CLR,36.0,3.9,26.0,,,30.17,1021.9,0.0,0.0,0.0,2025-03-05,3,2025,12,KCHO,0.0,0.0,0.0,0.0,3
2025-03-02,2,2025-03-02 13:53,13:53,EST,Vrbl  6,10.0,Fair,CLR,39.0,5.0,24.0,35.0,,30.14,1020.9,0.0,0.0,0.0,2025-03-05,3,2025,13,KCHO,0.0,0.0,0.0,0.0,6
2025-03-02,2,2025-03-02 14:53,14:53,EST,Calm,10.0,Fair,CLR,42.1,5.0,21.0,,,30.12,1020.2,0.0,0.0,0.0,2025-03-05,3,2025,14,KCHO,0.0,0.0,0.0,0.0,0
2025-03-02,2,2025-03-02 15:53,15:53,EST,Vrbl  5,10.0,Fair,CLR,42.1,3.9,20.0,40.0,,30.11,1019.9,0.0,0.0,0.0,2025-03-05,3,2025,15,KCHO,0.0,0.0,0.0,0.0,5
2025-03-02,2,2025-03-02 16:53,16:53,EST,Vrbl  3,10.0,Fair,CLR,43.0,3.9,20.0,,,30.1,1019.7,0.0,0.0,0.0,2025-03-05,3,2025,16,KCHO,0.0,0.0,0.0,0.0,3
2025-03-02,2,2025-03-02 17:53,17:53,EST,E  6,10.0,Fair,CLR,39.9,5.0,23.0,36.0,,30.1,1019.7,0.0,0.0,0.0,2025-03-05,3,2025,17,KCHO,0.0,0.0,0.0,0.0,6
2025-03-02,2,2025-03-02 18:53,18:53,EST,SE  3,10.0,Fair,CLR,37.9,5.0,25.0,,,30.12,1020.3,0.0,0.0,0.0,2025-03-05,3,2025,18,KCHO,0.0,0.0,0.0,0.0,3
2025-03-02,2,2025-03-02 19:53,19:53,EST,N  3,10.0,Fair,CLR,34.0,5.0,29.0,,,30.14,1021.1,0.0,0.0,0.0,2025-03-05,3,2025,19,KCHO,0.0,0.0,0.0,0.0,3
2025-03-02,2,2025-03-02 20:53,20:53,EST,N  3,10.0,Fair,CLR,32.0,6.1,33.0,,,30.16,1021.8,0.0,0.0,0.0,2025-03-05,3,2025,20,KCHO,0.0,0.0,0.0,0.0,3
2025-03-02,2,2025-03-02 21:53,21:53,EST,N  5,10.0,Fair,CLR,30.0,7.0,38.0,26.0,,30.19,1022.9,0.0,0.0,0.0,2025-03-05,3,2025,21,KCHO,0.0,0.0,0.0,0.0,5
2025-03-02,2,2025-03-02 22:53,22:53,EST,N  6,10.0,Fair,CLR,28.0,7.0,41.0,22.0,,30.21,1023.4,0.0,0.0,0.0,2025-03-05,3,2025,22,KCHO,0.0,0.0,0.0,0.0,6
2025-03-02,2,2025-03-02 23:53,23:53,EST,NE  3,10.0,Fair,CLR,28.9,6.1,38.0,,,30.21,1023.3,0.0,0.0,0.0,2025-03-06,3,2025,23,KCHO,0.0,0.0,0.0,0.0,3
2025-03-03,3,2025-03-03 00:53,00:53,EST,N  3,10.0,Fair,CLR,28.0,6.1,39.0,,,30.22,1023.6,0.0,0.0,0.0,2025-03-06,3,2025,0,KCHO,0.0,0.0,0.0,0.0,3
2025-03-03,3,2025-03-03 01:53,01:53,EST,Calm,10.0,Fair,CLR,27.0,6.1,41.0,,,30.22,1023.7,0.0,0.0,0.0,2025-03-06,3,2025,1,KCHO,0.0,0.0,0.0,0.0,0
2025-03-03,3,2025-03-03 02:53,02:53,EST,N  5,10.0,Fair,CLR,25.0,8.1,48.0,20.0,,30.23,1024.0,0.0,0.0,0.0,2025-03-06,3,2025,2,KCHO,0.0,0.0,0.0,0.0,5
2025-03-03,3,2025-03-03 03:53,03:53,EST,N  3,10.0,Fair,CLR,21.0,9.0,59.0,,,30.23,1024.0,0.0,0.0,0.0,2025-03-06,3,2025,3,KCHO,0.0,0.0,0.0,0.0,3
2025-03-03,3,2025-03-03 04:53,04:53,EST,N  3,10.0,Fair,CLR,23.0,8.1,53.0,,,30.24,1024.5,0.0,0.0,0.0,2025-03-06,3,2025,4,KCHO,0.0,0.0,0.0,0.0,3
2025-03-03,3,2025-03-03 05:53,05:53,EST,NE  5,10.0,Fair,CLR,21.9,9.0,57.0,16.0,,30.25,1024.8,0.0,0.0,0.0,2025-03-06,3,2025,5,KCHO,0.0,0.0,0.0,0.0,5
2025-03-03,3,2025-03-03 06:53,06:53,EST,Calm,10.0,Fair,CLR,21.9,9.0,57.0,,,30.27,1025.6,0.0,0.0,0.0,2025-03-06,3,2025,6,KCHO,0.0,0.0,0.0,0.0,0
2025-03-03,3,2025-03-03 07:53,07:53,EST,NE  5,10.0,Fair,CLR,26.1,10.9,53.0,21.0,,30.29,1026.1,0.0,0.0,0.0,2025-03-06,3,2025,7,KCHO,0.0,0.0,0.0,0.0,5
2025-03-03,3,2025-03-03 08:53,08:53,EST,NE  6,10.0,Fair,CLR,30.0,10.9,45.0,25.0,,30.31,1026.9,0.0,0.0,0.0,2025-03-06,3,2025,8,KCHO,0.0,0.0,0.0,0.0,6
2025-03-03,3,2025-03-03 09:53,09:53,EST,Calm,10.0,Fair,CLR,33.1,12.0,42.0,,,30.31,1026.9,0.0,0.0,0.0,2025-03-06,3,2025,9,KCHO,0.0,0.0,0.0,0.0,0
2025-03-03,3,2025-03-03 10:53,10:53,EST,Vrbl  7,10.0,Fair,CLR,37.0,12.0,36.0,32.0,,30.31,1026.7,0.0,0.0,0.0,2025-03-06,3,2025,10,KCHO,0.0,0.0,0.0,0.0,7
2025-03-03,3,2025-03-03 11:53,11:53,EST,S  3,10.0,Fair,CLR,37.9,10.0,31.0,,,30.29,1026.1,0.0,0.0,0.0,2025-03-06,3,2025,11,KCHO,0.0,0.0,0.0,0.0,3
2025-03-03,3,2025-03-03 12:53,12:53,EST,S  9,10.0,Fair,CLR,42.1,10.9,28.0,37.0,,30.25,1024.9,0.0,0.0,0.0,2025-03-06,3,2025,12,KCHO,0.0,0.0,0.0,0.0,9
2025-03-03,3,2025-03-03 13:53,13:53,EST,S  9,10.0,Fair,CLR,44.1,10.9,26.0,40.0,,30.23,1024.1,0.0,0.0,0.0,2025-03-06,3,2025,13,KCHO,0.0,0.0,0.0,0.0,9
2025-03-03,3,2025-03-03 14:53,14:53,EST,S  5,10.0,Fair,CLR,45.0,9.0,23.0,43.0,,30.21,1023.5,0.0,0.0,0.0,2025-03-06,3,2025,14,KCHO,0.0,0.0,0.0,0.0,5
2025-03-03,3,2025-03-03 15:53,15:53,EST,S  8,10.0,Fair,CLR,46.9,10.0,22.0,44.0,,30.2,1023.0,0.0,0.0,0.0,2025-03-06,3,2025,15,KCHO,0.0,0.0,0.0,0.0,8
2025-03-03,3,2025-03-03 16:53,16:53,EST,S  10,10.0,Fair,CLR,46.9,10.9,23.0,43.0,,30.2,1023.0,0.0,0.0,0.0,2025-03-06,3,2025,16,KCHO,0.0,0.0,0.0,0.0,10
2025-03-03,3,2025-03-03 17:53,17:53,EST,S  8,10.0,Fair,CLR,44.1,12.0,27.0,40.0,,30.2,1023.0,0.0,0.0,0.0,2025-03-06,3,2025,17,KCHO,0.0,0.0,0.0,0.0,8
2025-03-03,3,2025-03-03 18:53,18:53,EST,S  5,10.0,Fair,CLR,41.0,10.9,29.0,38.0,,30.21,1023.4,0.0,0.0,0.0,2025-03-06,3,2025,18,KCHO,0.0,0.0,0.0,0.0,5
2025-03-03,3,2025-03-03 19:53,19:53,EST,S  6,10.0,A Few Clouds,FEW100,39.0,12.0,33.0,35.0,,30.21,1023.5,0.0,0.0,0.0,2025-03-06,3,2025,19,KCHO,0.0,0.0,0.0,0.0,6
2025-03-03,3,2025-03-03 20:53,20:53,EST,Calm,10.0,Fair,CLR,37.0,12.9,37.0,,,30.22,1023.8,0.0,0.0,0.0,2025-03-06,3,2025,20,KCHO,0.0,0.0,0.0,0.0,0
2025-03-03,3,2025-03-03 21:53,21:53,EST,Calm,10.0,Fair,CLR,33.1,15.1,48.0,,,30.22,1023.7,0.0,0.0,0.0,2025-03-06,3,2025,21,KCHO,0.0,0.0,0.0,0.0,0
2025-03-03,3,2025-03-03 22:53,22:53,EST,SW  3,10.0,Fair,CLR,37.0,14.0,39.0,,,30.21,1023.3,0.0,0.0,0.0,2025-03-06,3,2025,22,KCHO,0.0,0.0,0.0,0.0,3
2025-03-03,3,2025-03-03 23:53,23:53,EST,S  5,10.0,Fair,CLR,33.1,14.0,45.0,29.0,,30.2,1023.1,0.0,0.0,0.0,2025-03-06,3,2025,23,KCHO,0.0,0.0,0.0,0.0,5
2025-03-04,4,2025-03-04 00:53,00:53,EST,W  3,10.0,Fair,CLR,30.9,15.1,52.0,,,30.21,1023.3,0.0,0.0,0.0,2025-03-07,3,2025,0,KCHO,0.0,0.0,0.0,0.0,3
2025-03-04,4,2025-03-04 01:53,01:53,EST,Calm,10.0,Mostly Cloudy,BKN075,30.9,15.1,52.0,,,30.2,1022.8,0.0,0.0,0.0,2025-03-07,3,2025,1,KCHO,0.0,0.0,0.0,0.0,0
2025-03-04,4,2025-03-04 02:53,02:53,EST,Calm,10.0,Overcast,OVC075,33.1,15.1,48.0,,,30.19,1022.4,0.0,0.0,0.0,2025-03-07,3,2025,2,KCHO,0.0,0.0,0.0,0.0,0
2025-03-04,4,2025-03-04 03:53,03:53,EST,S  3,10.0,Mostly Cloudy,BKN075,34.0,14.0,44.0,,,30.17,1022.0,0.0,0.0,0.0,2025-03-07,3,2025,3,KCHO,0.0,0.0,0.0,0.0,3
2025-03-04,4,2025-03-04 04:53,04:53,EST,S  7,10.0,Fair,CLR,33.1,16.0,49.0,28.0,,30.18,1022.1,0.0,0.0,0.0,2025-03-07,3,2025,4,KCHO,0.0,0.0,0.0,0.0,7
2025-03-04,4,2025-03-04 05:53,05:53,EST,S  6,10.0,Fair,CLR,32.0,15.1,50.0,27.0,,30.18,1022.2,0.0,0.0,0.0,2025-03-07,3,2025,5,KCHO,0.0,0.0,0.0,0.0,6
2025-03-04,4,2025-03-04 06:53,06:53,EST,SW  5,10.0,Fair,CLR,32.0,16.0,52.0,28.0,,30.19,1022.6,0.0,0.0,0.0,2025-03-07,3,2025,6,KCHO,0.0,0.0,0.0,0.0,5
2025-03-04,4,2025-03-04 07:53,07:53,EST,Calm,10.0,Fair,CLR,34.0,17.1,50.0,,,30.2,1022.9,0.0,0.0,0.0,2025-03-07,3,2025,7,KCHO,0.0,0.0,0.0,0.0,0
2025-03-04,4,2025-03-04 08:53,08:53,EST,SW  5,10.0,Fair,CLR,39.0,18.0,43.0,36.0,,30.2,1022.9,0.0,0.0,0.0,2025-03-07,3,2025,8,KCHO,0.0,0.0,0.0,0.0,5
2025-03-04,4,2025-03-04 09:53,09:53,EST,S  9,10.0,Fair,CLR,44.1,19.0,37.0,40.0,,30.21,1023.2,0.0,0.0,0.0,2025-03-07,3,2025,9,KCHO,0.0,0.0,0.0,0.0,9
2025-03-04,4,2025-03-04 10:53,10:53,EST,S  13,10.0,Fair,CLR,48.0,19.9,33.0,43.0,,30.18,1022.2,0.0,0.0,0.0,2025-03-07,3,2025,10,KCHO,0.0,0.0,0.0,0.0,13
2025-03-04,4,2025-03-04 11:53,11:53,EST,S  15  G 24,10.0,Fair,CLR,57.0,23.0,27.0,,,30.17,1021.7,0.0,0.0,0.0,2025-03-07,3,2025,11,KCHO,0.0,0.0,0.0,0.0,15
2025-03-04,4,2025-03-04 12:53,12:53,EST,SW  12  G 28,10.0,Fair,CLR,57.0,21.0,25.0,,,30.14,1020.9,0.0,0.0,0.0,2025-03-07,3,2025,12,KCHO,0.0,0.0,0.0,0.0,12
2025-03-04,4,2025-03-04 13:53,13:53,EST,S  20  G 30,10.0,Fair,CLR,62.1,25.0,24.0,,,30.1,1019.4,0.0,0.0,0.0,2025-03-07,3,2025,13,KCHO,0.0,0.0,0.0,0.0,20
2025-03-04,4,2025-03-04 14:53,14:53,EST,S  20  G 30,10.0,Fair,CLR,62.1,24.1,23.0,,,30.06,1018.0,0.0,0.0,0.0,2025-03-07,3,2025,14,KCHO,0.0,0.0,0.0,0.0,20
2025-03-04,4,2025-03-04 15:53,15:53,EST,S  18  G 26,10.0,Fair,CLR,62.1,25.0,24.0,,,30.03,1017.0,0.0,0.0,0.0,2025-03-07,3,2025,15,KCHO,0.0,0.0,0.0,0.0,18
2025-03-04,4,2025-03-04 16:53,16:53,EST,S  14  G 24,10.0,Fair,CLR,62.1,25.0,24.0,,,30.03,1016.9,0.0,0.0,0.0,2025-03-07,3,2025,16,KCHO,0.0,0.0,0.0,0.0,14
2025-03-04,4,2025-03-04 17:53,17:53,EST,S  17  G 29,10.0,Fair,CLR,60.1,28.9,31.0,,,30.02,1016.6,0.0,0.0,0.0,2025-03-07,3,2025,17,KCHO,0.0,0.0,0.0,0.0,17
2025-03-04,4,2025-03-04 18:53,18:53,EST,S  12,10.0,Fair,CLR,57.9,33.1,39.0,,,30.0,1016.0,0.0,0.0,0.0,2025-03-07,3,2025,18,KCHO,0.0,0.0,0.0,0.0,12
2025-03-04,4,2025-03-04 19:53,19:53,EST,S  17,10.0,Mostly Cloudy,BKN070,57.0,36.0,45.0,,,29.99,1015.5,0.0,0.0,0.0,2025-03-07,3,2025,19,KCHO,0.0,0.0,0.0,0.0,17
2025-03-04,4,2025-03-04 20:53,20:53,EST,S  13,10.0,Overcast,FEW055 OVC070,55.9,37.9,51.0,,,29.96,1014.6,0.0,0.0,0.0,2025-03-07,3,2025,20,KCHO,0.0,0.0,0.0,0.0,13
2025-03-04,4,2025-03-04 21:53,21:53,EST,S  10,10.0,Mostly Cloudy,BKN060,55.9,39.9,55.0,,,29.95,1014.0,0.0,0.0,0.0,2025-03-07,3,2025,21,KCHO,0.0,0.0,0.0,0.0,10
2025-03-04,4,2025-03-04 22:53,22:53,EST,S  18  G 28,10.0,Overcast,OVC065,57.0,42.1,58.0,,,29.92,1013.2,0.0,0.0,0.0,2025-03-07,3,2025,22,KCHO,0.0,0.0,0.0,0.0,18
2025-03-04,4,2025-03-04 23:53,23:53,EST,S  13,10.0,Overcast,BKN034 OVC050,55.9,43.0,62.0,,,29.9,1012.1,0.0,0.0,0.0,2025-03-07,3,2025,23,KCHO,0.0,0.0,0.0,0.0,13
2025-03-05,5,2025-03-05 00:53,00:53,EST,S  14,10.0,Overcast,OVC032,55.9,44.1,65.0,,,29.87,1011.3,0.0,0.0,0.0,2025-03-08,3,2025,0,KCHO,0.0,0.0,0.0,0.0,14
2025-03-05,5,2025-03-05 01:53,01:53,EST,S  14,10.0,Overcast,BKN026 OVC032,55.9,46.0,70.0,,,29.85,1010.4,0.0,0.0,0.0,2025-03-08,3,2025,1,KCHO,0.0,0.0,0.0,0.0,14
2025-03-05,5,2025-03-05 02:53,02:53,EST,S  10  G 22,10.0,Overcast,OVC020,55.0,48.9,80.0,,,29.82,1009.3,0.0,0.0,0.0,2025-03-08,3,2025,2,KCHO,0.0,0.0,0.0,0.0,10
2025-03-05,5,2025-03-05 03:53,03:53,EST,S  16  G 26,10.0,Mostly Cloudy,SCT022 BKN028 BKN037,55.9,48.0,75.0,,,29.79,1008.4,0.0,0.0,0.0,2025-03-08,3,2025,3,KCHO,0.0,0.0,0.0,0.0,16
2025-03-05,5,2025-03-05 04:53,04:53,EST,S  21  G 31,10.0,Overcast and Breezy,OVC025,57.0,48.9,74.0,,,29.76,1007.3,0.0,0.0,0.0,2025-03-08,3,2025,4,KCHO,0.0,0.0,0.0,0.0,21
2025-03-05,5,2025-03-05 05:53,05:53,EST,S  14  G 28,10.0,Overcast,OVC025,55.9,48.9,77.0,,,29.73,1006.2,0.0,0.0,0.0,2025-03-08,3,2025,5,KCHO,0.0,0.0,0.0,0.0,14
2025-03-05,5,2025-03-05 07:53,07:53,EST,S  18  G 29,10.0,Overcast,OVC018,57.0,51.1,81.0,,,29.64,1003.6,0.0,0.0,0.0,2025-03-08,3,2025,7,KCHO,0.0,0.0,0.0,0.0,18
2025-03-05,5,2025-03-05 08:53,08:53,EST,S  12  G 31,9.0,Light Rain,OVC018,57.9,51.1,78.0,,,29.6,1002.0,0.0,0.0,0.0,2025-03-08,3,2025,8,KCHO,0.0,0.0,0.0,0.0,12
2025-03-05,5,2025-03-05 09:53,09:53,EST,SE  18  G 28,5.0,Light Rain,OVC013,57.0,52.0,83.0,,,29.55,1000.3,0.0,0.0,0.0,2025-03-08,3,2025,9,KCHO,0.0,0.0,0.0,0.0,18
2025-03-05,5,2025-03-05 10:53,10:53,EST,S  15  G 30,5.0,Light Rain Fog/Mist,OVC013,57.0,54.0,90.0,,,29.48,998.1,0.1,0.0,0.0,2025-03-08,3,2025,10,KCHO,0.1,0.1,0.1,0.10000000000000012,15
2025-03-05,5,2025-03-05 11:53,11:53,EST,S  10,2.5,Rain Fog/Mist,BKN008 OVC014,57.0,55.9,96.0,,,29.51,998.9,0.16,0.0,0.0,2025-03-08,3,2025,11,KCHO,0.26,0.26,0.26,0.2600000000000001,10
2025-03-05,5,2025-03-05 12:53,12:53,EST,S  21  G 32,10.0,Light Rain and Breezy,BKN010 OVC090,57.0,54.0,90.0,,,29.38,994.5,0.1,0.0,0.36,2025-03-08,3,2025,12,KCHO,0.36,0.36,0.36,0.3600000000000001,21
2025-03-05,5,2025-03-05 13:53,13:53,EST,S  10  G 21,10.0,Overcast,BKN014 OVC020,57.0,54.0,90.0,,,29.36,993.9,0.0,0.0,0.0,2025-03-08,3,2025,13,KCHO,0.26,0.36,0.36,0.3600000000000001,10
2025-03-05,5,2025-03-05 14:53,14:53,EST,S  10,10.0,Overcast,OVC012,57.9,55.0,90.0,,,29.33,993.0,0.0,0.0,0.0,2025-03-08,3,2025,14,KCHO,0.1,0.36,0.36,0.3600000000000001,10
2025-03-05,5,2025-03-05 15:53,15:53,EST,Vrbl  6,10.0,Mostly Cloudy,FEW015 BKN022 BKN032,59.0,55.0,87.0,,,29.27,990.9,0.0,0.0,0.0,2025-03-08,3,2025,15,KCHO,0.0,0.36,0.36,0.3600000000000001,6
2025-03-05,5,2025-03-05 16:53,16:53,EST,S  13,10.0,Mostly Cloudy,FEW012 SCT029 BKN038,60.1,55.0,84.0,,,29.25,990.1,0.0,0.0,0.0,2025-03-08,3,2025,16,KCHO,0.0,0.26,0.36,0.3600000000000001,13
2025-03-05,5,2025-03-05 17:53,17:53,EST,S  10,10.0,Overcast,BKN014 BKN020 OVC027,59.0,55.0,87.0,,,29.26,990.3,0.0,0.0,0.0,2025-03-08,3,2025,17,KCHO,0.0,0.1,0.36,0.3600000000000001,10
2025-03-05,5,2025-03-05 18:53,18:53,EST,S  12,10.0,Overcast,OVC016,57.9,54.0,87.0,,,29.25,990.3,0.0,0.0,0.0,2025-03-08,3,2025,18,KCHO,0.0,0.0,0.36,0.3600000000000001,12
2025-03-05,5,2025-03-05 19:53,19:53,EST,W  9,10.0,Thunderstorm in Vicinity,SCT014 SCT022 OVC030,55.9,45.0,67.0,,,29.29,991.5,0.0,0.0,0.0,2025-03-08,3,2025,19,KCHO,0.0,0.0,0.36,0.3600000000000001,9
2025-03-05,5,2025-03-05 20:53,20:53,EST,S  3,10.0,Overcast,BKN075 OVC090,52.0,48.9,89.0,,,29.27,990.9,0.19,0.0,0.0,2025-03-08,3,2025,20,KCHO,0.19,0.19,0.55,0.5500000000000002,3
2025-03-05,5,2025-03-05 21:53,21:53,EST,NW  3,10.0,Mostly Cloudy,BKN095,50.0,48.9,96.0,,,29.28,991.1,0.0,0.19,0.0,2025-03-08,3,2025,21,KCHO,0.19,0.19,0.55,0.5500000000000002,3
2025-03-05,5,2025-03-05 22:53,22:53,EST,Calm,1.25,Fog/Mist,CLR,48.9,46.9,93.0,,,29.29,991.5,0.0,0.0,0.0,2025-03-08,3,2025,22,KCHO,0.19,0.19,0.45000000000000007,0.5500000000000002,0
2025-03-05,5,2025-03-05 23:53,23:53,EST,NW  8,10.0,A Few Clouds,FEW060,50.0,41.0,71.0,47.0,,29.32,992.4,0.0,0.0,0.0,2025-03-08,3,2025,23,KCHO,0.0,0.19,0.29000000000000004,0.5500000000000002,8
2025-03-06,6,2025-03-06 00:53,00:53,EST,W  13  G 26,10.0,Fair,CLR,50.0,32.0,50.0,46.0,,29.34,993.1,0.0,0.0,0.19,2025-03-09,3,2025,0,KCHO,0.0,0.19,0.19,0.5500000000000002,13
2025-03-06,6,2025-03-06 01:53,01:53,EST,Vrbl  7  G 22,10.0,Mostly Cloudy,BKN095,48.0,30.0,50.0,45.0,,29.35,993.6,0.0,0.0,0.0,2025-03-09,3,2025,1,KCHO,0.0,0.19,0.19,0.5500000000000002,7
2025-03-06,6,2025-03-06 02:53,02:53,EST,W  10  G 17,10.0,Mostly Cloudy,BKN100,45.0,30.0,56.0,40.0,,29.35,993.7,0.0,0.0,0.0,2025-03-09,3,2025,2,KCHO,0.0,0.0,0.19,0.5500000000000002,10
2025-03-06,6,2025-03-06 03:53,03:53,EDT,NW  9  G 20,10.0,Overcast,OVC095,45.0,28.0,52.0,41.0,,29.36,994.0,0.0,0.0,0.0,2025-03-09,3,2025,3,KCHO,0.0,0.0,0.19,0.5500000000000002,9
2025-03-06,6,2025-03-06 04:53,04:53,EDT,W  9,10.0,Fair,CLR,42.1,25.0,51.0,37.0,,29.39,995.0,0.0,0.0,0.0,2025-03-09,3,2025,4,KCHO,0.0,0.0,0.19,0.5500000000000002,9
2025-03-06,6,2025-03-06 05:53,05:53,EDT,Vrbl  7  G 17,10.0,Fair,CLR,41.0,24.1,51.0,37.0,,29.42,996.0,0.0,0.0,0.0,2025-03-09,3,2025,5,KCHO,0.0,0.0,0.19,0.5500000000000002,7
2025-03-06,6,2025-03-06 06:53,06:53,EDT,NW  7,10.0,Fair,CLR,39.9,24.1,53.0,36.0,,29.45,997.0,0.0,0.0,0.0,2025-03-09,3,2025,6,KCHO,0.0,0.0,0.19,0.5500000000000002,7
2025-03-06,6,2025-03-06 08:53,08:53,EDT,NW  12  G 22,10.0,Overcast,FEW050 OVC100,42.1,24.1,49.0,36.0,,29.49,998.5,0.0,0.0,0.0,2025-03-09,3,2025,8,KCHO,0.0,0.0,0.19,0.5500000000000002,12
2025-03-06,6,2025-03-06 09:53,09:53,EDT,NW  12  G 22,10.0,Mostly Cloudy,FEW050 BKN120,45.0,24.1,44.0,40.0,,29.5,999.0,0.0,0.0,0.0,2025-03-09,3,2025,9,KCHO,0.0,0.0,0.0,0.5500000000000002,12
2025-03-06,6,2025-03-06 10:53,10:53,EDT,Calm,10.0,Mostly Cloudy,SCT055 BKN120,45.0,23.0,42.0,,,29.52,999.5,0.0,0.0,0.0,2025-03-09,3,2025,10,KCHO,0.0,0.0,0.0,0.5500000000000002,0
2025-03-06,6,2025-03-06 11:53,11:53,EDT,NW  14  G 29,10.0,Overcast,OVC055,45.0,23.0,42.0,39.0,,29.55,1000.6,0.0,0.0,0.0,2025-03-09,3,2025,11,KCHO,0.0,0.0,0.0,0.4500000000000002,14
2025-03-06,6,2025-03-06 12:53,12:53,EDT,W  10  G 20,10.0,Mostly Cloudy,BKN060,46.9,24.1,41.0,43.0,,29.55,1000.5,0.0,0.0,0.0,2025-03-09,3,2025,12,KCHO,0.0,0.0,0.0,0.29000000000000015,10
2025-03-06,6,2025-03-06 13:53,13:53,EDT,NW  10  G 24,10.0,Mostly Cloudy,BKN055,46.0,23.0,40.0,42.0,,29.57,1001.2,0.0,0.0,0.0,2025-03-09,3,2025,13,KCHO,0.0,0.0,0.0,0.1900000000000001,10
2025-03-06,6,2025-03-06 14:53,14:53,EDT,NW  10  G 21,10.0,Mostly Cloudy,BKN055,45.0,21.9,40.0,40.0,,29.6,1002.5,0.0,0.0,0.0,2025-03-09,3,2025,14,KCHO,0.0,0.0,0.0,0.1900000000000001,10
2025-03-06,6,2025-03-06 15:53,15:53,EDT,NW  12  G 26,10.0,Mostly Cloudy,BKN055,44.1,21.0,40.0,39.0,,29.63,1003.2,0.0,0.0,0.0,2025-03-09,3,2025,15,KCHO,0.0,0.0,0.0,0.1900000000000001,12
2025-03-06,6,2025-03-06 16:53,16:53,EDT,NW  12  G 26,10.0,A Few Clouds,FEW055,42.1,19.9,41.0,36.0,,29.65,1004.1,0.0,0.0,0.0,2025-03-09,3,2025,16,KCHO,0.0,0.0,0.0,0.1900000000000001,12
2025-03-06,6,2025-03-06 17:53,17:53,EDT,W  10  G 24,10.0,A Few Clouds,FEW060,41.0,19.0,41.0,35.0,,29.69,1005.5,0.0,0.0,0.0,2025-03-09,3,2025,17,KCHO,0.0,0.0,0.0,0.1900000000000001,10
2025-03-06,6,2025-03-06 18:53,18:53,EDT,NW  6,10.0,Mostly Cloudy,BKN055,39.0,19.0,45.0,35.0,,29.72,1006.3,0.0,0.0,0.0,2025-03-09,3,2025,18,KCHO,0.0,0.0,0.0,0.1900000000000001,6
2025-03-06,6,2025-03-06 19:53,19:53,EDT,Vrbl  3,10.0,Fair,CLR,37.9,17.1,43.0,,,29.73,1007.0,0.0,0.0,0.0,2025-03-09,3,2025,19,KCHO,0.0,0.0,0.0,0.1900000000000001,3
2025-03-06,6,2025-03-06 20:53,20:53,EDT,NW  17  G 36,10.0,Fair,CLR,39.0,17.1,41.0,31.0,,29.75,1007.7,0.0,0.0,0.0,2025-03-09,3,2025,20,KCHO,0.0,0.0,0.0,0.1900000000000001,17
2025-03-06,6,2025-03-06 21:53,21:53,EDT,NW  14  G 26,10.0,Fair,CLR,37.9,17.1,43.0,30.0,,29.78,1008.5,0.0,0.0,0.0,2025-03-09,3,2025,21,KCHO,0.0,0.0,0.0,0.0,14
2025-03-06,6,2025-03-06 22:53,22:53,EDT,NW  13  G 26,10.0,Fair,CLR,37.0,17.1,44.0,30.0,,29.78,1008.7,0.0,0.0,0.0,2025-03-09,3,2025,22,KCHO,0.0,0.0,0.0,0.0,13
2025-03-06,6,2025-03-06 23:53,23:53,EDT,Calm,10.0,Fair,CLR,37.9,17.1,43.0,,,29.78,1008.7,0.0,0.0,0.0,2025-03-10,3,2025,23,KCHO,0.0,0.0,0.0,0.0,0
2025-03-07,7,2025-03-07 00:53,00:53,EDT,Calm,10.0,Fair,CLR,36.0,17.1,46.0,,,29.8,1009.4,0.0,0.0,0.0,2025-03-10,3,2025,0,KCHO,0.0,0.0,0.0,0.0,0
2025-03-07,7,2025-03-07 01:53,01:53,EDT,NW  8,10.0,Fair,CLR,37.9,16.0,41.0,33.0,,29.83,1010.2,0.0,0.0,0.0,2025-03-10,3,2025,1,KCHO,0.0,0.0,0.0,0.0,8
2025-03-07,7,2025-03-07 02:53,02:53,EDT,W  6,10.0,Fair,CLR,37.9,16.0,41.0,34.0,,29.82,1010.0,0.0,0.0,0.0,2025-03-10,3,2025,2,KCHO,0.0,0.0,0.0,0.0,6
2025-03-07,7,2025-03-07 03:53,03:53,EDT,Calm,10.0,Fair,CLR,36.0,16.0,44.0,,,29.84,1010.6,0.0,0.0,0.0,2025-03-10,3,2025,3,KCHO,0.0,0.0,0.0,0.0,0
2025-03-07,7,2025-03-07 04:53,04:53,EDT,W  8,10.0,Fair,CLR,37.0,16.0,42.0,32.0,,29.85,1011.0,0.0,0.0,0.0,2025-03-10,3,2025,4,KCHO,0.0,0.0,0.0,0.0,8
2025-03-07,7,2025-03-07 05:53,05:53,EDT,Calm,10.0,Fair,CLR,36.0,16.0,44.0,,,29.87,1011.6,0.0,0.0,0.0,2025-03-10,3,2025,5,KCHO,0.0,0.0,0.0,0.0,0
2025-03-07,7,2025-03-07 06:53,06:53,EDT,SW  7,10.0,Fair,CLR,36.0,17.1,46.0,31.0,,29.9,1012.7,0.0,0.0,0.0,2025-03-10,3,2025,6,KCHO,0.0,0.0,0.0,0.0,7
2025-03-07,7,2025-03-07 07:53,07:53,EDT,Calm,10.0,Fair,CLR,37.0,19.0,48.0,,,29.91,1013.2,0.0,0.0,0.0,2025-03-10,3,2025,7,KCHO,0.0,0.0,0.0,0.0,0
2025-03-07,7,2025-03-07 08:53,08:53,EDT,Vrbl  5,10.0,Fair,CLR,39.0,18.0,43.0,36.0,,29.94,1014.0,0.0,0.0,0.0,2025-03-10,3,2025,8,KCHO,0.0,0.0,0.0,0.0,5
2025-03-07,7,2025-03-07 09:53,09:53,EDT,SW  7,10.0,Fair,CLR,42.1,16.0,35.0,38.0,,29.92,1013.4,0.0,0.0,0.0,2025-03-10,3,2025,9,KCHO,0.0,0.0,0.0,0.0,7
2025-03-07,7,2025-03-07 10:53,10:53,EDT,SW  6,10.0,Fair,CLR,44.1,17.1,34.0,41.0,,29.92,1013.3,0.0,0.0,0.0,2025-03-10,3,2025,10,KCHO,0.0,0.0,0.0,0.0,6
2025-03-07,7,2025-03-07 11:53,11:53,EDT,Vrbl  3,10.0,Fair,CLR,46.9,17.1,30.0,,,29.91,1012.7,0.0,0.0,0.0,2025-03-10,3,2025,11,KCHO,0.0,0.0,0.0,0.0,3
2025-03-07,7,2025-03-07 13:53,13:53,EDT,Vrbl  5,10.0,Fair,CLR,51.1,16.0,25.0,,,29.83,1010.2,0.0,0.0,0.0,2025-03-10,3,2025,13,KCHO,0.0,0.0,0.0,0.0,5
2025-03-07,7,2025-03-07 14:53,14:53,EDT,W  7,10.0,Fair,CLR,53.1,16.0,23.0,,,29.8,1009.1,0.0,0.0,0.0,2025-03-10,3,2025,14,KCHO,0.0,0.0,0.0,0.0,7
2025-03-07,7,2025-03-07 15:53,15:53,EDT,SW  10  G 16,10.0,A Few Clouds,FEW120,54.0,17.1,23.0,,,29.78,1008.3,0.0,0.0,0.0,2025-03-10,3,2025,15,KCHO,0.0,0.0,0.0,0.0,10
2025-03-07,7,2025-03-07 16:53,16:53,EDT,S  12,10.0,Partly Cloudy,SCT100,53.1,19.9,27.0,,,29.78,1008.3,0.0,0.0,0.0,2025-03-10,3,2025,16,KCHO,0.0,0.0,0.0,0.0,12
2025-03-07,7,2025-03-07 17:53,17:53,EDT,S  8,10.0,Mostly Cloudy,BKN110,51.1,21.0,31.0,,,29.76,1007.7,0.0,0.0,0.0,2025-03-10,3,2025,17,KCHO,0.0,0.0,0.0,0.0,8
2025-03-07,7,2025-03-07 18:53,18:53,EDT,S  14,10.0,Mostly Cloudy,BKN110,50.0,23.0,35.0,45.0,,29.78,1008.5,0.0,0.0,0.0,2025-03-10,3,2025,18,KCHO,0.0,0.0,0.0,0.0,14
2025-03-07,7,2025-03-07 19:53,19:53,EDT,S  6,10.0,Overcast,BKN095 OVC110,48.0,25.0,41.0,46.0,,29.77,1008.1,0.0,0.0,0.0,2025-03-10,3,2025,19,KCHO,0.0,0.0,0.0,0.0,6
2025-03-07,7,2025-03-07 20:53,20:53,EDT,SW  9,10.0,Mostly Cloudy,FEW065 SCT080 BKN090,48.9,25.0,39.0,45.0,,29.76,1007.9,0.0,0.0,0.0,2025-03-10,3,2025,20,KCHO,0.0,0.0,0.0,0.0,9
2025-03-07,7,2025-03-07 21:53,21:53,EDT,S  12,10.0,Mostly Cloudy,SCT075 BKN100,46.9,26.1,44.0,42.0,,29.76,1007.6,0.0,0.0,0.0,2025-03-10,3,2025,21,KCHO,0.0,0.0,0.0,0.0,12
2025-03-07,7,2025-03-07 22:53,22:53,EDT,SW  7,10.0,Mostly Cloudy,SCT070 BKN110,46.9,25.0,42.0,44.0,,29.74,1007.0,0.0,0.0,0.0,2025-03-10,3,2025,22,KCHO,0.0,0.0,0.0,0.0,7
2025-03-07,7,2025-03-07 23:53,23:53,EDT,S  5,10.0,A Few Clouds,FEW060 FEW100,44.1,24.1,45.0,42.0,,29.72,1006.4,0.0,0.0,0.0,2025-03-11,3,2025,23,KCHO,0.0,0.0,0.0,0.0,5
2025-03-08,8,2025-03-08 00:53,00:53,EDT,S  8,10.0,Fair,CLR,42.1,24.1,49.0,38.0,,29.68,1005.2,0.0,0.0,0.0,2025-03-11,3,2025,0,KCHO,0.0,0.0,0.0,0.0,8
2025-03-08,8,2025-03-08 01:53,01:53,EDT,S  9,10.0,Fair,CLR,42.1,24.1,49.0,37.0,,29.66,1004.3,0.0,0.0,0.0,2025-03-11,3,2025,1,KCHO,0.0,0.0,0.0,0.0,9
2025-03-08,8,2025-03-08 02:53,02:53,EDT,S  7,0.0,Fair,CLR,42.1,24.1,49.0,38.0,,29.64,1003.5,0.0,0.0,0.0,2025-03-11,3,2025,2,KCHO,0.0,0.0,0.0,0.0,7
2025-03-08,8,2025-03-08 03:53,03:53,EDT,S  9,10.0,Partly Cloudy,SCT065,42.1,23.0,47.0,37.0,,29.63,1003.1,0.0,0.0,0.0,2025-03-11,3,2025,3,KCHO,0.0,0.0,0.0,0.0,9
2025-03-08,8,2025-03-08 04:53,04:53,EDT,S  6,10.0,A Few Clouds,FEW060,41.0,24.1,51.0,38.0,,29.63,1003.3,0.0,0.0,0.0,2025-03-11,3,2025,4,KCHO,0.0,0.0,0.0,0.0,6
2025-03-08,8,2025-03-08 05:53,05:53,EDT,Calm,10.0,Fair,CLR,37.9,24.1,57.0,,,29.66,1004.4,0.0,0.0,0.0,2025-03-11,3,2025,5,KCHO,0.0,0.0,0.0,0.0,0
2025-03-08,8,2025-03-08 06:53,06:53,EDT,E  5,10.0,Fair,CLR,37.0,24.1,59.0,34.0,,29.68,1005.1,0.0,0.0,0.0,2025-03-11,3,2025,6,KCHO,0.0,0.0,0.0,0.0,5
2025-03-08,8,2025-03-08 08:53,08:53,EDT,NW  6,10.0,A Few Clouds,FEW065,50.0,32.0,50.0,48.0,,29.73,1006.6,0.0,0.0,0.0,2025-03-11,3,2025,8,KCHO,0.0,0.0,0.0,0.0,6
2025-03-08,8,2025-03-08 09:53,09:53,EDT,N  8,10.0,Mostly Cloudy,BKN050,50.0,30.9,48.0,47.0,,29.74,1007.0,0.0,0.0,0.0,2025-03-11,3,2025,9,KCHO,0.0,0.0,0.0,0.0,8
2025-03-08,8,2025-03-08 10:53,10:53,EDT,N  7,10.0,Overcast,OVC060,52.0,32.0,47.0,,,29.76,1007.6,0.0,0.0,0.0,2025-03-11,3,2025,10,KCHO,0.0,0.0,0.0,0.0,7
2025-03-08,8,2025-03-08 11:53,11:53,EDT,NW  9  G 20,10.0,A Few Clouds,FEW110,55.9,30.9,39.0,,,29.76,1007.6,0.0,0.0,0.0,2025-03-11,3,2025,11,KCHO,0.0,0.0,0.0,0.0,9
2025-03-08,8,2025-03-08 12:53,12:53,EDT,N  12  G 17,10.0,Mostly Cloudy,BKN065 BKN080,55.0,28.0,36.0,,,29.77,1008.0,0.0,0.0,0.0,2025-03-11,3,2025,12,KCHO,0.0,0.0,0.0,0.0,12
2025-03-08,8,2025-03-08 13:53,13:53,EDT,NW  13  G 25,10.0,Partly Cloudy,SCT070,57.0,21.0,25.0,,,29.77,1007.8,0.0,0.0,0.0,2025-03-11,3,2025,13,KCHO,0.0,0.0,0.0,0.0,13
2025-03-08,8,2025-03-08 14:53,14:53,EDT,NW  10  G 24,10.0,Fair,CLR,55.0,18.0,23.0,,,29.79,1008.7,0.0,0.0,0.0,2025-03-11,3,2025,14,KCHO,0.0,0.0,0.0,0.0,10
2025-03-08,8,2025-03-08 15:53,15:53,EDT,N  9  G 22,10.0,Fair,CLR,53.1,19.9,27.0,,,29.82,1009.9,0.0,0.0,0.0,2025-03-11,3,2025,15,KCHO,0.0,0.0,0.0,0.0,9
2025-03-08,8,2025-03-08 16:53,16:53,EDT,NW  8,10.0,Fair,CLR,51.1,19.9,29.0,,,29.86,1011.2,0.0,0.0,0.0,2025-03-11,3,2025,16,KCHO,0.0,0.0,0.0,0.0,8
2025-03-08,8,2025-03-08 17:53,17:53,EDT,Calm,10.0,A Few Clouds,FEW070,48.0,19.9,33.0,,,29.9,1012.4,0.0,0.0,0.0,2025-03-11,3,2025,17,KCHO,0.0,0.0,0.0,0.0,0
2025-03-08,8,2025-03-08 18:53,18:53,EDT,N  5,10.0,Fair,CLR,45.0,19.9,37.0,43.0,,29.92,1013.2,0.0,0.0,0.0,2025-03-11,3,2025,18,KCHO,0.0,0.0,0.0,0.0,5
2025-03-08,8,2025-03-08 19:53,19:53,EDT,N  5,10.0,Fair,CLR,44.1,19.0,37.0,42.0,,29.96,0.0,0.0,0.0,0.0,2025-03-11,3,2025,19,KCHO,0.0,0.0,0.0,0.0,5
2025-03-08,8,2025-03-08 20:53,20:53,EDT,Calm,10.0,Fair,CLR,42.1,18.0,38.0,,,29.97,1015.1,0.0,0.0,0.0,2025-03-11,3,2025,20,KCHO,0.0,0.0,0.0,0.0,0
2025-03-08,8,2025-03-08 21:53,21:53,EDT,N  5,10.0,Fair,CLR,42.1,18.0,38.0,40.0,,29.98,1015.3,0.0,0.0,0.0,2025-03-11,3,2025,21,KCHO,0.0,0.0,0.0,0.0,5
2025-03-08,8,2025-03-08 22:53,22:53,EDT,NW  5,10.0,Fair,CLR,42.1,17.1,36.0,40.0,,29.98,1015.3,0.0,0.0,0.0,2025-03-12,3,2025,22,KCHO,0.0,0.0,0.0,0.0,5
2025-03-08,8,2025-03-08 23:53,23:53,EDT,Calm,10.0,Fair,CLR,39.9,17.1,40.0,,,29.98,1015.2,0.0,0.0,0.0,2025-03-12,3,2025,23,KCHO,0.0,0.0,0.0,0.0,0
2025-03-09,9,2025-03-09 00:53,00:53,EDT,Calm,10.0,Fair,CLR,37.9,17.1,43.0,,,29.99,1015.5,0.0,0.0,0.0,2025-03-12,3,2025,0,KCHO,0.0,0.0,0.0,0.0,0
2025-03-09,9,2025-03-09 01:53,01:53,EDT,Calm,0.0,Fair,CLR,37.0,18.0,46.0,,,30.01,1016.2,0.0,0.0,0.0,2025-03-12,3,2025,1,KCHO,0.0,0.0,0.0,0.0,0
2025-03-09,9,2025-03-09 03:53,03:53,EDT,W  5,10.0,Fair,CLR,34.0,19.0,54.0,30.0,,30.02,1016.7,0.0,0.0,0.0,2025-03-12,3,2025,3,KCHO,0.0,0.0,0.0,0.0,5
2025-03-09,9,2025-03-09 04:53,04:53,EDT,W  5,10.0,Fair,CLR,33.1,19.0,56.0,29.0,,30.03,1017.1,0.0,0.0,0.0,2025-03-12,3,2025,4,KCHO,0.0,0.0,0.0,0.0,5
2025-03-09,9,2025-03-09 05:53,05:53,EDT,W  3,10.0,Fair,CLR,32.0,19.0,59.0,,,30.04,1017.4,0.0,0.0,0.0,2025-03-12,3,2025,5,KCHO,0.0,0.0,0.0,0.0,3
2025-03-09,9,2025-03-09 06:53,06:53,EDT,Calm,10.0,Fair,CLR,33.1,19.0,56.0,,,30.07,1018.3,0.0,0.0,0.0,2025-03-12,3,2025,6,KCHO,0.0,0.0,0.0,0.0,0
2025-03-09,9,2025-03-09 07:53,07:53,EDT,Calm,10.0,Fair,CLR,33.1,18.0,54.0,,,30.07,1018.5,0.0,0.0,0.0,2025-03-12,3,2025,7,KCHO,0.0,0.0,0.0,0.0,0
2025-03-09,9,2025-03-09 08:53,08:53,EDT,SW  3,10.0,Fair,CLR,36.0,19.9,52.0,,,30.09,1019.2,0.0,0.0,0.0,2025-03-12,3,2025,8,KCHO,0.0,0.0,0.0,0.0,3
2025-03-09,9,2025-03-09 09:53,09:53,EDT,W  3,10.0,Fair,CLR,39.0,21.9,50.0,,,30.1,1019.3,0.0,0.0,0.0,2025-03-12,3,2025,9,KCHO,0.0,0.0,0.0,0.0,3
2025-03-09,9,2025-03-09 10:53,10:53,EDT,SW  6,10.0,Fair,CLR,44.1,19.9,38.0,41.0,,30.09,1018.9,0.0,0.0,0.0,2025-03-12,3,2025,10,KCHO,0.0,0.0,0.0,0.0,6
2025-03-09,9,2025-03-09 11:53,11:53,EDT,S  13  G 17,10.0,Fair,CLR,48.0,19.9,33.0,43.0,,30.07,1018.2,0.0,0.0,0.0,2025-03-12,3,2025,11,KCHO,0.0,0.0,0.0,0.0,13
2025-03-09,9,2025-03-09 12:53,12:53,EDT,Vrbl  3,10.0,Fair,CLR,50.0,21.9,33.0,,,30.05,1017.5,0.0,0.0,0.0,2025-03-12,3,2025,12,KCHO,0.0,0.0,0.0,0.0,3
2025-03-09,9,2025-03-09 13:53,13:53,EDT,SW  9  G 21,10.0,Fair,CLR,53.1,24.1,32.0,,,30.02,1016.7,0.0,0.0,0.0,2025-03-12,3,2025,13,KCHO,0.0,0.0,0.0,0.0,9
2025-03-09,9,2025-03-09 14:53,14:53,EDT,SW  10,10.0,Fair,CLR,53.1,24.1,32.0,,,29.99,1015.5,0.0,0.0,0.0,2025-03-12,3,2025,14,KCHO,0.0,0.0,0.0,0.0,10
2025-03-09,9,2025-03-09 15:53,15:53,EDT,Vrbl  3,10.0,Fair,CLR,55.9,24.1,29.0,,,29.96,1014.7,0.0,0.0,0.0,2025-03-12,3,2025,15,KCHO,0.0,0.0,0.0,0.0,3
2025-03-09,9,2025-03-09 16:53,16:53,EDT,S  12  G 20,10.0,Fair,CLR,57.9,25.0,28.0,,,29.94,1013.9,0.0,0.0,0.0,2025-03-12,3,2025,16,KCHO,0.0,0.0,0.0,0.0,12
2025-03-09,9,2025-03-09 17:53,17:53,EDT,Vrbl  7,10.0,Fair,CLR,57.9,24.1,27.0,,,29.94,1013.7,0.0,0.0,0.0,2025-03-12,3,2025,17,KCHO,0.0,0.0,0.0,0.0,7
2025-03-09,9,2025-03-09 18:53,18:53,EDT,S  12,10.0,Fair,CLR,54.0,24.1,31.0,,,29.94,1013.8,0.0,0.0,0.0,2025-03-12,3,2025,18,KCHO,0.0,0.0,0.0,0.0,12
2025-03-09,9,2025-03-09 19:53,19:53,EDT,S  8,10.0,Fair,CLR,50.0,24.1,36.0,47.0,,29.94,1014.0,0.0,0.0,0.0,2025-03-12,3,2025,19,KCHO,0.0,0.0,0.0,0.0,8
2025-03-09,9,2025-03-09 20:53,20:53,EDT,SW  8,10.0,Fair,CLR,48.9,25.0,39.0,46.0,,29.96,1014.6,0.0,0.0,0.0,2025-03-12,3,2025,20,KCHO,0.0,0.0,0.0,0.0,8
2025-03-09,9,2025-03-09 21:53,21:53,EDT,SW  8,10.0,Fair,CLR,48.0,24.1,39.0,45.0,,29.96,1014.6,0.0,0.0,0.0,2025-03-12,3,2025,21,KCHO,0.0,0.0,0.0,0.0,8
2025-03-09,9,2025-03-09 22:53,22:53,EDT,Calm,10.0,Fair,CLR,48.0,24.1,39.0,,,29.96,1014.5,0.0,0.0,0.0,2025-03-12,3,2025,22,KCHO,0.0,0.0,0.0,0.0,0
2025-03-09,9,2025-03-09 23:53,23:53,EDT,SE  3,10.0,Fair,CLR,43.0,24.1,47.0,,,29.95,1014.1,0.0,0.0,0.0,2025-03-13,3,2025,23,KCHO,0.0,0.0,0.0,0.0,3
2025-03-10,10,2025-03-10 01:53,01:53,EDT,SW  3,10.0,Fair,CLR,44.1,23.0,43.0,,,29.95,1014.0,0.0,0.0,0.0,2025-03-13,3,2025,1,KCHO,0.0,0.0,0.0,0.0,3
2025-03-10,10,2025-03-10 02:53,02:53,EDT,E  5,10.0,Fair,CLR,39.0,23.0,53.0,36.0,,29.95,1014.3,0.0,0.0,0.0,2025-03-13,3,2025,2,KCHO,0.0,0.0,0.0,0.0,5
2025-03-10,10,2025-03-10 03:53,03:53,EDT,Calm,10.0,Fair,CLR,41.0,23.0,49.0,,,29.96,1014.4,0.0,0.0,0.0,2025-03-13,3,2025,3,KCHO,0.0,0.0,0.0,0.0,0
2025-03-10,10,2025-03-10 04:53,04:53,EDT,Calm,10.0,Fair,CLR,37.9,24.1,57.0,,,29.96,1014.3,0.0,0.0,0.0,2025-03-13,3,2025,4,KCHO,0.0,0.0,0.0,0.0,0
2025-03-10,10,2025-03-10 05:53,05:53,EDT,Calm,10.0,Fair,CLR,35.1,24.1,64.0,,,29.95,1014.1,0.0,0.0,0.0,2025-03-13,3,2025,5,KCHO,0.0,0.0,0.0,0.0,0
2025-03-10,10,2025-03-10 06:53,06:53,EDT,Calm,10.0,Fair,CLR,33.1,24.1,70.0,,,29.93,1013.6,0.0,0.0,0.0,2025-03-13,3,2025,6,KCHO,0.0,0.0,0.0,0.0,0
2025-03-10,10,2025-03-10 07:53,07:53,EDT,W  5,10.0,Fair,CLR,35.1,24.1,64.0,32.0,,29.95,1014.1,0.0,0.0,0.0,2025-03-13,3,2025,7,KCHO,0.0,0.0,0.0,0.0,5
2025-03-10,10,2025-03-10 08:53,08:53,EDT,Calm,10.0,Fair,CLR,43.0,28.9,58.0,,,29.96,1014.6,0.0,0.0,0.0,2025-03-13,3,2025,8,KCHO,0.0,0.0,0.0,0.0,0
2025-03-10,10,2025-03-10 09:53,09:53,EDT,W  3,10.0,Fair,CLR,46.9,28.0,48.0,,,29.96,1014.5,0.0,0.0,0.0,2025-03-13,3,2025,9,KCHO,0.0,0.0,0.0,0.0,3
2025-03-10,10,2025-03-10 10:53,10:53,EDT,Calm,10.0,Fair,CLR,55.0,28.9,37.0,,,29.94,1013.8,0.0,0.0,0.0,2025-03-13,3,2025,10,KCHO,0.0,0.0,0.0,0.0,0
2025-03-10,10,2025-03-10 11:53,11:53,EDT,Vrbl  5,10.0,Fair,CLR,59.0,25.0,27.0,,,29.94,1013.6,0.0,0.0,0.0,2025-03-13,3,2025,11,KCHO,0.0,0.0,0.0,0.0,5
2025-03-10,10,2025-03-10 12:53,12:53,EDT,SE  5,10.0,Fair,CLR,61.0,25.0,25.0,,,29.92,1013.0,0.0,0.0,0.0,2025-03-13,3,2025,12,KCHO,0.0,0.0,0.0,0.0,5
2025-03-10,10,2025-03-10 13:53,13:53,EDT,SE  9,10.0,Fair,CLR,64.0,25.0,23.0,,,29.89,1012.0,0.0,0.0,0.0,2025-03-13,3,2025,13,KCHO,0.0,0.0,0.0,0.0,9
2025-03-10,10,2025-03-10 14:53,14:53,EDT,S  9,10.0,Fair,CLR,64.0,25.0,23.0,,,29.86,1011.1,0.0,0.0,0.0,2025-03-13,3,2025,14,KCHO,0.0,0.0,0.0,0.0,9
2025-03-10,10,2025-03-10 15:53,15:53,EDT,Vrbl  5,10.0,Fair,CLR,63.0,24.1,23.0,,,29.83,1010.1,0.0,0.0,0.0,2025-03-13,3,2025,15,KCHO,0.0,0.0,0.0,0.0,5
2025-03-10,10,2025-03-10 16:53,16:53,EDT,Vrbl  5,10.0,Fair,CLR,64.9,25.0,22.0,,,29.81,1009.4,0.0,0.0,0.0,2025-03-13,3,2025,16,KCHO,0.0,0.0,0.0,0.0,5
2025-03-10,10,2025-03-10 17:53,17:53,EDT,Vrbl  5,10.0,Fair,CLR,63.0,24.1,23.0,,,29.81,1009.3,0.0,0.0,0.0,2025-03-13,3,2025,17,KCHO,0.0,0.0,0.0,0.0,5
2025-03-10,10,2025-03-10 18:53,18:53,EDT,SE  7,10.0,Fair,CLR,61.0,25.0,25.0,,,29.81,1009.3,0.0,0.0,0.0,2025-03-13,3,2025,18,KCHO,0.0,0.0,0.0,0.0,7
2025-03-10,10,2025-03-10 19:53,19:53,EDT,S  3,10.0,Fair,CLR,55.9,25.0,30.0,,,29.82,1010.0,0.0,0.0,0.0,2025-03-13,3,2025,19,KCHO,0.0,0.0,0.0,0.0,3
2025-03-10,10,2025-03-10 20:53,20:53,EDT,S  5,10.0,Fair,CLR,53.1,26.1,35.0,,,29.83,1010.2,0.0,0.0,0.0,2025-03-13,3,2025,20,KCHO,0.0,0.0,0.0,0.0,5
2025-03-10,10,2025-03-10 21:53,21:53,EDT,SW  5,10.0,Fair,CLR,53.1,26.1,35.0,,,29.83,1010.1,0.0,0.0,0.0,2025-03-13,3,2025,21,KCHO,0.0,0.0,0.0,0.0,5
2025-03-10,10,2025-03-10 22:53,22:53,EDT,Calm,10.0,Fair,CLR,50.0,26.1,39.0,,,29.84,1010.2,0.0,0.0,0.0,2025-03-13,3,2025,22,KCHO,0.0,0.0,0.0,0.0,0
2025-03-10,10,2025-03-10 23:53,23:53,EDT,N  3,10.0,Fair,CLR,45.0,27.0,49.0,,,29.83,1009.8,0.0,0.0,0.0,2025-03-13,3,2025,23,KCHO,0.0,0.0,0.0,0.0,3
2025-03-11,11,2025-03-11 00:53,00:53,EDT,Calm,10.0,Fair,CLR,45.0,27.0,49.0,,,29.81,1009.4,0.0,0.0,0.0,2025-03-14,3,2025,0,KCHO,0.0,0.0,0.0,0.0,0
2025-03-11,11,2025-03-11 01:53,01:53,EDT,W  3,10.0,Fair,CLR,39.9,28.0,63.0,,,29.81,1009.2,0.0,0.0,0.0,2025-03-14,3,2025,1,KCHO,0.0,0.0,0.0,0.0,3
2025-03-11,11,2025-03-11 02:53,02:53,EDT,Calm,10.0,Fair,CLR,41.0,27.0,57.0,,,29.8,1009.0,0.0,0.0,0.0,2025-03-14,3,2025,2,KCHO,0.0,0.0,0.0,0.0,0
2025-03-11,11,2025-03-11 03:53,03:53,EDT,W  3,10.0,Fair,CLR,39.9,27.0,60.0,,,29.79,1008.6,0.0,0.0,0.0,2025-03-14,3,2025,3,KCHO,0.0,0.0,0.0,0.0,3
2025-03-11,11,2025-03-11 04:53,04:53,EDT,Calm,10.0,Fair,CLR,36.0,27.0,70.0,,,29.79,1008.5,0.0,0.0,0.0,2025-03-14,3,2025,4,KCHO,0.0,0.0,0.0,0.0,0
2025-03-11,11,2025-03-11 05:53,05:53,EDT,W  5,10.0,Fair,CLR,37.9,27.0,65.0,35.0,,29.8,1008.8,0.0,0.0,0.0,2025-03-14,3,2025,5,KCHO,0.0,0.0,0.0,0.0,5
2025-03-11,11,2025-03-11 06:53,06:53,EDT,Calm,10.0,Fair,CLR,32.0,26.1,79.0,,,29.81,1009.5,0.0,0.0,0.0,2025-03-14,3,2025,6,KCHO,0.0,0.0,0.0,0.0,0
2025-03-11,11,2025-03-11 07:53,07:53,EDT,Calm,10.0,Fair,CLR,37.0,27.0,67.0,,,29.83,1010.0,0.0,0.0,0.0,2025-03-14,3,2025,7,KCHO,0.0,0.0,0.0,0.0,0
2025-03-11,11,2025-03-11 08:53,08:53,EDT,SW  3,10.0,Fair,CLR,43.0,33.1,68.0,,,29.84,1010.3,0.0,0.0,0.0,2025-03-14,3,2025,8,KCHO,0.0,0.0,0.0,0.0,3
2025-03-11,11,2025-03-11 09:53,09:53,EDT,W  3,10.0,Fair,CLR,51.1,28.9,43.0,,,29.84,1010.3,0.0,0.0,0.0,2025-03-14,3,2025,9,KCHO,0.0,0.0,0.0,0.0,3
2025-03-11,11,2025-03-11 10:53,10:53,EDT,S  3,10.0,Fair,CLR,59.0,32.0,36.0,,,29.84,1010.2,0.0,0.0,0.0,2025-03-14,3,2025,10,KCHO,0.0,0.0,0.0,0.0,3
2025-03-11,11,2025-03-11 11:53,11:53,EDT,S  6,10.0,Fair,CLR,64.9,30.0,27.0,,,29.83,1010.0,0.0,0.0,0.0,2025-03-14,3,2025,11,KCHO,0.0,0.0,0.0,0.0,6
2025-03-11,11,2025-03-11 12:53,12:53,EDT,Vrbl  6,10.0,Fair,CLR,68.0,28.9,23.0,,,29.81,1009.3,0.0,0.0,0.0,2025-03-14,3,2025,12,KCHO,0.0,0.0,0.0,0.0,6
2025-03-11,11,2025-03-11 13:53,13:53,EDT,S  12,10.0,Fair,CLR,70.0,28.9,22.0,,,29.78,1008.3,0.0,0.0,0.0,2025-03-14,3,2025,13,KCHO,0.0,0.0,0.0,0.0,12
2025-03-11,11,2025-03-11 14:53,14:53,EDT,S  6,10.0,Fair,CLR,71.1,28.0,20.0,,,29.76,1007.4,0.0,0.0,0.0,2025-03-14,3,2025,14,KCHO,0.0,0.0,0.0,0.0,6
2025-03-11,11,2025-03-11 15:53,15:53,EDT,SW  8,10.0,Fair,CLR,73.0,27.0,18.0,,,29.73,1006.5,0.0,0.0,0.0,2025-03-14,3,2025,15,KCHO,0.0,0.0,0.0,0.0,8
2025-03-11,11,2025-03-11 16:53,16:53,EDT,SW  7,10.0,Fair,CLR,73.9,28.9,19.0,,,29.72,1006.3,0.0,0.0,0.0,2025-03-14,3,2025,16,KCHO,0.0,0.0,0.0,0.0,7
2025-03-11,11,2025-03-11 17:53,17:53,EDT,S  14,10.0,Fair,CLR,73.0,28.9,19.0,,,29.72,1006.0,0.0,0.0,0.0,2025-03-14,3,2025,17,KCHO,0.0,0.0,0.0,0.0,14
2025-03-11,11,2025-03-11 18:53,18:53,EDT,S  10,10.0,Fair,CLR,69.1,28.0,22.0,,,29.72,1006.3,0.0,0.0,0.0,2025-03-14,3,2025,18,KCHO,0.0,0.0,0.0,0.0,10
2025-03-11,11,2025-03-11 20:53,20:53,EDT,S  7,10.0,Fair,CLR,61.0,28.9,30.0,,,29.76,1007.4,0.0,0.0,0.0,2025-03-14,3,2025,20,KCHO,0.0,0.0,0.0,0.0,7
2025-03-11,11,2025-03-11 21:53,21:53,EDT,SW  5,10.0,Fair,CLR,63.0,28.9,28.0,,,29.78,1008.1,0.0,0.0,0.0,2025-03-14,3,2025,21,KCHO,0.0,0.0,0.0,0.0,5
2025-03-11,11,2025-03-11 22:53,22:53,EDT,SW  3,10.0,Fair,CLR,61.0,28.0,29.0,,,29.79,1008.3,0.0,0.0,0.0,2025-03-14,3,2025,22,KCHO,0.0,0.0,0.0,0.0,3
2025-03-11,11,2025-03-11 23:53,23:53,EDT,S  6,10.0,Fair,CLR,59.0,28.9,32.0,,,29.79,1008.4,0.0,0.0,0.0,2025-03-14,3,2025,23,KCHO,0.0,0.0,0.0,0.0,6
2025-03-12,12,2025-03-12 01:53,01:53,EDT,S  6,10.0,Fair,CLR,59.0,28.0,31.0,,,29.8,1008.6,0.0,0.0,0.0,2025-03-15,3,2025,1,KCHO,0.0,0.0,0.0,0.0,6
2025-03-12,12,2025-03-12 02:53,02:53,EDT,SW  3,10.0,Fair,CLR,53.1,28.9,40.0,,,29.8,1008.8,0.0,0.0,0.0,2025-03-15,3,2025,2,KCHO,0.0,0.0,0.0,0.0,3
2025-03-12,12,2025-03-12 03:53,03:53,EDT,S  7,10.0,Fair,CLR,55.9,28.0,34.0,,,29.8,1008.6,0.0,0.0,0.0,2025-03-15,3,2025,3,KCHO,0.0,0.0,0.0,0.0,7
2025-03-12,12,2025-03-12 04:53,04:53,EDT,SW  3,10.0,Fair,CLR,48.9,28.9,46.0,,,29.81,1009.1,0.0,0.0,0.0,2025-03-15,3,2025,4,KCHO,0.0,0.0,0.0,0.0,3
2025-03-12,12,2025-03-12 05:53,05:53,EDT,N  5,10.0,Fair,CLR,41.0,30.0,65.0,38.0,,29.84,1010.3,0.0,0.0,0.0,2025-03-15,3,2025,5,KCHO,0.0,0.0,0.0,0.0,5
2025-03-12,12,2025-03-12 06:53,06:53,EDT,NE  8,10.0,Fair,CLR,48.9,30.0,48.0,46.0,,29.89,1011.7,0.0,0.0,0.0,2025-03-15,3,2025,6,KCHO,0.0,0.0,0.0,0.0,8
2025-03-12,12,2025-03-12 07:53,07:53,EDT,E  7,10.0,Fair,CLR,51.1,33.1,50.0,,,29.92,1012.9,0.0,0.0,0.0,2025-03-15,3,2025,7,KCHO,0.0,0.0,0.0,0.0,7
2025-03-12,12,2025-03-12 08:53,08:53,EDT,NE  7,10.0,Fair,CLR,54.0,35.1,49.0,,,29.94,1013.6,0.0,0.0,0.0,2025-03-15,3,2025,8,KCHO,0.0,0.0,0.0,0.0,7
2025-03-12,12,2025-03-12 09:53,09:53,EDT,NE  10  G 20,10.0,Fair,CLR,57.0,36.0,45.0,,,29.96,1014.0,0.0,0.0,0.0,2025-03-15,3,2025,9,KCHO,0.0,0.0,0.0,0.0,10
2025-03-12,12,2025-03-12 10:53,10:53,EDT,N  9,10.0,Fair,CLR,59.0,36.0,42.0,,,29.95,1013.9,0.0,0.0,0.0,2025-03-15,3,2025,10,KCHO,0.0,0.0,0.0,0.0,9
2025-03-12,12,2025-03-12 11:53,11:53,EDT,Vrbl  3,10.0,Fair,CLR,62.1,37.0,40.0,,,29.93,1013.2,0.0,0.0,0.0,2025-03-15,3,2025,11,KCHO,0.0,0.0,0.0,0.0,3
2025-03-12,12,2025-03-12 12:53,12:53,EDT,Vrbl  5,10.0,Fair,CLR,64.9,37.0,36.0,,,29.91,1012.4,0.0,0.0,0.0,2025-03-15,3,2025,12,KCHO,0.0,0.0,0.0,0.0,5
2025-03-12,12,2025-03-12 13:53,13:53,EDT,E  7,10.0,Fair,CLR,68.0,37.9,33.0,,,29.87,1011.2,0.0,0.0,0.0,2025-03-15,3,2025,13,KCHO,0.0,0.0,0.0,0.0,7
2025-03-12,12,2025-03-12 14:53,14:53,EDT,SE  8,10.0,Fair,CLR,71.1,37.0,29.0,,,29.84,1009.9,0.0,0.0,0.0,2025-03-15,3,2025,14,KCHO,0.0,0.0,0.0,0.0,8
2025-03-12,12,2025-03-12 15:53,15:53,EDT,SE  3,10.0,Fair,CLR,72.0,36.0,27.0,,,29.81,1009.0,0.0,0.0,0.0,2025-03-15,3,2025,15,KCHO,0.0,0.0,0.0,0.0,3
2025-03-12,12,2025-03-12 16:53,16:53,EDT,S  8,10.0,Fair,CLR,73.0,35.1,25.0,,,29.79,1008.4,0.0,0.0,0.0,2025-03-15,3,2025,16,KCHO,0.0,0.0,0.0,0.0,8
2025-03-12,12,2025-03-12 17:53,17:53,EDT,S  10,10.0,Fair,CLR,73.9,35.1,24.0,,,29.78,1008.2,0.0,0.0,0.0,2025-03-15,3,2025,17,KCHO,0.0,0.0,0.0,0.0,10
2025-03-12,12,2025-03-12 18:53,18:53,EDT,SE  7,10.0,Fair,CLR,71.1,35.1,27.0,,,29.79,1008.3,0.0,0.0,0.0,2025-03-15,3,2025,18,KCHO,0.0,0.0,0.0,0.0,7
2025-03-12,12,2025-03-12 19:53,19:53,EDT,SE  3,10.0,Fair,CLR,69.1,35.1,29.0,,,29.79,1008.5,0.0,0.0,0.0,2025-03-15,3,2025,19,KCHO,0.0,0.0,0.0,0.0,3
2025-03-12,12,2025-03-12 20:53,20:53,EDT,NE  5,10.0,Fair,CLR,60.1,37.0,42.0,,,29.82,1009.7,0.0,0.0,0.0,2025-03-15,3,2025,20,KCHO,0.0,0.0,0.0,0.0,5
2025-03-12,12,2025-03-12 21:53,21:53,EDT,NE  8,10.0,Fair,CLR,57.9,39.0,50.0,,,29.86,1010.6,0.0,0.0,0.0,2025-03-15,3,2025,21,KCHO,0.0,0.0,0.0,0.0,8
2025-03-12,12,2025-03-12 22:53,22:53,EDT,NE  9,10.0,Fair,CLR,55.0,37.0,51.0,,,29.87,1011.3,0.0,0.0,0.0,2025-03-15,3,2025,22,KCHO,0.0,0.0,0.0,0.0,9
2025-03-12,12,2025-03-12 23:53,23:53,EDT,NE  7,10.0,Fair,CLR,52.0,36.0,55.0,,,29.88,1011.6,0.0,0.0,0.0,2025-03-16,3,2025,23,KCHO,0.0,0.0,0.0,0.0,7
2025-03-13,13,2025-03-13 00:53,00:53,EDT,N  6,10.0,Fair,CLR,48.9,34.0,56.0,47.0,,29.89,1011.8,0.0,0.0,0.0,2025-03-16,3,2025,0,KCHO,0.0,0.0,0.0,0.0,6
2025-03-13,13,2025-03-13 01:53,01:53,EDT,N  7,10.0,Fair,CLR,46.0,32.0,58.0,43.0,,29.89,1011.9,0.0,0.0,0.0,2025-03-16,3,2025,1,KCHO,0.0,0.0,0.0,0.0,7
2025-03-13,13,2025-03-13 02:53,02:53,EDT,NE  8,10.0,Fair,CLR,45.0,28.9,54.0,41.0,,29.89,1011.9,0.0,0.0,0.0,2025-03-16,3,2025,2,KCHO,0.0,0.0,0.0,0.0,8
2025-03-13,13,2025-03-13 03:53,03:53,EDT,NE  8,10.0,Fair,CLR,43.0,28.9,58.0,39.0,,29.9,1012.0,0.0,0.0,0.0,2025-03-16,3,2025,3,KCHO,0.0,0.0,0.0,0.0,8
2025-03-13,13,2025-03-13 04:53,04:53,EDT,NE  6,10.0,Fair,CLR,41.0,30.0,65.0,38.0,,29.91,1012.5,0.0,0.0,0.0,2025-03-16,3,2025,4,KCHO,0.0,0.0,0.0,0.0,6
2025-03-13,13,2025-03-13 05:53,05:53,EDT,N  5,10.0,Fair,CLR,39.9,32.0,73.0,37.0,,29.92,1012.9,0.0,0.0,0.0,2025-03-16,3,2025,5,KCHO,0.0,0.0,0.0,0.0,5
2025-03-13,13,2025-03-13 06:53,06:53,EDT,NE  7,10.0,Fair,CLR,41.0,32.0,70.0,37.0,,29.94,1013.4,0.0,0.0,0.0,2025-03-16,3,2025,6,KCHO,0.0,0.0,0.0,0.0,7
2025-03-13,13,2025-03-13 07:53,07:53,EDT,NE  10,10.0,Fair,CLR,39.9,33.1,77.0,34.0,,29.94,1013.7,0.0,0.0,0.0,2025-03-16,3,2025,7,KCHO,0.0,0.0,0.0,0.0,10
2025-03-13,13,2025-03-13 08:53,08:53,EDT,NE  12,10.0,A Few Clouds,FEW009,39.9,35.1,83.0,34.0,,29.97,1014.6,0.0,0.0,0.0,2025-03-16,3,2025,8,KCHO,0.0,0.0,0.0,0.0,12
2025-03-13,13,2025-03-13 09:53,09:53,EDT,NE  8,10.0,Mostly Cloudy,BKN011,43.0,36.0,76.0,39.0,,29.99,1015.4,0.0,0.0,0.0,2025-03-16,3,2025,9,KCHO,0.0,0.0,0.0,0.0,8
2025-03-13,13,2025-03-13 10:53,10:53,EDT,NE  9,10.0,A Few Clouds,FEW016,46.0,36.0,68.0,42.0,,30.0,1015.6,0.0,0.0,0.0,2025-03-16,3,2025,10,KCHO,0.0,0.0,0.0,0.0,9
2025-03-13,13,2025-03-13 11:53,11:53,EDT,N  5,10.0,Fair,CLR,48.0,37.0,66.0,47.0,,30.0,1015.7,0.0,0.0,0.0,2025-03-16,3,2025,11,KCHO,0.0,0.0,0.0,0.0,5
2025-03-13,13,2025-03-13 12:53,12:53,EDT,E  6,10.0,Fair,CLR,53.1,37.9,57.0,,,29.99,1015.5,0.0,0.0,0.0,2025-03-16,3,2025,12,KCHO,0.0,0.0,0.0,0.0,6
2025-03-13,13,2025-03-13 13:53,13:53,EDT,Vrbl  6,10.0,Fair,CLR,55.9,39.0,53.0,,,29.98,1015.1,0.0,0.0,0.0,2025-03-16,3,2025,13,KCHO,0.0,0.0,0.0,0.0,6
2025-03-13,13,2025-03-13 14:53,14:53,EDT,NW  7,10.0,Fair,CLR,57.0,39.9,53.0,,,29.96,1014.3,0.0,0.0,0.0,2025-03-16,3,2025,14,KCHO,0.0,0.0,0.0,0.0,7
2025-03-13,13,2025-03-13 15:53,15:53,EDT,E  6,10.0,Fair,CLR,57.9,39.9,51.0,,,29.94,1013.8,0.0,0.0,0.0,2025-03-16,3,2025,15,KCHO,0.0,0.0,0.0,0.0,6
2025-03-13,13,2025-03-13 16:53,16:53,EDT,E  7,10.0,Fair,CLR,57.9,41.0,53.0,,,29.94,1013.6,0.0,0.0,0.0,2025-03-16,3,2025,16,KCHO,0.0,0.0,0.0,0.0,7
2025-03-13,13,2025-03-13 17:53,17:53,EDT,NE  7,10.0,Fair,CLR,55.9,41.0,57.0,,,29.95,1014.0,0.0,0.0,0.0,2025-03-16,3,2025,17,KCHO,0.0,0.0,0.0,0.0,7
2025-03-13,13,2025-03-13 18:53,18:53,EDT,NE  8,10.0,Partly Cloudy,SCT120,54.0,39.9,59.0,,,29.96,1014.5,0.0,0.0,0.0,2025-03-16,3,2025,18,KCHO,0.0,0.0,0.0,0.0,8
2025-03-13,13,2025-03-13 19:53,19:53,EDT,NE  7,10.0,Partly Cloudy,SCT120,52.0,39.9,64.0,,,29.99,1015.4,0.0,0.0,0.0,2025-03-16,3,2025,19,KCHO,0.0,0.0,0.0,0.0,7
2025-03-13,13,2025-03-13 20:53,20:53,EDT,NE  7,10.0,Fair,CLR,48.9,39.9,71.0,46.0,,30.01,1016.3,0.0,0.0,0.0,2025-03-16,3,2025,20,KCHO,0.0,0.0,0.0,0.0,7
2025-03-13,13,2025-03-13 21:53,21:53,EDT,NE  8,10.0,Partly Cloudy,SCT120,46.9,39.9,77.0,44.0,,30.03,1017.0,0.0,0.0,0.0,2025-03-16,3,2025,21,KCHO,0.0,0.0,0.0,0.0,8
2025-03-13,13,2025-03-13 22:53,22:53,EDT,N  3,10.0,Fair,CLR,45.0,39.0,80.0,,,30.04,1017.4,0.0,0.0,0.0,2025-03-16,3,2025,22,KCHO,0.0,0.0,0.0,0.0,3
2025-03-13,13,2025-03-13 23:53,23:53,EDT,N  3,10.0,Fair,CLR,44.1,39.0,83.0,,,30.05,1017.7,0.0,0.0,0.0,2025-03-16,3,2025,23,KCHO,0.0,0.0,0.0,0.0,3
2025-03-14,14,2025-03-14 00:53,00:53,EDT,Calm,10.0,Fair,CLR,43.0,37.9,82.0,,,30.05,1017.7,0.0,0.0,0.0,2025-03-17,3,2025,0,KCHO,0.0,0.0,0.0,0.0,0
2025-03-14,14,2025-03-14 01:53,01:53,EDT,N  3,10.0,Fair,CLR,42.1,37.9,85.0,,,30.06,1018.0,0.0,0.0,0.0,2025-03-17,3,2025,1,KCHO,0.0,0.0,0.0,0.0,3
2025-03-14,14,2025-03-14 02:53,02:53,EDT,Calm,10.0,Fair,CLR,39.9,37.0,89.0,,,30.06,1017.8,0.0,0.0,0.0,2025-03-17,3,2025,2,KCHO,0.0,0.0,0.0,0.0,0
2025-03-14,14,2025-03-14 03:53,03:53,EDT,Calm,9.0,Partly Cloudy,SCT020,39.0,36.0,89.0,,,30.06,1018.0,0.0,0.0,0.0,2025-03-17,3,2025,3,KCHO,0.0,0.0,0.0,0.0,0
2025-03-14,14,2025-03-14 04:53,04:53,EDT,Calm,8.0,Overcast,OVC020,37.9,36.0,93.0,,,30.06,1017.8,0.0,0.0,0.0,2025-03-17,3,2025,4,KCHO,0.0,0.0,0.0,0.0,0
2025-03-14,14,2025-03-14 05:53,05:53,EDT,Calm,9.0,Overcast,OVC016,39.9,37.9,93.0,,,30.07,1018.1,0.0,0.0,0.0,2025-03-17,3,2025,5,KCHO,0.0,0.0,0.0,0.0,0
2025-03-14,14,2025-03-14 06:53,06:53,EDT,Calm,10.0,Overcast,OVC015,41.0,37.9,89.0,,,30.09,1018.9,0.0,0.0,0.0,2025-03-17,3,2025,6,KCHO,0.0,0.0,0.0,0.0,0
2025-03-14,14,2025-03-14 07:53,07:53,EDT,Calm,8.0,Overcast,OVC015,41.0,37.9,89.0,,,30.11,1019.4,0.0,0.0,0.0,2025-03-17,3,2025,7,KCHO,0.0,0.0,0.0,0.0,0
2025-03-14,14,2025-03-14 08:53,08:53,EDT,NE  3,8.0,Overcast,OVC014,43.0,39.0,86.0,,,30.12,1020.0,0.0,0.0,0.0,2025-03-17,3,2025,8,KCHO,0.0,0.0,0.0,0.0,3
2025-03-14,14,2025-03-14 10:53,10:53,EDT,Calm,9.0,Overcast,OVC012,46.0,39.0,77.0,,,30.15,1021.0,0.0,0.0,0.0,2025-03-17,3,2025,10,KCHO,0.0,0.0,0.0,0.0,0
2025-03-14,14,2025-03-14 11:53,11:53,EDT,Calm,10.0,Mostly Cloudy,BKN014,50.0,41.0,71.0,,,30.13,1020.1,0.0,0.0,0.0,2025-03-17,3,2025,11,KCHO,0.0,0.0,0.0,0.0,0
2025-03-14,14,2025-03-14 12:53,12:53,EDT,Calm,10.0,Fair,CLR,54.0,41.0,62.0,,,30.11,1019.4,0.0,0.0,0.0,2025-03-17,3,2025,12,KCHO,0.0,0.0,0.0,0.0,0
2025-03-14,14,2025-03-14 13:53,13:53,EDT,Vrbl  3,10.0,Fair,CLR,57.9,42.1,56.0,,,30.1,1019.0,0.0,0.0,0.0,2025-03-17,3,2025,13,KCHO,0.0,0.0,0.0,0.0,3
2025-03-14,14,2025-03-14 14:53,14:53,EDT,Vrbl  7,10.0,Fair,CLR,61.0,43.0,52.0,,,30.07,1018.1,0.0,0.0,0.0,2025-03-17,3,2025,14,KCHO,0.0,0.0,0.0,0.0,7
2025-03-14,14,2025-03-14 15:53,15:53,EDT,SE  7,10.0,Fair,CLR,60.1,42.1,52.0,,,30.05,1017.6,0.0,0.0,0.0,2025-03-17,3,2025,15,KCHO,0.0,0.0,0.0,0.0,7
2025-03-14,14,2025-03-14 16:53,16:53,EDT,SE  10,10.0,Fair,CLR,57.0,41.0,55.0,,,30.05,1017.5,0.0,0.0,0.0,2025-03-17,3,2025,16,KCHO,0.0,0.0,0.0,0.0,10
2025-03-14,14,2025-03-14 17:53,17:53,EDT,S  7,10.0,Fair,CLR,57.0,41.0,55.0,,,30.05,1017.4,0.0,0.0,0.0,2025-03-17,3,2025,17,KCHO,0.0,0.0,0.0,0.0,7
2025-03-14,14,2025-03-14 18:53,18:53,EDT,E  7,10.0,Fair,CLR,54.0,39.9,59.0,,,30.06,1018.0,0.0,0.0,0.0,2025-03-17,3,2025,18,KCHO,0.0,0.0,0.0,0.0,7
2025-03-14,14,2025-03-14 19:53,19:53,EDT,E  5,10.0,Fair,CLR,51.1,39.9,66.0,,,30.06,1018.1,0.0,0.0,0.0,2025-03-17,3,2025,19,KCHO,0.0,0.0,0.0,0.0,5
2025-03-14,14,2025-03-14 20:53,20:53,EDT,SE  6,10.0,Fair,CLR,50.0,39.9,68.0,48.0,,30.07,1018.2,0.0,0.0,0.0,2025-03-17,3,2025,20,KCHO,0.0,0.0,0.0,0.0,6
2025-03-14,14,2025-03-14 21:53,21:53,EDT,S  6,10.0,Fair,CLR,46.9,39.9,77.0,45.0,,30.08,1018.6,0.0,0.0,0.0,2025-03-17,3,2025,21,KCHO,0.0,0.0,0.0,0.0,6
2025-03-14,14,2025-03-14 22:53,22:53,EDT,S  8,10.0,Fair,CLR,45.0,39.9,83.0,41.0,,30.08,1018.7,0.0,0.0,0.0,2025-03-17,3,2025,22,KCHO,0.0,0.0,0.0,0.0,8
2025-03-14,14,2025-03-14 23:53,23:53,EDT,S  6,10.0,A Few Clouds,FEW011,44.1,39.0,83.0,41.0,,30.06,1018.0,0.0,0.0,0.0,2025-03-17,3,2025,23,KCHO,0.0,0.0,0.0,0.0,6
2025-03-15,15,2025-03-15 00:53,00:53,EDT,S  7,10.0,Overcast,OVC010,45.0,39.9,83.0,42.0,,30.05,1017.5,0.0,0.0,0.0,2025-03-18,3,2025,0,KCHO,0.0,0.0,0.0,0.0,7
2025-03-15,15,2025-03-15 01:53,01:53,EDT,S  3,9.0,Overcast,OVC009,44.1,39.9,85.0,,,30.04,1017.2,0.0,0.0,0.0,2025-03-18,3,2025,1,KCHO,0.0,0.0,0.0,0.0,3
2025-03-15,15,2025-03-15 02:53,02:53,EDT,S  6,8.0,Overcast,OVC007,44.1,39.9,85.0,41.0,,30.05,1017.4,0.0,0.0,0.0,2025-03-18,3,2025,2,KCHO,0.0,0.0,0.0,0.0,6
2025-03-15,15,2025-03-15 03:53,03:53,EDT,S  6,8.0,Overcast,OVC006,44.1,41.0,89.0,41.0,,30.03,1016.8,0.0,0.0,0.0,2025-03-18,3,2025,3,KCHO,0.0,0.0,0.0,0.0,6
2025-03-15,15,2025-03-15 04:53,04:53,EDT,S  6,7.0,Overcast,OVC005,44.1,41.0,89.0,41.0,,30.04,1017.1,0.0,0.0,0.0,2025-03-18,3,2025,4,KCHO,0.0,0.0,0.0,0.0,6
2025-03-15,15,2025-03-15 05:53,05:53,EDT,S  3,6.0,Fog/Mist,OVC005,44.1,42.1,93.0,,,30.05,1017.4,0.0,0.0,0.0,2025-03-18,3,2025,5,KCHO,0.0,0.0,0.0,0.0,3
2025-03-15,15,2025-03-15 06:53,06:53,EDT,S  5,5.0,Fog/Mist,BKN005 OVC014,44.1,42.1,93.0,42.0,,30.05,1017.4,0.0,0.0,0.0,2025-03-18,3,2025,6,KCHO,0.0,0.0,0.0,0.0,5
2025-03-15,15,2025-03-15 07:53,07:53,EDT,Calm,2.0,Fog/Mist,OVC003,44.1,42.1,93.0,,,30.07,1018.2,0.0,0.0,0.0,2025-03-18,3,2025,7,KCHO,0.0,0.0,0.0,0.0,0
2025-03-15,15,2025-03-15 08:53,08:53,EDT,S  5,1.0,Fog/Mist,OVC002,44.1,43.0,96.0,42.0,,30.08,1018.7,0.0,0.0,0.0,2025-03-18,3,2025,8,KCHO,0.0,0.0,0.0,0.0,5
2025-03-15,15,2025-03-15 09:53,09:53,EDT,Calm,1.0,Fog/Mist,OVC002,45.0,44.1,97.0,,,30.07,1018.4,0.0,0.0,0.0,2025-03-18,3,2025,9,KCHO,0.0,0.0,0.0,0.0,0
2025-03-15,15,2025-03-15 10:53,10:53,EDT,S  6,1.75,Fog/Mist,OVC003,46.0,44.1,93.0,44.0,,30.08,1018.6,0.0,0.0,0.0,2025-03-18,3,2025,10,KCHO,0.0,0.0,0.0,0.0,6
2025-03-15,15,2025-03-15 11:53,11:53,EDT,S  6,1.75,Fog/Mist,OVC003,46.9,45.0,93.0,45.0,,30.09,1018.8,0.0,0.0,0.0,2025-03-18,3,2025,11,KCHO,0.0,0.0,0.0,0.0,6
2025-03-15,15,2025-03-15 12:53,12:53,EDT,S  7,5.0,Fog/Mist,OVC004,48.0,46.0,93.0,45.0,,30.06,1017.8,0.0,0.0,0.0,2025-03-18,3,2025,12,KCHO,0.0,0.0,0.0,0.0,7
2025-03-15,15,2025-03-15 13:53,13:53,EDT,S  3,6.0,Fog/Mist,OVC005,48.9,46.0,90.0,,,30.04,1017.3,0.0,0.0,0.0,2025-03-18,3,2025,13,KCHO,0.0,0.0,0.0,0.0,3
2025-03-15,15,2025-03-15 14:53,14:53,EDT,S  7,10.0,Overcast,SCT008 OVC017,52.0,46.9,83.0,,,30.01,1016.2,0.0,0.0,0.0,2025-03-18,3,2025,14,KCHO,0.0,0.0,0.0,0.0,7
2025-03-15,15,2025-03-15 15:53,15:53,EDT,Calm,10.0,Overcast,BKN008 OVC017,54.0,48.0,80.0,,,29.99,1015.4,0.0,0.0,0.0,2025-03-18,3,2025,15,KCHO,0.0,0.0,0.0,0.0,0
2025-03-15,15,2025-03-15 16:53,16:53,EDT,S  5,10.0,Overcast,OVC022,55.9,48.9,77.0,,,29.96,1014.3,0.0,0.0,0.0,2025-03-18,3,2025,16,KCHO,0.0,0.0,0.0,0.0,5
2025-03-15,15,2025-03-15 17:53,17:53,EDT,Calm,10.0,Overcast,OVC020,55.9,48.9,77.0,,,29.95,1014.0,0.0,0.0,0.0,2025-03-18,3,2025,17,KCHO,0.0,0.0,0.0,0.0,0
2025-03-15,15,2025-03-15 18:53,18:53,EDT,Calm,10.0,Overcast,OVC017,53.1,46.9,80.0,,,29.95,1014.3,0.0,0.0,0.0,2025-03-18,3,2025,18,KCHO,0.0,0.0,0.0,0.0,0
2025-03-15,15,2025-03-15 19:53,19:53,EDT,S  6,10.0,Overcast,OVC011,55.0,50.0,83.0,,,29.95,1014.1,0.0,0.0,0.0,2025-03-18,3,2025,19,KCHO,0.0,0.0,0.0,0.0,6
2025-03-15,15,2025-03-15 20:53,20:53,EDT,N  3,10.0,Overcast,BKN010 BKN014 OVC045,52.0,48.0,86.0,,,29.94,1013.9,0.0,0.0,0.0,2025-03-18,3,2025,20,KCHO,0.0,0.0,0.0,0.0,3
2025-03-15,15,2025-03-15 21:53,21:53,EDT,Vrbl  3,10.0,Overcast,OVC043,52.0,48.0,86.0,,,29.95,1014.2,0.0,0.0,0.0,2025-03-18,3,2025,21,KCHO,0.0,0.0,0.0,0.0,3
2025-03-15,15,2025-03-15 22:53,22:53,EDT,Calm,10.0,Overcast,SCT008 OVC039,52.0,48.0,86.0,,,29.95,1014.0,0.0,0.0,0.0,2025-03-18,3,2025,22,KCHO,0.0,0.0,0.0,0.0,0
2025-03-15,15,2025-03-15 23:53,23:53,EDT,Calm,10.0,A Few Clouds,FEW044,51.1,48.0,89.0,,,29.92,1013.1,0.0,0.0,0.0,2025-03-18,3,2025,23,KCHO,0.0,0.0,0.0,0.0,0
2025-03-16,16,2025-03-16 00:53,00:53,EDT,Vrbl  3,9.0,Mostly Cloudy,FEW018 FEW031 BKN055,51.1,48.0,89.0,,,29.9,1012.5,0.0,0.0,0.0,2025-03-19,3,2025,0,KCHO,0.0,0.0,0.0,0.0,3
2025-03-16,16,2025-03-16 01:53,01:53,EDT,Calm,10.0,Overcast,OVC014,53.1,51.1,93.0,,,29.9,1012.2,0.0,0.0,0.0,2025-03-19,3,2025,1,KCHO,0.0,0.0,0.0,0.0,0
2025-03-16,16,2025-03-16 02:53,02:53,EDT,S  9,10.0,Overcast,BKN012 OVC019,55.9,53.1,90.0,,,29.88,1011.5,0.0,0.0,0.0,2025-03-19,3,2025,2,KCHO,0.0,0.0,0.0,0.0,9
2025-03-16,16,2025-03-16 03:53,03:53,EDT,S  9,10.0,Overcast,BKN019 BKN025 OVC060,55.9,54.0,93.0,,,29.84,1010.3,0.0,0.0,0.0,2025-03-19,3,2025,3,KCHO,0.0,0.0,0.0,0.0,9
2025-03-16,16,2025-03-16 04:53,04:53,EDT,S  9,10.0,Overcast,BKN020 OVC027,57.9,55.0,90.0,,,29.83,1009.9,0.0,0.0,0.0,2025-03-19,3,2025,4,KCHO,0.0,0.0,0.0,0.0,9
2025-03-16,16,2025-03-16 05:53,05:53,EDT,S  12,10.0,Overcast,BKN022 BKN027 OVC032,60.1,57.0,90.0,,,29.81,1009.2,0.0,0.0,0.0,2025-03-19,3,2025,5,KCHO,0.0,0.0,0.0,0.0,12
2025-03-16,16,2025-03-16 06:53,06:53,EDT,S  13,10.0,Overcast,OVC023,61.0,57.0,87.0,,,29.79,1008.7,0.0,0.0,0.0,2025-03-19,3,2025,6,KCHO,0.0,0.0,0.0,0.0,13
2025-03-16,16,2025-03-16 07:53,07:53,EDT,S  13,10.0,Overcast,FEW017 BKN023 OVC033,63.0,57.9,84.0,,,29.79,1008.3,0.0,0.0,0.0,2025-03-19,3,2025,7,KCHO,0.0,0.0,0.0,0.0,13
2025-03-16,16,2025-03-16 08:53,08:53,EDT,S  18  G 30,10.0,Overcast,SCT019 BKN027 OVC033,64.0,57.9,81.0,,,29.75,1007.2,0.0,0.0,0.0,2025-03-19,3,2025,8,KCHO,0.0,0.0,0.0,0.0,18
2025-03-16,16,2025-03-16 09:53,09:53,EDT,S  18  G 31,10.0,Light Rain,OVC023,64.9,57.9,78.0,,,29.77,1007.7,0.0,0.0,0.0,2025-03-19,3,2025,9,KCHO,0.0,0.0,0.0,0.0,18
2025-03-16,16,2025-03-16 10:53,10:53,EDT,S  12  G 22,5.0,Light Rain Fog/Mist,BKN022 OVC029,64.0,60.1,87.0,,,29.79,1008.4,0.01,0.01,0.0,2025-03-19,3,2025,10,KCHO,0.01,0.01,0.01,0.010000000000000111,12
2025-03-16,16,2025-03-16 11:53,11:53,EDT,S  23  G 35,10.0,Mostly Cloudy and Breezy,BKN024 BKN032 BKN110,66.9,60.1,79.0,,,29.73,1006.3,0.0,0.0,0.0,2025-03-19,3,2025,11,KCHO,0.01,0.01,0.01,0.010000000000000111,23
2025-03-16,16,2025-03-16 12:53,12:53,EDT,S  17  G 24,10.0,Overcast,BKN025 OVC120,64.9,61.0,87.0,,,29.74,1006.8,0.02,0.0,0.0,2025-03-19,3,2025,12,KCHO,0.03,0.03,0.03,0.03000000000000011,17
2025-03-16,16,2025-03-16 13:53,13:53,EDT,S  13  G 25,10.0,Overcast,BKN014 OVC019,64.9,61.0,87.0,,,29.74,1006.8,0.0,0.0,0.03,2025-03-19,3,2025,13,KCHO,0.02,0.030000000000000002,0.030000000000000002,0.030000000000000113,13
2025-03-16,16,2025-03-16 14:53,14:53,EDT,S  15  G 33,10.0,Overcast,FEW025 BKN033 OVC042,68.0,59.0,73.0,,,29.71,1005.6,0.0,0.0,0.0,2025-03-19,3,2025,14,KCHO,0.020000000000000004,0.030000000000000002,0.030000000000000002,0.030000000000000113,15
2025-03-16,16,2025-03-16 15:53,15:53,EDT,S  21  G 32,10.0,Mostly Cloudy and Breezy,BKN033 BKN045,73.0,59.0,62.0,,,29.68,1004.3,0.0,0.0,0.0,2025-03-19,3,2025,15,KCHO,0.0,0.030000000000000002,0.030000000000000002,0.030000000000000113,21
2025-03-16,16,2025-03-16 16:53,16:53,EDT,S  21  G 33,10.0,Partly Cloudy and Breezy,FEW034 SCT043 SCT049,73.0,57.0,57.0,,,29.67,1004.1,0.0,0.0,0.0,2025-03-19,3,2025,16,KCHO,0.0,0.020000000000000004,0.030000000000000002,0.030000000000000113,21
2025-03-16,16,2025-03-16 17:53,17:53,EDT,S  15  G 25,10.0,Mostly Cloudy,SCT036 BKN046,72.0,57.9,61.0,,,29.65,1003.6,0.0,0.0,0.0,2025-03-19,3,2025,17,KCHO,0.0,0.020000000000000004,0.030000000000000002,0.030000000000000113,15
2025-03-16,16,2025-03-16 18:53,18:53,EDT,S  21  G 28,10.0,A Few Clouds and Breezy,FEW037,70.0,57.9,66.0,,,29.66,1003.7,0.0,0.0,0.0,2025-03-19,3,2025,18,KCHO,0.0,0.0,0.030000000000000002,0.030000000000000113,21
2025-03-16,16,2025-03-16 19:53,19:53,EDT,S  17  G 28,10.0,Mostly Cloudy,SCT023 BKN034 BKN047,68.0,60.1,76.0,,,29.67,1004.1,0.0,0.0,0.0,2025-03-19,3,2025,19,KCHO,0.0,0.0,0.030000000000000002,0.030000000000000113,17
2025-03-16,16,2025-03-16 20:53,20:53,EDT,S  13  G 24,10.0,Mostly Cloudy,SCT022 BKN031 BKN070,66.9,60.1,79.0,,,29.69,1004.8,0.0,0.0,0.0,2025-03-19,3,2025,20,KCHO,0.0,0.0,0.030000000000000002,0.030000000000000113,13
2025-03-16,16,2025-03-16 21:53,21:53,EDT,Vrbl  7,4.0,Thunderstorm in Vicinity Rain,FEW019 BKN036 OVC046,60.1,55.0,84.0,,,29.74,1006.7,0.06,0.0,0.0,2025-03-19,3,2025,21,KCHO,0.06,0.06,0.09,0.09000000000000011,7
2025-03-16,16,2025-03-16 22:53,22:53,EDT,S  6,10.0,Overcast,SCT050 BKN060 OVC080,57.0,54.0,90.0,,,29.75,1007.0,0.1,0.16,0.0,2025-03-19,3,2025,22,KCHO,0.16,0.16,0.18,0.1900000000000001,6
2025-03-16,16,2025-03-16 23:53,23:53,EDT,S  3,10.0,A Few Clouds,FEW060,55.9,54.0,93.0,,,29.74,1006.7,0.0,0.0,0.0,2025-03-19,3,2025,23,KCHO,0.16,0.16,0.18,0.1900000000000001,3
2025-03-17,17,2025-03-17 00:53,00:53,EDT,Calm,10.0,Fair,CLR,55.9,54.0,93.0,,,29.75,1007.1,0.0,0.0,0.0,2025-03-20,3,2025,0,KCHO,0.1,0.16,0.15999999999999998,0.1900000000000001,0
2025-03-17,17,2025-03-17 01:53,01:53,EDT,NW  6,10.0,A Few Clouds,FEW120,59.0,50.0,72.0,,,29.78,1007.8,0.0,0.0,0.16,2025-03-20,3,2025,1,KCHO,0.0,0.16,0.15999999999999998,0.1900000000000001,6
2025-03-17,17,2025-03-17 02:53,02:53,EDT,NW  6,10.0,A Few Clouds,FEW120,59.0,46.0,62.0,,,29.77,1007.7,0.0,0.0,0.0,2025-03-20,3,2025,2,KCHO,0.0,0.16,0.15999999999999998,0.1900000000000001,6
2025-03-17,17,2025-03-17 03:53,03:53,EDT,Vrbl  5,10.0,A Few Clouds,FEW120,59.0,45.0,60.0,,,29.79,1008.3,0.0,0.0,0.0,2025-03-20,3,2025,3,KCHO,0.0,0.1,0.15999999999999998,0.1900000000000001,5
2025-03-17,17,2025-03-17 04:53,04:53,EDT,N  6,10.0,Partly Cloudy,FEW046 SCT120,55.9,46.0,70.0,,,29.8,1008.5,0.0,0.0,0.0,2025-03-20,3,2025,4,KCHO,0.0,0.0,0.15999999999999998,0.1900000000000001,6
2025-03-17,17,2025-03-17 05:53,05:53,EDT,N  8,10.0,Mostly Cloudy,SCT050 BKN095,55.0,42.1,62.0,,,29.83,1009.5,0.0,0.0,0.0,2025-03-20,3,2025,5,KCHO,0.0,0.0,0.15999999999999998,0.1900000000000001,8
2025-03-17,17,2025-03-17 06:53,06:53,EDT,Vrbl  5,10.0,Overcast,FEW050 OVC085,53.1,39.9,61.0,,,29.84,1010.2,0.0,0.0,0.0,2025-03-20,3,2025,6,KCHO,0.0,0.0,0.15999999999999998,0.1900000000000001,5
2025-03-17,17,2025-03-17 07:53,07:53,EDT,NW  7,10.0,Overcast,OVC085,52.0,37.9,59.0,,,29.88,1011.5,0.0,0.0,0.0,2025-03-20,3,2025,7,KCHO,0.0,0.0,0.15999999999999998,0.1900000000000001,7
2025-03-17,17,2025-03-17 08:53,08:53,EDT,NW  8  G 18,10.0,Partly Cloudy,FEW050 SCT090,51.1,37.0,59.0,,,29.92,1012.7,0.0,0.0,0.0,2025-03-20,3,2025,8,KCHO,0.0,0.0,0.15999999999999998,0.1900000000000001,8
2025-03-17,17,2025-03-17 09:53,09:53,EDT,NW  12  G 23,10.0,A Few Clouds,FEW110,52.0,36.0,55.0,,,29.93,1013.4,0.0,0.0,0.0,2025-03-20,3,2025,9,KCHO,0.0,0.0,0.1,0.1900000000000001,12
2025-03-17,17,2025-03-17 10:53,10:53,EDT,N  9  G 25,10.0,Fair,CLR,52.0,34.0,50.0,,,29.97,1014.5,0.0,0.0,0.0,2025-03-20,3,2025,10,KCHO,0.0,0.0,0.0,0.1800000000000001,9
2025-03-17,17,2025-03-17 11:53,11:53,EDT,NW  10  G 24,10.0,Fair,CLR,52.0,33.1,49.0,,,29.97,1014.7,0.0,0.0,0.0,2025-03-20,3,2025,11,KCHO,0.0,0.0,0.0,0.1800000000000001,10
2025-03-17,17,2025-03-17 12:53,12:53,EDT,N  14  G 28,10.0,A Few Clouds,FEW042,52.0,33.1,49.0,,,29.98,1014.8,0.0,0.0,0.0,2025-03-20,3,2025,12,KCHO,0.0,0.0,0.0,0.16000000000000011,14
2025-03-17,17,2025-03-17 13:53,13:53,EDT,N  10  G 21,10.0,Fair,CLR,54.0,32.0,43.0,,,29.96,1014.3,0.0,0.0,0.0,2025-03-20,3,2025,13,KCHO,0.0,0.0,0.0,0.16000000000000011,10
2025-03-17,17,2025-03-17 14:53,14:53,EDT,NW  10  G 22,10.0,Fair,CLR,54.0,32.0,43.0,,,29.94,1013.7,0.0,0.0,0.0,2025-03-20,3,2025,14,KCHO,0.0,0.0,0.0,0.16000000000000011,10
2025-03-17,17,2025-03-17 15:53,15:53,EDT,NW  14  G 26,10.0,Fair,CLR,55.0,30.9,40.0,,,29.94,1013.6,0.0,0.0,0.0,2025-03-20,3,2025,15,KCHO,0.0,0.0,0.0,0.16000000000000011,14
2025-03-17,17,2025-03-17 16:53,16:53,EDT,NW  15  G 24,10.0,Fair,CLR,55.0,30.0,38.0,,,29.95,1013.9,0.0,0.0,0.0,2025-03-20,3,2025,16,KCHO,0.0,0.0,0.0,0.16000000000000011,15
2025-03-17,17,2025-03-17 17:53,17:53,EDT,NW  10  G 18,10.0,Fair,CLR,54.0,28.0,37.0,,,29.96,1014.4,0.0,0.0,0.0,2025-03-20,3,2025,17,KCHO,0.0,0.0,0.0,0.16000000000000011,10
2025-03-17,17,2025-03-17 18:53,18:53,EDT,NW  9  G 20,10.0,Fair,CLR,50.0,27.0,41.0,47.0,,29.98,1015.2,0.0,0.0,0.0,2025-03-20,3,2025,18,KCHO,0.0,0.0,0.0,0.16000000000000011,9
2025-03-17,17,2025-03-17 19:53,19:53,EDT,N  7  G 18,10.0,Fair,CLR,48.9,23.0,36.0,46.0,,30.0,1015.7,0.0,0.0,0.0,2025-03-20,3,2025,19,KCHO,0.0,0.0,0.0,0.16000000000000011,7
2025-03-17,17,2025-03-17 20:53,20:53,EDT,N  6,10.0,Fair,CLR,46.9,23.0,39.0,45.0,,30.03,1016.8,0.0,0.0,0.0,2025-03-20,3,2025,20,KCHO,0.0,0.0,0.0,0.16000000000000011,6
2025-03-17,17,2025-03-17 21:53,21:53,EDT,NW  5,10.0,Fair,CLR,46.0,23.0,40.0,44.0,,30.05,1017.7,0.0,0.0,0.0,2025-03-20,3,2025,21,KCHO,0.0,0.0,0.0,0.10000000000000012,5
2025-03-17,17,2025-03-17 22:53,22:53,EDT,N  8,10.0,Fair,CLR,46.0,21.9,38.0,42.0,,30.09,1018.8,0.0,0.0,0.0,2025-03-20,3,2025,22,KCHO,0.0,0.0,0.0,0.0,8
2025-03-17,17,2025-03-17 23:53,23:53,EDT,NW  6,10.0,Fair,CLR,44.1,21.0,40.0,41.0,,30.09,1018.8,0.0,0.0,0.0,2025-03-20,3,2025,23,KCHO,0.0,0.0,0.0,0.0,6
2025-03-18,18,2025-03-18 00:53,00:53,EDT,N  8,10.0,Fair,CLR,44.1,19.9,38.0,40.0,,30.09,1018.9,0.0,0.0,0.0,2025-03-21,3,2025,0,KCHO,0.0,0.0,0.0,0.0,8
2025-03-18,18,2025-03-18 01:53,01:53,EDT,NW  9  G 20,10.0,Fair,CLR,44.1,19.0,37.0,40.0,,30.1,1019.1,0.0,0.0,0.0,2025-03-21,3,2025,1,KCHO,0.0,0.0,0.0,0.0,9
2025-03-18,18,2025-03-18 02:53,02:53,EDT,NW  13  G 22,10.0,Fair,CLR,45.0,18.0,34.0,39.0,,30.1,1019.2,0.0,0.0,0.0,2025-03-21,3,2025,2,KCHO,0.0,0.0,0.0,0.0,13
2025-03-18,18,2025-03-18 03:53,03:53,EDT,NW  7,10.0,Fair,CLR,43.0,17.1,35.0,39.0,,30.1,1019.1,0.0,0.0,0.0,2025-03-21,3,2025,3,KCHO,0.0,0.0,0.0,0.0,7
2025-03-18,18,2025-03-18 04:53,04:53,EDT,W  5,10.0,Fair,CLR,43.0,16.0,34.0,41.0,,30.1,1019.3,0.0,0.0,0.0,2025-03-21,3,2025,4,KCHO,0.0,0.0,0.0,0.0,5
2025-03-18,18,2025-03-18 05:53,05:53,EDT,W  3,10.0,Fair,CLR,43.0,17.1,35.0,,,30.12,1019.9,0.0,0.0,0.0,2025-03-21,3,2025,5,KCHO,0.0,0.0,0.0,0.0,3
2025-03-18,18,2025-03-18 06:53,06:53,EDT,NW  6,10.0,Fair,CLR,44.1,17.1,34.0,41.0,,30.13,1020.3,0.0,0.0,0.0,2025-03-21,3,2025,6,KCHO,0.0,0.0,0.0,0.0,6
2025-03-18,18,2025-03-18 07:53,07:53,EDT,NW  6,10.0,Fair,CLR,45.0,18.0,34.0,42.0,,30.13,1020.4,0.0,0.0,0.0,2025-03-21,3,2025,7,KCHO,0.0,0.0,0.0,0.0,6
2025-03-18,18,2025-03-18 08:53,08:53,EDT,NW  6,10.0,Fair,CLR,48.9,19.0,31.0,47.0,,30.14,1020.8,0.0,0.0,0.0,2025-03-21,3,2025,8,KCHO,0.0,0.0,0.0,0.0,6
2025-03-18,18,2025-03-18 09:53,09:53,EDT,S  3,10.0,Fair,CLR,51.1,19.9,29.0,,,30.16,1021.4,0.0,0.0,0.0,2025-03-21,3,2025,9,KCHO,0.0,0.0,0.0,0.0,3
2025-03-18,18,2025-03-18 10:53,10:53,EDT,SE  5,10.0,Fair,CLR,55.0,21.9,28.0,,,30.16,1021.2,0.0,0.0,0.0,2025-03-21,3,2025,10,KCHO,0.0,0.0,0.0,0.0,5
2025-03-18,18,2025-03-18 11:53,11:53,EDT,Vrbl  5,10.0,Fair,CLR,59.0,21.9,24.0,,,30.14,1020.6,0.0,0.0,0.0,2025-03-21,3,2025,11,KCHO,0.0,0.0,0.0,0.0,5
2025-03-18,18,2025-03-18 12:53,12:53,EDT,S  8,10.0,Fair,CLR,62.1,21.0,21.0,,,30.11,1019.5,0.0,0.0,0.0,2025-03-21,3,2025,12,KCHO,0.0,0.0,0.0,0.0,8
2025-03-18,18,2025-03-18 13:53,13:53,EDT,S  7,10.0,Fair,CLR,64.0,19.9,18.0,,,30.08,1018.5,0.0,0.0,0.0,2025-03-21,3,2025,13,KCHO,0.0,0.0,0.0,0.0,7
2025-03-18,18,2025-03-18 14:53,14:53,EDT,S  6,10.0,Fair,CLR,66.0,21.0,18.0,,,30.05,1017.4,0.0,0.0,0.0,2025-03-21,3,2025,14,KCHO,0.0,0.0,0.0,0.0,6
2025-03-18,18,2025-03-18 15:53,15:53,EDT,Calm,10.0,Fair,CLR,68.0,19.9,16.0,,,30.03,1016.7,0.0,0.0,0.0,2025-03-21,3,2025,15,KCHO,0.0,0.0,0.0,0.0,0
2025-03-18,18,2025-03-18 16:53,16:53,EDT,Vrbl  7,10.0,Fair,CLR,69.1,19.9,15.0,,,30.02,1016.3,0.0,0.0,0.0,2025-03-21,3,2025,16,KCHO,0.0,0.0,0.0,0.0,7
2025-03-18,18,2025-03-18 17:53,17:53,EDT,S  6,10.0,Fair,CLR,68.0,21.0,17.0,,,30.01,1016.1,0.0,0.0,0.0,2025-03-21,3,2025,17,KCHO,0.0,0.0,0.0,0.0,6
2025-03-18,18,2025-03-18 18:53,18:53,EDT,S  7,10.0,Fair,CLR,63.0,21.9,21.0,,,30.02,1016.4,0.0,0.0,0.0,2025-03-21,3,2025,18,KCHO,0.0,0.0,0.0,0.0,7
2025-03-18,18,2025-03-18 19:53,19:53,EDT,S  5,10.0,Fair,CLR,62.1,21.0,21.0,,,30.03,1016.6,0.0,0.0,0.0,2025-03-21,3,2025,19,KCHO,0.0,0.0,0.0,0.0,5
2025-03-18,18,2025-03-18 20:53,20:53,EDT,SE  5,10.0,Fair,CLR,57.9,21.9,25.0,,,30.05,1017.2,0.0,0.0,0.0,2025-03-21,3,2025,20,KCHO,0.0,0.0,0.0,0.0,5
2025-03-18,18,2025-03-18 21:53,21:53,EDT,SW  3,10.0,Fair,CLR,60.1,21.0,22.0,,,30.06,1017.6,0.0,0.0,0.0,2025-03-21,3,2025,21,KCHO,0.0,0.0,0.0,0.0,3
2025-03-18,18,2025-03-18 22:53,22:53,EDT,S  6,10.0,Fair,CLR,55.9,24.1,29.0,,,30.06,1017.5,0.0,0.0,0.0,2025-03-21,3,2025,22,KCHO,0.0,0.0,0.0,0.0,6
2025-03-18,18,2025-03-18 23:53,23:53,EDT,Calm,10.0,Fair,CLR,50.0,24.1,36.0,,,30.05,1017.4,0.0,0.0,0.0,2025-03-21,3,2025,23,KCHO,0.0,0.0,0.0,0.0,0
2025-03-19,19,2025-03-19 00:53,00:53,EDT,Calm,10.0,Fair,CLR,46.9,25.0,42.0,,,30.04,1017.0,0.0,0.0,0.0,2025-03-22,3,2025,0,KCHO,0.0,0.0,0.0,0.0,0
2025-03-19,19,2025-03-19 01:53,01:53,EDT,W  6,10.0,Fair,CLR,45.0,27.0,49.0,42.0,,30.03,1016.7,0.0,0.0,0.0,2025-03-22,3,2025,1,KCHO,0.0,0.0,0.0,0.0,6
2025-03-19,19,2025-03-19 02:53,02:53,EDT,W  3,10.0,Fair,CLR,45.0,27.0,49.0,,,30.02,1016.4,0.0,0.0,0.0,2025-03-22,3,2025,2,KCHO,0.0,0.0,0.0,0.0,3
2025-03-19,19,2025-03-19 03:53,03:53,EDT,Calm,10.0,Fair,CLR,43.0,28.0,56.0,,,30.0,1015.7,0.0,0.0,0.0,2025-03-22,3,2025,3,KCHO,0.0,0.0,0.0,0.0,0
2025-03-19,19,2025-03-19 04:53,04:53,EDT,Calm,10.0,Fair,CLR,41.0,28.0,60.0,,,30.0,1015.8,0.0,0.0,0.0,2025-03-22,3,2025,4,KCHO,0.0,0.0,0.0,0.0,0
2025-03-19,19,2025-03-19 05:53,05:53,EDT,Calm,10.0,Fair,CLR,39.0,28.9,67.0,,,30.02,1016.3,0.0,0.0,0.0,2025-03-22,3,2025,5,KCHO,0.0,0.0,0.0,0.0,0
2025-03-19,19,2025-03-19 06:53,06:53,EDT,Calm,10.0,Fair,CLR,39.9,28.0,63.0,,,30.03,1016.8,0.0,0.0,0.0,2025-03-22,3,2025,6,KCHO,0.0,0.0,0.0,0.0,0
2025-03-19,19,2025-03-19 07:53,07:53,EDT,Calm,10.0,Fair,CLR,39.0,28.9,67.0,,,30.05,1017.3,0.0,0.0,0.0,2025-03-22,3,2025,7,KCHO,0.0,0.0,0.0,0.0,0
2025-03-19,19,2025-03-19 08:53,08:53,EDT,Calm,10.0,Fair,CLR,46.9,30.9,54.0,,,30.05,1017.4,0.0,0.0,0.0,2025-03-22,3,2025,8,KCHO,0.0,0.0,0.0,0.0,0
2025-03-19,19,2025-03-19 09:53,09:53,EDT,Calm,10.0,Fair,CLR,53.1,30.9,43.0,,,30.05,1017.4,0.0,0.0,0.0,2025-03-22,3,2025,9,KCHO,0.0,0.0,0.0,0.0,0
2025-03-19,19,2025-03-19 10:53,10:53,EDT,Calm,10.0,Fair,CLR,60.1,33.1,36.0,,,30.04,1016.9,0.0,0.0,0.0,2025-03-22,3,2025,10,KCHO,0.0,0.0,0.0,0.0,0
2025-03-19,19,2025-03-19 11:53,11:53,EDT,S  6,10.0,Fair,CLR,63.0,30.0,29.0,,,30.03,1016.7,0.0,0.0,0.0,2025-03-22,3,2025,11,KCHO,0.0,0.0,0.0,0.0,6
2025-03-19,19,2025-03-19 12:53,12:53,EDT,Calm,10.0,Fair,CLR,66.9,32.0,27.0,,,30.01,1016.0,0.0,0.0,0.0,2025-03-22,3,2025,12,KCHO,0.0,0.0,0.0,0.0,0
2025-03-19,19,2025-03-19 13:53,13:53,EDT,Vrbl  6,10.0,Fair,CLR,71.1,33.1,25.0,,,29.97,1014.6,0.0,0.0,0.0,2025-03-22,3,2025,13,KCHO,0.0,0.0,0.0,0.0,6
2025-03-19,19,2025-03-19 14:53,14:53,EDT,S  8,10.0,Fair,CLR,73.0,35.1,25.0,,,29.94,1013.4,0.0,0.0,0.0,2025-03-22,3,2025,14,KCHO,0.0,0.0,0.0,0.0,8
2025-03-19,19,2025-03-19 15:53,15:53,EDT,S  13,10.0,Fair,CLR,75.0,34.0,22.0,,76.0,29.92,1012.7,0.0,0.0,0.0,2025-03-22,3,2025,15,KCHO,0.0,0.0,0.0,0.0,13
2025-03-19,19,2025-03-19 16:53,16:53,EDT,S  13,10.0,Fair,CLR,75.0,32.0,21.0,,76.0,29.89,1011.7,0.0,0.0,0.0,2025-03-22,3,2025,16,KCHO,0.0,0.0,0.0,0.0,13
2025-03-19,19,2025-03-19 17:53,17:53,EDT,S  9,10.0,Fair,CLR,73.9,33.1,22.0,,,29.87,1011.3,0.0,0.0,0.0,2025-03-22,3,2025,17,KCHO,0.0,0.0,0.0,0.0,9
2025-03-19,19,2025-03-19 18:53,18:53,EDT,S  8,10.0,Fair,CLR,72.0,30.9,22.0,,,29.87,1011.4,0.0,0.0,0.0,2025-03-22,3,2025,18,KCHO,0.0,0.0,0.0,0.0,8
2025-03-19,19,2025-03-19 19:53,19:53,EDT,S  9,10.0,Fair,CLR,68.0,32.0,26.0,,,29.86,1011.0,0.0,0.0,0.0,2025-03-22,3,2025,19,KCHO,0.0,0.0,0.0,0.0,9
2025-03-19,19,2025-03-19 20:53,20:53,EDT,S  12,10.0,Fair,CLR,68.0,33.1,27.0,,,29.87,1011.1,0.0,0.0,0.0,2025-03-22,3,2025,20,KCHO,0.0,0.0,0.0,0.0,12
2025-03-19,19,2025-03-19 21:53,21:53,EDT,S  12,10.0,Fair,CLR,64.9,35.1,33.0,,,29.86,1010.7,0.0,0.0,0.0,2025-03-22,3,2025,21,KCHO,0.0,0.0,0.0,0.0,12
2025-03-19,19,2025-03-19 22:53,22:53,EDT,S  12,10.0,Fair,CLR,64.0,36.0,35.0,,,29.85,1010.4,0.0,0.0,0.0,2025-03-22,3,2025,22,KCHO,0.0,0.0,0.0,0.0,12
2025-03-19,19,2025-03-19 23:53,23:53,EDT,S  12,10.0,Fair,CLR,63.0,36.0,37.0,,,29.83,1009.8,0.0,0.0,0.0,2025-03-23,3,2025,23,KCHO,0.0,0.0,0.0,0.0,12
2025-03-20,20,2025-03-20 00:53,00:53,EDT,S  10,10.0,Fair,CLR,60.1,36.0,41.0,,,29.82,1009.4,0.0,0.0,0.0,2025-03-23,3,2025,0,KCHO,0.0,0.0,0.0,0.0,10
2025-03-20,20,2025-03-20 01:53,01:53,EDT,S  6,10.0,Fair,CLR,57.0,35.1,44.0,,,29.8,1008.7,0.0,0.0,0.0,2025-03-23,3,2025,1,KCHO,0.0,0.0,0.0,0.0,6
2025-03-20,20,2025-03-20 02:53,02:53,EDT,S  7,10.0,Fair,CLR,55.0,35.1,47.0,,,29.78,1008.0,0.0,0.0,0.0,2025-03-23,3,2025,2,KCHO,0.0,0.0,0.0,0.0,7
2025-03-20,20,2025-03-20 03:53,03:53,EDT,Calm,10.0,Fair,CLR,53.1,36.0,52.0,,,29.76,1007.3,0.0,0.0,0.0,2025-03-23,3,2025,3,KCHO,0.0,0.0,0.0,0.0,0
2025-03-20,20,2025-03-20 04:53,04:53,EDT,Calm,10.0,Fair,CLR,50.0,36.0,59.0,,,29.74,1006.7,0.0,0.0,0.0,2025-03-23,3,2025,4,KCHO,0.0,0.0,0.0,0.0,0
2025-03-20,20,2025-03-20 05:53,05:53,EDT,S  3,10.0,Fair,CLR,52.0,35.1,53.0,,,29.73,1006.2,0.0,0.0,0.0,2025-03-23,3,2025,5,KCHO,0.0,0.0,0.0,0.0,3
2025-03-20,20,2025-03-20 06:53,06:53,EDT,S  8,10.0,Fair,CLR,48.0,36.0,63.0,45.0,,29.72,1005.9,0.0,0.0,0.0,2025-03-23,3,2025,6,KCHO,0.0,0.0,0.0,0.0,8
2025-03-20,20,2025-03-20 07:53,07:53,EDT,S  7,10.0,Fair,CLR,50.0,37.0,61.0,48.0,,29.71,1005.7,0.0,0.0,0.0,2025-03-23,3,2025,7,KCHO,0.0,0.0,0.0,0.0,7
2025-03-20,20,2025-03-20 08:53,08:53,EDT,S  7,10.0,Fair,CLR,54.0,37.9,55.0,,,29.69,1004.9,0.0,0.0,0.0,2025-03-23,3,2025,8,KCHO,0.0,0.0,0.0,0.0,7
2025-03-20,20,2025-03-20 09:53,09:53,EDT,S  8,10.0,Fair,CLR,57.9,37.0,46.0,,,29.66,1004.0,0.0,0.0,0.0,2025-03-23,3,2025,9,KCHO,0.0,0.0,0.0,0.0,8
2025-03-20,20,2025-03-20 10:53,10:53,EDT,S  10,10.0,Fair,CLR,62.1,39.0,43.0,,,29.64,1003.4,0.0,0.0,0.0,2025-03-23,3,2025,10,KCHO,0.0,0.0,0.0,0.0,10
2025-03-20,20,2025-03-20 11:53,11:53,EDT,S  12  G 23,10.0,Fair,CLR,66.9,39.9,37.0,,,29.61,1002.0,0.0,0.0,0.0,2025-03-23,3,2025,11,KCHO,0.0,0.0,0.0,0.0,12
2025-03-20,20,2025-03-20 12:53,12:53,EDT,S  14  G 25,10.0,Fair,CLR,72.0,44.1,37.0,,,29.57,1000.8,0.0,0.0,0.0,2025-03-23,3,2025,12,KCHO,0.0,0.0,0.0,0.0,14
2025-03-20,20,2025-03-20 13:53,13:53,EDT,S  14  G 25,10.0,A Few Clouds,FEW085,73.0,45.0,37.0,,,29.55,1000.0,0.0,0.0,0.0,2025-03-23,3,2025,13,KCHO,0.0,0.0,0.0,0.0,14
2025-03-20,20,2025-03-20 14:53,14:53,EDT,Vrbl  7  G 20,10.0,Mostly Cloudy,BKN090,71.1,42.1,35.0,,,29.53,999.5,0.0,0.0,0.0,2025-03-23,3,2025,14,KCHO,0.0,0.0,0.0,0.0,7
2025-03-20,20,2025-03-20 15:53,15:53,EDT,NW  14  G 24,10.0,Partly Cloudy,SCT100 SCT110,72.0,41.0,33.0,,,29.49,998.0,0.0,0.0,0.0,2025-03-23,3,2025,15,KCHO,0.0,0.0,0.0,0.0,14
2025-03-20,20,2025-03-20 16:53,16:53,EDT,W  9,10.0,Overcast,BKN080 BKN100 OVC110,66.0,41.0,40.0,,,29.5,998.7,0.0,0.0,0.0,2025-03-23,3,2025,16,KCHO,0.0,0.0,0.0,0.0,9
2025-03-20,20,2025-03-20 17:53,17:53,EDT,Calm,10.0,Overcast,BKN070 BKN085 OVC110,57.9,48.9,72.0,,,29.49,998.5,0.02,0.0,0.0,2025-03-23,3,2025,17,KCHO,0.02,0.02,0.02,0.02000000000000011,0
2025-03-20,20,2025-03-20 18:53,18:53,EDT,Vrbl  3,10.0,Mostly Cloudy,FEW055 BKN080 BKN090,57.0,51.1,81.0,,,29.51,999.0,0.0,0.0,0.0,2025-03-23,3,2025,18,KCHO,0.02,0.02,0.02,0.02000000000000011,3
2025-03-20,20,2025-03-20 19:53,19:53,EDT,NW  12  G 29,10.0,Mostly Cloudy,BKN120,57.0,34.0,42.0,,,29.55,1000.2,0.0,0.0,0.02,2025-03-23,3,2025,19,KCHO,0.02,0.02,0.02,0.02000000000000011,12
2025-03-20,20,2025-03-20 20:53,20:53,EDT,NW  9  G 17,10.0,Partly Cloudy,SCT100,54.0,30.9,42.0,,,29.6,1002.1,0.0,0.0,0.0,2025-03-23,3,2025,20,KCHO,0.0,0.02,0.02,0.02000000000000011,9
2025-03-20,20,2025-03-20 21:53,21:53,EDT,W  8  G 16,10.0,Fair,CLR,51.1,28.9,43.0,,,29.64,1003.3,0.0,0.0,0.0,2025-03-23,3,2025,21,KCHO,0.0,0.02,0.02,0.02000000000000011,8
2025-03-20,20,2025-03-20 22:53,22:53,EDT,NW  6,10.0,Overcast,OVC055,50.0,28.9,44.0,48.0,,29.66,1004.0,0.0,0.0,0.0,2025-03-23,3,2025,22,KCHO,0.0,0.02,0.02,0.02000000000000011,6
2025-03-20,20,2025-03-20 23:53,23:53,EDT,N  16  G 30,10.0,Mostly Cloudy,BKN060,48.9,28.0,44.0,44.0,,29.69,1004.8,0.0,0.0,0.0,2025-03-23,3,2025,23,KCHO,0.0,0.0,0.02,0.02000000000000011,16
2025-03-21,21,2025-03-21 00:53,00:53,EDT,NW  13  G 28,10.0,Overcast,OVC050,46.0,27.0,47.0,41.0,,29.72,1005.9,0.0,0.0,0.0,2025-03-24,3,2025,0,KCHO,0.0,0.0,0.02,0.02000000000000011,13
2025-03-21,21,2025-03-21 01:53,01:53,EDT,NW  12  G 22,10.0,Overcast,OVC055,46.0,26.1,46.0,41.0,,29.72,1006.2,0.0,0.0,0.0,2025-03-24,3,2025,1,KCHO,0.0,0.0,0.02,0.02000000000000011,12
2025-03-21,21,2025-03-21 02:53,02:53,EDT,N  9  G 21,10.0,Overcast,OVC060,45.0,27.0,49.0,41.0,,29.76,1007.2,0.0,0.0,0.0,2025-03-24,3,2025,2,KCHO,0.0,0.0,0.02,0.02000000000000011,9
2025-03-21,21,2025-03-21 04:53,04:53,EDT,Vrbl  5,10.0,Partly Cloudy,SCT050,42.1,24.1,49.0,40.0,,29.8,1008.7,0.0,0.0,0.0,2025-03-24,3,2025,4,KCHO,0.0,0.0,0.02,0.02000000000000011,5
2025-03-21,21,2025-03-21 05:53,05:53,EDT,N  9,10.0,Partly Cloudy,SCT050,41.0,23.0,49.0,36.0,,29.83,1010.1,0.0,0.0,0.0,2025-03-24,3,2025,5,KCHO,0.0,0.0,0.02,0.02000000000000011,9
2025-03-21,21,2025-03-21 06:53,06:53,EDT,NW  9  G 21,10.0,Fair,CLR,39.9,21.0,47.0,34.0,,29.87,1011.4,0.0,0.0,0.0,2025-03-24,3,2025,6,KCHO,0.0,0.0,0.0,0.02000000000000011,9
2025-03-21,21,2025-03-21 07:53,07:53,EDT,Calm,10.0,Fair,CLR,39.9,19.9,45.0,,,29.9,1012.3,0.0,0.0,0.0,2025-03-24,3,2025,7,KCHO,0.0,0.0,0.0,0.02000000000000011,0
2025-03-21,21,2025-03-21 08:53,08:53,EDT,NW  8  G 25,10.0,Fair,CLR,42.1,19.0,40.0,38.0,,29.91,1012.9,0.0,0.0,0.0,2025-03-24,3,2025,8,KCHO,0.0,0.0,0.0,0.02000000000000011,8
2025-03-21,21,2025-03-21 09:53,09:53,EDT,Calm,10.0,Fair,CLR,45.0,19.9,37.0,,,29.94,1013.8,0.0,0.0,0.0,2025-03-24,3,2025,9,KCHO,0.0,0.0,0.0,0.02000000000000011,0
2025-03-21,21,2025-03-21 10:53,10:53,EDT,NW  9  G 20,10.0,Fair,CLR,48.0,21.9,36.0,44.0,,29.94,1014.0,0.0,0.0,0.0,2025-03-24,3,2025,10,KCHO,0.0,0.0,0.0,0.02000000000000011,9
2025-03-21,21,2025-03-21 11:53,11:53,EDT,NW  9  G 21,10.0,Fair,CLR,51.1,21.9,32.0,,,29.94,1013.8,0.0,0.0,0.0,2025-03-24,3,2025,11,KCHO,0.0,0.0,0.0,0.02000000000000011,9
2025-03-21,21,2025-03-21 12:53,12:53,EDT,NW  9  G 22,10.0,Fair,CLR,53.1,19.9,27.0,,,29.93,1013.3,0.0,0.0,0.0,2025-03-24,3,2025,12,KCHO,0.0,0.0,0.0,0.02000000000000011,9
2025-03-21,21,2025-03-21 13:53,13:53,EDT,Vrbl  6,10.0,Fair,CLR,55.9,21.0,26.0,,,29.92,1013.1,0.0,0.0,0.0,2025-03-24,3,2025,13,KCHO,0.0,0.0,0.0,0.02000000000000011,6
2025-03-21,21,2025-03-21 15:53,15:53,EDT,Vrbl  5,10.0,Fair,CLR,60.1,19.9,21.0,,,29.91,0.0,0.0,0.0,0.0,2025-03-24,3,2025,15,KCHO,0.0,0.0,0.0,0.02000000000000011,5
2025-03-21,21,2025-03-21 16:53,16:53,EDT,NW  8,10.0,Fair,CLR,61.0,17.1,18.0,,,29.88,1011.7,0.0,0.0,0.0,2025-03-24,3,2025,16,KCHO,0.0,0.0,0.0,0.02000000000000011,8
2025-03-21,21,2025-03-21 17:53,17:53,EDT,W  6,10.0,Fair,CLR,61.0,17.1,18.0,,,29.89,1011.9,0.0,0.0,0.0,2025-03-24,3,2025,17,KCHO,0.0,0.0,0.0,0.02000000000000011,6
2025-03-21,21,2025-03-21 18:53,18:53,EDT,Vrbl  5,10.0,Fair,CLR,57.9,18.0,21.0,,,29.9,1012.5,0.0,0.0,0.0,2025-03-24,3,2025,18,KCHO,0.0,0.0,0.0,0.02000000000000011,5
2025-03-21,21,2025-03-21 19:53,19:53,EDT,Calm,10.0,Fair,CLR,55.0,18.0,23.0,,,29.91,1012.7,0.0,0.0,0.0,2025-03-24,3,2025,19,KCHO,0.0,0.0,0.0,0.0,0
2025-03-21,21,2025-03-21 20:53,20:53,EDT,Calm,10.0,Fair,CLR,52.0,19.9,28.0,,,29.93,1013.4,0.0,0.0,0.0,2025-03-24,3,2025,20,KCHO,0.0,0.0,0.0,0.0,0
2025-03-21,21,2025-03-21 21:53,21:53,EDT,S  3,10.0,Fair,CLR,52.0,19.0,27.0,,,29.94,1013.8,0.0,0.0,0.0,2025-03-24,3,2025,21,KCHO,0.0,0.0,0.0,0.0,3
2025-03-21,21,2025-03-21 22:53,22:53,EDT,SW  3,10.0,Fair,CLR,52.0,17.1,25.0,,,29.93,1013.5,0.0,0.0,0.0,2025-03-24,3,2025,22,KCHO,0.0,0.0,0.0,0.0,3
2025-03-21,21,2025-03-21 23:53,23:53,EDT,Calm,10.0,Fair,CLR,50.0,19.0,29.0,,,29.94,1013.7,0.0,0.0,0.0,2025-03-24,3,2025,23,KCHO,0.0,0.0,0.0,0.0,0
2025-03-22,22,2025-03-22 00:53,00:53,EDT,SW  5,10.0,Fair,CLR,50.0,17.1,27.0,49.0,,29.93,1013.4,0.0,0.0,0.0,2025-03-25,3,2025,0,KCHO,0.0,0.0,0.0,0.0,5
2025-03-22,22,2025-03-22 01:53,01:53,EDT,S  3,10.0,Fair,CLR,48.0,18.0,30.0,,,29.92,1013.1,0.0,0.0,0.0,2025-03-25,3,2025,1,KCHO,0.0,0.0,0.0,0.0,3
2025-03-22,22,2025-03-22 02:53,02:53,EDT,SW  7,10.0,Fair,CLR,48.0,19.0,32.0,45.0,,29.89,1012.1,0.0,0.0,0.0,2025-03-25,3,2025,2,KCHO,0.0,0.0,0.0,0.0,7
2025-03-22,22,2025-03-22 03:53,03:53,EDT,SW  5,10.0,Fair,CLR,45.0,19.9,37.0,43.0,,29.87,1011.2,0.0,0.0,0.0,2025-03-25,3,2025,3,KCHO,0.0,0.0,0.0,0.0,5
2025-03-22,22,2025-03-22 04:53,04:53,EDT,Calm,10.0,Fair,CLR,44.1,19.9,38.0,,,29.86,1010.9,0.0,0.0,0.0,2025-03-25,3,2025,4,KCHO,0.0,0.0,0.0,0.0,0
2025-03-22,22,2025-03-22 05:53,05:53,EDT,S  6,10.0,Fair,CLR,44.1,19.9,38.0,41.0,,29.85,1010.6,0.0,0.0,0.0,2025-03-25,3,2025,5,KCHO,0.0,0.0,0.0,0.0,6
2025-03-22,22,2025-03-22 06:53,06:53,EDT,S  3,10.0,Fair,CLR,39.9,21.0,47.0,,,29.84,1010.5,0.0,0.0,0.0,2025-03-25,3,2025,6,KCHO,0.0,0.0,0.0,0.0,3
2025-03-22,22,2025-03-22 07:53,07:53,EDT,S  8,10.0,Fair,CLR,43.0,23.0,45.0,39.0,,29.83,1010.1,0.0,0.0,0.0,2025-03-25,3,2025,7,KCHO,0.0,0.0,0.0,0.0,8
2025-03-22,22,2025-03-22 08:53,08:53,EDT,S  5,10.0,Fair,CLR,46.9,25.0,42.0,45.0,,29.83,1009.8,0.0,0.0,0.0,2025-03-25,3,2025,8,KCHO,0.0,0.0,0.0,0.0,5
2025-03-22,22,2025-03-22 09:53,09:53,EDT,SW  9,10.0,Fair,CLR,57.9,23.0,26.0,,,29.81,1009.2,0.0,0.0,0.0,2025-03-25,3,2025,9,KCHO,0.0,0.0,0.0,0.0,9
2025-03-22,22,2025-03-22 10:53,10:53,EDT,W  10  G 23,10.0,Fair,CLR,60.1,24.1,25.0,,,29.8,1008.9,0.0,0.0,0.0,2025-03-25,3,2025,10,KCHO,0.0,0.0,0.0,0.0,10
2025-03-22,22,2025-03-22 11:53,11:53,EDT,W  9  G 23,10.0,Fair,CLR,62.1,26.1,25.0,,,29.78,1008.1,0.0,0.0,0.0,2025-03-25,3,2025,11,KCHO,0.0,0.0,0.0,0.0,9
2025-03-22,22,2025-03-22 13:53,13:53,EDT,W  12  G 21,10.0,Mostly Cloudy,BKN100,64.9,23.0,20.0,,,29.76,1007.5,0.0,0.0,0.0,2025-03-25,3,2025,13,KCHO,0.0,0.0,0.0,0.0,12
2025-03-22,22,2025-03-22 14:53,14:53,EDT,W  13  G 25,10.0,A Few Clouds,FEW100,64.0,23.0,21.0,,,29.76,1007.4,0.0,0.0,0.0,2025-03-25,3,2025,14,KCHO,0.0,0.0,0.0,0.0,13
2025-03-22,22,2025-03-22 15:53,15:53,EDT,W  12  G 25,10.0,A Few Clouds,FEW100,66.9,24.1,20.0,,,29.78,1008.0,0.0,0.0,0.0,2025-03-25,3,2025,15,KCHO,0.0,0.0,0.0,0.0,12
2025-03-22,22,2025-03-22 16:53,16:53,EDT,W  14  G 25,10.0,A Few Clouds,FEW100,66.0,25.0,21.0,,,29.8,1008.7,0.0,0.0,0.0,2025-03-25,3,2025,16,KCHO,0.0,0.0,0.0,0.0,14
2025-03-22,22,2025-03-22 17:53,17:53,EDT,NW  15  G 28,10.0,Fair,CLR,64.0,25.0,23.0,,,29.81,1009.3,0.0,0.0,0.0,2025-03-25,3,2025,17,KCHO,0.0,0.0,0.0,0.0,15
2025-03-22,22,2025-03-22 18:53,18:53,EDT,NW  7,10.0,Fair,CLR,61.0,25.0,25.0,,,29.85,1010.6,0.0,0.0,0.0,2025-03-25,3,2025,18,KCHO,0.0,0.0,0.0,0.0,7
2025-03-22,22,2025-03-22 19:53,19:53,EDT,NW  8,10.0,Fair,CLR,57.9,26.1,29.0,,,29.88,1011.8,0.0,0.0,0.0,2025-03-25,3,2025,19,KCHO,0.0,0.0,0.0,0.0,8
2025-03-22,22,2025-03-22 20:53,20:53,EDT,NW  7,10.0,Fair,CLR,55.9,26.1,32.0,,,29.92,1013.1,0.0,0.0,0.0,2025-03-25,3,2025,20,KCHO,0.0,0.0,0.0,0.0,7
2025-03-22,22,2025-03-22 21:53,21:53,EDT,NW  6,10.0,Fair,CLR,55.0,26.1,33.0,,,29.95,1014.1,0.0,0.0,0.0,2025-03-25,3,2025,21,KCHO,0.0,0.0,0.0,0.0,6
2025-03-22,22,2025-03-22 22:53,22:53,EDT,NW  5,10.0,Fair,CLR,52.0,26.1,37.0,,,29.97,1014.5,0.0,0.0,0.0,2025-03-25,3,2025,22,KCHO,0.0,0.0,0.0,0.0,5
2025-03-22,22,2025-03-22 23:53,23:53,EDT,Vrbl  5,10.0,Fair,CLR,52.0,26.1,37.0,,,29.98,1015.1,0.0,0.0,0.0,2025-03-25,3,2025,23,KCHO,0.0,0.0,0.0,0.0,5
2025-03-23,23,2025-03-23 00:53,00:53,EDT,Calm,10.0,Fair,CLR,51.1,26.1,38.0,,,30.01,1015.8,0.0,0.0,0.0,2025-03-26,3,2025,0,KCHO,0.0,0.0,0.0,0.0,0
2025-03-23,23,2025-03-23 01:53,01:53,EDT,W  5,10.0,Fair,CLR,51.1,27.0,39.0,,,30.03,1016.4,0.0,0.0,0.0,2025-03-26,3,2025,1,KCHO,0.0,0.0,0.0,0.0,5
2025-03-23,23,2025-03-23 02:53,02:53,EDT,Vrbl  3,10.0,Fair,CLR,51.1,27.0,39.0,,,30.05,1017.1,0.0,0.0,0.0,2025-03-26,3,2025,2,KCHO,0.0,0.0,0.0,0.0,3
2025-03-23,23,2025-03-23 03:53,03:53,EDT,NW  5,10.0,Fair,CLR,50.0,27.0,41.0,49.0,,30.06,1017.5,0.0,0.0,0.0,2025-03-26,3,2025,3,KCHO,0.0,0.0,0.0,0.0,5
2025-03-23,23,2025-03-23 04:53,04:53,EDT,Calm,10.0,Fair,CLR,46.9,27.0,46.0,,,30.07,1018.1,0.0,0.0,0.0,2025-03-26,3,2025,4,KCHO,0.0,0.0,0.0,0.0,0
2025-03-23,23,2025-03-23 05:53,05:53,EDT,Calm,10.0,Fair,CLR,44.1,27.0,51.0,,,30.09,1018.8,0.0,0.0,0.0,2025-03-26,3,2025,5,KCHO,0.0,0.0,0.0,0.0,0
2025-03-23,23,2025-03-23 06:53,06:53,EDT,NE  7,10.0,Fair,CLR,41.0,30.0,65.0,37.0,,30.13,1020.2,0.0,0.0,0.0,2025-03-26,3,2025,6,KCHO,0.0,0.0,0.0,0.0,7
2025-03-23,23,2025-03-23 07:53,07:53,EDT,E  6,10.0,Fair,CLR,42.1,30.9,65.0,39.0,,30.15,1021.0,0.0,0.0,0.0,2025-03-26,3,2025,7,KCHO,0.0,0.0,0.0,0.0,6
2025-03-23,23,2025-03-23 08:53,08:53,EDT,NE  5,10.0,Fair,CLR,43.0,30.0,60.0,41.0,,30.18,1021.7,0.0,0.0,0.0,2025-03-26,3,2025,8,KCHO,0.0,0.0,0.0,0.0,5
2025-03-23,23,2025-03-23 09:53,09:53,EDT,Vrbl  3,10.0,Fair,CLR,45.0,30.0,56.0,,,30.18,1021.9,0.0,0.0,0.0,2025-03-26,3,2025,9,KCHO,0.0,0.0,0.0,0.0,3
2025-03-23,23,2025-03-23 10:53,10:53,EDT,Calm,10.0,Fair,CLR,48.9,32.0,52.0,,,30.19,1022.1,0.0,0.0,0.0,2025-03-26,3,2025,10,KCHO,0.0,0.0,0.0,0.0,0
2025-03-23,23,2025-03-23 11:53,11:53,EDT,S  10,10.0,Fair,CLR,52.0,32.0,47.0,,,30.17,1021.5,0.0,0.0,0.0,2025-03-26,3,2025,11,KCHO,0.0,0.0,0.0,0.0,10
2025-03-23,23,2025-03-23 12:53,12:53,EDT,Vrbl  6  G 20,10.0,Fair,CLR,55.0,30.9,40.0,,,30.14,1020.6,0.0,0.0,0.0,2025-03-26,3,2025,12,KCHO,0.0,0.0,0.0,0.0,6
2025-03-23,23,2025-03-23 13:53,13:53,EDT,SW  6  G 20,10.0,Fair,CLR,57.9,30.9,36.0,,,30.11,1019.4,0.0,0.0,0.0,2025-03-26,3,2025,13,KCHO,0.0,0.0,0.0,0.0,6
2025-03-23,23,2025-03-23 14:53,14:53,EDT,SE  6,10.0,Fair,CLR,57.9,30.0,35.0,,,30.07,1018.0,0.0,0.0,0.0,2025-03-26,3,2025,14,KCHO,0.0,0.0,0.0,0.0,6
2025-03-23,23,2025-03-23 15:53,15:53,EDT,S  7  G 17,10.0,Fair,CLR,61.0,32.0,34.0,,,30.05,1017.3,0.0,0.0,0.0,2025-03-26,3,2025,15,KCHO,0.0,0.0,0.0,0.0,7
2025-03-23,23,2025-03-23 16:53,16:53,EDT,SE  12,10.0,Fair,CLR,61.0,32.0,34.0,,,30.04,1017.2,0.0,0.0,0.0,2025-03-26,3,2025,16,KCHO,0.0,0.0,0.0,0.0,12
2025-03-23,23,2025-03-23 17:53,17:53,EDT,SE  9,10.0,Fair,CLR,61.0,32.0,34.0,,,30.03,1016.8,0.0,0.0,0.0,2025-03-26,3,2025,17,KCHO,0.0,0.0,0.0,0.0,9
2025-03-23,23,2025-03-23 18:53,18:53,EDT,SE  8,10.0,Fair,CLR,60.1,32.0,35.0,,,30.02,1016.3,0.0,0.0,0.0,2025-03-26,3,2025,18,KCHO,0.0,0.0,0.0,0.0,8
2025-03-23,23,2025-03-23 19:53,19:53,EDT,SE  6,10.0,Mostly Cloudy,BKN120,59.0,33.1,38.0,,,30.01,1016.0,0.0,0.0,0.0,2025-03-26,3,2025,19,KCHO,0.0,0.0,0.0,0.0,6
2025-03-23,23,2025-03-23 20:53,20:53,EDT,SE  6,10.0,Mostly Cloudy,BKN110,57.9,33.1,39.0,,,29.99,1015.4,0.0,0.0,0.0,2025-03-26,3,2025,20,KCHO,0.0,0.0,0.0,0.0,6
2025-03-23,23,2025-03-23 21:53,21:53,EDT,E  5,10.0,A Few Clouds,FEW110,55.0,34.0,45.0,,,29.98,1015.2,0.0,0.0,0.0,2025-03-26,3,2025,21,KCHO,0.0,0.0,0.0,0.0,5
2025-03-23,23,2025-03-23 22:53,22:53,EDT,Vrbl  5,10.0,Mostly Cloudy,BKN110,55.0,35.1,47.0,,,29.97,1014.8,0.0,0.0,0.0,2025-03-26,3,2025,22,KCHO,0.0,0.0,0.0,0.0,5
2025-03-23,23,2025-03-23 23:53,23:53,EDT,S  5,10.0,Mostly Cloudy,BKN110,52.0,37.0,57.0,,,29.95,1014.0,0.0,0.0,0.0,2025-03-26,3,2025,23,KCHO,0.0,0.0,0.0,0.0,5
2025-03-24,24,2025-03-24 00:53,00:53,EDT,SE  6,10.0,Fair,CLR,50.0,39.0,66.0,48.0,,29.94,1013.6,0.0,0.0,0.0,2025-03-27,3,2025,0,KCHO,0.0,0.0,0.0,0.0,6
2025-03-24,24,2025-03-24 01:53,01:53,EDT,E  3,10.0,Fair,CLR,48.9,39.0,69.0,,,29.92,1012.8,0.0,0.0,0.0,2025-03-27,3,2025,1,KCHO,0.0,0.0,0.0,0.0,3
2025-03-24,24,2025-03-24 02:53,02:53,EDT,E  6,10.0,Overcast,OVC090,48.9,39.9,71.0,47.0,,29.91,1012.5,0.0,0.0,0.0,2025-03-27,3,2025,2,KCHO,0.0,0.0,0.0,0.0,6
2025-03-24,24,2025-03-24 03:53,03:53,EDT,E  6,10.0,Overcast,OVC085,46.9,37.9,71.0,45.0,,29.88,1011.5,0.0,0.0,0.0,2025-03-27,3,2025,3,KCHO,0.0,0.0,0.0,0.0,6
2025-03-24,24,2025-03-24 04:53,04:53,EDT,Calm,10.0,Light Rain,FEW065 OVC095,46.0,39.9,79.0,,,29.86,1010.8,0.0,0.0,0.0,2025-03-27,3,2025,4,KCHO,0.0,0.0,0.0,0.0,0
2025-03-24,24,2025-03-24 05:53,05:53,EDT,Calm,10.0,Light Rain,OVC110,45.0,39.9,83.0,,,29.85,1010.6,0.0,0.0,0.0,2025-03-27,3,2025,5,KCHO,0.0,0.0,0.0,0.0,0
2025-03-24,24,2025-03-24 06:53,06:53,EDT,SW  3,10.0,Overcast,SCT090 OVC110,45.0,42.1,90.0,,,29.83,1010.0,0.0,0.0,0.0,2025-03-27,3,2025,6,KCHO,0.0,0.0,0.0,0.0,3
2025-03-24,24,2025-03-24 07:53,07:53,EDT,Calm,10.0,Overcast,OVC090,45.0,43.0,93.0,,,29.83,1010.0,0.0,0.0,0.0,2025-03-27,3,2025,7,KCHO,0.0,0.0,0.0,0.0,0
2025-03-24,24,2025-03-24 08:53,08:53,EDT,S  7,10.0,Light Rain,OVC090,46.9,44.1,90.0,44.0,,29.83,1009.9,0.0,0.0,0.0,2025-03-27,3,2025,8,KCHO,0.0,0.0,0.0,0.0,7
2025-03-24,24,2025-03-24 09:53,09:53,EDT,Calm,10.0,Light Rain,OVC085,48.9,45.0,86.0,,,29.82,1009.5,0.0,0.0,0.0,2025-03-27,3,2025,9,KCHO,0.0,0.0,0.0,0.0,0
2025-03-24,24,2025-03-24 10:53,10:53,EDT,Vrbl  3,10.0,Overcast,FEW065 BKN085 OVC110,51.1,45.0,80.0,,,29.8,1009.1,0.0,0.0,0.0,2025-03-27,3,2025,10,KCHO,0.0,0.0,0.0,0.0,3
2025-03-24,24,2025-03-24 11:53,11:53,EDT,S  5,10.0,Mostly Cloudy,BKN036 BKN110,53.1,46.0,77.0,,,29.79,1008.5,0.0,0.0,0.0,2025-03-27,3,2025,11,KCHO,0.0,0.0,0.0,0.0,5
2025-03-24,24,2025-03-24 12:53,12:53,EDT,S  8,10.0,A Few Clouds,FEW100,55.9,48.0,75.0,,,29.77,1008.1,0.0,0.0,0.0,2025-03-27,3,2025,12,KCHO,0.0,0.0,0.0,0.0,8
2025-03-24,24,2025-03-24 13:53,13:53,EDT,SW  8,10.0,Overcast,OVC050,60.1,43.0,53.0,,,29.76,1007.5,0.0,0.0,0.0,2025-03-27,3,2025,13,KCHO,0.0,0.0,0.0,0.0,8
2025-03-24,24,2025-03-24 14:53,14:53,EDT,Vrbl  7  G 21,10.0,Partly Cloudy,SCT070 SCT100,63.0,41.0,45.0,,,29.73,1006.6,0.0,0.0,0.0,2025-03-27,3,2025,14,KCHO,0.0,0.0,0.0,0.0,7
2025-03-24,24,2025-03-24 15:53,15:53,EDT,SW  12  G 21,10.0,Fair,CLR,64.9,35.1,33.0,,,29.71,1005.9,0.0,0.0,0.0,2025-03-27,3,2025,15,KCHO,0.0,0.0,0.0,0.0,12
2025-03-24,24,2025-03-24 16:53,16:53,EDT,W  7  G 24,10.0,Fair,CLR,66.0,25.0,21.0,,,29.71,1005.8,0.0,0.0,0.0,2025-03-27,3,2025,16,KCHO,0.0,0.0,0.0,0.0,7
2025-03-24,24,2025-03-24 17:53,17:53,EDT,SW  6  G 21,10.0,Fair,CLR,66.0,21.9,19.0,,,29.72,1006.2,0.0,0.0,0.0,2025-03-27,3,2025,17,KCHO,0.0,0.0,0.0,0.0,6
2025-03-24,24,2025-03-24 18:53,18:53,EDT,Vrbl  5,10.0,Fair,CLR,64.0,21.9,20.0,,,29.75,1007.3,0.0,0.0,0.0,2025-03-27,3,2025,18,KCHO,0.0,0.0,0.0,0.0,5
2025-03-24,24,2025-03-24 19:53,19:53,EDT,W  8,10.0,Fair,CLR,61.0,21.9,22.0,,,29.79,1008.5,0.0,0.0,0.0,2025-03-27,3,2025,19,KCHO,0.0,0.0,0.0,0.0,8
2025-03-24,24,2025-03-24 20:53,20:53,EDT,Calm,10.0,Fair,CLR,57.9,21.9,25.0,,,29.81,1009.4,0.0,0.0,0.0,2025-03-27,3,2025,20,KCHO,0.0,0.0,0.0,0.0,0
2025-03-24,24,2025-03-24 21:53,21:53,EDT,Calm,10.0,Fair,CLR,57.0,21.9,26.0,,,29.85,1010.5,0.0,0.0,0.0,2025-03-27,3,2025,21,KCHO,0.0,0.0,0.0,0.0,0
2025-03-24,24,2025-03-24 22:53,22:53,EDT,Calm,10.0,Fair,CLR,55.0,21.9,28.0,,,29.85,1010.6,0.0,0.0,0.0,2025-03-27,3,2025,22,KCHO,0.0,0.0,0.0,0.0,0
2025-03-24,24,2025-03-24 23:53,23:53,EDT,Vrbl  6,10.0,Fair,CLR,55.9,23.0,28.0,,,29.86,1011.0,0.0,0.0,0.0,2025-03-27,3,2025,23,KCHO,0.0,0.0,0.0,0.0,6
2025-03-25,25,2025-03-25 00:53,00:53,EDT,Calm,10.0,Mostly Cloudy,BKN120,55.0,24.1,30.0,,,29.87,1011.2,0.0,0.0,0.0,2025-03-28,3,2025,0,KCHO,0.0,0.0,0.0,0.0,0
2025-03-25,25,2025-03-25 01:53,01:53,EDT,W  7,10.0,Fair,CLR,55.9,18.0,22.0,,,29.87,1011.3,0.0,0.0,0.0,2025-03-28,3,2025,1,KCHO,0.0,0.0,0.0,0.0,7
2025-03-25,25,2025-03-25 02:53,02:53,EDT,Vrbl  7,10.0,Fair,CLR,55.0,16.0,21.0,,,29.89,1011.7,0.0,0.0,0.0,2025-03-28,3,2025,2,KCHO,0.0,0.0,0.0,0.0,7
2025-03-25,25,2025-03-25 03:53,03:53,EDT,NW  8,10.0,Fair,CLR,53.1,16.0,23.0,,,29.9,1012.2,0.0,0.0,0.0,2025-03-28,3,2025,3,KCHO,0.0,0.0,0.0,0.0,8
2025-03-25,25,2025-03-25 04:53,04:53,EDT,NW  6,10.0,Fair,CLR,52.0,16.0,24.0,,,29.93,1013.1,0.0,0.0,0.0,2025-03-28,3,2025,4,KCHO,0.0,0.0,0.0,0.0,6
2025-03-25,25,2025-03-25 05:53,05:53,EDT,W  3,10.0,Fair,CLR,50.0,17.1,27.0,,,29.94,1013.6,0.0,0.0,0.0,2025-03-28,3,2025,5,KCHO,0.0,0.0,0.0,0.0,3
2025-03-25,25,2025-03-25 06:53,06:53,EDT,Calm,10.0,Fair,CLR,48.0,17.1,29.0,,,29.96,1014.1,0.0,0.0,0.0,2025-03-28,3,2025,6,KCHO,0.0,0.0,0.0,0.0,0
2025-03-25,25,2025-03-25 07:53,07:53,EDT,SW  3,10.0,Fair,CLR,48.9,18.0,29.0,,,29.97,1014.7,0.0,0.0,0.0,2025-03-28,3,2025,7,KCHO,0.0,0.0,0.0,0.0,3
2025-03-25,25,2025-03-25 08:53,08:53,EDT,W  3,10.0,Fair,CLR,51.1,19.0,28.0,,,29.96,1014.4,0.0,0.0,0.0,2025-03-28,3,2025,8,KCHO,0.0,0.0,0.0,0.0,3
2025-03-25,25,2025-03-25 09:53,09:53,EDT,Calm,10.0,Fair,CLR,54.0,21.0,28.0,,,29.98,1014.9,0.0,0.0,0.0,2025-03-28,3,2025,9,KCHO,0.0,0.0,0.0,0.0,0
2025-03-25,25,2025-03-25 10:53,10:53,EDT,Vrbl  7,10.0,Fair,CLR,55.9,21.0,26.0,,,29.97,1014.8,0.0,0.0,0.0,2025-03-28,3,2025,10,KCHO,0.0,0.0,0.0,0.0,7
2025-03-25,25,2025-03-25 11:53,11:53,EDT,Vrbl  6,10.0,Fair,CLR,57.9,23.0,26.0,,,29.95,1014.0,0.0,0.0,0.0,2025-03-28,3,2025,11,KCHO,0.0,0.0,0.0,0.0,6
2025-03-25,25,2025-03-25 12:53,12:53,EDT,SW  8,10.0,Overcast,BKN090 OVC110,57.9,23.0,26.0,,,29.93,1013.2,0.0,0.0,0.0,2025-03-28,3,2025,12,KCHO,0.0,0.0,0.0,0.0,8
2025-03-25,25,2025-03-25 13:53,13:53,EDT,Vrbl  6,10.0,Overcast,OVC085,57.0,26.1,30.0,,,29.91,1012.5,0.0,0.0,0.0,2025-03-28,3,2025,13,KCHO,0.0,0.0,0.0,0.0,6
2025-03-25,25,2025-03-25 14:53,14:53,EDT,SW  9,10.0,Overcast,BKN060 OVC080,55.9,30.0,37.0,,,29.89,1012.1,0.0,0.0,0.0,2025-03-28,3,2025,14,KCHO,0.0,0.0,0.0,0.0,9
2025-03-25,25,2025-03-25 15:53,15:53,EDT,SW  12  G 22,10.0,Overcast,OVC080,54.0,33.1,45.0,,,29.9,1012.2,0.0,0.0,0.0,2025-03-28,3,2025,15,KCHO,0.0,0.0,0.0,0.0,12
2025-03-25,25,2025-03-25 16:53,16:53,EDT,SW  10  G 23,10.0,Overcast,OVC070,55.0,34.0,45.0,,,29.91,1012.6,0.0,0.0,0.0,2025-03-28,3,2025,16,KCHO,0.0,0.0,0.0,0.0,10
2025-03-25,25,2025-03-25 17:53,17:53,EDT,Vrbl  5,10.0,Overcast,FEW075 BKN090 OVC120,54.0,34.0,47.0,,,29.92,1013.2,0.0,0.0,0.0,2025-03-28,3,2025,17,KCHO,0.0,0.0,0.0,0.0,5
2025-03-25,25,2025-03-25 18:53,18:53,EDT,Vrbl  6,10.0,Partly Cloudy,SCT085,54.0,34.0,47.0,,,29.94,1013.7,0.0,0.0,0.0,2025-03-28,3,2025,18,KCHO,0.0,0.0,0.0,0.0,6
2025-03-25,25,2025-03-25 19:53,19:53,EDT,Vrbl  6,10.0,Partly Cloudy,SCT110,52.0,33.1,49.0,,,29.95,1014.1,0.0,0.0,0.0,2025-03-28,3,2025,19,KCHO,0.0,0.0,0.0,0.0,6
2025-03-25,25,2025-03-25 20:53,20:53,EDT,NW  8  G 18,10.0,Fair,CLR,51.1,30.0,45.0,,,29.98,1015.1,0.0,0.0,0.0,2025-03-28,3,2025,20,KCHO,0.0,0.0,0.0,0.0,8
2025-03-25,25,2025-03-25 21:53,21:53,EDT,NW  7,10.0,Fair,CLR,48.9,28.0,44.0,46.0,,30.0,1015.8,0.0,0.0,0.0,2025-03-28,3,2025,21,KCHO,0.0,0.0,0.0,0.0,7
2025-03-25,25,2025-03-25 22:53,22:53,EDT,NW  6,10.0,Fair,CLR,48.0,27.0,44.0,46.0,,30.0,1015.8,0.0,0.0,0.0,2025-03-28,3,2025,22,KCHO,0.0,0.0,0.0,0.0,6
2025-03-25,25,2025-03-25 23:53,23:53,EDT,Calm,10.0,Fair,CLR,46.0,27.0,47.0,,,30.02,1016.3,0.0,0.0,0.0,2025-03-28,3,2025,23,KCHO,0.0,0.0,0.0,0.0,0
2025-03-26,26,2025-03-26 00:53,00:53,EDT,Calm,10.0,Fair,CLR,44.1,26.1,49.0,,,30.02,1016.5,0.0,0.0,0.0,2025-03-29,3,2025,0,KCHO,0.0,0.0,0.0,0.0,0
2025-03-26,26,2025-03-26 01:53,01:53,EDT,Calm,10.0,Fair,CLR,46.0,25.0,44.0,,,30.03,1016.6,0.0,0.0,0.0,2025-03-29,3,2025,1,KCHO,0.0,0.0,0.0,0.0,0
2025-03-26,26,2025-03-26 02:53,02:53,EDT,Calm,10.0,Fair,CLR,39.9,26.1,58.0,,,30.02,1016.7,0.0,0.0,0.0,2025-03-29,3,2025,2,KCHO,0.0,0.0,0.0,0.0,0
2025-03-26,26,2025-03-26 03:53,03:53,EDT,Calm,10.0,Fair,CLR,39.0,26.1,60.0,,,30.03,1016.8,0.0,0.0,0.0,2025-03-29,3,2025,3,KCHO,0.0,0.0,0.0,0.0,0
2025-03-26,26,2025-03-26 04:53,04:53,EDT,Calm,10.0,Overcast,OVC055,39.9,25.0,55.0,,,30.03,1017.0,0.0,0.0,0.0,2025-03-29,3,2025,4,KCHO,0.0,0.0,0.0,0.0,0
2025-03-26,26,2025-03-26 05:53,05:53,EDT,W  5,10.0,Fair,CLR,39.9,26.1,58.0,37.0,,30.04,1017.3,0.0,0.0,0.0,2025-03-29,3,2025,5,KCHO,0.0,0.0,0.0,0.0,5
2025-03-26,26,2025-03-26 06:53,06:53,EDT,Vrbl  6,10.0,Fair,CLR,41.0,26.1,55.0,38.0,,30.08,1018.5,0.0,0.0,0.0,2025-03-29,3,2025,6,KCHO,0.0,0.0,0.0,0.0,6
2025-03-26,26,2025-03-26 07:53,07:53,EDT,Calm,10.0,Fair,CLR,41.0,25.0,53.0,,,30.11,1019.5,0.0,0.0,0.0,2025-03-29,3,2025,7,KCHO,0.0,0.0,0.0,0.0,0
2025-03-26,26,2025-03-26 08:53,08:53,EDT,Vrbl  6,10.0,Fair,CLR,45.0,21.0,39.0,42.0,,30.12,1019.8,0.0,0.0,0.0,2025-03-29,3,2025,8,KCHO,0.0,0.0,0.0,0.0,6
2025-03-26,26,2025-03-26 09:53,09:53,EDT,Calm,10.0,Fair,CLR,46.9,17.1,30.0,,,30.12,1020.0,0.0,0.0,0.0,2025-03-29,3,2025,9,KCHO,0.0,0.0,0.0,0.0,0
2025-03-26,26,2025-03-26 10:53,10:53,EDT,W  12  G 20,10.0,Fair,CLR,48.9,17.1,28.0,45.0,,30.12,1020.0,0.0,0.0,0.0,2025-03-29,3,2025,10,KCHO,0.0,0.0,0.0,0.0,12
2025-03-26,26,2025-03-26 11:53,11:53,EDT,W  9  G 26,10.0,Fair,CLR,50.0,16.0,26.0,47.0,,30.12,1019.8,0.0,0.0,0.0,2025-03-29,3,2025,11,KCHO,0.0,0.0,0.0,0.0,9
2025-03-26,26,2025-03-26 12:53,12:53,EDT,NW  10  G 23,10.0,Fair,CLR,52.0,15.1,23.0,,,30.11,1019.6,0.0,0.0,0.0,2025-03-29,3,2025,12,KCHO,0.0,0.0,0.0,0.0,10
2025-03-26,26,2025-03-26 13:53,13:53,EDT,NW  13  G 30,10.0,Fair,CLR,53.1,12.0,19.0,,,30.1,1019.3,0.0,0.0,0.0,2025-03-29,3,2025,13,KCHO,0.0,0.0,0.0,0.0,13
2025-03-26,26,2025-03-26 14:53,14:53,EDT,NW  12  G 26,10.0,Fair,CLR,55.0,14.0,20.0,,,30.09,1019.1,0.0,0.0,0.0,2025-03-29,3,2025,14,KCHO,0.0,0.0,0.0,0.0,12
2025-03-26,26,2025-03-26 15:53,15:53,EDT,NW  10  G 21,10.0,Fair,CLR,55.0,12.9,19.0,,,30.09,1019.0,0.0,0.0,0.0,2025-03-29,3,2025,15,KCHO,0.0,0.0,0.0,0.0,10
2025-03-26,26,2025-03-26 16:53,16:53,EDT,NW  9  G 29,10.0,Fair,CLR,54.0,12.0,19.0,,,30.1,1019.4,0.0,0.0,0.0,2025-03-29,3,2025,16,KCHO,0.0,0.0,0.0,0.0,9
2025-03-26,26,2025-03-26 17:53,17:53,EDT,NW  10  G 22,10.0,Fair,CLR,54.0,14.0,20.0,,,30.12,1019.8,0.0,0.0,0.0,2025-03-29,3,2025,17,KCHO,0.0,0.0,0.0,0.0,10
2025-03-26,26,2025-03-26 18:53,18:53,EDT,Vrbl  7,10.0,Fair,CLR,52.0,14.0,22.0,,,30.14,1020.6,0.0,0.0,0.0,2025-03-29,3,2025,18,KCHO,0.0,0.0,0.0,0.0,7
2025-03-26,26,2025-03-26 19:53,19:53,EDT,NW  6  G 20,10.0,Fair,CLR,50.0,14.0,24.0,48.0,,30.17,1021.8,0.0,0.0,0.0,2025-03-29,3,2025,19,KCHO,0.0,0.0,0.0,0.0,6
2025-03-26,26,2025-03-26 20:53,20:53,EDT,NW  3,10.0,Fair,CLR,48.0,15.1,27.0,,,30.2,1022.7,0.0,0.0,0.0,2025-03-29,3,2025,20,KCHO,0.0,0.0,0.0,0.0,3
2025-03-26,26,2025-03-26 21:53,21:53,EDT,NW  5,10.0,Fair,CLR,46.0,15.1,29.0,44.0,,30.22,1023.2,0.0,0.0,0.0,2025-03-29,3,2025,21,KCHO,0.0,0.0,0.0,0.0,5
2025-03-26,26,2025-03-26 22:53,22:53,EDT,Calm,10.0,Fair,CLR,44.1,16.0,32.0,,,30.22,1023.4,0.0,0.0,0.0,2025-03-29,3,2025,22,KCHO,0.0,0.0,0.0,0.0,0
2025-03-26,26,2025-03-26 23:53,23:53,EDT,Calm,10.0,Fair,CLR,44.1,17.1,34.0,,,30.23,1023.7,0.0,0.0,0.0,2025-03-29,3,2025,23,KCHO,0.0,0.0,0.0,0.0,0
2025-03-27,27,2025-03-27 00:53,00:53,EDT,Calm,10.0,Fair,CLR,43.0,17.1,35.0,,,30.23,1023.5,0.0,0.0,0.0,2025-03-30,3,2025,0,KCHO,0.0,0.0,0.0,0.0,0
2025-03-27,27,2025-03-27 01:53,01:53,EDT,Calm,10.0,Fair,CLR,43.0,17.1,35.0,,,30.24,1023.9,0.0,0.0,0.0,2025-03-30,3,2025,1,KCHO,0.0,0.0,0.0,0.0,0
2025-03-27,27,2025-03-27 02:53,02:53,EDT,SW  3,10.0,Fair,CLR,42.1,17.1,36.0,,,30.24,1023.9,0.0,0.0,0.0,2025-03-30,3,2025,2,KCHO,0.0,0.0,0.0,0.0,3
2025-03-27,27,2025-03-27 03:53,03:53,EDT,Calm,10.0,Fair,CLR,41.0,18.0,39.0,,,30.23,1023.8,0.0,0.0,0.0,2025-03-30,3,2025,3,KCHO,0.0,0.0,0.0,0.0,0
2025-03-27,27,2025-03-27 04:53,04:53,EDT,Calm,10.0,Fair,CLR,39.0,18.0,43.0,,,30.24,1024.2,0.0,0.0,0.0,2025-03-30,3,2025,4,KCHO,0.0,0.0,0.0,0.0,0
2025-03-27,27,2025-03-27 05:53,05:53,EDT,N  5,10.0,Overcast,OVC065,34.0,21.0,59.0,30.0,,30.28,1025.3,0.0,0.0,0.0,2025-03-30,3,2025,5,KCHO,0.0,0.0,0.0,0.0,5
2025-03-27,27,2025-03-27 06:53,06:53,EDT,N  3,10.0,Overcast,OVC065,36.0,19.9,52.0,,,30.3,1026.2,0.0,0.0,0.0,2025-03-30,3,2025,6,KCHO,0.0,0.0,0.0,0.0,3
2025-03-27,27,2025-03-27 07:53,07:53,EDT,N  5,10.0,Overcast,BKN070 OVC080,37.0,19.9,50.0,34.0,,30.33,1027.1,0.0,0.0,0.0,2025-03-30,3,2025,7,KCHO,0.0,0.0,0.0,0.0,5
2025-03-27,27,2025-03-27 08:53,08:53,EDT,N  5,10.0,Mostly Cloudy,BKN070,39.9,21.0,47.0,37.0,,30.34,1027.5,0.0,0.0,0.0,2025-03-30,3,2025,8,KCHO,0.0,0.0,0.0,0.0,5
2025-03-27,27,2025-03-27 09:53,09:53,EDT,E  7,10.0,A Few Clouds,FEW055,45.0,21.0,39.0,42.0,,30.35,1027.8,0.0,0.0,0.0,2025-03-30,3,2025,9,KCHO,0.0,0.0,0.0,0.0,7
2025-03-27,27,2025-03-27 10:53,10:53,EDT,S  5,10.0,Fair,CLR,48.0,21.0,34.0,47.0,,30.35,1027.9,0.0,0.0,0.0,2025-03-30,3,2025,10,KCHO,0.0,0.0,0.0,0.0,5
2025-03-27,27,2025-03-27 11:53,11:53,EDT,Vrbl  6,10.0,Fair,CLR,51.1,24.1,35.0,,,30.34,1027.5,0.0,0.0,0.0,2025-03-30,3,2025,11,KCHO,0.0,0.0,0.0,0.0,6
2025-03-27,27,2025-03-27 12:53,12:53,EDT,S  9,10.0,Fair,CLR,53.1,23.0,31.0,,,30.32,1026.7,0.0,0.0,0.0,2025-03-30,3,2025,12,KCHO,0.0,0.0,0.0,0.0,9
2025-03-27,27,2025-03-27 13:53,13:53,EDT,Vrbl  5,10.0,Fair,CLR,57.0,24.1,28.0,,,30.3,1025.8,0.0,0.0,0.0,2025-03-30,3,2025,13,KCHO,0.0,0.0,0.0,0.0,5
2025-03-27,27,2025-03-27 14:53,14:53,EDT,S  6,10.0,Fair,CLR,59.0,24.1,26.0,,,30.27,1024.8,0.0,0.0,0.0,2025-03-30,3,2025,14,KCHO,0.0,0.0,0.0,0.0,6
2025-03-27,27,2025-03-27 15:53,15:53,EDT,W  8,10.0,Fair,CLR,61.0,21.9,22.0,,,30.24,1023.9,0.0,0.0,0.0,2025-03-30,3,2025,15,KCHO,0.0,0.0,0.0,0.0,8
2025-03-27,27,2025-03-27 16:53,16:53,EDT,W  6,10.0,Fair,CLR,62.1,19.0,19.0,,,30.2,1022.7,0.0,0.0,0.0,2025-03-30,3,2025,16,KCHO,0.0,0.0,0.0,0.0,6
2025-03-27,27,2025-03-27 17:53,17:53,EDT,S  6,10.0,Fair,CLR,62.1,18.0,18.0,,,30.2,1022.6,0.0,0.0,0.0,2025-03-30,3,2025,17,KCHO,0.0,0.0,0.0,0.0,6
2025-03-27,27,2025-03-27 18:53,18:53,EDT,Calm,10.0,Fair,CLR,61.0,17.1,18.0,,,30.2,1022.7,0.0,0.0,0.0,2025-03-30,3,2025,18,KCHO,0.0,0.0,0.0,0.0,0
2025-03-27,27,2025-03-27 19:53,19:53,EDT,S  5,10.0,Fair,CLR,55.9,17.1,22.0,,,30.21,1022.9,0.0,0.0,0.0,2025-03-30,3,2025,19,KCHO,0.0,0.0,0.0,0.0,5
2025-03-27,27,2025-03-27 20:53,20:53,EDT,S  5,10.0,Fair,CLR,55.0,19.0,24.0,,,30.22,1023.2,0.0,0.0,0.0,2025-03-30,3,2025,20,KCHO,0.0,0.0,0.0,0.0,5
2025-03-27,27,2025-03-27 21:53,21:53,EDT,Calm,10.0,Fair,CLR,50.0,21.0,32.0,,,30.23,1023.6,0.0,0.0,0.0,2025-03-30,3,2025,21,KCHO,0.0,0.0,0.0,0.0,0
2025-03-27,27,2025-03-27 22:53,22:53,EDT,Calm,10.0,A Few Clouds,FEW110,48.0,21.0,34.0,,,30.23,1023.7,0.0,0.0,0.0,2025-03-30,3,2025,22,KCHO,0.0,0.0,0.0,0.0,0
2025-03-27,27,2025-03-27 23:53,23:53,EDT,Calm,10.0,Mostly Cloudy,BKN100 BKN120,50.0,19.0,29.0,,,30.23,1023.5,0.0,0.0,0.0,2025-03-31,3,2025,23,KCHO,0.0,0.0,0.0,0.0,0
2025-03-28,28,2025-03-28 00:53,00:53,EDT,Calm,10.0,,,46.9,21.9,37.0,,,30.22,1023.3,0.0,0.0,0.0,2025-03-31,3,2025,0,KCHO,0.0,0.0,0.0,0.0,0
2025-03-28,28,2025-03-28 01:53,01:53,EDT,Calm,10.0,Overcast,BKN090 OVC110,46.0,24.1,42.0,,,30.22,1023.2,0.0,0.0,0.0,2025-03-31,3,2025,1,KCHO,0.0,0.0,0.0,0.0,0
2025-03-28,28,2025-03-28 02:53,02:53,EDT,Calm,10.0,Overcast,FEW090 OVC110,46.0,27.0,47.0,,,30.22,1023.2,0.0,0.0,0.0,2025-03-31,3,2025,2,KCHO,0.0,0.0,0.0,0.0,0
2025-03-28,28,2025-03-28 03:53,03:53,EDT,Calm,10.0,Overcast,OVC110,46.0,27.0,47.0,,,30.21,1022.7,0.0,0.0,0.0,2025-03-31,3,2025,3,KCHO,0.0,0.0,0.0,0.0,0
2025-03-28,28,2025-03-28 04:53,04:53,EDT,Calm,10.0,Mostly Cloudy,BKN085,45.0,27.0,49.0,,,30.21,1022.8,0.0,0.0,0.0,2025-03-31,3,2025,4,KCHO,0.0,0.0,0.0,0.0,0
2025-03-28,28,2025-03-28 05:53,05:53,EDT,Calm,10.0,Overcast,OVC095,45.0,28.0,52.0,,,30.22,1023.1,0.0,0.0,0.0,2025-03-31,3,2025,5,KCHO,0.0,0.0,0.0,0.0,0
2025-03-28,28,2025-03-28 06:53,06:53,EDT,Calm,10.0,Fair,CLR,43.0,28.9,58.0,,,30.23,1023.7,0.0,0.0,0.0,2025-03-31,3,2025,6,KCHO,0.0,0.0,0.0,0.0,0
2025-03-28,28,2025-03-28 07:53,07:53,EDT,Calm,10.0,Mostly Cloudy,FEW075 BKN100,44.1,30.0,58.0,,,30.25,1024.1,0.0,0.0,0.0,2025-03-31,3,2025,7,KCHO,0.0,0.0,0.0,0.0,0
2025-03-28,28,2025-03-28 08:53,08:53,EDT,W  3,10.0,Mostly Cloudy,FEW095 BKN110,46.9,30.9,54.0,,,30.26,1024.5,0.0,0.0,0.0,2025-03-31,3,2025,8,KCHO,0.0,0.0,0.0,0.0,3
2025-03-28,28,2025-03-28 09:53,09:53,EDT,SW  5,10.0,Mostly Cloudy,SCT085 BKN110,52.0,34.0,50.0,,,30.25,1024.1,0.0,0.0,0.0,2025-03-31,3,2025,9,KCHO,0.0,0.0,0.0,0.0,5
2025-03-28,28,2025-03-28 10:53,10:53,EDT,S  9,10.0,Fair,CLR,61.0,32.0,34.0,,,30.23,1023.6,0.0,0.0,0.0,2025-03-31,3,2025,10,KCHO,0.0,0.0,0.0,0.0,9
2025-03-28,28,2025-03-28 11:53,11:53,EDT,S  14,10.0,A Few Clouds,FEW100,68.0,35.1,30.0,,,30.21,1022.7,0.0,0.0,0.0,2025-03-31,3,2025,11,KCHO,0.0,0.0,0.0,0.0,14
2025-03-28,28,2025-03-28 12:53,12:53,EDT,S  12  G 20,10.0,Fair,CLR,72.0,37.0,28.0,,,30.18,1021.5,0.0,0.0,0.0,2025-03-31,3,2025,12,KCHO,0.0,0.0,0.0,0.0,12
2025-03-28,28,2025-03-28 13:53,13:53,EDT,S  12  G 18,10.0,A Few Clouds,FEW120,73.9,37.0,26.0,,,30.15,1020.6,0.0,0.0,0.0,2025-03-31,3,2025,13,KCHO,0.0,0.0,0.0,0.0,12
2025-03-28,28,2025-03-28 14:53,14:53,EDT,Vrbl  5,10.0,Overcast,BKN100 OVC120,73.0,37.9,28.0,,,30.12,1019.7,0.0,0.0,0.0,2025-03-31,3,2025,14,KCHO,0.0,0.0,0.0,0.0,5
2025-03-28,28,2025-03-28 15:53,15:53,EDT,Vrbl  6,10.0,Mostly Cloudy,BKN080,78.1,42.1,28.0,,78.0,30.09,1018.5,0.0,0.0,0.0,2025-03-31,3,2025,15,KCHO,0.0,0.0,0.0,0.0,6
2025-03-28,28,2025-03-28 16:53,16:53,EDT,S  9,10.0,Overcast,OVC090,75.9,39.9,27.0,,77.0,30.07,1018.0,0.0,0.0,0.0,2025-03-31,3,2025,16,KCHO,0.0,0.0,0.0,0.0,9
2025-03-28,28,2025-03-28 17:53,17:53,EDT,S  15  G 23,10.0,A Few Clouds,FEW100,75.0,39.9,28.0,,77.0,30.06,1017.6,0.0,0.0,0.0,2025-03-31,3,2025,17,KCHO,0.0,0.0,0.0,0.0,15
2025-03-28,28,2025-03-28 18:53,18:53,EDT,SW  14  G 25,10.0,A Few Clouds,FEW120,73.9,39.9,29.0,,,30.06,1017.5,0.0,0.0,0.0,2025-03-31,3,2025,18,KCHO,0.0,0.0,0.0,0.0,14
2025-03-28,28,2025-03-28 19:53,19:53,EDT,S  12,10.0,A Few Clouds,FEW120,72.0,39.9,31.0,,,30.05,1017.2,0.0,0.0,0.0,2025-03-31,3,2025,19,KCHO,0.0,0.0,0.0,0.0,12
2025-03-28,28,2025-03-28 20:53,20:53,EDT,S  13,10.0,Fair,CLR,70.0,39.9,34.0,,,30.06,1017.6,0.0,0.0,0.0,2025-03-31,3,2025,20,KCHO,0.0,0.0,0.0,0.0,13
2025-03-28,28,2025-03-28 21:53,21:53,EDT,S  13,10.0,Fair,CLR,68.0,39.9,36.0,,,30.06,1017.7,0.0,0.0,0.0,2025-03-31,3,2025,21,KCHO,0.0,0.0,0.0,0.0,13
2025-03-28,28,2025-03-28 22:53,22:53,EDT,S  12,10.0,Fair,CLR,66.9,39.9,37.0,,,30.06,1017.5,0.0,0.0,0.0,2025-03-31,3,2025,22,KCHO,0.0,0.0,0.0,0.0,12
2025-03-28,28,2025-03-28 23:53,23:53,EDT,S  9,10.0,Fair,CLR,63.0,39.9,43.0,,,30.08,1017.9,0.0,0.0,0.0,2025-03-31,3,2025,23,KCHO,0.0,0.0,0.0,0.0,9
2025-03-29,29,2025-03-29 00:53,00:53,EDT,S  10,10.0,Fair,CLR,64.0,39.9,41.0,,,30.07,1017.9,0.0,0.0,0.0,2025-04-01,3,2025,0,KCHO,0.0,0.0,0.0,0.0,10
2025-03-29,29,2025-03-29 01:53,01:53,EDT,S  13,10.0,Fair,CLR,64.0,39.9,41.0,,,30.07,1017.7,0.0,0.0,0.0,2025-04-01,3,2025,1,KCHO,0.0,0.0,0.0,0.0,13
2025-03-29,29,2025-03-29 02:53,02:53,EDT,S  8,10.0,Fair,CLR,61.0,39.9,46.0,,,30.07,1017.8,0.0,0.0,0.0,2025-04-01,3,2025,2,KCHO,0.0,0.0,0.0,0.0,8
2025-03-29,29,2025-03-29 03:53,03:53,EDT,S  8,10.0,Fair,CLR,62.1,39.9,44.0,,,30.07,1017.5,0.0,0.0,0.0,2025-04-01,3,2025,3,KCHO,0.0,0.0,0.0,0.0,8
2025-03-29,29,2025-03-29 04:53,04:53,EDT,S  7,10.0,Fair,CLR,61.0,39.9,46.0,,,30.08,1017.9,0.0,0.0,0.0,2025-04-01,3,2025,4,KCHO,0.0,0.0,0.0,0.0,7
2025-03-29,29,2025-03-29 05:53,05:53,EDT,Calm,10.0,Fair,CLR,61.0,39.9,46.0,,,30.09,1018.5,0.0,0.0,0.0,2025-04-01,3,2025,5,KCHO,0.0,0.0,0.0,0.0,0
2025-03-29,29,2025-03-29 06:53,06:53,EDT,S  6,10.0,Fair,CLR,61.0,41.0,48.0,,,30.11,1019.1,0.0,0.0,0.0,2025-04-01,3,2025,6,KCHO,0.0,0.0,0.0,0.0,6
2025-03-29,29,2025-03-29 07:53,07:53,EDT,S  7,10.0,Fair,CLR,61.0,42.1,50.0,,,30.13,1019.6,0.0,0.0,0.0,2025-04-01,3,2025,7,KCHO,0.0,0.0,0.0,0.0,7
2025-03-29,29,2025-03-29 09:53,09:53,EDT,S  12,10.0,Partly Cloudy,SCT120,64.9,42.1,43.0,,,30.14,1020.2,0.0,0.0,0.0,2025-04-01,3,2025,9,KCHO,0.0,0.0,0.0,0.0,12
2025-03-29,29,2025-03-29 10:53,10:53,EDT,S  8,10.0,Mostly Cloudy,BKN110,69.1,44.1,41.0,,,30.15,1020.6,0.0,0.0,0.0,2025-04-01,3,2025,10,KCHO,0.0,0.0,0.0,0.0,8
2025-03-29,29,2025-03-29 11:53,11:53,EDT,S  10,10.0,Fair,CLR,73.0,44.1,35.0,,,30.14,1020.2,0.0,0.0,0.0,2025-04-01,3,2025,11,KCHO,0.0,0.0,0.0,0.0,10
2025-03-29,29,2025-03-29 12:53,12:53,EDT,S  13,10.0,Fair,CLR,77.0,44.1,31.0,,78.0,30.13,1019.6,0.0,0.0,0.0,2025-04-01,3,2025,12,KCHO,0.0,0.0,0.0,0.0,13
2025-03-29,29,2025-03-29 13:53,13:53,EDT,S  14,10.0,Fair,CLR,77.0,45.0,32.0,,78.0,30.1,1018.8,0.0,0.0,0.0,2025-04-01,3,2025,13,KCHO,0.0,0.0,0.0,0.0,14
2025-03-29,29,2025-03-29 14:53,14:53,EDT,S  10  G 18,10.0,Fair,CLR,79.0,46.9,32.0,,79.0,30.08,1018.0,0.0,0.0,0.0,2025-04-01,3,2025,14,KCHO,0.0,0.0,0.0,0.0,10
2025-03-29,29,2025-03-29 15:53,15:53,EDT,S  14  G 25,10.0,Fair,CLR,80.1,45.0,29.0,,79.0,30.06,1017.3,0.0,0.0,0.0,2025-04-01,3,2025,15,KCHO,0.0,0.0,0.0,0.0,14
2025-03-29,29,2025-03-29 16:53,16:53,EDT,S  17  G 23,10.0,Fair,CLR,78.1,46.0,32.0,,78.0,30.05,1016.9,0.0,0.0,0.0,2025-04-01,3,2025,16,KCHO,0.0,0.0,0.0,0.0,17
2025-03-29,29,2025-03-29 17:53,17:53,EDT,S  14,10.0,Fair,CLR,77.0,48.9,37.0,,78.0,30.04,1016.7,0.0,0.0,0.0,2025-04-01,3,2025,17,KCHO,0.0,0.0,0.0,0.0,14
2025-03-29,29,2025-03-29 18:53,18:53,EDT,S  13  G 21,10.0,Fair,CLR,75.0,48.9,40.0,,77.0,30.05,1016.9,0.0,0.0,0.0,2025-04-01,3,2025,18,KCHO,0.0,0.0,0.0,0.0,13
2025-03-29,29,2025-03-29 19:53,19:53,EDT,S  9,10.0,Fair,CLR,73.0,48.9,43.0,,,30.05,1017.0,0.0,0.0,0.0,2025-04-01,3,2025,19,KCHO,0.0,0.0,0.0,0.0,9
2025-03-29,29,2025-03-29 20:53,20:53,EDT,S  8,10.0,Fair,CLR,71.1,48.9,46.0,,,30.06,1017.3,0.0,0.0,0.0,2025-04-01,3,2025,20,KCHO,0.0,0.0,0.0,0.0,8
2025-03-29,29,2025-03-29 21:53,21:53,EDT,S  9,10.0,Fair,CLR,69.1,46.9,45.0,,,30.07,1017.6,0.0,0.0,0.0,2025-04-01,3,2025,21,KCHO,0.0,0.0,0.0,0.0,9
2025-03-29,29,2025-03-29 22:53,22:53,EDT,S  10,10.0,Fair,CLR,69.1,48.0,47.0,,,30.07,1017.6,0.0,0.0,0.0,2025-04-01,3,2025,22,KCHO,0.0,0.0,0.0,0.0,10
2025-03-29,29,2025-03-29 23:53,23:53,EDT,S  15,10.0,Fair,CLR,70.0,48.9,47.0,,,30.07,1017.8,0.0,0.0,0.0,2025-04-01,3,2025,23,KCHO,0.0,0.0,0.0,0.0,15
2025-03-30,30,2025-03-30 00:53,00:53,EDT,S  14,10.0,Fair,CLR,69.1,48.9,49.0,,,30.07,1017.7,0.0,0.0,0.0,2025-04-02,3,2025,0,KCHO,0.0,0.0,0.0,0.0,14
2025-03-30,30,2025-03-30 01:53,01:53,EDT,S  7,10.0,Fair,CLR,66.9,48.9,53.0,,,30.07,1017.5,0.0,0.0,0.0,2025-04-02,3,2025,1,KCHO,0.0,0.0,0.0,0.0,7
2025-03-30,30,2025-03-30 02:53,02:53,EDT,S  9,10.0,Partly Cloudy,SCT110,66.0,48.9,54.0,,,30.05,1017.0,0.0,0.0,0.0,2025-04-02,3,2025,2,KCHO,0.0,0.0,0.0,0.0,9
2025-03-30,30,2025-03-30 03:53,03:53,EDT,S  12,10.0,Mostly Cloudy,FEW065 BKN095 BKN120,66.0,48.9,54.0,,,30.04,1016.6,0.0,0.0,0.0,2025-04-02,3,2025,3,KCHO,0.0,0.0,0.0,0.0,12
2025-03-30,30,2025-03-30 04:53,04:53,EDT,S  15,10.0,Overcast,SCT100 OVC120,66.0,48.9,54.0,,,30.04,1016.7,0.0,0.0,0.0,2025-04-02,3,2025,4,KCHO,0.0,0.0,0.0,0.0,15
2025-03-30,30,2025-03-30 05:53,05:53,EDT,S  12,10.0,Mostly Cloudy,SCT095 BKN110,64.9,50.0,59.0,,,30.05,1016.9,0.0,0.0,0.0,2025-04-02,3,2025,5,KCHO,0.0,0.0,0.0,0.0,12
2025-03-30,30,2025-03-30 06:53,06:53,EDT,S  9,10.0,A Few Clouds,FEW120,63.0,51.1,65.0,,,30.05,1016.9,0.0,0.0,0.0,2025-04-02,3,2025,6,KCHO,0.0,0.0,0.0,0.0,9
2025-03-30,30,2025-03-30 07:53,07:53,EDT,S  12,10.0,A Few Clouds,FEW120,62.1,52.0,70.0,,,30.06,1017.4,0.0,0.0,0.0,2025-04-02,3,2025,7,KCHO,0.0,0.0,0.0,0.0,12
2025-03-30,30,2025-03-30 08:53,08:53,EDT,S  12,10.0,Fair,CLR,66.0,53.1,63.0,,,30.06,1017.2,0.0,0.0,0.0,2025-04-02,3,2025,8,KCHO,0.0,0.0,0.0,0.0,12
2025-03-30,30,2025-03-30 09:53,09:53,EDT,S  14  G 20,10.0,Fair,CLR,69.1,54.0,59.0,,,30.06,1017.3,0.0,0.0,0.0,2025-04-02,3,2025,9,KCHO,0.0,0.0,0.0,0.0,14
2025-03-30,30,2025-03-30 10:53,10:53,EDT,S  15  G 24,10.0,Fair,CLR,72.0,54.0,53.0,,,30.06,1017.1,0.0,0.0,0.0,2025-04-02,3,2025,10,KCHO,0.0,0.0,0.0,0.0,15
2025-03-30,30,2025-03-30 11:53,11:53,EDT,SW  20  G 29,10.0,Fair,CLR,75.0,53.1,46.0,,78.0,30.04,1016.4,0.0,0.0,0.0,2025-04-02,3,2025,11,KCHO,0.0,0.0,0.0,0.0,20
2025-03-30,30,2025-03-30 12:53,12:53,EDT,SW  15  G 26,10.0,Fair,CLR,75.0,53.1,46.0,,78.0,30.02,1015.8,0.0,0.0,0.0,2025-04-02,3,2025,12,KCHO,0.0,0.0,0.0,0.0,15
2025-03-30,30,2025-03-30 13:53,13:53,EDT,S  15  G 29,10.0,Mostly Cloudy,SCT060 BKN120,79.0,54.0,42.0,,79.0,29.99,1014.9,0.0,0.0,0.0,2025-04-02,3,2025,13,KCHO,0.0,0.0,0.0,0.0,15
2025-03-30,30,2025-03-30 14:53,14:53,EDT,SW  12  G 18,10.0,Overcast,BKN060 OVC070,77.0,53.1,43.0,,78.0,29.97,1014.1,0.0,0.0,0.0,2025-04-02,3,2025,14,KCHO,0.0,0.0,0.0,0.0,12
2025-03-30,30,2025-03-30 15:53,15:53,EDT,S  10  G 23,10.0,Mostly Cloudy,BKN070,78.1,53.1,42.0,,79.0,29.94,1013.2,0.0,0.0,0.0,2025-04-02,3,2025,15,KCHO,0.0,0.0,0.0,0.0,10
2025-03-30,30,2025-03-30 16:53,16:53,EDT,S  16,10.0,Partly Cloudy,SCT070,78.1,53.1,42.0,,79.0,29.92,1012.7,0.0,0.0,0.0,2025-04-02,3,2025,16,KCHO,0.0,0.0,0.0,0.0,16
2025-03-30,30,2025-03-30 17:53,17:53,EDT,S  15  G 24,10.0,Mostly Cloudy,BKN060,78.1,52.0,40.0,,79.0,29.91,1012.3,0.0,0.0,0.0,2025-04-02,3,2025,17,KCHO,0.0,0.0,0.0,0.0,15
2025-03-30,30,2025-03-30 18:53,18:53,EDT,S  17  G 25,10.0,A Few Clouds,FEW070,75.9,51.1,42.0,,78.0,29.9,1012.0,0.0,0.0,0.0,2025-04-02,3,2025,18,KCHO,0.0,0.0,0.0,0.0,17
2025-03-30,30,2025-03-30 19:53,19:53,EDT,S  12,10.0,Fair,CLR,73.9,51.1,45.0,,,29.9,1011.8,0.0,0.0,0.0,2025-04-02,3,2025,19,KCHO,0.0,0.0,0.0,0.0,12
2025-03-30,30,2025-03-30 20:53,20:53,EDT,S  14,10.0,Fair,CLR,73.0,51.1,46.0,,,29.89,1011.6,0.0,0.0,0.0,2025-04-02,3,2025,20,KCHO,0.0,0.0,0.0,0.0,14
2025-03-30,30,2025-03-30 21:53,21:53,EDT,S  10,10.0,A Few Clouds,FEW090,70.0,51.1,51.0,,,29.88,1011.3,0.0,0.0,0.0,2025-04-02,3,2025,21,KCHO,0.0,0.0,0.0,0.0,10
2025-03-30,30,2025-03-30 22:53,22:53,EDT,S  18  G 26,10.0,Overcast,OVC100,71.1,52.0,51.0,,,29.88,1011.1,0.0,0.0,0.0,2025-04-02,3,2025,22,KCHO,0.0,0.0,0.0,0.0,18
2025-03-30,30,2025-03-30 23:53,23:53,EDT,S  16  G 23,10.0,A Few Clouds,FEW120,69.1,55.0,61.0,,,29.87,1010.9,0.0,0.0,0.0,2025-04-02,3,2025,23,KCHO,0.0,0.0,0.0,0.0,16
2025-03-31,31,2025-03-31 00:53,00:53,EDT,S  13,10.0,Fair,CLR,66.9,55.9,68.0,,,29.86,1010.4,0.0,0.0,0.0,2025-04-03,3,2025,0,KCHO,0.0,0.0,0.0,0.0,13
2025-03-31,31,2025-03-31 01:53,01:53,EDT,S  10  G 18,10.0,Overcast,OVC110,66.9,57.0,71.0,,,29.84,1009.8,0.0,0.0,0.0,2025-04-03,3,2025,1,KCHO,0.0,0.0,0.0,0.0,10
2025-03-31,31,2025-03-31 02:53,02:53,EDT,S  9  G 17,10.0,Mostly Cloudy,BKN110,66.0,57.0,73.0,,,29.82,1009.2,0.0,0.0,0.0,2025-04-03,3,2025,2,KCHO,0.0,0.0,0.0,0.0,9
2025-03-31,31,2025-03-31 03:53,03:53,EDT,S  13  G 21,10.0,Fair,CLR,64.9,57.0,76.0,,,29.81,1008.7,0.0,0.0,0.0,2025-04-03,3,2025,3,KCHO,0.0,0.0,0.0,0.0,13
2025-03-31,31,2025-03-31 04:53,04:53,EDT,S  12  G 22,10.0,Overcast,OVC031,64.9,57.9,78.0,,,29.81,1008.9,0.0,0.0,0.0,2025-04-03,3,2025,4,KCHO,0.0,0.0,0.0,0.0,12
2025-03-31,31,2025-03-31 05:53,05:53,EDT,S  14  G 23,10.0,Overcast,BKN035 OVC046,66.0,57.9,75.0,,,29.8,1008.5,0.0,0.0,0.0,2025-04-03,3,2025,5,KCHO,0.0,0.0,0.0,0.0,14
2025-03-31,31,2025-03-31 06:53,06:53,EDT,SW  13  G 22,10.0,Overcast,FEW023 OVC029,66.0,57.9,75.0,,,29.82,1009.1,0.0,0.0,0.0,2025-04-03,3,2025,6,KCHO,0.0,0.0,0.0,0.0,13
2025-03-31,31,2025-03-31 07:53,07:53,EDT,S  15,10.0,Partly Cloudy,SCT100,64.0,59.0,84.0,,,29.79,1008.0,0.0,0.0,0.0,2025-04-03,3,2025,7,KCHO,0.0,0.0,0.0,0.0,15
2025-03-31,31,2025-03-31 08:53,08:53,EDT,SW  9,10.0,A Few Clouds,FEW110,64.9,59.0,81.0,,,29.79,1008.3,0.0,0.0,0.0,2025-04-03,3,2025,8,KCHO,0.0,0.0,0.0,0.0,9
2025-03-31,31,2025-03-31 09:53,09:53,EDT,S  14,10.0,A Few Clouds,FEW110,69.1,59.0,70.0,,,29.77,1007.5,0.0,0.0,0.0,2025-04-03,3,2025,9,KCHO,0.0,0.0,0.0,0.0,14
2025-03-31,31,2025-03-31 10:53,10:53,EDT,S  16  G 22,10.0,Partly Cloudy,SCT030,73.0,57.9,59.0,,,29.77,1007.6,0.0,0.0,0.0,2025-04-03,3,2025,10,KCHO,0.0,0.0,0.0,0.0,16
2025-03-31,31,2025-03-31 11:53,11:53,EDT,SW  9  G 22,10.0,Partly Cloudy,SCT029,75.9,57.0,52.0,,78.0,29.75,1006.5,0.0,0.0,0.0,2025-04-03,3,2025,11,KCHO,0.0,0.0,0.0,0.0,9
2025-03-31,31,2025-03-31 13:53,13:53,EDT,S  12  G 25,10.0,A Few Clouds,FEW055,80.1,55.9,44.0,,80.0,29.68,1004.2,0.0,0.0,0.0,2025-04-03,3,2025,13,KCHO,0.0,0.0,0.0,0.0,12
2025-03-31,31,2025-03-31 14:53,14:53,EDT,S  17  G 26,10.0,A Few Clouds,FEW055,82.0,55.9,41.0,,82.0,29.65,1003.3,0.0,0.0,0.0,2025-04-03,3,2025,14,KCHO,0.0,0.0,0.0,0.0,17
2025-03-31,31,2025-03-31 15:53,15:53,EDT,S  21  G 29,10.0,Partly Cloudy and Breezy,SCT055,79.0,55.9,45.0,,80.0,29.63,1002.7,0.0,0.0,0.0,2025-04-03,3,2025,15,KCHO,0.0,0.0,0.0,0.0,21
2025-03-31,31,2025-03-31 16:53,16:53,EDT,S  22  G 30,10.0,Fair and Breezy,CLR,79.0,57.0,47.0,,80.0,29.6,1001.8,0.0,0.0,0.0,2025-04-03,3,2025,16,KCHO,0.0,0.0,0.0,0.0,22
2025-03-31,31,2025-03-31 17:53,17:53,EDT,S  18  G 25,10.0,Light Rain,BKN110,75.0,57.0,54.0,,78.0,29.59,1001.4,0.0,0.0,0.0,2025-04-03,3,2025,17,KCHO,0.0,0.0,0.0,0.0,18
2025-03-31,31,2025-03-31 18:53,18:53,EDT,SW  3,4.0,Light Rain,BKN095 OVC110,64.9,60.1,84.0,,,29.62,1002.5,0.05,0.0,0.0,2025-04-03,3,2025,18,KCHO,0.05,0.05,0.05,0.050000000000000114,3
2025-03-31,31,2025-03-31 19:53,19:53,EDT,S  6,9.0,Light Rain,FEW070 OVC095,64.0,62.1,93.0,,,29.61,1002.3,0.03,0.0,0.08,2025-04-03,3,2025,19,KCHO,0.08,0.08,0.08,0.08000000000000011,6
2025-03-31,31,2025-03-31 20:53,20:53,EDT,S  5,10.0,Overcast,FEW060 BKN080 OVC090,63.0,62.1,97.0,,,29.6,1001.9,0.0,0.0,0.0,2025-04-03,3,2025,20,KCHO,0.08,0.08,0.08,0.08000000000000011,5
2025-03-31,31,2025-03-31 21:53,21:53,EDT,SW  6,10.0,Overcast,OVC090,63.0,61.0,93.0,,,29.62,1002.5,0.0,0.0,0.0,2025-04-03,3,2025,21,KCHO,0.03,0.08,0.08,0.08000000000000011,6
2025-03-31,31,2025-03-31 22:53,22:53,EDT,Calm,10.0,Overcast,SCT070 OVC080,64.0,59.0,84.0,,,29.65,1003.3,0.0,0.0,0.0,2025-04-03,3,2025,22,KCHO,0.0,0.08,0.08,0.08000000000000011,0
2025-03-31,31,2025-03-31 23:53,23:53,EDT,NW  3,10.0,A Few Clouds,FEW110,63.0,55.9,78.0,,,29.65,1003.5,0.0,0.0,0.0,2025-04-04,3,2025,23,KCHO,0.0,0.08,0.08,0.08000000000000011,3
2025-04-01,1,2025-04-01 00:53,00:53,EDT,N  5,10.0,Overcast,OVC050,62.1,46.9,58.0,,,29.68,1004.3,0.0,0.0,0.0,2025-04-04,4,2025,0,KCHO,0.0,0.03,0.08,0.08000000000000011,5
2025-04-01,1,2025-04-01 01:53,01:53,EDT,NW  8  G 17,10.0,Fair,CLR,59.0,43.0,56.0,,,29.72,1005.8,0.0,0.0,0.0,2025-04-04,4,2025,1,KCHO,0.0,0.0,0.08,0.08000000000000011,8
2025-04-01,1,2025-04-01 02:53,02:53,EDT,NW  12  G 23,10.0,Fair,CLR,55.9,39.9,55.0,,,29.77,1007.4,0.0,0.0,0.0,2025-04-04,4,2025,2,KCHO,0.0,0.0,0.08,0.08000000000000011,12
2025-04-01,1,2025-04-01 03:53,03:53,EDT,W  5,10.0,Overcast,OVC045,54.0,37.9,55.0,,,29.8,1008.5,0.0,0.0,0.0,2025-04-04,4,2025,3,KCHO,0.0,0.0,0.08,0.08000000000000011,5
2025-04-01,1,2025-04-01 04:53,04:53,EDT,N  8  G 23,10.0,Mostly Cloudy,BKN047,50.0,36.0,59.0,47.0,,29.86,1010.6,0.0,0.0,0.0,2025-04-04,4,2025,4,KCHO,0.0,0.0,0.08,0.08000000000000011,8
2025-04-01,1,2025-04-01 05:53,05:53,EDT,NW  6,10.0,Fair,CLR,48.0,34.0,58.0,46.0,,29.89,1011.7,0.0,0.0,0.0,2025-04-04,4,2025,5,KCHO,0.0,0.0,0.08,0.08000000000000011,6
2025-04-01,1,2025-04-01 06:53,06:53,EDT,NW  5  G 21,10.0,Fair,CLR,46.9,33.1,59.0,45.0,,29.92,1012.8,0.0,0.0,0.0,2025-04-04,4,2025,6,KCHO,0.0,0.0,0.03,0.08000000000000011,5
2025-04-01,1,2025-04-01 07:53,07:53,EDT,NW  5,10.0,Fair,CLR,48.0,33.1,56.0,47.0,,29.94,1013.7,0.0,0.0,0.0,2025-04-04,4,2025,7,KCHO,0.0,0.0,0.0,0.08000000000000011,5
2025-04-01,1,2025-04-01 08:53,08:53,EDT,NW  13  G 21,10.0,Fair,CLR,48.9,33.1,55.0,44.0,,29.98,1014.9,0.0,0.0,0.0,2025-04-04,4,2025,8,KCHO,0.0,0.0,0.0,0.08000000000000011,13
2025-04-01,1,2025-04-01 09:53,09:53,EDT,NW  8,10.0,Fair,CLR,51.1,34.0,52.0,,,30.01,1016.0,0.0,0.0,0.0,2025-04-04,4,2025,9,KCHO,0.0,0.0,0.0,0.08000000000000011,8
2025-04-01,1,2025-04-01 10:53,10:53,EDT,Vrbl  6,10.0,Fair,CLR,53.1,33.1,47.0,,,30.04,1016.8,0.0,0.0,0.0,2025-04-04,4,2025,10,KCHO,0.0,0.0,0.0,0.08000000000000011,6
2025-04-01,1,2025-04-01 11:53,11:53,EDT,NW  8  G 20,10.0,Fair,CLR,55.0,32.0,42.0,,,30.06,1017.5,0.0,0.0,0.0,2025-04-04,4,2025,11,KCHO,0.0,0.0,0.0,0.08000000000000011,8
2025-04-01,1,2025-04-01 12:53,12:53,EDT,Calm,10.0,Fair,CLR,57.0,32.0,39.0,,,30.06,1017.7,0.0,0.0,0.0,2025-04-04,4,2025,12,KCHO,0.0,0.0,0.0,0.08000000000000011,0
2025-04-01,1,2025-04-01 13:53,13:53,EDT,NW  10  G 16,10.0,Fair,CLR,59.0,32.0,36.0,,,30.06,1017.5,0.0,0.0,0.0,2025-04-04,4,2025,13,KCHO,0.0,0.0,0.0,0.08000000000000011,10
2025-04-01,1,2025-04-01 14:53,14:53,EDT,N  9,10.0,Fair,CLR,61.0,30.9,32.0,,,30.04,1017.0,0.0,0.0,0.0,2025-04-04,4,2025,14,KCHO,0.0,0.0,0.0,0.08000000000000011,9
2025-04-01,1,2025-04-01 15:53,15:53,EDT,NE  8,10.0,Fair,CLR,63.0,30.9,30.0,,,30.04,1016.8,0.0,0.0,0.0,2025-04-04,4,2025,15,KCHO,0.0,0.0,0.0,0.08000000000000011,8
2025-04-01,1,2025-04-01 16:53,16:53,EDT,Vrbl  3,10.0,Fair,CLR,63.0,28.9,28.0,,,30.06,1017.5,0.0,0.0,0.0,2025-04-04,4,2025,16,KCHO,0.0,0.0,0.0,0.08000000000000011,3
2025-04-01,1,2025-04-01 17:53,17:53,EDT,NE  6,10.0,Fair,CLR,64.0,28.0,26.0,,,30.06,1017.8,0.0,0.0,0.0,2025-04-04,4,2025,17,KCHO,0.0,0.0,0.0,0.08000000000000011,6
2025-04-01,1,2025-04-01 18:53,18:53,EDT,NE  10,10.0,Fair,CLR,60.1,32.0,35.0,,,30.09,1018.9,0.0,0.0,0.0,2025-04-04,4,2025,18,KCHO,0.0,0.0,0.0,0.03000000000000011,10
2025-04-01,1,2025-04-01 19:53,19:53,EDT,NE  13,10.0,Fair,CLR,54.0,30.0,40.0,,,30.12,1019.9,0.0,0.0,0.0,2025-04-04,4,2025,19,KCHO,0.0,0.0,0.0,0.0,13
2025-04-01,1,2025-04-01 20:53,20:53,EDT,NE  9,10.0,Fair,CLR,52.0,28.9,41.0,,,30.17,1021.7,0.0,0.0,0.0,2025-04-04,4,2025,20,KCHO,0.0,0.0,0.0,0.0,9
2025-04-01,1,2025-04-01 21:53,21:53,EDT,NE  8,10.0,Fair,CLR,50.0,28.0,43.0,47.0,,30.2,1022.6,0.0,0.0,0.0,2025-04-04,4,2025,21,KCHO,0.0,0.0,0.0,0.0,8
2025-04-01,1,2025-04-01 22:53,22:53,EDT,NE  6,10.0,Fair,CLR,48.0,27.0,44.0,46.0,,30.22,1023.4,0.0,0.0,0.0,2025-04-04,4,2025,22,KCHO,0.0,0.0,0.0,0.0,6
2025-04-01,1,2025-04-01 23:53,23:53,EDT,NE  3,10.0,Fair,CLR,46.9,27.0,46.0,,,30.25,1024.3,0.0,0.0,0.0,2025-04-04,4,2025,23,KCHO,0.0,0.0,0.0,0.0,3
2025-04-02,2,2025-04-02 00:53,00:53,EDT,N  3,10.0,Fair,CLR,43.0,28.9,58.0,,,30.26,1024.7,0.0,0.0,0.0,2025-04-05,4,2025,0,KCHO,0.0,0.0,0.0,0.0,3
2025-04-02,2,2025-04-02 01:53,01:53,EDT,Calm,10.0,Fair,CLR,43.0,28.0,56.0,,,30.28,1025.3,0.0,0.0,0.0,2025-04-05,4,2025,1,KCHO,0.0,0.0,0.0,0.0,0
2025-04-02,2,2025-04-02 02:53,02:53,EDT,Calm,10.0,Fair,CLR,41.0,28.9,62.0,,,30.29,1025.5,0.0,0.0,0.0,2025-04-05,4,2025,2,KCHO,0.0,0.0,0.0,0.0,0
2025-04-02,2,2025-04-02 03:53,03:53,EDT,Calm,10.0,Fair,CLR,39.9,30.0,68.0,,,30.29,1025.6,0.0,0.0,0.0,2025-04-05,4,2025,3,KCHO,0.0,0.0,0.0,0.0,0
2025-04-02,2,2025-04-02 04:53,04:53,EDT,N  5,10.0,Overcast,OVC047,41.0,30.0,65.0,38.0,,30.3,1025.8,0.0,0.0,0.0,2025-04-05,4,2025,4,KCHO,0.0,0.0,0.0,0.0,5
2025-04-02,2,2025-04-02 05:53,05:53,EDT,Calm,10.0,Mostly Cloudy,BKN042,41.0,28.9,62.0,,,30.31,1026.4,0.0,0.0,0.0,2025-04-05,4,2025,5,KCHO,0.0,0.0,0.0,0.0,0
2025-04-02,2,2025-04-02 06:53,06:53,EDT,Calm,10.0,Overcast,OVC041,42.1,33.1,71.0,,,30.34,1027.3,0.0,0.0,0.0,2025-04-05,4,2025,6,KCHO,0.0,0.0,0.0,0.0,0
2025-04-02,2,2025-04-02 07:53,07:53,EDT,NE  5,10.0,Overcast,OVC039,44.1,30.9,60.0,42.0,,30.35,1027.7,0.0,0.0,0.0,2025-04-05,4,2025,7,KCHO,0.0,0.0,0.0,0.0,5
2025-04-02,2,2025-04-02 08:53,08:53,EDT,E  3,10.0,Overcast,OVC038,46.0,33.1,61.0,,,30.36,1028.1,0.0,0.0,0.0,2025-04-05,4,2025,8,KCHO,0.0,0.0,0.0,0.0,3
2025-04-02,2,2025-04-02 09:53,09:53,EDT,Calm,10.0,Overcast,OVC040,48.0,34.0,58.0,,,30.37,1028.5,0.0,0.0,0.0,2025-04-05,4,2025,9,KCHO,0.0,0.0,0.0,0.0,0
2025-04-02,2,2025-04-02 10:53,10:53,EDT,SE  7,10.0,Overcast,OVC040,48.9,37.0,64.0,46.0,,30.36,1028.1,0.0,0.0,0.0,2025-04-05,4,2025,10,KCHO,0.0,0.0,0.0,0.0,7
2025-04-02,2,2025-04-02 11:53,11:53,EDT,S  6,10.0,Overcast,OVC038,50.0,36.0,59.0,48.0,,30.34,1027.2,0.0,0.0,0.0,2025-04-05,4,2025,11,KCHO,0.0,0.0,0.0,0.0,6
2025-04-02,2,2025-04-02 12:53,12:53,EDT,Calm,10.0,Overcast,OVC036,51.1,37.0,59.0,,,30.32,1026.7,0.0,0.0,0.0,2025-04-05,4,2025,12,KCHO,0.0,0.0,0.0,0.0,0
2025-04-02,2,2025-04-02 13:53,13:53,EDT,SW  6,9.0,Overcast,OVC034,52.0,39.0,61.0,,,30.3,1026.2,0.0,0.0,0.0,2025-04-05,4,2025,13,KCHO,0.0,0.0,0.0,0.0,6
2025-04-02,2,2025-04-02 14:53,14:53,EDT,Calm,9.0,Overcast,OVC032,52.0,39.0,61.0,,,30.29,1025.7,0.0,0.0,0.0,2025-04-05,4,2025,14,KCHO,0.0,0.0,0.0,0.0,0
2025-04-02,2,2025-04-02 15:53,15:53,EDT,Vrbl  3,10.0,Overcast,OVC029,52.0,39.9,64.0,,,30.29,1025.7,0.0,0.0,0.0,2025-04-05,4,2025,15,KCHO,0.0,0.0,0.0,0.0,3
2025-04-02,2,2025-04-02 16:53,16:53,EDT,SW  3,10.0,Overcast,OVC027,53.1,42.1,66.0,,,30.27,1024.9,0.0,0.0,0.0,2025-04-05,4,2025,16,KCHO,0.0,0.0,0.0,0.0,3
2025-04-02,2,2025-04-02 17:53,17:53,EDT,Calm,10.0,Overcast,OVC036,54.0,42.1,64.0,,,30.26,1024.5,0.0,0.0,0.0,2025-04-05,4,2025,17,KCHO,0.0,0.0,0.0,0.0,0
2025-04-02,2,2025-04-02 18:53,18:53,EDT,Calm,10.0,Overcast,OVC036,53.1,42.1,66.0,,,30.26,1024.6,0.0,0.0,0.0,2025-04-05,4,2025,18,KCHO,0.0,0.0,0.0,0.0,0
2025-04-02,2,2025-04-02 19:53,19:53,EDT,N  6,10.0,Overcast,OVC035,52.0,42.1,69.0,,,30.26,1024.8,0.0,0.0,0.0,2025-04-05,4,2025,19,KCHO,0.0,0.0,0.0,0.0,6
2025-04-02,2,2025-04-02 20:53,20:53,EDT,Calm,10.0,Overcast,OVC034,51.1,43.0,74.0,,,30.25,1024.5,0.0,0.0,0.0,2025-04-05,4,2025,20,KCHO,0.0,0.0,0.0,0.0,0
2025-04-02,2,2025-04-02 21:53,21:53,EDT,Calm,10.0,Overcast,OVC031,51.1,43.0,74.0,,,30.26,1024.5,0.0,0.0,0.0,2025-04-05,4,2025,21,KCHO,0.0,0.0,0.0,0.0,0
2025-04-02,2,2025-04-02 22:53,22:53,EDT,Calm,10.0,Overcast,OVC026,51.1,44.1,77.0,,,30.23,1023.6,0.0,0.0,0.0,2025-04-05,4,2025,22,KCHO,0.0,0.0,0.0,0.0,0
2025-04-02,2,2025-04-02 23:53,23:53,EDT,Calm,10.0,Overcast,OVC022,51.1,44.1,77.0,,,30.19,1022.1,0.0,0.0,0.0,2025-04-05,4,2025,23,KCHO,0.0,0.0,0.0,0.0,0
2025-04-03,3,2025-04-03 00:53,00:53,EDT,Calm,10.0,Light Rain,OVC019,50.0,45.0,83.0,,,30.21,1022.8,0.0,0.0,0.0,2025-04-06,4,2025,0,KCHO,0.0,0.0,0.0,0.0,0
2025-04-03,3,2025-04-03 01:53,01:53,EDT,Calm,10.0,Overcast,BKN016 OVC021,50.0,46.0,86.0,,,30.19,1022.1,0.0,0.0,0.0,2025-04-06,4,2025,1,KCHO,0.0,0.0,0.0,0.0,0
2025-04-03,3,2025-04-03 02:53,02:53,EDT,SW  3,5.0,Fog/Mist,OVC015,48.9,46.0,90.0,,,30.17,1021.4,0.0,0.0,0.0,2025-04-06,4,2025,2,KCHO,0.0,0.0,0.0,0.0,3
2025-04-03,3,2025-04-03 03:53,03:53,EDT,Calm,1.75,Light Rain Fog/Mist,FEW002 OVC013,48.9,48.0,97.0,,,30.15,1020.7,0.0,0.0,0.0,2025-04-06,4,2025,3,KCHO,0.0,0.0,0.0,0.0,0
2025-04-03,3,2025-04-03 04:53,04:53,EDT,Calm,3.0,Light Rain Fog/Mist,SCT002 OVC012,48.9,48.0,97.0,,,30.13,1020.3,0.01,0.01,0.0,2025-04-06,4,2025,4,KCHO,0.01,0.01,0.01,0.010000000000000111,0
2025-04-03,3,2025-04-03 05:53,05:53,EDT,Calm,5.0,Fog/Mist,BKN002 OVC012,50.0,48.9,96.0,,,30.13,1020.2,0.0,0.0,0.0,2025-04-06,4,2025,5,KCHO,0.01,0.01,0.01,0.010000000000000111,0
2025-04-03,3,2025-04-03 06:53,06:53,EDT,S  7,4.0,Fog/Mist,OVC014,50.0,48.9,96.0,48.0,,30.13,1020.2,0.0,0.0,0.0,2025-04-06,4,2025,6,KCHO,0.01,0.01,0.01,0.010000000000000111,7
2025-04-03,3,2025-04-03 07:53,07:53,EDT,S  8,4.0,Fog/Mist,OVC018,52.0,51.1,97.0,,,30.13,1020.1,0.0,0.0,0.01,2025-04-06,4,2025,7,KCHO,0.0,0.01,0.01,0.010000000000000111,8
2025-04-03,3,2025-04-03 08:53,08:53,EDT,Calm,6.0,Fog/Mist,OVC013,54.0,53.1,97.0,,,30.14,1020.5,0.0,0.0,0.0,2025-04-06,4,2025,8,KCHO,0.0,0.01,0.01,0.010000000000000111,0
2025-04-03,3,2025-04-03 09:53,09:53,EDT,S  7,8.0,Overcast,BKN018 OVC025,57.0,55.9,96.0,,,30.16,1020.9,0.0,0.0,0.0,2025-04-06,4,2025,9,KCHO,0.0,0.01,0.01,0.010000000000000111,7
2025-04-03,3,2025-04-03 10:53,10:53,EDT,S  10,10.0,Overcast,OVC015,63.0,60.1,90.0,,,30.15,1020.7,0.0,0.0,0.0,2025-04-06,4,2025,10,KCHO,0.0,0.0,0.01,0.010000000000000111,10
2025-04-03,3,2025-04-03 11:53,11:53,EDT,S  12,10.0,Mostly Cloudy,FEW013 BKN023,66.0,62.1,87.0,,,30.15,1020.5,0.0,0.0,0.0,2025-04-06,4,2025,11,KCHO,0.0,0.0,0.01,0.010000000000000111,12
2025-04-03,3,2025-04-03 12:53,12:53,EDT,SW  13  G 23,10.0,Partly Cloudy,SCT034,70.0,64.0,82.0,,,30.12,1019.8,0.0,0.0,0.0,2025-04-06,4,2025,12,KCHO,0.0,0.0,0.01,0.010000000000000111,13
2025-04-03,3,2025-04-03 13:53,13:53,EDT,S  18  G 25,10.0,Fair,CLR,72.0,64.0,76.0,,,30.12,1019.6,0.0,0.0,0.0,2025-04-06,4,2025,13,KCHO,0.0,0.0,0.01,0.010000000000000111,18
2025-04-03,3,2025-04-03 14:53,14:53,EDT,S  16  G 24,10.0,A Few Clouds,FEW020,73.0,64.0,74.0,,,30.1,1018.8,0.0,0.0,0.0,2025-04-06,4,2025,14,KCHO,0.0,0.0,0.01,0.010000000000000111,16
2025-04-03,3,2025-04-03 15:53,15:53,EDT,SW  13  G 24,10.0,Fair,CLR,75.0,64.0,69.0,,77.0,30.08,1018.3,0.0,0.0,0.0,2025-04-06,4,2025,15,KCHO,0.0,0.0,0.01,0.010000000000000111,13
2025-04-03,3,2025-04-03 16:53,16:53,EDT,SW  9  G 21,10.0,Fair,CLR,75.9,64.0,67.0,,78.0,30.07,1017.8,0.0,0.0,0.0,2025-04-06,4,2025,16,KCHO,0.0,0.0,0.0,0.010000000000000111,9
2025-04-03,3,2025-04-03 17:53,17:53,EDT,SW  14,10.0,Fair,CLR,75.9,63.0,64.0,,78.0,30.07,1017.9,0.0,0.0,0.0,2025-04-06,4,2025,17,KCHO,0.0,0.0,0.0,0.010000000000000111,14
2025-04-03,3,2025-04-03 18:53,18:53,EDT,S  9  G 21,10.0,Fair,CLR,75.0,63.0,66.0,,77.0,30.07,1017.9,0.0,0.0,0.0,2025-04-06,4,2025,18,KCHO,0.0,0.0,0.0,0.010000000000000111,9
2025-04-03,3,2025-04-03 19:53,19:53,EDT,S  9,10.0,Fair,CLR,73.9,63.0,69.0,,,30.1,1018.8,0.0,0.0,0.0,2025-04-06,4,2025,19,KCHO,0.0,0.0,0.0,0.010000000000000111,9
2025-04-03,3,2025-04-03 20:53,20:53,EDT,S  10,10.0,Fair,CLR,73.0,64.0,74.0,,,30.09,1018.5,0.0,0.0,0.0,2025-04-06,4,2025,20,KCHO,0.0,0.0,0.0,0.010000000000000111,10
2025-04-03,3,2025-04-03 21:53,21:53,EDT,S  15,10.0,Fair,CLR,73.0,64.9,76.0,,,30.06,1017.5,0.0,0.0,0.0,2025-04-06,4,2025,21,KCHO,0.0,0.0,0.0,0.010000000000000111,15
2025-04-03,3,2025-04-03 22:53,22:53,EDT,SW  15  G 23,10.0,Fair,CLR,73.9,64.0,71.0,,,30.09,1018.1,0.0,0.0,0.0,2025-04-06,4,2025,22,KCHO,0.0,0.0,0.0,0.010000000000000111,15
2025-04-04,4,2025-04-04 05:53,05:53,EDT,N  3,10.0,Light Rain,BKN043 OVC055,69.1,62.1,78.0,,,30.14,1019.8,0.0,0.0,0.0,2025-04-07,4,2025,5,KCHO,0.0,0.0,0.0,0.010000000000000111,3
2025-04-04,4,2025-04-04 06:53,06:53,EDT,SW  3,10.0,Partly Cloudy,SCT090,69.1,61.0,76.0,,,30.15,1020.2,0.0,0.0,0.0,2025-04-07,4,2025,6,KCHO,0.0,0.0,0.0,0.010000000000000111,3
2025-04-04,4,2025-04-04 07:53,07:53,EDT,SW  5,10.0,Mostly Cloudy,BKN095,68.0,61.0,78.0,,,30.17,1021.0,0.0,0.0,0.0,2025-04-07,4,2025,7,KCHO,0.0,0.0,0.0,0.010000000000000111,5
2025-04-04,4,2025-04-04 08:53,08:53,EDT,S  8,10.0,Mostly Cloudy,BKN090,71.1,55.9,59.0,,,30.17,1021.0,0.0,0.0,0.0,2025-04-07,4,2025,8,KCHO,0.0,0.0,0.0,0.010000000000000111,8
2025-04-04,4,2025-04-04 09:53,09:53,EDT,Calm,10.0,A Few Clouds,FEW100,73.0,57.0,57.0,,,30.19,1021.8,0.0,0.0,0.0,2025-04-07,4,2025,9,KCHO,0.0,0.0,0.0,0.010000000000000111,0
2025-04-04,4,2025-04-04 10:53,10:53,EDT,Vrbl  6,10.0,Overcast,OVC100,73.9,55.0,52.0,,,30.2,1021.9,0.0,0.0,0.0,2025-04-07,4,2025,10,KCHO,0.0,0.0,0.0,0.0,6
2025-04-04,4,2025-04-04 11:53,11:53,EDT,Vrbl  6,10.0,Light Rain,OVC100,72.0,57.0,59.0,,,30.19,1021.8,0.0,0.0,0.0,2025-04-07,4,2025,11,KCHO,0.0,0.0,0.0,0.0,6
2025-04-04,4,2025-04-04 12:53,12:53,EDT,Vrbl  6,10.0,Light Rain,FEW060 FEW090 OVC110,71.1,59.0,66.0,,,30.19,1021.7,0.01,0.0,0.0,2025-04-07,4,2025,12,KCHO,0.01,0.01,0.01,0.010000000000000111,6
2025-04-04,4,2025-04-04 13:53,13:53,EDT,E  3,10.0,Light Rain,FEW055 OVC100,71.1,60.1,68.0,,,30.16,1020.7,0.0,0.0,0.01,2025-04-07,4,2025,13,KCHO,0.01,0.01,0.01,0.010000000000000111,3
2025-04-04,4,2025-04-04 14:53,14:53,EDT,W  6,10.0,Fair,CLR,75.9,59.0,56.0,,78.0,30.17,1021.1,0.01,0.0,0.0,2025-04-07,4,2025,14,KCHO,0.02,0.02,0.02,0.02000000000000011,6
2025-04-04,4,2025-04-04 15:53,15:53,EDT,Vrbl  3,10.0,Fair,CLR,78.1,57.9,50.0,,79.0,30.18,1021.1,0.0,0.0,0.0,2025-04-07,4,2025,15,KCHO,0.01,0.02,0.02,0.02000000000000011,3
2025-04-04,4,2025-04-04 16:53,16:53,EDT,Vrbl  5,10.0,Fair,CLR,78.1,57.9,50.0,,79.0,30.19,1021.6,0.0,0.01,0.0,2025-04-07,4,2025,16,KCHO,0.01,0.02,0.02,0.02000000000000011,5
2025-04-04,4,2025-04-04 17:53,17:53,EDT,Calm,10.0,Fair,CLR,78.1,57.9,50.0,,79.0,30.19,1021.6,0.0,0.0,0.0,2025-04-07,4,2025,17,KCHO,0.0,0.02,0.02,0.02000000000000011,0
2025-04-04,4,2025-04-04 18:53,18:53,EDT,NE  10,10.0,Fair,CLR,71.1,60.1,68.0,,,30.2,1022.2,0.0,0.0,0.0,2025-04-07,4,2025,18,KCHO,0.0,0.01,0.02,0.02000000000000011,10
2025-04-04,4,2025-04-04 19:53,19:53,EDT,NE  8,10.0,A Few Clouds,FEW075,66.9,57.9,73.0,,,30.22,1022.8,0.0,0.0,0.01,2025-04-07,4,2025,19,KCHO,0.0,0.01,0.02,0.02000000000000011,8
2025-04-04,4,2025-04-04 20:53,20:53,EDT,NE  8,10.0,Mostly Cloudy,BKN110,66.0,57.0,73.0,,,30.24,1023.5,0.0,0.0,0.0,2025-04-07,4,2025,20,KCHO,0.0,0.0,0.02,0.02000000000000011,8
2025-04-04,4,2025-04-04 21:53,21:53,EDT,NE  8,10.0,Partly Cloudy,SCT100,64.0,55.9,75.0,,,30.26,1023.9,0.0,0.0,0.0,2025-04-07,4,2025,21,KCHO,0.0,0.0,0.02,0.02000000000000011,8
2025-04-04,4,2025-04-04 22:53,22:53,EDT,N  3,10.0,Mostly Cloudy,BKN095,63.0,55.0,76.0,,,30.25,1023.8,0.0,0.0,0.0,2025-04-07,4,2025,22,KCHO,0.0,0.0,0.02,0.02000000000000011,3
2025-04-04,4,2025-04-04 23:53,23:53,EDT,SE  5,10.0,Partly Cloudy,SCT110,63.0,55.0,76.0,,,30.26,1024.1,0.0,0.0,0.0,2025-04-07,4,2025,23,KCHO,0.0,0.0,0.02,0.02000000000000011,5
2025-04-05,5,2025-04-05 00:53,00:53,EDT,N  3,10.0,Mostly Cloudy,SCT075 BKN095,62.1,55.0,78.0,,,30.26,1024.3,0.0,0.0,0.0,2025-04-08,4,2025,0,KCHO,0.0,0.0,0.01,0.02000000000000011,3
2025-04-05,5,2025-04-05 01:53,01:53,EDT,N  3,10.0,Overcast,BKN029 OVC065,62.1,55.0,78.0,,,30.24,1023.6,0.0,0.0,0.0,2025-04-08,4,2025,1,KCHO,0.0,0.0,0.01,0.02000000000000011,3
2025-04-05,5,2025-04-05 02:53,02:53,EDT,N  3,10.0,Overcast,OVC018,62.1,54.0,75.0,,,30.22,1022.6,0.0,0.0,0.0,2025-04-08,4,2025,2,KCHO,0.0,0.0,0.0,0.02000000000000011,3
2025-04-05,5,2025-04-05 03:53,03:53,EDT,Calm,10.0,Overcast,OVC019,62.1,54.0,75.0,,,30.2,1022.2,0.0,0.0,0.0,2025-04-08,4,2025,3,KCHO,0.0,0.0,0.0,0.02000000000000011,0
2025-04-05,5,2025-04-05 04:53,04:53,EDT,Calm,10.0,Overcast,OVC017,62.1,54.0,75.0,,,30.19,1021.5,0.0,0.0,0.0,2025-04-08,4,2025,4,KCHO,0.0,0.0,0.0,0.02000000000000011,0
2025-04-05,5,2025-04-05 05:53,05:53,EDT,Calm,10.0,Overcast,OVC015,62.1,54.0,75.0,,,30.17,1021.1,0.0,0.0,0.0,2025-04-08,4,2025,5,KCHO,0.0,0.0,0.0,0.02000000000000011,0
2025-04-05,5,2025-04-05 06:53,06:53,EDT,Calm,10.0,Overcast,OVC014,62.1,55.9,80.0,,,30.17,1021.2,0.0,0.0,0.0,2025-04-08,4,2025,6,KCHO,0.0,0.0,0.0,0.02000000000000011,0
2025-04-05,5,2025-04-05 07:53,07:53,EDT,E  5,10.0,Overcast,OVC013,61.0,55.0,81.0,,,30.16,1021.0,0.0,0.0,0.0,2025-04-08,4,2025,7,KCHO,0.0,0.0,0.0,0.02000000000000011,5
2025-04-05,5,2025-04-05 08:53,08:53,EDT,Calm,10.0,Overcast,OVC014,62.1,55.9,80.0,,,30.17,1021.1,0.0,0.0,0.0,2025-04-08,4,2025,8,KCHO,0.0,0.0,0.0,0.02000000000000011,0
2025-04-05,5,2025-04-05 09:53,09:53,EDT,Calm,10.0,Overcast,OVC014,62.1,57.0,84.0,,,30.14,1020.1,0.0,0.0,0.0,2025-04-08,4,2025,9,KCHO,0.0,0.0,0.0,0.02000000000000011,0
2025-04-05,5,2025-04-05 10:53,10:53,EDT,SW  5,10.0,Overcast,OVC013,64.0,57.9,81.0,,,30.14,1020.1,0.0,0.0,0.0,2025-04-08,4,2025,10,KCHO,0.0,0.0,0.0,0.02000000000000011,5
2025-04-05,5,2025-04-05 11:53,11:53,EDT,SW  6,10.0,Overcast,OVC012,64.0,59.0,84.0,,,30.11,1019.2,0.0,0.0,0.0,2025-04-08,4,2025,11,KCHO,0.0,0.0,0.0,0.02000000000000011,6
2025-04-05,5,2025-04-05 12:53,12:53,EDT,Vrbl  5,10.0,Overcast,OVC014,68.0,60.1,76.0,,,30.07,1017.9,0.0,0.0,0.0,2025-04-08,4,2025,12,KCHO,0.0,0.0,0.0,0.010000000000000111,5
2025-04-05,5,2025-04-05 13:53,13:53,EDT,SW  10,10.0,Partly Cloudy,SCT019,72.0,62.1,71.0,,,30.04,1016.7,0.0,0.0,0.0,2025-04-08,4,2025,13,KCHO,0.0,0.0,0.0,0.010000000000000111,10
2025-04-05,5,2025-04-05 14:53,14:53,EDT,S  10,10.0,Fair,CLR,77.0,63.0,62.0,,79.0,30.0,1015.3,0.0,0.0,0.0,2025-04-08,4,2025,14,KCHO,0.0,0.0,0.0,0.0,10
2025-04-05,5,2025-04-05 15:53,15:53,EDT,S  10,10.0,Fair,CLR,82.0,64.0,55.0,,84.0,29.96,1013.9,0.0,0.0,0.0,2025-04-08,4,2025,15,KCHO,0.0,0.0,0.0,0.0,10
2025-04-05,5,2025-04-05 16:53,16:53,EDT,S  14,10.0,A Few Clouds,FEW039,84.0,63.0,49.0,,85.0,29.92,1012.4,0.0,0.0,0.0,2025-04-08,4,2025,16,KCHO,0.0,0.0,0.0,0.0,14
2025-04-05,5,2025-04-05 17:53,17:53,EDT,S  12  G 20,10.0,Overcast,BKN039 OVC065,84.9,61.0,45.0,,85.0,29.89,1011.6,0.0,0.0,0.0,2025-04-08,4,2025,17,KCHO,0.0,0.0,0.0,0.0,12
2025-04-05,5,2025-04-05 18:53,18:53,EDT,S  13  G 22,10.0,Overcast,OVC036,82.9,57.9,43.0,,83.0,29.89,1011.5,0.0,0.0,0.0,2025-04-08,4,2025,18,KCHO,0.0,0.0,0.0,0.0,13
2025-04-05,5,2025-04-05 19:53,19:53,EDT,S  15,10.0,Fair,CLR,81.0,59.0,47.0,,81.0,29.89,1011.5,0.0,0.0,0.0,2025-04-08,4,2025,19,KCHO,0.0,0.0,0.0,0.0,15
2025-04-05,5,2025-04-05 20:53,20:53,EDT,S  12,10.0,Fair,CLR,79.0,59.0,50.0,,80.0,29.89,1011.5,0.0,0.0,0.0,2025-04-08,4,2025,20,KCHO,0.0,0.0,0.0,0.0,12
2025-04-05,5,2025-04-05 21:53,21:53,EDT,S  14,10.0,Fair,CLR,78.1,57.9,50.0,,79.0,29.89,1011.5,0.0,0.0,0.0,2025-04-08,4,2025,21,KCHO,0.0,0.0,0.0,0.0,14
2025-04-05,5,2025-04-05 22:53,22:53,EDT,S  13,10.0,Fair,CLR,77.0,59.0,54.0,,79.0,29.88,1011.1,0.0,0.0,0.0,2025-04-08,4,2025,22,KCHO,0.0,0.0,0.0,0.0,13
2025-04-05,5,2025-04-05 23:53,23:53,EDT,S  15,10.0,Fair,CLR,75.9,59.0,56.0,,78.0,29.87,1010.8,0.0,0.0,0.0,2025-04-08,4,2025,23,KCHO,0.0,0.0,0.0,0.0,15
2025-04-06,6,2025-04-06 00:53,00:53,EDT,S  15  G 25,10.0,Fair,CLR,75.0,60.1,60.0,,77.0,29.84,1009.8,0.0,0.0,0.0,2025-04-09,4,2025,0,KCHO,0.0,0.0,0.0,0.0,15
2025-04-06,6,2025-04-06 01:53,01:53,EDT,S  14  G 24,10.0,Fair,CLR,73.9,59.0,60.0,,,29.82,1009.0,0.0,0.0,0.0,2025-04-09,4,2025,1,KCHO,0.0,0.0,0.0,0.0,14
2025-04-06,6,2025-04-06 02:53,02:53,EDT,S  13  G 22,10.0,Fair,CLR,73.0,59.0,62.0,,,29.8,1008.3,0.0,0.0,0.0,2025-04-09,4,2025,2,KCHO,0.0,0.0,0.0,0.0,13
2025-04-06,6,2025-04-06 03:53,03:53,EDT,S  14,10.0,Fair,CLR,72.0,59.0,64.0,,,29.77,1007.4,0.0,0.0,0.0,2025-04-09,4,2025,3,KCHO,0.0,0.0,0.0,0.0,14
2025-04-06,6,2025-04-06 04:53,04:53,EDT,S  14,10.0,Fair,CLR,71.1,59.0,66.0,,,29.77,1007.1,0.0,0.0,0.0,2025-04-09,4,2025,4,KCHO,0.0,0.0,0.0,0.0,14
2025-04-06,6,2025-04-06 06:53,06:53,EDT,S  14,10.0,A Few Clouds,FEW120,69.1,59.0,70.0,,,29.77,1007.4,0.0,0.0,0.0,2025-04-09,4,2025,6,KCHO,0.0,0.0,0.0,0.0,14
2025-04-06,6,2025-04-06 07:53,07:53,EDT,S  13,10.0,Partly Cloudy,FEW049 SCT055 SCT120,70.0,59.0,68.0,,,29.79,1007.9,0.0,0.0,0.0,2025-04-09,4,2025,7,KCHO,0.0,0.0,0.0,0.0,13
2025-04-06,6,2025-04-06 08:53,08:53,EDT,S  8,10.0,Overcast,BKN100 OVC120,71.1,60.1,68.0,,,29.79,1008.0,0.0,0.0,0.0,2025-04-09,4,2025,8,KCHO,0.0,0.0,0.0,0.0,8
2025-04-06,6,2025-04-06 09:53,09:53,EDT,SW  9  G 21,10.0,Fair,CLR,72.0,62.1,71.0,,,29.78,1007.7,0.0,0.0,0.0,2025-04-09,4,2025,9,KCHO,0.0,0.0,0.0,0.0,9
2025-04-06,6,2025-04-06 10:53,10:53,EDT,SW  12  G 25,10.0,Fair,CLR,73.0,61.0,66.0,,,29.77,1007.5,0.0,0.0,0.0,2025-04-09,4,2025,10,KCHO,0.0,0.0,0.0,0.0,12
2025-04-06,6,2025-04-06 11:53,11:53,EDT,S  9,10.0,Partly Cloudy,SCT045,73.0,61.0,66.0,,,29.79,1007.9,0.0,0.0,0.0,2025-04-09,4,2025,11,KCHO,0.0,0.0,0.0,0.0,9
2025-04-06,6,2025-04-06 12:53,12:53,EDT,S  5,10.0,Fair,CLR,73.9,61.0,64.0,,,29.81,1008.7,0.0,0.0,0.0,2025-04-09,4,2025,12,KCHO,0.0,0.0,0.0,0.0,5
2025-04-06,6,2025-04-06 13:53,13:53,EDT,Vrbl  3,10.0,A Few Clouds,FEW055,75.9,60.1,58.0,,78.0,29.8,1008.3,0.0,0.0,0.0,2025-04-09,4,2025,13,KCHO,0.0,0.0,0.0,0.0,3
2025-04-06,6,2025-04-06 14:53,14:53,EDT,NE  20  G 26,10.0,Mostly Cloudy,BKN060 BKN075,68.0,57.0,68.0,,,29.8,1008.3,0.0,0.0,0.0,2025-04-09,4,2025,14,KCHO,0.0,0.0,0.0,0.0,20
2025-04-06,6,2025-04-06 15:53,15:53,EDT,NE  16  G 23,10.0,Mostly Cloudy,SCT044 BKN055 BKN100,62.1,51.1,67.0,,,29.8,1008.5,0.0,0.0,0.0,2025-04-09,4,2025,15,KCHO,0.0,0.0,0.0,0.0,16
2025-04-06,6,2025-04-06 16:53,16:53,EDT,NE  9  G 17,10.0,Overcast,OVC060,63.0,51.1,65.0,,,29.81,1008.9,0.0,0.0,0.0,2025-04-09,4,2025,16,KCHO,0.0,0.0,0.0,0.0,9
2025-04-06,6,2025-04-06 17:53,17:53,EDT,NE  10,10.0,Partly Cloudy,FEW055 SCT070 SCT100,61.0,50.0,67.0,,,29.83,1009.7,0.0,0.0,0.0,2025-04-09,4,2025,17,KCHO,0.0,0.0,0.0,0.0,10
2025-04-06,6,2025-04-06 18:53,18:53,EDT,NE  9,10.0,Light Rain,OVC110,59.0,48.9,69.0,,,29.85,1010.4,0.0,0.0,0.0,2025-04-09,4,2025,18,KCHO,0.0,0.0,0.0,0.0,9
2025-04-06,6,2025-04-06 19:53,19:53,EDT,E  10,10.0,Overcast,BKN070 OVC100,55.9,48.0,75.0,,,29.87,1011.1,0.0,0.0,0.0,2025-04-09,4,2025,19,KCHO,0.0,0.0,0.0,0.0,10
2025-04-06,6,2025-04-06 20:53,20:53,EDT,NE  9,10.0,Overcast,FEW065 OVC090,55.0,48.9,80.0,,,29.89,1011.8,0.0,0.0,0.0,2025-04-09,4,2025,20,KCHO,0.0,0.0,0.0,0.0,9
2025-04-06,6,2025-04-06 21:53,21:53,EDT,NE  9,10.0,Overcast,BKN090 OVC110,54.0,48.0,80.0,,,29.89,1011.6,0.0,0.0,0.0,2025-04-09,4,2025,21,KCHO,0.0,0.0,0.0,0.0,9
2025-04-06,6,2025-04-06 22:53,22:53,EDT,N  5,10.0,Overcast,SCT021 BKN026 OVC095,54.0,48.0,80.0,,,29.87,1011.1,0.0,0.0,0.0,2025-04-09,4,2025,22,KCHO,0.0,0.0,0.0,0.0,5
2025-04-06,6,2025-04-06 23:53,23:53,EDT,NE  5,10.0,Light Rain,BKN020 OVC028,54.0,48.0,80.0,,,29.87,1011.1,0.0,0.0,0.0,2025-04-10,4,2025,23,KCHO,0.0,0.0,0.0,0.0,5
2025-04-07,7,2025-04-07 00:53,00:53,EDT,N  3,10.0,Overcast,BKN023 BKN055 OVC080,52.0,48.9,89.0,,,29.83,1009.6,0.0,0.0,0.0,2025-04-10,4,2025,0,KCHO,0.0,0.0,0.0,0.0,3
2025-04-07,7,2025-04-07 01:53,01:53,EDT,N  3,10.0,Overcast,OVC018,52.0,48.9,89.0,,,29.81,1009.0,0.0,0.0,0.0,2025-04-10,4,2025,1,KCHO,0.0,0.0,0.0,0.0,3
2025-04-07,7,2025-04-07 02:53,02:53,EDT,N  3,6.0,Light Rain Fog/Mist,OVC016,52.0,48.9,89.0,,,29.79,1008.3,0.01,0.0,0.0,2025-04-10,4,2025,2,KCHO,0.01,0.01,0.01,0.010000000000000111,3
2025-04-07,7,2025-04-07 03:53,03:53,EDT,N  3,4.0,Light Rain Fog/Mist,SCT006 OVC016,51.1,50.0,96.0,,,29.76,1007.6,0.01,0.0,0.0,2025-04-10,4,2025,3,KCHO,0.02,0.02,0.02,0.02000000000000011,3
2025-04-07,7,2025-04-07 04:53,04:53,EDT,N  6,3.0,Light Rain Fog/Mist,BKN005 OVC016,51.1,48.9,92.0,,,29.75,1007.1,0.05,0.07,0.0,2025-04-10,4,2025,4,KCHO,0.07,0.07,0.07,0.07000000000000012,6
2025-04-07,7,2025-04-07 05:53,05:53,EDT,NE  10,3.0,Rain Fog/Mist,BKN003 OVC012,50.0,48.0,93.0,46.0,,29.73,1006.5,0.22,0.0,0.0,2025-04-10,4,2025,5,KCHO,0.28,0.29000000000000004,0.29000000000000004,0.29000000000000015,10
2025-04-07,7,2025-04-07 06:53,06:53,EDT,NE  8,2.0,Light Rain Fog/Mist,BKN005 OVC010,50.0,48.0,93.0,47.0,,29.74,1006.6,0.2,0.0,0.0,2025-04-10,4,2025,6,KCHO,0.47,0.49,0.49,0.4900000000000001,8
2025-04-07,7,2025-04-07 07:53,07:53,EDT,N  10,2.0,Light Rain Fog/Mist,BKN006 BKN011 OVC026,48.9,46.9,93.0,45.0,,29.76,1007.4,0.09,0.0,0.58,2025-04-10,4,2025,7,KCHO,0.51,0.5800000000000001,0.5800000000000001,0.5800000000000001,10
2025-04-07,7,2025-04-07 08:53,08:53,EDT,N  13  G 22,2.0,Light Rain Fog/Mist,BKN006 OVC011,46.9,45.0,93.0,42.0,,29.73,1006.7,0.08,0.0,0.0,2025-04-10,4,2025,8,KCHO,0.37000000000000005,0.65,0.66,0.6600000000000001,13
2025-04-07,7,2025-04-07 09:53,09:53,EDT,N  7,4.0,Light Rain Fog/Mist,BKN007 OVC021,46.9,45.0,93.0,44.0,,29.74,1006.9,0.06,0.0,0.0,2025-04-10,4,2025,9,KCHO,0.22999999999999998,0.7,0.72,0.7200000000000001,7
2025-04-07,7,2025-04-07 10:53,10:53,EDT,W  7  G 28,2.0,Heavy Rain Fog/Mist,SCT008 BKN013 OVC028,46.9,44.1,90.0,44.0,,29.75,1007.2,0.08,0.22,0.0,2025-04-10,4,2025,10,KCHO,0.22,0.73,0.8,0.8000000000000002,7
2025-04-07,7,2025-04-07 11:53,11:53,EDT,NE  7,10.0,Overcast,BKN008 OVC013,48.0,45.0,89.0,45.0,,29.72,1006.1,0.01,0.0,0.0,2025-04-10,4,2025,11,KCHO,0.15000000000000002,0.52,0.81,0.8100000000000002,7
2025-04-07,7,2025-04-07 12:53,12:53,EDT,NE  8,10.0,Overcast,OVC009,48.0,45.0,89.0,45.0,,29.71,1005.8,0.0,0.0,0.0,2025-04-10,4,2025,12,KCHO,0.09,0.32,0.81,0.8100000000000002,8
2025-04-07,7,2025-04-07 13:53,13:53,EDT,NE  6,10.0,Overcast,BKN006 OVC012,48.0,45.0,89.0,46.0,,29.69,1005.2,0.0,0.0,0.23,2025-04-10,4,2025,13,KCHO,0.01,0.23,0.81,0.8100000000000002,6
2025-04-07,7,2025-04-07 14:53,14:53,EDT,NE  8,10.0,Overcast,BKN009 OVC024,48.9,45.0,86.0,46.0,,29.67,1004.7,0.0,0.0,0.0,2025-04-10,4,2025,14,KCHO,0.0,0.15000000000000002,0.8,0.8100000000000002,8
2025-04-07,7,2025-04-07 15:53,15:53,EDT,NE  8,10.0,Overcast,OVC009,48.9,44.1,83.0,46.0,,29.65,1003.9,0.0,0.0,0.0,2025-04-10,4,2025,15,KCHO,0.0,0.09,0.79,0.8100000000000002,8
2025-04-07,7,2025-04-07 16:53,16:53,EDT,N  8,10.0,Overcast,OVC009,48.0,44.1,86.0,45.0,,29.66,1004.3,0.0,0.0,0.0,2025-04-10,4,2025,16,KCHO,0.0,0.01,0.74,0.8100000000000002,8
2025-04-07,7,2025-04-07 17:53,17:53,EDT,E  7,10.0,Overcast,OVC009,48.0,44.1,86.0,45.0,,29.68,1005.1,0.0,0.0,0.0,2025-04-10,4,2025,17,KCHO,0.0,0.0,0.52,0.8100000000000002,7
2025-04-07,7,2025-04-07 18:53,18:53,EDT,E  7,10.0,Overcast,OVC007,46.9,43.0,86.0,44.0,,29.7,1005.6,0.0,0.0,0.0,2025-04-10,4,2025,18,KCHO,0.0,0.0,0.32,0.8100000000000002,7
2025-04-07,7,2025-04-07 19:53,19:53,EDT,NE  5,10.0,Overcast,OVC006,46.0,43.0,89.0,44.0,,29.69,1005.2,0.0,0.0,0.0,2025-04-10,4,2025,19,KCHO,0.0,0.0,0.23,0.8100000000000002,5
2025-04-07,7,2025-04-07 20:53,20:53,EDT,E  5,10.0,Overcast,OVC006,46.0,43.0,89.0,44.0,,29.71,1005.9,0.0,0.0,0.0,2025-04-10,4,2025,20,KCHO,0.0,0.0,0.15000000000000002,0.8100000000000002,5
2025-04-07,7,2025-04-07 21:53,21:53,EDT,NE  3,10.0,Overcast,BKN007 OVC095,45.0,42.1,90.0,,,29.7,1005.6,0.0,0.0,0.0,2025-04-10,4,2025,21,KCHO,0.0,0.0,0.09,0.8100000000000002,3
2025-04-07,7,2025-04-07 22:53,22:53,EDT,Calm,10.0,Overcast,BKN007 OVC110,45.0,42.1,90.0,,,29.68,1005.2,0.0,0.0,0.0,2025-04-10,4,2025,22,KCHO,0.0,0.0,0.01,0.8100000000000002,0
2025-04-07,7,2025-04-07 23:53,23:53,EDT,Calm,10.0,Overcast,BKN010 OVC120,45.0,42.1,90.0,,,29.7,1005.5,0.0,0.0,0.0,2025-04-10,4,2025,23,KCHO,0.0,0.0,0.0,0.8100000000000002,0
2025-04-08,8,2025-04-08 00:53,00:53,EDT,Calm,10.0,Overcast,OVC007,45.0,43.0,93.0,,,29.68,1004.8,0.0,0.0,0.0,2025-04-11,4,2025,0,KCHO,0.0,0.0,0.0,0.8100000000000002,0
2025-04-08,8,2025-04-08 01:53,01:53,EDT,S  6,9.0,Overcast,OVC005,44.1,42.1,93.0,41.0,,29.68,1005.2,0.0,0.0,0.0,2025-04-11,4,2025,1,KCHO,0.0,0.0,0.0,0.8100000000000002,6
2025-04-08,8,2025-04-08 02:53,02:53,EDT,Calm,8.0,A Few Clouds,FEW065,43.0,41.0,93.0,,,29.67,1004.7,0.0,0.0,0.0,2025-04-11,4,2025,2,KCHO,0.0,0.0,0.0,0.8000000000000002,0
2025-04-08,8,2025-04-08 03:53,03:53,EDT,N  6,9.0,Overcast,SCT048 OVC060,44.1,42.1,93.0,41.0,,29.71,1005.9,0.0,0.0,0.0,2025-04-11,4,2025,3,KCHO,0.0,0.0,0.0,0.7900000000000001,6
2025-04-08,8,2025-04-08 04:53,04:53,EDT,NW  9  G 18,10.0,Overcast,BKN047 OVC070,43.0,33.1,68.0,38.0,,29.74,1007.1,0.0,0.0,0.0,2025-04-11,4,2025,4,KCHO,0.0,0.0,0.0,0.7400000000000002,9
2025-04-08,8,2025-04-08 05:53,05:53,EDT,NW  9,10.0,Overcast,BKN046 BKN060 OVC080,42.1,28.9,60.0,37.0,,29.76,1007.9,0.0,0.0,0.0,2025-04-11,4,2025,5,KCHO,0.0,0.0,0.0,0.5200000000000001,9
2025-04-08,8,2025-04-08 06:53,06:53,EDT,N  9,10.0,Overcast,OVC065,39.9,26.1,58.0,34.0,,29.81,1009.3,0.0,0.0,0.0,2025-04-11,4,2025,6,KCHO,0.0,0.0,0.0,0.3200000000000001,9
2025-04-08,8,2025-04-08 07:53,07:53,EDT,N  12  G 26,10.0,Mostly Cloudy,BKN065,39.0,21.9,50.0,32.0,,29.85,1010.7,0.0,0.0,0.0,2025-04-11,4,2025,7,KCHO,0.0,0.0,0.0,0.23000000000000012,12
2025-04-08,8,2025-04-08 08:53,08:53,EDT,N  10  G 20,10.0,Fair,CLR,39.9,21.9,49.0,34.0,,29.88,1011.9,0.0,0.0,0.0,2025-04-11,4,2025,8,KCHO,0.0,0.0,0.0,0.15000000000000013,10
2025-04-08,8,2025-04-08 09:53,09:53,EDT,N  10  G 16,10.0,Fair,CLR,42.1,23.0,47.0,37.0,,29.91,1012.9,0.0,0.0,0.0,2025-04-11,4,2025,9,KCHO,0.0,0.0,0.0,0.09000000000000011,10
2025-04-08,8,2025-04-08 10:53,10:53,EDT,Vrbl  7  G 23,10.0,A Few Clouds,FEW055,43.0,19.0,38.0,39.0,,29.93,1013.6,0.0,0.0,0.0,2025-04-11,4,2025,10,KCHO,0.0,0.0,0.0,0.010000000000000111,7
2025-04-08,8,2025-04-08 11:53,11:53,EDT,W  9,10.0,Partly Cloudy,SCT065,45.0,19.0,35.0,41.0,,29.94,1013.8,0.0,0.0,0.0,2025-04-11,4,2025,11,KCHO,0.0,0.0,0.0,0.0,9
2025-04-08,8,2025-04-08 12:53,12:53,EDT,Calm,10.0,Partly Cloudy,SCT070,48.0,19.0,32.0,,,29.93,1013.4,0.0,0.0,0.0,2025-04-11,4,2025,12,KCHO,0.0,0.0,0.0,0.0,0
2025-04-08,8,2025-04-08 13:53,13:53,EDT,NW  10  G 20,10.0,Fair,CLR,48.9,18.0,29.0,45.0,,29.92,1013.1,0.0,0.0,0.0,2025-04-11,4,2025,13,KCHO,0.0,0.0,0.0,0.0,10
2025-04-08,8,2025-04-08 14:53,14:53,EDT,N  9,10.0,Fair,CLR,51.1,18.0,27.0,,,29.92,1013.1,0.0,0.0,0.0,2025-04-11,4,2025,14,KCHO,0.0,0.0,0.0,0.0,9
2025-04-08,8,2025-04-08 15:53,15:53,EDT,NW  9  G 25,10.0,Fair,CLR,51.1,14.0,23.0,,,29.91,1012.9,0.0,0.0,0.0,2025-04-11,4,2025,15,KCHO,0.0,0.0,0.0,0.0,9
2025-04-08,8,2025-04-08 16:53,16:53,EDT,NW  9  G 23,10.0,Fair,CLR,51.1,14.0,23.0,,,29.93,1013.5,0.0,0.0,0.0,2025-04-11,4,2025,16,KCHO,0.0,0.0,0.0,0.0,9
2025-04-08,8,2025-04-08 17:53,17:53,EDT,NW  7  G 20,10.0,Fair,CLR,51.1,15.1,24.0,,,29.96,1014.4,0.0,0.0,0.0,2025-04-11,4,2025,17,KCHO,0.0,0.0,0.0,0.0,7
2025-04-08,8,2025-04-08 18:53,18:53,EDT,NW  7,10.0,Fair,CLR,48.0,12.0,23.0,45.0,,29.98,1015.4,0.0,0.0,0.0,2025-04-11,4,2025,18,KCHO,0.0,0.0,0.0,0.0,7
2025-04-08,8,2025-04-08 19:53,19:53,EDT,N  6,10.0,Fair,CLR,45.0,12.9,27.0,42.0,,30.01,1016.5,0.0,0.0,0.0,2025-04-11,4,2025,19,KCHO,0.0,0.0,0.0,0.0,6
2025-04-08,8,2025-04-08 20:53,20:53,EDT,N  3,10.0,Fair,CLR,42.1,12.9,30.0,,,30.06,1018.1,0.0,0.0,0.0,2025-04-11,4,2025,20,KCHO,0.0,0.0,0.0,0.0,3
2025-04-08,8,2025-04-08 21:53,21:53,EDT,N  3,10.0,Fair,CLR,39.0,15.1,38.0,,,30.1,1019.3,0.0,0.0,0.0,2025-04-11,4,2025,21,KCHO,0.0,0.0,0.0,0.0,3
2025-04-08,8,2025-04-08 22:53,22:53,EDT,NW  3,10.0,Fair,CLR,37.9,14.0,37.0,,,30.12,1020.2,0.0,0.0,0.0,2025-04-11,4,2025,22,KCHO,0.0,0.0,0.0,0.0,3
2025-04-08,8,2025-04-08 23:53,23:53,EDT,NW  3,10.0,Fair,CLR,37.9,12.9,36.0,,,30.14,1020.9,0.0,0.0,0.0,2025-04-11,4,2025,23,KCHO,0.0,0.0,0.0,0.0,3
2025-04-09,9,2025-04-09 00:53,00:53,EDT,N  3,10.0,Fair,CLR,36.0,12.9,39.0,,,30.16,1021.5,0.0,0.0,0.0,2025-04-12,4,2025,0,KCHO,0.0,0.0,0.0,0.0,3
2025-04-09,9,2025-04-09 01:53,01:53,EDT,N  3,10.0,Fair,CLR,33.1,15.1,48.0,,,30.18,1022.1,0.0,0.0,0.0,2025-04-12,4,2025,1,KCHO,0.0,0.0,0.0,0.0,3
2025-04-09,9,2025-04-09 02:53,02:53,EDT,E  3,10.0,Fair,CLR,32.0,19.0,59.0,,,30.19,1022.4,0.0,0.0,0.0,2025-04-12,4,2025,2,KCHO,0.0,0.0,0.0,0.0,3
2025-04-09,9,2025-04-09 03:53,03:53,EDT,Calm,10.0,Fair,CLR,30.9,18.0,59.0,,,30.21,1023.1,0.0,0.0,0.0,2025-04-12,4,2025,3,KCHO,0.0,0.0,0.0,0.0,0
2025-04-09,9,2025-04-09 04:53,04:53,EDT,Calm,10.0,Fair,CLR,30.9,15.1,52.0,,,30.23,1023.8,0.0,0.0,0.0,2025-04-11,4,2025,4,KCHO,0.0,0.0,0.0,0.0,0
2025-04-09,9,2025-04-09 05:53,05:53,EDT,Calm,10.0,Fair,CLR,32.0,12.9,45.0,,,30.24,1024.3,0.0,0.0,0.0,2025-04-12,4,2025,5,KCHO,0.0,0.0,0.0,0.0,0
2025-04-09,9,2025-04-09 06:53,06:53,EDT,Calm,10.0,Fair,CLR,28.0,19.9,72.0,,,30.27,1025.3,0.0,0.0,0.0,2025-04-12,4,2025,6,KCHO,0.0,0.0,0.0,0.0,0
2025-04-09,9,2025-04-09 07:53,07:53,EDT,Calm,10.0,Fair,CLR,30.0,23.0,75.0,,,30.29,1026.0,0.0,0.0,0.0,2025-04-12,4,2025,7,KCHO,0.0,0.0,0.0,0.0,0
2025-04-09,9,2025-04-09 08:53,08:53,EDT,Calm,10.0,Fair,CLR,36.0,18.0,48.0,,,30.3,1026.3,0.0,0.0,0.0,2025-04-12,4,2025,8,KCHO,0.0,0.0,0.0,0.0,0
2025-04-09,9,2025-04-09 09:53,09:53,EDT,Vrbl  3,10.0,Fair,CLR,39.9,18.0,41.0,,,30.31,1026.7,0.0,0.0,0.0,2025-04-12,4,2025,9,KCHO,0.0,0.0,0.0,0.0,3
2025-04-09,9,2025-04-09 10:53,10:53,EDT,S  7,10.0,Fair,CLR,44.1,18.0,35.0,41.0,,30.31,1026.6,0.0,0.0,0.0,2025-04-12,4,2025,10,KCHO,0.0,0.0,0.0,0.0,7
2025-04-09,9,2025-04-09 11:53,11:53,EDT,Vrbl  5,10.0,Fair,CLR,46.0,17.1,31.0,44.0,,30.29,1025.9,0.0,0.0,0.0,2025-04-12,4,2025,11,KCHO,0.0,0.0,0.0,0.0,5
2025-04-09,9,2025-04-09 12:53,12:53,EDT,S  10,10.0,Fair,CLR,48.9,19.0,31.0,45.0,,30.27,1025.3,0.0,0.0,0.0,2025-04-12,4,2025,12,KCHO,0.0,0.0,0.0,0.0,10
2025-04-09,9,2025-04-09 13:53,13:53,EDT,S  8,10.0,Fair,CLR,50.0,17.1,27.0,47.0,,30.25,1024.5,0.0,0.0,0.0,2025-04-12,4,2025,13,KCHO,0.0,0.0,0.0,0.0,8
2025-04-09,9,2025-04-09 14:53,14:53,EDT,S  6  G 17,10.0,Fair,CLR,52.0,18.0,26.0,,,30.22,1023.6,0.0,0.0,0.0,2025-04-12,4,2025,14,KCHO,0.0,0.0,0.0,0.0,6
2025-04-09,9,2025-04-09 15:53,15:53,EDT,SE  9  G 17,10.0,Fair,CLR,53.1,18.0,25.0,,,30.2,1022.7,0.0,0.0,0.0,2025-04-12,4,2025,15,KCHO,0.0,0.0,0.0,0.0,9
2025-04-09,9,2025-04-09 16:53,16:53,EDT,S  7,10.0,Fair,CLR,54.0,18.0,24.0,,,30.19,1022.3,0.0,0.0,0.0,2025-04-12,4,2025,16,KCHO,0.0,0.0,0.0,0.0,7
2025-04-09,9,2025-04-09 17:53,17:53,EDT,S  9,10.0,Fair,CLR,55.0,19.0,24.0,,,30.17,1021.9,0.0,0.0,0.0,2025-04-12,4,2025,17,KCHO,0.0,0.0,0.0,0.0,9
2025-04-09,9,2025-04-09 18:53,18:53,EDT,S  10,10.0,Fair,CLR,54.0,19.9,26.0,,,30.18,1022.0,0.0,0.0,0.0,2025-04-12,4,2025,18,KCHO,0.0,0.0,0.0,0.0,10
2025-04-09,9,2025-04-09 19:53,19:53,EDT,S  7,10.0,Fair,CLR,51.1,21.0,31.0,,,30.18,1022.2,0.0,0.0,0.0,2025-04-12,4,2025,19,KCHO,0.0,0.0,0.0,0.0,7
2025-04-09,9,2025-04-09 20:53,20:53,EDT,S  5,10.0,Fair,CLR,48.0,21.0,34.0,47.0,,30.2,1022.8,0.0,0.0,0.0,2025-04-12,4,2025,20,KCHO,0.0,0.0,0.0,0.0,5
2025-04-09,9,2025-04-09 21:53,21:53,EDT,S  5,10.0,Fair,CLR,46.0,21.9,38.0,44.0,,30.21,1023.0,0.0,0.0,0.0,2025-04-12,4,2025,21,KCHO,0.0,0.0,0.0,0.0,5
2025-04-09,9,2025-04-09 22:53,22:53,EDT,S  3,10.0,Fair,CLR,46.0,24.1,42.0,,,30.22,1023.3,0.0,0.0,0.0,2025-04-12,4,2025,22,KCHO,0.0,0.0,0.0,0.0,3
2025-04-09,9,2025-04-09 23:53,23:53,EDT,Calm,10.0,Overcast,OVC100,44.1,27.0,51.0,,,30.22,1023.6,0.0,0.0,0.0,2025-04-12,4,2025,23,KCHO,0.0,0.0,0.0,0.0,0
2025-04-10,10,2025-04-10 00:53,00:53,EDT,Calm,10.0,Mostly Cloudy,SCT090 BKN110,46.0,25.0,44.0,,,30.24,1024.0,0.0,0.0,0.0,2025-04-13,4,2025,0,KCHO,0.0,0.0,0.0,0.0,0
2025-04-10,10,2025-04-10 01:53,01:53,EDT,S  7,10.0,Overcast,OVC100,45.0,27.0,49.0,42.0,,30.23,1023.8,0.0,0.0,0.0,2025-04-13,4,2025,1,KCHO,0.0,0.0,0.0,0.0,7
2025-04-10,10,2025-04-10 02:53,02:53,EDT,SE  5,10.0,Partly Cloudy,SCT100,43.0,28.9,58.0,41.0,,30.21,1023.1,0.0,0.0,0.0,2025-04-13,4,2025,2,KCHO,0.0,0.0,0.0,0.0,5
2025-04-10,10,2025-04-10 03:53,03:53,EDT,S  8,10.0,Mostly Cloudy,BKN110,43.0,30.9,63.0,39.0,,30.23,1023.6,0.0,0.0,0.0,2025-04-13,4,2025,3,KCHO,0.0,0.0,0.0,0.0,8
2025-04-10,10,2025-04-10 04:53,04:53,EDT,S  5,10.0,Mostly Cloudy,BKN120,42.1,32.0,68.0,40.0,,30.22,1023.4,0.0,0.0,0.0,2025-04-13,4,2025,4,KCHO,0.0,0.0,0.0,0.0,5
2025-04-10,10,2025-04-10 05:53,05:53,EDT,S  5,10.0,Mostly Cloudy,BKN120,42.1,33.1,71.0,40.0,,30.21,1022.8,0.0,0.0,0.0,2025-04-13,4,2025,5,KCHO,0.0,0.0,0.0,0.0,5
2025-04-10,10,2025-04-10 06:53,06:53,EDT,S  7,10.0,Partly Cloudy,SCT110,43.0,33.1,68.0,39.0,,30.21,1023.1,0.0,0.0,0.0,2025-04-13,4,2025,6,KCHO,0.0,0.0,0.0,0.0,7
2025-04-10,10,2025-04-10 07:53,07:53,EDT,S  8,10.0,A Few Clouds,FEW110,43.0,34.0,71.0,39.0,,30.22,1023.4,0.0,0.0,0.0,2025-04-13,4,2025,7,KCHO,0.0,0.0,0.0,0.0,8
2025-04-10,10,2025-04-10 08:53,08:53,EDT,S  12,10.0,Fair,CLR,45.0,35.1,68.0,40.0,,30.23,1023.5,0.0,0.0,0.0,2025-04-13,4,2025,8,KCHO,0.0,0.0,0.0,0.0,12
2025-04-10,10,2025-04-10 09:53,09:53,EDT,Vrbl  6,10.0,Mostly Cloudy,BKN030,46.9,36.0,66.0,45.0,,30.21,1023.1,0.0,0.0,0.0,2025-04-13,4,2025,9,KCHO,0.0,0.0,0.0,0.0,6
2025-04-10,10,2025-04-10 10:53,10:53,EDT,S  10  G 18,10.0,Overcast,OVC029,50.0,37.9,63.0,46.0,,30.21,1022.9,0.0,0.0,0.0,2025-04-13,4,2025,10,KCHO,0.0,0.0,0.0,0.0,10
2025-04-10,10,2025-04-10 11:53,11:53,EDT,S  12,10.0,Mostly Cloudy,SCT031 BKN048 BKN110,55.0,39.0,55.0,,,30.18,1021.8,0.0,0.0,0.0,2025-04-13,4,2025,11,KCHO,0.0,0.0,0.0,0.0,12
2025-04-10,10,2025-04-10 12:53,12:53,EDT,SW  8,10.0,Overcast,OVC041,55.9,39.0,53.0,,,30.15,1020.9,0.0,0.0,0.0,2025-04-13,4,2025,12,KCHO,0.0,0.0,0.0,0.0,8
2025-04-10,10,2025-04-10 13:53,13:53,EDT,S  9,10.0,Overcast,OVC039,55.9,39.9,55.0,,,30.13,1020.2,0.0,0.0,0.0,2025-04-13,4,2025,13,KCHO,0.0,0.0,0.0,0.0,9
2025-04-10,10,2025-04-10 14:53,14:53,EDT,NW  3,7.0,Light Rain,OVC038,50.0,45.0,83.0,,,30.14,1020.6,0.02,0.0,0.0,2025-04-13,4,2025,14,KCHO,0.02,0.02,0.02,0.02000000000000011,3
2025-04-10,10,2025-04-10 15:53,15:53,EDT,Calm,5.0,Light Rain Fog/Mist,OVC050,50.0,46.9,89.0,,,30.11,1019.7,0.05,0.0,0.0,2025-04-13,4,2025,15,KCHO,0.07,0.07,0.07,0.07000000000000012,0
2025-04-10,10,2025-04-10 16:53,16:53,EDT,SE  5,4.0,Light Rain Fog/Mist,BKN047 OVC060,50.0,46.9,89.0,49.0,,30.09,1018.9,0.05,0.12,0.0,2025-04-13,4,2025,16,KCHO,0.12000000000000001,0.12000000000000001,0.12000000000000001,0.12000000000000012,5
2025-04-10,10,2025-04-10 17:53,17:53,EDT,NW  5,6.0,Light Rain Fog/Mist,BKN049 OVC055,50.0,48.0,93.0,49.0,,30.09,1019.0,0.02,0.0,0.0,2025-04-13,4,2025,17,KCHO,0.12000000000000001,0.14,0.14,0.14000000000000012,5
2025-04-10,10,2025-04-10 18:53,18:53,EDT,E  3,10.0,Overcast,BKN046 OVC065,50.0,46.9,89.0,,,30.08,1018.5,0.02,0.0,0.0,2025-04-13,4,2025,18,KCHO,0.09,0.16,0.16,0.16000000000000011,3
2025-04-10,10,2025-04-10 19:53,19:53,EDT,Calm,7.0,Overcast,FEW003 OVC065,48.9,48.0,97.0,,,30.08,1018.7,0.0,0.0,0.16,2025-04-13,4,2025,19,KCHO,0.04,0.16,0.16,0.16000000000000011,0
2025-04-10,10,2025-04-10 20:53,20:53,EDT,E  5,9.0,Mostly Cloudy,SCT065 BKN100,48.9,46.9,93.0,48.0,,30.08,1018.5,0.0,0.0,0.0,2025-04-13,4,2025,20,KCHO,0.02,0.14,0.16,0.16000000000000011,5
2025-04-10,10,2025-04-10 21:53,21:53,EDT,NE  5,4.0,Fog/Mist,SCT001 BKN070 OVC095,48.0,46.9,96.0,47.0,,30.09,1018.9,0.0,0.0,0.0,2025-04-13,4,2025,21,KCHO,0.0,0.09,0.16,0.16000000000000011,5
2025-04-10,10,2025-04-10 22:53,22:53,EDT,NE  5,1.5,Fog/Mist,SCT004 SCT075,46.0,45.0,96.0,44.0,,30.09,1018.8,0.0,0.0,0.0,2025-04-13,4,2025,22,KCHO,0.0,0.04,0.16,0.16000000000000011,5
2025-04-10,10,2025-04-10 23:53,23:53,EDT,Calm,3.0,Fog/Mist,BKN003 OVC018,46.9,46.0,97.0,,,30.07,1018.3,0.0,0.0,0.0,2025-04-13,4,2025,23,KCHO,0.0,0.02,0.16,0.16000000000000011,0
2025-04-11,11,2025-04-11 00:53,00:53,EDT,N  5,3.0,Fog/Mist,BKN003 OVC022,48.0,46.9,96.0,47.0,,30.07,1018.0,0.0,0.0,0.0,2025-04-14,4,2025,0,KCHO,0.0,0.0,0.16,0.16000000000000011,5
2025-04-11,11,2025-04-11 01:53,01:53,EDT,N  5,5.0,Fog/Mist,OVC005,48.0,46.9,96.0,47.0,,30.04,1017.2,0.0,0.0,0.0,2025-04-14,4,2025,1,KCHO,0.0,0.0,0.16,0.16000000000000011,5
2025-04-11,11,2025-04-11 02:53,02:53,EDT,NE  6,7.0,Overcast,BKN004 OVC009,48.0,46.0,93.0,46.0,,30.02,1016.6,0.0,0.0,0.0,2025-04-14,4,2025,2,KCHO,0.0,0.0,0.14,0.16000000000000011,6
2025-04-11,11,2025-04-11 03:53,03:53,EDT,N  5,6.0,Fog/Mist,OVC003,48.0,46.0,93.0,47.0,,30.0,1015.9,0.0,0.0,0.0,2025-04-14,4,2025,3,KCHO,0.0,0.0,0.09,0.16000000000000011,5
2025-04-11,11,2025-04-11 04:53,04:53,EDT,N  3,2.0,Fog/Mist,OVC002,48.0,46.9,96.0,,,30.0,1015.9,0.0,0.0,0.0,2025-04-14,4,2025,4,KCHO,0.0,0.0,0.04,0.16000000000000011,3
2025-04-11,11,2025-04-11 05:53,05:53,EDT,NE  8,0.5,Fog,VV002,48.0,46.0,93.0,45.0,,29.99,1015.5,0.0,0.0,0.0,2025-04-14,4,2025,5,KCHO,0.0,0.0,0.02,0.16000000000000011,8
2025-04-11,11,2025-04-11 06:53,06:53,EDT,NE  8,1.25,Fog/Mist,OVC002,46.9,46.0,97.0,44.0,,29.99,1015.6,0.0,0.0,0.0,2025-04-14,4,2025,6,KCHO,0.0,0.0,0.0,0.16000000000000011,8
2025-04-11,11,2025-04-11 07:53,07:53,EDT,N  7,2.5,Fog/Mist,OVC002,48.0,46.9,96.0,45.0,,29.99,1015.6,0.0,0.0,0.0,2025-04-14,4,2025,7,KCHO,0.0,0.0,0.0,0.16000000000000011,7
2025-04-11,11,2025-04-11 08:53,08:53,EDT,NE  9,2.0,Fog/Mist,OVC003,46.9,46.0,97.0,43.0,,30.0,1015.8,0.0,0.0,0.0,2025-04-14,4,2025,8,KCHO,0.0,0.0,0.0,0.16000000000000011,9
2025-04-11,11,2025-04-11 09:53,09:53,EDT,NE  12,2.0,Fog/Mist,OVC003,46.0,45.0,96.0,41.0,,29.99,1015.6,0.0,0.0,0.0,2025-04-14,4,2025,9,KCHO,0.0,0.0,0.0,0.16000000000000011,12
2025-04-11,11,2025-04-11 10:53,10:53,EDT,NE  13,2.0,Fog/Mist,OVC004,46.0,44.1,93.0,41.0,,30.0,1015.8,0.0,0.0,0.0,2025-04-14,4,2025,10,KCHO,0.0,0.0,0.0,0.16000000000000011,13
2025-04-11,11,2025-04-11 11:53,11:53,EDT,NE  8,1.0,Fog/Mist,OVC005,46.0,44.1,93.0,42.0,,29.99,1015.6,0.0,0.0,0.0,2025-04-14,4,2025,11,KCHO,0.0,0.0,0.0,0.16000000000000011,8
2025-04-11,11,2025-04-11 12:53,12:53,EDT,NE  12,2.0,Rain Fog/Mist,OVC004,45.0,43.0,93.0,40.0,,29.99,1015.5,0.02,0.0,0.0,2025-04-14,4,2025,12,KCHO,0.02,0.02,0.02,0.18000000000000013,12
2025-04-11,11,2025-04-11 13:53,13:53,EDT,NE  12,2.0,Light Rain Fog/Mist,OVC006,46.0,44.1,93.0,41.0,,29.98,1015.2,0.08,0.0,0.1,2025-04-14,4,2025,13,KCHO,0.1,0.1,0.1,0.2600000000000001,12
2025-04-11,11,2025-04-11 14:53,14:53,EDT,N  13,9.0,Light Rain,OVC010,46.9,44.1,90.0,42.0,,29.97,1014.8,0.03,0.0,0.0,2025-04-14,4,2025,14,KCHO,0.13,0.13,0.13,0.27000000000000013,13
2025-04-11,11,2025-04-11 15:53,15:53,EDT,N  12  G 21,10.0,Light Rain,OVC011,48.0,45.0,89.0,44.0,,29.95,1014.0,0.0,0.0,0.0,2025-04-14,4,2025,15,KCHO,0.11,0.13,0.13,0.2200000000000001,12
2025-04-11,11,2025-04-11 16:53,16:53,EDT,N  12  G 20,10.0,Overcast,OVC014,46.9,43.0,86.0,42.0,,29.94,1013.9,0.0,0.03,0.0,2025-04-14,4,2025,16,KCHO,0.03,0.13,0.13,0.1700000000000001,12
2025-04-11,11,2025-04-11 17:53,17:53,EDT,N  8,8.0,Light Rain,OVC015,46.9,44.1,90.0,44.0,,29.95,1014.2,0.02,0.0,0.0,2025-04-14,4,2025,17,KCHO,0.02,0.15,0.15,0.1700000000000001,8
2025-04-11,11,2025-04-11 18:53,18:53,EDT,Vrbl  7,8.0,Light Rain,OVC043,46.0,43.0,89.0,43.0,,29.95,1014.2,0.04,0.0,0.0,2025-04-14,4,2025,18,KCHO,0.06,0.17,0.19,0.1900000000000001,7
2025-04-11,11,2025-04-11 19:53,19:53,EDT,NW  3,10.0,Light Rain,BKN034 OVC060,46.0,44.1,93.0,,,29.95,1014.0,0.02,0.0,0.11,2025-04-14,4,2025,19,KCHO,0.08,0.11,0.21,0.2100000000000001,3
2025-04-11,11,2025-04-11 20:53,20:53,EDT,NW  5,10.0,Light Rain,FEW050 FEW070 OVC090,45.0,42.1,90.0,43.0,,29.95,1014.4,0.01,0.0,0.0,2025-04-14,4,2025,20,KCHO,0.07,0.09,0.22,0.2200000000000001,5
2025-04-11,11,2025-04-11 21:53,21:53,EDT,Calm,10.0,Light Rain,BKN030 BKN043 OVC055,45.0,42.1,90.0,,,29.97,1014.9,0.0,0.0,0.0,2025-04-14,4,2025,21,KCHO,0.030000000000000006,0.09,0.22,0.2200000000000001,0
2025-04-11,11,2025-04-11 22:53,22:53,EDT,Calm,10.0,Light Rain,OVC029,45.0,43.0,93.0,,,29.97,1015.1,0.01,0.02,0.0,2025-04-14,4,2025,22,KCHO,0.020000000000000007,0.1,0.23,0.23000000000000012,0
2025-04-11,11,2025-04-11 23:53,23:53,EDT,NE  6,10.0,Light Rain,OVC039,45.0,43.0,93.0,42.0,,29.97,1015.0,0.01,0.0,0.0,2025-04-14,4,2025,23,KCHO,0.020000000000000007,0.09,0.24,0.2400000000000001,6
2025-04-12,12,2025-04-12 00:53,00:53,EDT,N  3,10.0,Overcast,FEW033 OVC049,44.1,42.1,93.0,,,29.97,1014.7,0.0,0.0,0.0,2025-04-15,4,2025,0,KCHO,0.020000000000000007,0.05,0.22,0.2400000000000001,3
2025-04-12,12,2025-04-12 01:53,01:53,EDT,N  3,10.0,Overcast,OVC029,44.1,42.1,93.0,,,29.96,1014.5,0.0,0.0,0.03,2025-04-15,4,2025,1,KCHO,0.010000000000000007,0.03,0.13999999999999999,0.2400000000000001,3
2025-04-12,12,2025-04-12 02:53,02:53,EDT,Calm,10.0,Overcast,OVC029,44.1,41.0,89.0,,,29.96,1014.4,0.0,0.0,0.0,2025-04-15,4,2025,2,KCHO,0.0,0.019999999999999997,0.11,0.2400000000000001,0
2025-04-12,12,2025-04-12 03:53,03:53,EDT,Calm,10.0,Overcast,OVC026,44.1,42.1,93.0,,,29.97,1014.8,0.0,0.0,0.0,2025-04-15,4,2025,3,KCHO,0.0,0.019999999999999997,0.11,0.2400000000000001,0
2025-04-12,12,2025-04-12 04:53,04:53,EDT,Calm,10.0,Overcast,SCT019 BKN026 OVC033,44.1,42.1,93.0,,,29.97,1014.9,0.0,0.0,0.0,2025-04-15,4,2025,4,KCHO,0.0,0.01,0.11,0.2400000000000001,0
2025-04-12,12,2025-04-12 05:53,05:53,EDT,NW  6,10.0,Overcast,BKN030 OVC055,44.1,39.9,85.0,41.0,,29.97,1015.0,0.0,0.0,0.0,2025-04-15,4,2025,5,KCHO,0.0,0.0,0.09,0.2400000000000001,6
2025-04-12,12,2025-04-12 06:53,06:53,EDT,NW  6,10.0,Overcast,BKN033 OVC060,44.1,39.0,83.0,41.0,,29.98,1015.4,0.0,0.0,0.0,2025-04-15,4,2025,6,KCHO,0.0,0.0,0.05,0.2400000000000001,6
2025-04-12,12,2025-04-12 07:53,07:53,EDT,NW  7,10.0,Partly Cloudy,SCT065,45.0,37.9,77.0,42.0,,30.0,1015.8,0.0,0.0,0.0,2025-04-15,4,2025,7,KCHO,0.0,0.0,0.03,0.2400000000000001,7
2025-04-12,12,2025-04-12 08:53,08:53,EDT,Vrbl  3,10.0,Mostly Cloudy,BKN060,46.0,37.9,73.0,,,29.99,1015.7,0.0,0.0,0.0,2025-04-15,4,2025,8,KCHO,0.0,0.0,0.019999999999999997,0.2400000000000001,3
2025-04-12,12,2025-04-12 09:53,09:53,EDT,N  7,10.0,Mostly Cloudy,BKN055,50.0,39.0,66.0,48.0,,30.0,1015.8,0.0,0.0,0.0,2025-04-15,4,2025,9,KCHO,0.0,0.0,0.019999999999999997,0.2400000000000001,7
2025-04-12,12,2025-04-12 10:53,10:53,EDT,N  9,10.0,A Few Clouds,FEW035 FEW065,52.0,37.9,59.0,,,30.01,1016.2,0.0,0.0,0.0,2025-04-15,4,2025,10,KCHO,0.0,0.0,0.01,0.2400000000000001,9
2025-04-12,12,2025-04-12 11:53,11:53,EDT,NW  8  G 18,10.0,Mostly Cloudy,FEW037 BKN080,53.1,36.0,52.0,,,30.01,1016.3,0.0,0.0,0.0,2025-04-15,4,2025,11,KCHO,0.0,0.0,0.0,0.2400000000000001,8
2025-04-12,12,2025-04-12 12:53,12:53,EDT,Vrbl  7,10.0,Overcast,OVC041,53.1,36.0,52.0,,,30.0,1015.7,0.0,0.0,0.0,2025-04-15,4,2025,12,KCHO,0.0,0.0,0.0,0.22000000000000008,7
2025-04-12,12,2025-04-12 13:53,13:53,EDT,N  8,10.0,Overcast,BKN042 OVC080,54.0,36.0,51.0,,,29.99,1015.4,0.0,0.0,0.0,2025-04-15,4,2025,13,KCHO,0.0,0.0,0.0,0.1400000000000001,8
2025-04-12,12,2025-04-12 14:53,14:53,EDT,N  9  G 20,10.0,Overcast,OVC046,54.0,35.1,49.0,,,29.96,1014.6,0.0,0.0,0.0,2025-04-15,4,2025,14,KCHO,0.0,0.0,0.0,0.11000000000000011,9
2025-04-12,12,2025-04-12 15:53,15:53,EDT,NW  8  G 21,10.0,Overcast,FEW048 SCT055 OVC085,55.9,35.1,46.0,,,29.95,1014.1,0.0,0.0,0.0,2025-04-15,4,2025,15,KCHO,0.0,0.0,0.0,0.11000000000000011,8
2025-04-12,12,2025-04-12 16:53,16:53,EDT,N  9  G 22,10.0,Overcast,OVC085,54.0,34.0,47.0,,,29.95,1014.2,0.0,0.0,0.0,2025-04-15,4,2025,16,KCHO,0.0,0.0,0.0,0.11000000000000011,9
2025-04-12,12,2025-04-12 17:53,17:53,EDT,NW  9  G 20,10.0,Mostly Cloudy,FEW048 BKN070 BKN085,54.0,34.0,47.0,,,29.97,1014.7,0.0,0.0,0.0,2025-04-15,4,2025,17,KCHO,0.0,0.0,0.0,0.09000000000000011,9
2025-04-12,12,2025-04-12 18:53,18:53,EDT,N  10  G 22,10.0,Overcast,BKN070 OVC085,51.1,33.1,50.0,,,29.99,1015.5,0.0,0.0,0.0,2025-04-15,4,2025,18,KCHO,0.0,0.0,0.0,0.050000000000000114,10
2025-04-12,12,2025-04-12 19:53,19:53,EDT,NW  3,10.0,Overcast,OVC070,48.9,33.1,55.0,,,30.01,1016.1,0.0,0.0,0.0,2025-04-15,4,2025,19,KCHO,0.0,0.0,0.0,0.03000000000000011,3
2025-04-12,12,2025-04-12 20:53,20:53,EDT,Vrbl  6,10.0,Overcast,OVC075,48.9,33.1,55.0,47.0,,30.02,1016.6,0.0,0.0,0.0,2025-04-15,4,2025,20,KCHO,0.0,0.0,0.0,0.020000000000000108,6
2025-04-12,12,2025-04-12 21:53,21:53,EDT,Vrbl  3,10.0,Overcast,OVC075,48.0,33.1,56.0,,,30.03,1016.8,0.0,0.0,0.0,2025-04-15,4,2025,21,KCHO,0.0,0.0,0.0,0.020000000000000108,3
2025-04-12,12,2025-04-12 22:53,22:53,EDT,Vrbl  5,10.0,Overcast,SCT070 OVC085,48.0,33.1,56.0,47.0,,30.03,1016.8,0.0,0.0,0.0,2025-04-15,4,2025,22,KCHO,0.0,0.0,0.0,0.010000000000000111,5
2025-04-12,12,2025-04-12 23:53,23:53,EDT,NW  7,10.0,Overcast,OVC080,48.0,32.0,54.0,45.0,,30.03,1016.6,0.0,0.0,0.0,2025-04-15,4,2025,23,KCHO,0.0,0.0,0.0,0.0,7
2025-04-13,13,2025-04-13 00:53,00:53,EDT,NW  5,10.0,Overcast,BKN055 OVC080,46.0,32.0,58.0,44.0,,30.03,1016.8,0.0,0.0,0.0,2025-04-16,4,2025,0,KCHO,0.0,0.0,0.0,0.0,5
2025-04-13,13,2025-04-13 01:53,01:53,EDT,NW  6,10.0,Mostly Cloudy,BKN060,46.0,32.0,58.0,44.0,,30.03,1016.8,0.0,0.0,0.0,2025-04-16,4,2025,1,KCHO,0.0,0.0,0.0,0.0,6
2025-04-13,13,2025-04-13 02:53,02:53,EDT,NW  6,10.0,A Few Clouds,FEW060,46.0,30.9,56.0,44.0,,30.02,1016.4,0.0,0.0,0.0,2025-04-16,4,2025,2,KCHO,0.0,0.0,0.0,0.0,6
2025-04-13,13,2025-04-13 03:53,03:53,EDT,Calm,10.0,Fair,CLR,44.1,30.9,60.0,,,30.02,1016.3,0.0,0.0,0.0,2025-04-16,4,2025,3,KCHO,0.0,0.0,0.0,0.0,0
2025-04-13,13,2025-04-13 04:53,04:53,EDT,NW  5,10.0,Fair,CLR,43.0,30.9,63.0,41.0,,30.02,1016.6,0.0,0.0,0.0,2025-04-16,4,2025,4,KCHO,0.0,0.0,0.0,0.0,5
2025-04-13,13,2025-04-13 05:53,05:53,EDT,Calm,10.0,Fair,CLR,43.0,30.0,60.0,,,30.03,1017.0,0.0,0.0,0.0,2025-04-16,4,2025,5,KCHO,0.0,0.0,0.0,0.0,0
2025-04-13,13,2025-04-13 06:53,06:53,EDT,NW  5,10.0,Fair,CLR,43.0,30.0,60.0,41.0,,30.05,1017.6,0.0,0.0,0.0,2025-04-16,4,2025,6,KCHO,0.0,0.0,0.0,0.0,5
2025-04-13,13,2025-04-13 07:53,07:53,EDT,Calm,10.0,Fair,CLR,46.0,30.9,56.0,,,30.06,1018.0,0.0,0.0,0.0,2025-04-16,4,2025,7,KCHO,0.0,0.0,0.0,0.0,0
2025-04-13,13,2025-04-13 08:53,08:53,EDT,Calm,10.0,Fair,CLR,48.9,32.0,52.0,,,30.07,1018.1,0.0,0.0,0.0,2025-04-16,4,2025,8,KCHO,0.0,0.0,0.0,0.0,0
2025-04-13,13,2025-04-13 09:53,09:53,EDT,N  8,10.0,Fair,CLR,51.1,32.0,48.0,,,30.07,1018.2,0.0,0.0,0.0,2025-04-16,4,2025,9,KCHO,0.0,0.0,0.0,0.0,8
2025-04-13,13,2025-04-13 10:53,10:53,EDT,Vrbl  6,10.0,Fair,CLR,55.0,33.1,44.0,,,30.07,1018.3,0.0,0.0,0.0,2025-04-16,4,2025,10,KCHO,0.0,0.0,0.0,0.0,6
2025-04-13,13,2025-04-13 11:53,11:53,EDT,N  13  G 20,10.0,Fair,CLR,57.0,33.1,41.0,,,30.07,1018.2,0.0,0.0,0.0,2025-04-16,4,2025,11,KCHO,0.0,0.0,0.0,0.0,13
2025-04-13,13,2025-04-13 12:53,12:53,EDT,Vrbl  7  G 23,10.0,Fair,CLR,57.9,33.1,39.0,,,30.06,1017.9,0.0,0.0,0.0,2025-04-16,4,2025,12,KCHO,0.0,0.0,0.0,0.0,7
2025-04-13,13,2025-04-13 13:53,13:53,EDT,N  9  G 23,10.0,Fair,CLR,60.1,33.1,36.0,,,30.03,1016.8,0.0,0.0,0.0,2025-04-16,4,2025,13,KCHO,0.0,0.0,0.0,0.0,9
2025-04-13,13,2025-04-13 14:53,14:53,EDT,N  8  G 23,10.0,Fair,CLR,61.0,32.0,34.0,,,30.02,1016.2,0.0,0.0,0.0,2025-04-16,4,2025,14,KCHO,0.0,0.0,0.0,0.0,8
2025-04-13,13,2025-04-13 15:53,15:53,EDT,Vrbl  6  G 16,10.0,Fair,CLR,61.0,32.0,34.0,,,30.0,1015.7,0.0,0.0,0.0,2025-04-16,4,2025,15,KCHO,0.0,0.0,0.0,0.0,6
2025-04-13,13,2025-04-13 16:53,16:53,EDT,Vrbl  5,10.0,Fair,CLR,63.0,32.0,31.0,,,29.99,1015.4,0.0,0.0,0.0,2025-04-16,4,2025,16,KCHO,0.0,0.0,0.0,0.0,5
2025-04-13,13,2025-04-13 18:53,18:53,EDT,NE  6,10.0,Fair,CLR,62.1,33.1,34.0,,,29.98,1015.2,0.0,0.0,0.0,2025-04-16,4,2025,18,KCHO,0.0,0.0,0.0,0.0,6
2025-04-13,13,2025-04-13 19:53,19:53,EDT,NE  3,10.0,Fair,CLR,57.0,33.1,41.0,,,29.99,1015.3,0.0,0.0,0.0,2025-04-16,4,2025,19,KCHO,0.0,0.0,0.0,0.0,3
2025-04-13,13,2025-04-13 20:53,20:53,EDT,S  5,10.0,Fair,CLR,55.0,33.1,44.0,,,30.0,1015.6,0.0,0.0,0.0,2025-04-16,4,2025,20,KCHO,0.0,0.0,0.0,0.0,5
2025-04-13,13,2025-04-13 21:53,21:53,EDT,Calm,10.0,Fair,CLR,55.0,32.0,42.0,,,29.99,1015.5,0.0,0.0,0.0,2025-04-16,4,2025,21,KCHO,0.0,0.0,0.0,0.0,0
2025-04-13,13,2025-04-13 22:53,22:53,EDT,Calm,10.0,Fair,CLR,48.9,37.0,64.0,,,30.0,1015.7,0.0,0.0,0.0,2025-04-16,4,2025,22,KCHO,0.0,0.0,0.0,0.0,0
2025-04-13,13,2025-04-13 23:53,23:53,EDT,Calm,10.0,Fair,CLR,48.9,34.0,56.0,,,29.99,1015.3,0.0,0.0,0.0,2025-04-16,4,2025,23,KCHO,0.0,0.0,0.0,0.0,0
2025-04-14,14,2025-04-14 00:53,00:53,EDT,Calm,10.0,Fair,CLR,48.9,35.1,59.0,,,29.98,1015.0,0.0,0.0,0.0,2025-04-17,4,2025,0,KCHO,0.0,0.0,0.0,0.0,0
2025-04-14,14,2025-04-14 01:53,01:53,EDT,Calm,10.0,Fair,CLR,46.9,37.0,69.0,,,29.97,1014.7,0.0,0.0,0.0,2025-04-17,4,2025,1,KCHO,0.0,0.0,0.0,0.0,0
2025-04-14,14,2025-04-14 02:53,02:53,EDT,Calm,10.0,Fair,CLR,45.0,37.0,74.0,,,29.97,1014.7,0.0,0.0,0.0,2025-04-17,4,2025,2,KCHO,0.0,0.0,0.0,0.0,0
2025-04-14,14,2025-04-14 03:53,03:53,EDT,Calm,10.0,Overcast,BKN100 OVC120,46.9,37.9,71.0,,,29.95,1013.8,0.0,0.0,0.0,2025-04-17,4,2025,3,KCHO,0.0,0.0,0.0,0.0,0
2025-04-14,14,2025-04-14 04:53,04:53,EDT,Calm,10.0,Overcast,OVC085,46.9,37.9,71.0,,,29.93,1013.4,0.0,0.0,0.0,2025-04-17,4,2025,4,KCHO,0.0,0.0,0.0,0.0,0
2025-04-14,14,2025-04-14 05:53,05:53,EDT,Calm,10.0,Overcast,OVC090,46.9,39.9,77.0,,,29.93,1013.4,0.0,0.0,0.0,2025-04-17,4,2025,5,KCHO,0.0,0.0,0.0,0.0,0
2025-04-14,14,2025-04-14 06:53,06:53,EDT,Calm,10.0,Overcast,OVC120,46.0,39.0,77.0,,,29.92,1012.9,0.0,0.0,0.0,2025-04-17,4,2025,6,KCHO,0.0,0.0,0.0,0.0,0
2025-04-14,14,2025-04-14 07:53,07:53,EDT,Calm,10.0,Overcast,OVC110,46.9,39.9,77.0,,,29.92,1012.9,0.0,0.0,0.0,2025-04-17,4,2025,7,KCHO,0.0,0.0,0.0,0.0,0
2025-04-14,14,2025-04-14 08:53,08:53,EDT,Calm,10.0,Overcast,OVC080,50.0,39.0,66.0,,,29.9,1012.4,0.0,0.0,0.0,2025-04-17,4,2025,8,KCHO,0.0,0.0,0.0,0.0,0
2025-04-14,14,2025-04-14 09:53,09:53,EDT,Calm,10.0,Fair,CLR,55.9,37.9,51.0,,,29.88,1011.4,0.0,0.0,0.0,2025-04-17,4,2025,9,KCHO,0.0,0.0,0.0,0.0,0
2025-04-14,14,2025-04-14 10:53,10:53,EDT,SE  6,10.0,Fair,CLR,63.0,37.9,40.0,,,29.86,1010.8,0.0,0.0,0.0,2025-04-17,4,2025,10,KCHO,0.0,0.0,0.0,0.0,6
2025-04-14,14,2025-04-14 11:53,11:53,EDT,Vrbl  5,10.0,Fair,CLR,66.9,39.9,37.0,,,29.84,1010.0,0.0,0.0,0.0,2025-04-17,4,2025,11,KCHO,0.0,0.0,0.0,0.0,5
2025-04-14,14,2025-04-14 12:53,12:53,EDT,SE  9,10.0,Fair,CLR,72.0,42.1,34.0,,,29.81,1008.9,0.0,0.0,0.0,2025-04-17,4,2025,12,KCHO,0.0,0.0,0.0,0.0,9
2025-04-14,14,2025-04-14 13:53,13:53,EDT,S  15,10.0,Fair,CLR,75.0,44.1,33.0,,77.0,29.8,1008.7,0.0,0.0,0.0,2025-04-17,4,2025,13,KCHO,0.0,0.0,0.0,0.0,15
2025-04-14,14,2025-04-14 14:53,14:53,EDT,S  12,10.0,Fair,CLR,78.1,46.9,33.0,,78.0,29.76,1007.4,0.0,0.0,0.0,2025-04-17,4,2025,14,KCHO,0.0,0.0,0.0,0.0,12
2025-04-14,14,2025-04-14 15:53,15:53,EDT,SW  12,10.0,Fair,CLR,82.0,48.0,31.0,,81.0,29.72,1006.0,0.0,0.0,0.0,2025-04-17,4,2025,15,KCHO,0.0,0.0,0.0,0.0,12
2025-04-14,14,2025-04-14 16:53,16:53,EDT,S  12  G 22,10.0,Fair,CLR,82.9,51.1,33.0,,81.0,29.69,1004.8,0.0,0.0,0.0,2025-04-17,4,2025,16,KCHO,0.0,0.0,0.0,0.0,12
2025-04-14,14,2025-04-14 17:53,17:53,EDT,S  13,10.0,Fair,CLR,82.9,51.1,33.0,,81.0,29.67,1004.1,0.0,0.0,0.0,2025-04-17,4,2025,17,KCHO,0.0,0.0,0.0,0.0,13
2025-04-14,14,2025-04-14 18:53,18:53,EDT,S  14  G 23,10.0,Fair,CLR,78.1,51.1,39.0,,79.0,29.66,1003.9,0.0,0.0,0.0,2025-04-17,4,2025,18,KCHO,0.0,0.0,0.0,0.0,14
2025-04-14,14,2025-04-14 19:53,19:53,EDT,SW  7,10.0,A Few Clouds,FEW095,75.0,52.0,45.0,,78.0,29.67,1004.4,0.0,0.0,0.0,2025-04-17,4,2025,19,KCHO,0.0,0.0,0.0,0.0,7
2025-04-14,14,2025-04-14 20:53,20:53,EDT,Calm,10.0,Mostly Cloudy,FEW070 BKN110,75.0,53.1,46.0,,78.0,29.69,1005.0,0.0,0.0,0.0,2025-04-17,4,2025,20,KCHO,0.0,0.0,0.0,0.0,0
2025-04-14,14,2025-04-14 21:53,21:53,EDT,Vrbl  3,10.0,Light Rain,FEW060 OVC090,64.9,60.1,84.0,,,29.75,1007.0,0.06,0.0,0.0,2025-04-17,4,2025,21,KCHO,0.060000000000000005,0.06,0.06,0.06000000000000011,3
2025-04-14,14,2025-04-14 22:53,22:53,EDT,Calm,10.0,Mostly Cloudy,FEW047 SCT095 BKN110,63.0,61.0,93.0,,,29.74,1006.5,0.0,0.06,0.0,2025-04-17,4,2025,22,KCHO,0.060000000000000005,0.06,0.06,0.06000000000000011,0
2025-04-14,14,2025-04-14 23:53,23:53,EDT,Calm,2.0,Thunderstorm Rain Fog/Mist,FEW040 BKN080 OVC095,63.0,60.1,90.0,,,29.77,1007.6,0.06,0.0,0.0,2025-04-17,4,2025,23,KCHO,0.12,0.12,0.12,0.1200000000000001,0
2025-04-15,15,2025-04-15 00:53,00:53,EDT,S  6,10.0,Mostly Cloudy,BKN110,61.0,59.0,93.0,,,29.74,1006.3,0.04,0.0,0.0,2025-04-18,4,2025,0,KCHO,0.1,0.16,0.16,0.16000000000000011,6
2025-04-15,15,2025-04-15 01:53,01:53,EDT,W  3,10.0,Partly Cloudy,FEW080 SCT110,61.0,59.0,93.0,,,29.71,1005.4,0.01,0.0,0.17,2025-04-18,4,2025,1,KCHO,0.11,0.16999999999999998,0.16999999999999998,0.1700000000000001,3
2025-04-15,15,2025-04-15 02:53,02:53,EDT,SW  6,4.0,Fog/Mist,CLR,59.0,59.0,100.0,,,29.69,1004.5,0.0,0.0,0.0,2025-04-18,4,2025,2,KCHO,0.05000000000000001,0.16999999999999998,0.16999999999999998,0.1700000000000001,6
2025-04-15,15,2025-04-15 03:53,03:53,EDT,Calm,10.0,Fair,CLR,61.0,59.0,93.0,,,29.68,1004.4,0.0,0.0,0.0,2025-04-18,4,2025,3,KCHO,0.010000000000000007,0.11,0.16999999999999998,0.1700000000000001,0
2025-04-15,15,2025-04-15 04:53,04:53,EDT,Calm,10.0,Mostly Cloudy,BKN100,62.1,57.0,84.0,,,29.67,1003.8,0.0,0.0,0.0,2025-04-18,4,2025,4,KCHO,0.0,0.11,0.16999999999999998,0.1700000000000001,0
2025-04-15,15,2025-04-15 05:53,05:53,EDT,SW  5,10.0,Light Rain,FEW065 OVC100,62.1,54.0,75.0,,,29.69,1004.5,0.0,0.0,0.0,2025-04-18,4,2025,5,KCHO,0.0,0.05,0.16999999999999998,0.1700000000000001,5
2025-04-15,15,2025-04-15 06:53,06:53,EDT,Vrbl  6,10.0,Overcast,FEW075 SCT085 OVC100,63.0,50.0,63.0,,,29.66,1003.6,0.0,0.0,0.0,2025-04-18,4,2025,6,KCHO,0.0,0.01,0.16999999999999998,0.1700000000000001,6
2025-04-15,15,2025-04-15 07:53,07:53,EDT,Vrbl  3,10.0,Mostly Cloudy,BKN100,61.0,46.0,58.0,,,29.68,1004.5,0.0,0.0,0.0,2025-04-18,4,2025,7,KCHO,0.0,0.0,0.16999999999999998,0.1700000000000001,3
2025-04-15,15,2025-04-15 08:53,08:53,EDT,Vrbl  7,10.0,Fair,CLR,62.1,46.0,56.0,,,29.67,1004.0,0.0,0.0,0.0,2025-04-18,4,2025,8,KCHO,0.0,0.0,0.16999999999999998,0.1700000000000001,7
2025-04-15,15,2025-04-15 09:53,09:53,EDT,Calm,10.0,Fair,CLR,61.0,46.9,60.0,,,29.67,1004.1,0.0,0.0,0.0,2025-04-18,4,2025,9,KCHO,0.0,0.0,0.11,0.1700000000000001,0
2025-04-15,15,2025-04-15 10:53,10:53,EDT,Calm,10.0,Overcast,FEW060 OVC110,62.1,44.1,52.0,,,29.66,1004.0,0.0,0.0,0.0,2025-04-18,4,2025,10,KCHO,0.0,0.0,0.11,0.1700000000000001,0
2025-04-15,15,2025-04-15 11:53,11:53,EDT,NW  14  G 25,10.0,Partly Cloudy,SCT060,62.1,37.9,41.0,,,29.67,1004.2,0.0,0.0,0.0,2025-04-18,4,2025,11,KCHO,0.0,0.0,0.05,0.1700000000000001,14
2025-04-15,15,2025-04-15 12:53,12:53,EDT,W  8  G 23,10.0,Mostly Cloudy,SCT075 BKN090,64.0,36.0,35.0,,,29.68,1004.4,0.0,0.0,0.0,2025-04-18,4,2025,12,KCHO,0.0,0.0,0.01,0.1700000000000001,8
2025-04-15,15,2025-04-15 13:53,13:53,EDT,W  13  G 28,10.0,A Few Clouds,FEW100,63.0,30.9,30.0,,,29.69,1004.8,0.0,0.0,0.0,2025-04-18,4,2025,13,KCHO,0.0,0.0,0.0,0.1700000000000001,13
2025-04-15,15,2025-04-15 14:53,14:53,EDT,W  8,10.0,Partly Cloudy,FEW080 SCT120,62.1,32.0,32.0,,,29.68,1004.8,0.0,0.0,0.0,2025-04-18,4,2025,14,KCHO,0.0,0.0,0.0,0.1700000000000001,8
2025-04-15,15,2025-04-15 15:53,15:53,EDT,SW  9  G 24,10.0,A Few Clouds,FEW095,62.1,30.0,30.0,,,29.68,1004.5,0.0,0.0,0.0,2025-04-18,4,2025,15,KCHO,0.0,0.0,0.0,0.1700000000000001,9
2025-04-15,15,2025-04-15 16:53,16:53,EDT,Calm,10.0,Overcast,OVC100,63.0,26.1,25.0,,,29.71,1005.5,0.0,0.0,0.0,2025-04-18,4,2025,16,KCHO,0.0,0.0,0.0,0.1700000000000001,0
2025-04-15,15,2025-04-15 17:53,17:53,EDT,NW  14  G 30,10.0,Partly Cloudy,SCT085,60.1,27.0,28.0,,,29.75,1007.0,0.0,0.0,0.0,2025-04-18,4,2025,17,KCHO,0.0,0.0,0.0,0.1700000000000001,14
2025-04-15,15,2025-04-15 18:53,18:53,EDT,W  13  G 30,10.0,Overcast,OVC080,57.0,27.0,32.0,,,29.77,1007.8,0.0,0.0,0.0,2025-04-18,4,2025,18,KCHO,0.0,0.0,0.0,0.1700000000000001,13
2025-04-15,15,2025-04-15 19:53,19:53,EDT,W  14  G 28,10.0,Overcast,OVC070,55.0,27.0,34.0,,,29.79,1008.4,0.0,0.0,0.0,2025-04-18,4,2025,19,KCHO,0.0,0.0,0.0,0.1700000000000001,14
2025-04-15,15,2025-04-15 20:53,20:53,EDT,NW  8  G 20,10.0,Mostly Cloudy,BKN070,54.0,28.0,37.0,,,29.82,1009.3,0.0,0.0,0.0,2025-04-18,4,2025,20,KCHO,0.0,0.0,0.0,0.1700000000000001,8
2025-04-15,15,2025-04-15 21:53,21:53,EDT,NW  7,10.0,Overcast,OVC070,53.1,28.0,38.0,,,29.85,1010.4,0.0,0.0,0.0,2025-04-18,4,2025,21,KCHO,0.0,0.0,0.0,0.11000000000000011,7
2025-04-15,15,2025-04-15 22:53,22:53,EDT,W  9  G 18,10.0,Overcast,OVC060,53.1,28.9,40.0,,,29.86,1010.8,0.0,0.0,0.0,2025-04-18,4,2025,22,KCHO,0.0,0.0,0.0,0.11000000000000011,9
2025-04-15,15,2025-04-15 23:53,23:53,EDT,NW  16  G 32,10.0,Overcast,OVC070,52.0,26.1,37.0,,,29.87,1011.2,0.0,0.0,0.0,2025-04-18,4,2025,23,KCHO,0.0,0.0,0.0,0.050000000000000114,16
2025-04-16,16,2025-04-16 00:53,00:53,EDT,NW  12  G 23,10.0,Mostly Cloudy,BKN065,50.0,25.0,38.0,46.0,,29.89,1011.9,0.0,0.0,0.0,2025-04-19,4,2025,0,KCHO,0.0,0.0,0.0,0.010000000000000111,12
2025-04-16,16,2025-04-16 01:53,01:53,EDT,Vrbl  7  G 17,10.0,Fair,CLR,48.9,24.1,38.0,46.0,,29.87,1011.3,0.0,0.0,0.0,2025-04-19,4,2025,1,KCHO,0.0,0.0,0.0,0.0,7
2025-04-16,16,2025-04-16 02:53,02:53,EDT,W  5,10.0,Fair,CLR,48.0,24.1,39.0,47.0,,29.86,1011.0,0.0,0.0,0.0,2025-04-19,4,2025,2,KCHO,0.0,0.0,0.0,0.0,5
2025-04-16,16,2025-04-16 03:53,03:53,EDT,Vrbl  6,10.0,Fair,CLR,48.0,25.0,41.0,46.0,,29.87,1011.1,0.0,0.0,0.0,2025-04-19,4,2025,3,KCHO,0.0,0.0,0.0,0.0,6
2025-04-16,16,2025-04-16 04:53,04:53,EDT,Vrbl  3,10.0,Fair,CLR,46.9,30.0,52.0,,,29.87,1011.3,0.0,0.0,0.0,2025-04-19,4,2025,4,KCHO,0.0,0.0,0.0,0.0,3
2025-04-16,16,2025-04-16 05:53,05:53,EDT,Vrbl  3,10.0,A Few Clouds,FEW060,46.9,30.0,52.0,,,29.88,1011.7,0.0,0.0,0.0,2025-04-19,4,2025,5,KCHO,0.0,0.0,0.0,0.0,3
2025-04-16,16,2025-04-16 06:53,06:53,EDT,Vrbl  3,10.0,Mostly Cloudy,FEW055 FEW070 BKN085,46.9,30.9,54.0,,,29.91,1012.7,0.0,0.0,0.0,2025-04-19,4,2025,6,KCHO,0.0,0.0,0.0,0.0,3
2025-04-16,16,2025-04-16 07:53,07:53,EDT,Vrbl  7,10.0,Fair,CLR,48.9,30.0,48.0,46.0,,29.92,1013.0,0.0,0.0,0.0,2025-04-19,4,2025,7,KCHO,0.0,0.0,0.0,0.0,7
2025-04-16,16,2025-04-16 08:53,08:53,EDT,Vrbl  7  G 23,10.0,Fair,CLR,50.0,25.0,38.0,48.0,,29.94,1013.5,0.0,0.0,0.0,2025-04-19,4,2025,8,KCHO,0.0,0.0,0.0,0.0,7
2025-04-16,16,2025-04-16 09:53,09:53,EDT,NW  8,10.0,A Few Clouds,FEW070,51.1,25.0,36.0,,,29.95,1014.1,0.0,0.0,0.0,2025-04-19,4,2025,9,KCHO,0.0,0.0,0.0,0.0,8
2025-04-16,16,2025-04-16 10:53,10:53,EDT,Vrbl  6,10.0,A Few Clouds,FEW070,54.0,26.1,34.0,,,29.96,1014.4,0.0,0.0,0.0,2025-04-19,4,2025,10,KCHO,0.0,0.0,0.0,0.0,6
2025-04-16,16,2025-04-16 11:53,11:53,EDT,Calm,10.0,A Few Clouds,FEW085,57.0,25.0,29.0,,,29.97,1014.5,0.0,0.0,0.0,2025-04-19,4,2025,11,KCHO,0.0,0.0,0.0,0.0,0
2025-04-16,16,2025-04-16 12:53,12:53,EDT,NW  12  G 24,10.0,Fair,CLR,57.9,23.0,26.0,,,29.96,1014.3,0.0,0.0,0.0,2025-04-19,4,2025,12,KCHO,0.0,0.0,0.0,0.0,12
2025-04-16,16,2025-04-16 13:53,13:53,EDT,NW  12  G 25,10.0,Fair,CLR,60.1,23.0,24.0,,,29.95,1013.9,0.0,0.0,0.0,2025-04-19,4,2025,13,KCHO,0.0,0.0,0.0,0.0,12
2025-04-16,16,2025-04-16 14:53,14:53,EDT,NW  12  G 22,10.0,A Few Clouds,FEW085,60.1,21.9,23.0,,,29.94,1013.6,0.0,0.0,0.0,2025-04-19,4,2025,14,KCHO,0.0,0.0,0.0,0.0,12
2025-04-16,16,2025-04-16 15:53,15:53,EDT,NW  14  G 22,10.0,A Few Clouds,FEW090,62.1,21.9,21.0,,,29.93,1013.3,0.0,0.0,0.0,2025-04-19,4,2025,15,KCHO,0.0,0.0,0.0,0.0,14
2025-04-16,16,2025-04-16 16:53,16:53,EDT,NW  8  G 18,10.0,A Few Clouds,FEW090,61.0,23.0,23.0,,,29.93,1013.3,0.0,0.0,0.0,2025-04-19,4,2025,16,KCHO,0.0,0.0,0.0,0.0,8
2025-04-16,16,2025-04-16 17:53,17:53,EDT,NW  10  G 20,10.0,Fair,CLR,61.0,21.9,22.0,,,29.94,1013.5,0.0,0.0,0.0,2025-04-19,4,2025,17,KCHO,0.0,0.0,0.0,0.0,10
2025-04-16,16,2025-04-16 18:53,18:53,EDT,Vrbl  7,10.0,Fair,CLR,59.0,21.9,24.0,,,29.95,1014.2,0.0,0.0,0.0,2025-04-19,4,2025,18,KCHO,0.0,0.0,0.0,0.0,7
2025-04-16,16,2025-04-16 19:53,19:53,EDT,Vrbl  5,10.0,Fair,CLR,55.9,21.9,27.0,,,29.98,1015.1,0.0,0.0,0.0,2025-04-19,4,2025,19,KCHO,0.0,0.0,0.0,0.0,5
2025-04-16,16,2025-04-16 20:53,20:53,EDT,Vrbl  3,10.0,Fair,CLR,53.1,21.9,30.0,,,30.01,1016.1,0.0,0.0,0.0,2025-04-19,4,2025,20,KCHO,0.0,0.0,0.0,0.0,3
2025-04-16,16,2025-04-16 21:53,21:53,EDT,NW  3,10.0,Fair,CLR,53.1,21.9,30.0,,,30.04,1017.2,0.0,0.0,0.0,2025-04-19,4,2025,21,KCHO,0.0,0.0,0.0,0.0,3
2025-04-16,16,2025-04-16 22:53,22:53,EDT,NW  5,10.0,Fair,CLR,52.0,21.0,30.0,,,30.06,1017.6,0.0,0.0,0.0,2025-04-19,4,2025,22,KCHO,0.0,0.0,0.0,0.0,5
2025-04-16,16,2025-04-16 23:53,23:53,EDT,Calm,10.0,Fair,CLR,46.0,24.1,42.0,,,30.07,1018.2,0.0,0.0,0.0,2025-04-19,4,2025,23,KCHO,0.0,0.0,0.0,0.0,0
2025-04-17,17,2025-04-17 00:53,00:53,EDT,N  3,10.0,Fair,CLR,46.9,23.0,39.0,,,30.09,1019.0,0.0,0.0,0.0,2025-04-20,4,2025,0,KCHO,0.0,0.0,0.0,0.0,3
2025-04-17,17,2025-04-17 01:53,01:53,EDT,SE  5,10.0,Fair,CLR,42.1,26.1,53.0,40.0,,30.11,1019.4,0.0,0.0,0.0,2025-04-20,4,2025,1,KCHO,0.0,0.0,0.0,0.0,5
2025-04-17,17,2025-04-17 02:53,02:53,EDT,NW  3,10.0,Fair,CLR,41.0,27.0,57.0,,,30.12,1019.9,0.0,0.0,0.0,2025-04-20,4,2025,2,KCHO,0.0,0.0,0.0,0.0,3
2025-04-17,17,2025-04-17 03:53,03:53,EDT,N  3,10.0,Fair,CLR,39.0,27.0,62.0,,,30.14,1020.6,0.0,0.0,0.0,2025-04-20,4,2025,3,KCHO,0.0,0.0,0.0,0.0,3
2025-04-17,17,2025-04-17 04:53,04:53,EDT,Calm,10.0,Fair,CLR,37.9,28.0,68.0,,,30.17,1021.4,0.0,0.0,0.0,2025-04-20,4,2025,4,KCHO,0.0,0.0,0.0,0.0,0
2025-04-17,17,2025-04-17 05:53,05:53,EDT,Calm,10.0,Fair,CLR,37.9,26.1,62.0,,,30.18,1022.0,0.0,0.0,0.0,2025-04-20,4,2025,5,KCHO,0.0,0.0,0.0,0.0,0
2025-04-17,17,2025-04-17 06:53,06:53,EDT,Calm,10.0,Fair,CLR,39.0,26.1,60.0,,,30.21,1023.0,0.0,0.0,0.0,2025-04-20,4,2025,6,KCHO,0.0,0.0,0.0,0.0,0
2025-04-17,17,2025-04-17 07:53,07:53,EDT,SE  3,10.0,Fair,CLR,42.1,30.0,62.0,,,30.24,1023.9,0.0,0.0,0.0,2025-04-20,4,2025,7,KCHO,0.0,0.0,0.0,0.0,3
2025-04-17,17,2025-04-17 08:53,08:53,EDT,E  5,10.0,Fair,CLR,46.9,28.9,50.0,45.0,,30.26,1024.4,0.0,0.0,0.0,2025-04-20,4,2025,8,KCHO,0.0,0.0,0.0,0.0,5
2025-04-17,17,2025-04-17 09:53,09:53,EDT,Calm,10.0,Fair,CLR,51.1,28.9,43.0,,,30.26,1024.5,0.0,0.0,0.0,2025-04-20,4,2025,9,KCHO,0.0,0.0,0.0,0.0,0
2025-04-17,17,2025-04-17 10:53,10:53,EDT,Calm,10.0,Fair,CLR,54.0,28.9,38.0,,,30.25,1024.2,0.0,0.0,0.0,2025-04-20,4,2025,10,KCHO,0.0,0.0,0.0,0.0,0
2025-04-17,17,2025-04-17 11:53,11:53,EDT,Vrbl  3,10.0,Fair,CLR,57.0,28.9,34.0,,,30.24,1023.9,0.0,0.0,0.0,2025-04-20,4,2025,11,KCHO,0.0,0.0,0.0,0.0,3
2025-04-17,17,2025-04-17 12:53,12:53,EDT,Calm,10.0,Fair,CLR,60.1,30.0,32.0,,,30.23,1023.5,0.0,0.0,0.0,2025-04-20,4,2025,12,KCHO,0.0,0.0,0.0,0.0,0
2025-04-17,17,2025-04-17 13:53,13:53,EDT,Vrbl  3,10.0,Fair,CLR,62.1,28.9,29.0,,,30.21,1022.8,0.0,0.0,0.0,2025-04-20,4,2025,13,KCHO,0.0,0.0,0.0,0.0,3
2025-04-17,17,2025-04-17 14:53,14:53,EDT,Vrbl  5,10.0,Fair,CLR,64.0,19.9,18.0,,,30.19,1022.1,0.0,0.0,0.0,2025-04-20,4,2025,14,KCHO,0.0,0.0,0.0,0.0,5
2025-04-17,17,2025-04-17 15:53,15:53,EDT,Calm,10.0,Fair,CLR,66.0,21.0,18.0,,,30.16,1021.2,0.0,0.0,0.0,2025-04-20,4,2025,15,KCHO,0.0,0.0,0.0,0.0,0
2025-04-17,17,2025-04-17 16:53,16:53,EDT,S  8,10.0,Fair,CLR,66.0,26.1,22.0,,,30.15,1021.0,0.0,0.0,0.0,2025-04-20,4,2025,16,KCHO,0.0,0.0,0.0,0.0,8
2025-04-17,17,2025-04-17 17:53,17:53,EDT,S  10,10.0,Fair,CLR,66.0,28.0,24.0,,,30.15,1020.9,0.0,0.0,0.0,2025-04-20,4,2025,17,KCHO,0.0,0.0,0.0,0.0,10
2025-04-17,17,2025-04-17 18:53,18:53,EDT,S  7,10.0,Fair,CLR,64.0,30.0,28.0,,,30.15,1021.0,0.0,0.0,0.0,2025-04-20,4,2025,18,KCHO,0.0,0.0,0.0,0.0,7
2025-04-17,17,2025-04-17 19:53,19:53,EDT,S  6,10.0,Fair,CLR,61.0,30.0,31.0,,,30.16,1021.2,0.0,0.0,0.0,2025-04-20,4,2025,19,KCHO,0.0,0.0,0.0,0.0,6
2025-04-17,17,2025-04-17 20:53,20:53,EDT,SE  5,10.0,Fair,CLR,55.9,30.9,39.0,,,30.17,1021.6,0.0,0.0,0.0,2025-04-20,4,2025,20,KCHO,0.0,0.0,0.0,0.0,5
2025-04-17,17,2025-04-17 21:53,21:53,EDT,Calm,10.0,Fair,CLR,54.0,30.9,42.0,,,30.2,1022.4,0.0,0.0,0.0,2025-04-20,4,2025,21,KCHO,0.0,0.0,0.0,0.0,0
2025-04-17,17,2025-04-17 22:53,22:53,EDT,SW  3,10.0,Fair,CLR,55.0,30.0,38.0,,,30.21,1022.7,0.0,0.0,0.0,2025-04-20,4,2025,22,KCHO,0.0,0.0,0.0,0.0,3
2025-04-17,17,2025-04-17 23:53,23:53,EDT,S  6,10.0,Fair,CLR,54.0,30.9,42.0,,,30.21,1022.8,0.0,0.0,0.0,2025-04-20,4,2025,23,KCHO,0.0,0.0,0.0,0.0,6
2025-04-18,18,2025-04-18 00:53,00:53,EDT,Calm,10.0,Fair,CLR,54.0,30.0,40.0,,,30.21,1022.8,0.0,0.0,0.0,2025-04-21,4,2025,0,KCHO,0.0,0.0,0.0,0.0,0
2025-04-18,18,2025-04-18 01:53,01:53,EDT,Calm,10.0,Fair,CLR,46.9,36.0,66.0,,,30.21,1022.7,0.0,0.0,0.0,2025-04-21,4,2025,1,KCHO,0.0,0.0,0.0,0.0,0
2025-04-18,18,2025-04-18 02:53,02:53,EDT,Calm,10.0,Fair,CLR,45.0,35.1,68.0,,,30.2,1022.5,0.0,0.0,0.0,2025-04-21,4,2025,2,KCHO,0.0,0.0,0.0,0.0,0
2025-04-18,18,2025-04-18 03:53,03:53,EDT,Vrbl  3,10.0,Fair,CLR,44.1,36.0,73.0,,,30.21,1022.7,0.0,0.0,0.0,2025-04-21,4,2025,3,KCHO,0.0,0.0,0.0,0.0,3
2025-04-18,18,2025-04-18 04:53,04:53,EDT,Calm,10.0,Fair,CLR,43.0,36.0,76.0,,,30.21,1022.8,0.0,0.0,0.0,2025-04-21,4,2025,4,KCHO,0.0,0.0,0.0,0.0,0
2025-04-18,18,2025-04-18 05:53,05:53,EDT,Calm,10.0,Fair,CLR,42.1,35.1,76.0,,,30.22,1023.0,0.0,0.0,0.0,2025-04-21,4,2025,5,KCHO,0.0,0.0,0.0,0.0,0
2025-04-18,18,2025-04-18 06:53,06:53,EDT,SW  3,10.0,Fair,CLR,46.0,36.0,68.0,,,30.23,1023.4,0.0,0.0,0.0,2025-04-21,4,2025,6,KCHO,0.0,0.0,0.0,0.0,3
2025-04-18,18,2025-04-18 07:53,07:53,EDT,S  6,10.0,Fair,CLR,50.0,36.0,59.0,48.0,,30.24,1023.9,0.0,0.0,0.0,2025-04-21,4,2025,7,KCHO,0.0,0.0,0.0,0.0,6
2025-04-18,18,2025-04-18 08:53,08:53,EDT,S  12,10.0,Fair,CLR,55.0,39.0,55.0,,,30.24,1023.8,0.0,0.0,0.0,2025-04-21,4,2025,8,KCHO,0.0,0.0,0.0,0.0,12
2025-04-18,18,2025-04-18 09:53,09:53,EDT,S  9,10.0,Fair,CLR,57.9,41.0,53.0,,,30.23,1023.4,0.0,0.0,0.0,2025-04-21,4,2025,9,KCHO,0.0,0.0,0.0,0.0,9
2025-04-18,18,2025-04-18 10:53,10:53,EDT,S  5,10.0,Fair,CLR,62.1,42.1,48.0,,,30.21,1022.6,0.0,0.0,0.0,2025-04-21,4,2025,10,KCHO,0.0,0.0,0.0,0.0,5
2025-04-18,18,2025-04-18 11:53,11:53,EDT,S  12  G 18,10.0,Fair,CLR,70.0,44.1,39.0,,,30.18,1021.6,0.0,0.0,0.0,2025-04-21,4,2025,11,KCHO,0.0,0.0,0.0,0.0,12
2025-04-18,18,2025-04-18 12:53,12:53,EDT,S  12  G 24,10.0,Fair,CLR,75.9,45.0,33.0,,77.0,30.15,1020.3,0.0,0.0,0.0,2025-04-21,4,2025,12,KCHO,0.0,0.0,0.0,0.0,12
2025-04-18,18,2025-04-18 13:53,13:53,EDT,S  21  G 45,10.0,Fair and Breezy,CLR,77.0,42.1,29.0,,78.0,30.13,1019.7,0.0,0.0,0.0,2025-04-21,4,2025,13,KCHO,0.0,0.0,0.0,0.0,21
2025-04-18,18,2025-04-18 14:53,14:53,EDT,S  18  G 35,10.0,Fair,CLR,79.0,44.1,29.0,,79.0,30.11,1019.2,0.0,0.0,0.0,2025-04-21,4,2025,14,KCHO,0.0,0.0,0.0,0.0,18
2025-04-18,18,2025-04-18 15:53,15:53,EDT,S  20  G 33,10.0,Fair,CLR,80.1,45.0,29.0,,79.0,30.08,1018.0,0.0,0.0,0.0,2025-04-21,4,2025,15,KCHO,0.0,0.0,0.0,0.0,20
2025-04-18,18,2025-04-18 16:53,16:53,EDT,SW  18  G 33,10.0,Fair,CLR,80.1,46.0,30.0,,79.0,30.06,1017.5,0.0,0.0,0.0,2025-04-21,4,2025,16,KCHO,0.0,0.0,0.0,0.0,18
2025-04-18,18,2025-04-18 17:53,17:53,EDT,S  21  G 36,10.0,Fair and Breezy,CLR,78.1,46.0,32.0,,78.0,30.06,1017.6,0.0,0.0,0.0,2025-04-21,4,2025,17,KCHO,0.0,0.0,0.0,0.0,21
2025-04-18,18,2025-04-18 18:53,18:53,EDT,S  18  G 29,10.0,Fair,CLR,77.0,46.0,33.0,,78.0,30.06,1017.6,0.0,0.0,0.0,2025-04-21,4,2025,18,KCHO,0.0,0.0,0.0,0.0,18
2025-04-18,18,2025-04-18 19:53,19:53,EDT,S  14  G 26,10.0,Fair,CLR,73.9,46.9,38.0,,,30.07,1017.9,0.0,0.0,0.0,2025-04-21,4,2025,19,KCHO,0.0,0.0,0.0,0.0,14
2025-04-18,18,2025-04-18 20:53,20:53,EDT,S  13,10.0,Fair,CLR,71.1,48.9,46.0,,,30.07,1017.7,0.0,0.0,0.0,2025-04-21,4,2025,20,KCHO,0.0,0.0,0.0,0.0,13
2025-04-18,18,2025-04-18 21:53,21:53,EDT,SW  15  G 23,10.0,Fair,CLR,71.1,48.9,46.0,,,30.08,1018.1,0.0,0.0,0.0,2025-04-21,4,2025,21,KCHO,0.0,0.0,0.0,0.0,15
2025-04-18,18,2025-04-18 22:53,22:53,EDT,S  17,10.0,Fair,CLR,70.0,48.9,47.0,,,30.07,1017.6,0.0,0.0,0.0,2025-04-21,4,2025,22,KCHO,0.0,0.0,0.0,0.0,17
2025-04-18,18,2025-04-18 23:53,23:53,EDT,S  14,10.0,Fair,CLR,69.1,48.9,49.0,,,30.08,1018.0,0.0,0.0,0.0,2025-04-21,4,2025,23,KCHO,0.0,0.0,0.0,0.0,14
2025-04-19,19,2025-04-19 00:53,00:53,EDT,S  9,10.0,Fair,CLR,66.0,50.0,56.0,,,30.08,1017.9,0.0,0.0,0.0,2025-04-22,4,2025,0,KCHO,0.0,0.0,0.0,0.0,9
2025-04-19,19,2025-04-19 01:53,01:53,EDT,SW  9,10.0,Fair,CLR,69.1,50.0,51.0,,,30.07,1017.6,0.0,0.0,0.0,2025-04-22,4,2025,1,KCHO,0.0,0.0,0.0,0.0,9
2025-04-19,19,2025-04-19 02:53,02:53,EDT,S  10,10.0,Fair,CLR,68.0,50.0,53.0,,,30.07,1017.4,0.0,0.0,0.0,2025-04-22,4,2025,2,KCHO,0.0,0.0,0.0,0.0,10
2025-04-19,19,2025-04-19 03:53,03:53,EDT,S  14,10.0,Fair,CLR,66.0,50.0,56.0,,,30.06,1017.1,0.0,0.0,0.0,2025-04-22,4,2025,3,KCHO,0.0,0.0,0.0,0.0,14
2025-04-19,19,2025-04-19 04:53,04:53,EDT,S  17  G 25,10.0,Fair,CLR,66.0,51.1,59.0,,,30.06,1017.3,0.0,0.0,0.0,2025-04-22,4,2025,4,KCHO,0.0,0.0,0.0,0.0,17
2025-04-19,19,2025-04-19 05:53,05:53,EDT,S  15,10.0,Fair,CLR,64.9,52.0,63.0,,,30.08,1017.9,0.0,0.0,0.0,2025-04-22,4,2025,5,KCHO,0.0,0.0,0.0,0.0,15
2025-04-19,19,2025-04-19 06:53,06:53,EDT,S  10,10.0,Fair,CLR,64.9,52.0,63.0,,,30.09,1018.5,0.0,0.0,0.0,2025-04-22,4,2025,6,KCHO,0.0,0.0,0.0,0.0,10
2025-04-19,19,2025-04-19 07:53,07:53,EDT,S  10,10.0,Fair,CLR,64.0,53.1,68.0,,,30.12,1019.3,0.0,0.0,0.0,2025-04-22,4,2025,7,KCHO,0.0,0.0,0.0,0.0,10
2025-04-19,19,2025-04-19 08:53,08:53,EDT,S  14,10.0,Fair,CLR,64.9,55.0,70.0,,,30.13,1019.7,0.0,0.0,0.0,2025-04-22,4,2025,8,KCHO,0.0,0.0,0.0,0.0,14
2025-04-19,19,2025-04-19 09:53,09:53,EDT,S  13  G 20,10.0,Fair,CLR,66.9,55.9,68.0,,,30.13,1019.7,0.0,0.0,0.0,2025-04-22,4,2025,9,KCHO,0.0,0.0,0.0,0.0,13
2025-04-19,19,2025-04-19 10:53,10:53,EDT,S  13,10.0,Fair,CLR,68.0,57.0,68.0,,,30.15,1020.5,0.0,0.0,0.0,2025-04-22,4,2025,10,KCHO,0.0,0.0,0.0,0.0,13
2025-04-19,19,2025-04-19 11:53,11:53,EDT,SW  12  G 21,10.0,Fair,CLR,72.0,57.9,61.0,,,30.15,1020.3,0.0,0.0,0.0,2025-04-22,4,2025,11,KCHO,0.0,0.0,0.0,0.0,12
2025-04-19,19,2025-04-19 12:53,12:53,EDT,S  13,10.0,Fair,CLR,75.9,57.9,54.0,,78.0,30.14,1020.0,0.0,0.0,0.0,2025-04-22,4,2025,12,KCHO,0.0,0.0,0.0,0.0,13
2025-04-19,19,2025-04-19 13:53,13:53,EDT,S  15  G 24,10.0,Fair,CLR,79.0,59.0,50.0,,80.0,30.12,1019.2,0.0,0.0,0.0,2025-04-22,4,2025,13,KCHO,0.0,0.0,0.0,0.0,15
2025-04-19,19,2025-04-19 14:53,14:53,EDT,S  13,10.0,Fair,CLR,79.0,57.9,49.0,,80.0,30.1,1018.6,0.0,0.0,0.0,2025-04-22,4,2025,14,KCHO,0.0,0.0,0.0,0.0,13
2025-04-19,19,2025-04-19 16:53,16:53,EDT,S  15  G 24,10.0,Fair,CLR,82.0,59.0,46.0,,82.0,30.06,1017.2,0.0,0.0,0.0,2025-04-22,4,2025,16,KCHO,0.0,0.0,0.0,0.0,15
2025-04-19,19,2025-04-19 17:53,17:53,EDT,S  12  G 22,10.0,Fair,CLR,82.9,57.9,43.0,,83.0,30.06,1017.2,0.0,0.0,0.0,2025-04-22,4,2025,17,KCHO,0.0,0.0,0.0,0.0,12
2025-04-19,19,2025-04-19 18:53,18:53,EDT,SW  8,10.0,Fair,CLR,81.0,57.0,44.0,,81.0,30.07,1017.7,0.0,0.0,0.0,2025-04-22,4,2025,18,KCHO,0.0,0.0,0.0,0.0,8
2025-04-19,19,2025-04-19 19:53,19:53,EDT,S  8,10.0,Fair,CLR,77.0,57.9,52.0,,79.0,30.09,1018.2,0.0,0.0,0.0,2025-04-22,4,2025,19,KCHO,0.0,0.0,0.0,0.0,8
2025-04-19,19,2025-04-19 21:53,21:53,EDT,S  9,10.0,Fair,CLR,73.0,59.0,62.0,,,30.13,1019.6,0.0,0.0,0.0,2025-04-22,4,2025,21,KCHO,0.0,0.0,0.0,0.0,9
2025-04-19,19,2025-04-19 22:53,22:53,EDT,S  7,10.0,Fair,CLR,73.0,59.0,62.0,,,30.13,1019.6,0.0,0.0,0.0,2025-04-22,4,2025,22,KCHO,0.0,0.0,0.0,0.0,7
2025-04-19,19,2025-04-19 23:53,23:53,EDT,Calm,10.0,Fair,CLR,71.1,59.0,66.0,,,30.12,1019.4,0.0,0.0,0.0,2025-04-22,4,2025,23,KCHO,0.0,0.0,0.0,0.0,0
2025-04-20,20,2025-04-20 00:53,00:53,EDT,SW  6,10.0,Fair,CLR,70.0,59.0,68.0,,,30.13,1019.6,0.0,0.0,0.0,2025-04-23,4,2025,0,KCHO,0.0,0.0,0.0,0.0,6
2025-04-20,20,2025-04-20 01:53,01:53,EDT,SW  3,10.0,Fair,CLR,68.0,57.9,70.0,,,30.12,1019.4,0.0,0.0,0.0,2025-04-23,4,2025,1,KCHO,0.0,0.0,0.0,0.0,3
2025-04-20,20,2025-04-20 02:53,02:53,EDT,Calm,10.0,Fair,CLR,66.9,57.9,73.0,,,30.12,1019.1,0.0,0.0,0.0,2025-04-23,4,2025,2,KCHO,0.0,0.0,0.0,0.0,0
2025-04-20,20,2025-04-20 03:53,03:53,EDT,S  5,10.0,Fair,CLR,66.9,57.9,73.0,,,30.13,1019.4,0.0,0.0,0.0,2025-04-23,4,2025,3,KCHO,0.0,0.0,0.0,0.0,5
2025-04-20,20,2025-04-20 04:53,04:53,EDT,Calm,10.0,Fair,CLR,69.1,55.9,63.0,,,30.14,1019.9,0.0,0.0,0.0,2025-04-23,4,2025,4,KCHO,0.0,0.0,0.0,0.0,0
2025-04-20,20,2025-04-20 05:53,05:53,EDT,Calm,10.0,Fair,CLR,64.0,55.0,73.0,,,30.16,1020.7,0.0,0.0,0.0,2025-04-23,4,2025,5,KCHO,0.0,0.0,0.0,0.0,0
2025-04-20,20,2025-04-20 06:53,06:53,EDT,Calm,10.0,Fair,CLR,66.0,53.1,63.0,,,30.2,1021.9,0.0,0.0,0.0,2025-04-23,4,2025,6,KCHO,0.0,0.0,0.0,0.0,0
2025-04-20,20,2025-04-20 07:53,07:53,EDT,N  5,10.0,Fair,CLR,69.1,55.0,61.0,,,30.24,1023.2,0.0,0.0,0.0,2025-04-23,4,2025,7,KCHO,0.0,0.0,0.0,0.0,5
2025-04-20,20,2025-04-20 08:53,08:53,EDT,Calm,10.0,Fair,CLR,71.1,57.9,63.0,,,30.25,1023.6,0.0,0.0,0.0,2025-04-23,4,2025,8,KCHO,0.0,0.0,0.0,0.0,0
2025-04-20,20,2025-04-20 09:53,09:53,EDT,NE  7,10.0,Fair,CLR,75.0,59.0,58.0,,77.0,30.26,1023.9,0.0,0.0,0.0,2025-04-23,4,2025,9,KCHO,0.0,0.0,0.0,0.0,7
2025-04-20,20,2025-04-20 10:53,10:53,EDT,Vrbl  3,10.0,Fair,CLR,77.0,57.9,52.0,,79.0,30.26,1023.9,0.0,0.0,0.0,2025-04-23,4,2025,10,KCHO,0.0,0.0,0.0,0.0,3
2025-04-20,20,2025-04-20 11:53,11:53,EDT,Calm,10.0,Fair,CLR,79.0,57.0,47.0,,80.0,30.26,1024.0,0.0,0.0,0.0,2025-04-23,4,2025,11,KCHO,0.0,0.0,0.0,0.0,0
2025-04-20,20,2025-04-20 12:53,12:53,EDT,E  6,10.0,Fair,CLR,80.1,57.0,45.0,,80.0,30.25,1023.6,0.0,0.0,0.0,2025-04-23,4,2025,12,KCHO,0.0,0.0,0.0,0.0,6
2025-04-20,20,2025-04-20 13:53,13:53,EDT,Vrbl  5,10.0,Fair,CLR,82.0,57.9,44.0,,82.0,30.24,1023.2,0.0,0.0,0.0,2025-04-23,4,2025,13,KCHO,0.0,0.0,0.0,0.0,5
2025-04-20,20,2025-04-20 14:53,14:53,EDT,Vrbl  5,10.0,Fair,CLR,81.0,57.0,44.0,,81.0,30.23,1022.9,0.0,0.0,0.0,2025-04-23,4,2025,14,KCHO,0.0,0.0,0.0,0.0,5
2025-04-20,20,2025-04-20 15:53,15:53,EDT,Vrbl  6,9.0,Fair,CLR,82.9,57.0,41.0,,82.0,30.21,1022.2,0.0,0.0,0.0,2025-04-23,4,2025,15,KCHO,0.0,0.0,0.0,0.0,6
2025-04-20,20,2025-04-20 16:53,16:53,EDT,SE  3,10.0,Partly Cloudy,SCT070,82.0,55.9,41.0,,82.0,30.2,1022.0,0.0,0.0,0.0,2025-04-23,4,2025,16,KCHO,0.0,0.0,0.0,0.0,3
2025-04-20,20,2025-04-20 17:53,17:53,EDT,NE  9,10.0,Overcast,OVC060,79.0,57.9,49.0,,80.0,30.21,1022.5,0.0,0.0,0.0,2025-04-23,4,2025,17,KCHO,0.0,0.0,0.0,0.0,9
2025-04-20,20,2025-04-20 18:53,18:53,EDT,NE  15,10.0,A Few Clouds,FEW075,73.9,55.0,52.0,,,30.23,1023.0,0.0,0.0,0.0,2025-04-23,4,2025,18,KCHO,0.0,0.0,0.0,0.0,15
2025-04-20,20,2025-04-20 19:53,19:53,EDT,NE  12,10.0,Fair,CLR,71.1,53.1,53.0,,,30.25,1023.6,0.0,0.0,0.0,2025-04-23,4,2025,19,KCHO,0.0,0.0,0.0,0.0,12
2025-04-20,20,2025-04-20 20:53,20:53,EDT,NE  9,10.0,Partly Cloudy,SCT050,68.0,51.1,55.0,,,30.27,1024.3,0.0,0.0,0.0,2025-04-23,4,2025,20,KCHO,0.0,0.0,0.0,0.0,9
2025-04-20,20,2025-04-20 21:53,21:53,EDT,NE  9,10.0,Mostly Cloudy,BKN048,66.9,50.0,55.0,,,30.27,1024.6,0.0,0.0,0.0,2025-04-23,4,2025,21,KCHO,0.0,0.0,0.0,0.0,9
2025-04-20,20,2025-04-20 22:53,22:53,EDT,NE  8,10.0,Overcast,OVC043,68.0,48.9,51.0,,,30.27,1024.2,0.0,0.0,0.0,2025-04-23,4,2025,22,KCHO,0.0,0.0,0.0,0.0,8
2025-04-20,20,2025-04-20 23:53,23:53,EDT,NE  8,10.0,Overcast,OVC038,66.9,50.0,55.0,,,30.26,1023.9,0.0,0.0,0.0,2025-04-23,4,2025,23,KCHO,0.0,0.0,0.0,0.0,8
2025-04-21,21,2025-04-21 00:53,00:53,EDT,NE  7,10.0,Mostly Cloudy,SCT041 BKN055,64.0,50.0,60.0,,,30.25,1023.9,0.0,0.0,0.0,2025-04-24,4,2025,0,KCHO,0.0,0.0,0.0,0.0,7
2025-04-21,21,2025-04-21 01:53,01:53,EDT,NE  7,10.0,Overcast,OVC043,64.0,48.9,58.0,,,30.25,1023.6,0.0,0.0,0.0,2025-04-24,4,2025,1,KCHO,0.0,0.0,0.0,0.0,7
2025-04-21,21,2025-04-21 02:53,02:53,EDT,NE  8,10.0,Partly Cloudy,SCT042,62.1,48.0,60.0,,,30.22,1022.7,0.0,0.0,0.0,2025-04-24,4,2025,2,KCHO,0.0,0.0,0.0,0.0,8
2025-04-21,21,2025-04-21 03:53,03:53,EDT,NE  6,10.0,Partly Cloudy,SCT060,60.1,48.0,65.0,,,30.22,1022.7,0.0,0.0,0.0,2025-04-24,4,2025,3,KCHO,0.0,0.0,0.0,0.0,6
2025-04-21,21,2025-04-21 04:53,04:53,EDT,NE  8,10.0,Overcast,OVC030,59.0,50.0,72.0,,,30.21,1022.5,0.0,0.0,0.0,2025-04-24,4,2025,4,KCHO,0.0,0.0,0.0,0.0,8
2025-04-21,21,2025-04-21 05:53,05:53,EDT,NE  3,10.0,Overcast,OVC023,57.9,48.9,72.0,,,30.21,1022.5,0.0,0.0,0.0,2025-04-24,4,2025,5,KCHO,0.0,0.0,0.0,0.0,3
2025-04-21,21,2025-04-21 06:53,06:53,EDT,E  5,10.0,Overcast,OVC020,57.9,48.0,70.0,,,30.23,1023.0,0.0,0.0,0.0,2025-04-24,4,2025,6,KCHO,0.0,0.0,0.0,0.0,5
2025-04-21,21,2025-04-21 07:53,07:53,EDT,E  5,10.0,Overcast,OVC019,57.0,48.0,72.0,,,30.23,1023.4,0.0,0.0,0.0,2025-04-24,4,2025,7,KCHO,0.0,0.0,0.0,0.0,5
2025-04-21,21,2025-04-21 08:53,08:53,EDT,NE  5,10.0,Overcast,OVC017,57.9,48.0,70.0,,,30.22,1023.0,0.0,0.0,0.0,2025-04-24,4,2025,8,KCHO,0.0,0.0,0.0,0.0,5
2025-04-21,21,2025-04-21 09:53,09:53,EDT,Vrbl  3,10.0,Overcast,OVC017,57.9,50.0,75.0,,,30.21,1022.5,0.0,0.0,0.0,2025-04-24,4,2025,9,KCHO,0.0,0.0,0.0,0.0,3
2025-04-21,21,2025-04-21 10:53,10:53,EDT,SE  5,10.0,Overcast,BKN017 OVC023,61.0,51.1,70.0,,,30.18,1021.6,0.0,0.0,0.0,2025-04-24,4,2025,10,KCHO,0.0,0.0,0.0,0.0,5
2025-04-21,21,2025-04-21 11:53,11:53,EDT,SE  5,10.0,Overcast,OVC023,63.0,53.1,70.0,,,30.16,1020.8,0.0,0.0,0.0,2025-04-24,4,2025,11,KCHO,0.0,0.0,0.0,0.0,5
2025-04-21,21,2025-04-21 12:53,12:53,EDT,S  7,10.0,Mostly Cloudy,BKN023,68.0,55.9,65.0,,,30.12,1019.6,0.0,0.0,0.0,2025-04-24,4,2025,12,KCHO,0.0,0.0,0.0,0.0,7
2025-04-21,21,2025-04-21 13:53,13:53,EDT,S  10  G 17,10.0,Fair,CLR,71.1,57.0,61.0,,,30.08,1017.9,0.0,0.0,0.0,2025-04-24,4,2025,13,KCHO,0.0,0.0,0.0,0.0,10
2025-04-21,21,2025-04-21 15:53,15:53,EDT,S  10,10.0,A Few Clouds,FEW045,75.9,57.9,54.0,,78.0,30.02,1016.1,0.0,0.0,0.0,2025-04-24,4,2025,15,KCHO,0.0,0.0,0.0,0.0,10
2025-04-21,21,2025-04-21 16:53,16:53,EDT,S  12,10.0,Fair,CLR,75.9,59.0,56.0,,78.0,30.0,1015.4,0.0,0.0,0.0,2025-04-24,4,2025,16,KCHO,0.0,0.0,0.0,0.0,12
2025-04-21,21,2025-04-21 17:53,17:53,EDT,SE  9,10.0,Fair,CLR,78.1,61.0,56.0,,80.0,29.99,1015.0,0.0,0.0,0.0,2025-04-24,4,2025,17,KCHO,0.0,0.0,0.0,0.0,9
2025-04-21,21,2025-04-21 18:53,18:53,EDT,S  7,10.0,Fair,CLR,75.9,60.1,58.0,,78.0,29.98,1014.6,0.0,0.0,0.0,2025-04-24,4,2025,18,KCHO,0.0,0.0,0.0,0.0,7
2025-04-21,21,2025-04-21 19:53,19:53,EDT,S  9,10.0,Partly Cloudy,SCT085 SCT110,73.9,55.0,52.0,,,29.99,1014.9,0.0,0.0,0.0,2025-04-24,4,2025,19,KCHO,0.0,0.0,0.0,0.0,9
2025-04-21,21,2025-04-21 20:53,20:53,EDT,S  5,10.0,Partly Cloudy,FEW070 FEW085 SCT110,72.0,54.0,53.0,,,30.01,1015.6,0.0,0.0,0.0,2025-04-24,4,2025,20,KCHO,0.0,0.0,0.0,0.0,5
2025-04-21,21,2025-04-21 21:53,21:53,EDT,SW  8,10.0,Mostly Cloudy,FEW060 BKN110,71.1,54.0,55.0,,,30.0,1015.5,0.0,0.0,0.0,2025-04-24,4,2025,21,KCHO,0.0,0.0,0.0,0.0,8
2025-04-21,21,2025-04-21 22:53,22:53,EDT,Calm,10.0,Fair,CLR,70.0,57.0,64.0,,,30.01,1015.6,0.0,0.0,0.0,2025-04-24,4,2025,22,KCHO,0.0,0.0,0.0,0.0,0
2025-04-21,21,2025-04-21 23:53,23:53,EDT,Calm,10.0,Partly Cloudy,SCT100,66.9,57.0,71.0,,,30.0,1015.3,0.0,0.0,0.0,2025-04-24,4,2025,23,KCHO,0.0,0.0,0.0,0.0,0
2025-04-22,22,2025-04-22 00:53,00:53,EDT,SW  6,10.0,Mostly Cloudy,BKN070 BKN110,71.1,55.9,59.0,,,30.0,1015.1,0.0,0.0,0.0,2025-04-25,4,2025,0,KCHO,0.0,0.0,0.0,0.0,6
2025-04-22,22,2025-04-22 01:53,01:53,EDT,SW  6,10.0,Overcast,OVC090,72.0,55.9,57.0,,,29.99,1015.0,0.0,0.0,0.0,2025-04-25,4,2025,1,KCHO,0.0,0.0,0.0,0.0,6
2025-04-22,22,2025-04-22 02:53,02:53,EDT,SW  7,10.0,Mostly Cloudy,BKN100,72.0,55.0,55.0,,,29.99,1014.7,0.0,0.0,0.0,2025-04-25,4,2025,2,KCHO,0.0,0.0,0.0,0.0,7
2025-04-22,22,2025-04-22 03:53,03:53,EDT,Calm,10.0,Mostly Cloudy,BKN085,70.0,55.0,59.0,,,29.98,1014.6,0.0,0.0,0.0,2025-04-25,4,2025,3,KCHO,0.0,0.0,0.0,0.0,0
2025-04-22,22,2025-04-22 04:53,04:53,EDT,Calm,10.0,Partly Cloudy,SCT100,69.1,55.0,61.0,,,29.99,1014.9,0.0,0.0,0.0,2025-04-25,4,2025,4,KCHO,0.0,0.0,0.0,0.0,0
2025-04-22,22,2025-04-22 05:53,05:53,EDT,Vrbl  3,10.0,Mostly Cloudy,BKN100,69.1,55.0,61.0,,,29.99,1014.9,0.0,0.0,0.0,2025-04-25,4,2025,5,KCHO,0.0,0.0,0.0,0.0,3
2025-04-22,22,2025-04-22 06:53,06:53,EDT,Calm,10.0,Fair,CLR,66.0,55.0,68.0,,,30.02,1016.0,0.0,0.0,0.0,2025-04-25,4,2025,6,KCHO,0.0,0.0,0.0,0.0,0
2025-04-22,22,2025-04-22 07:53,07:53,EDT,Calm,10.0,Fair,CLR,66.9,55.9,68.0,,,30.03,1016.3,0.0,0.0,0.0,2025-04-25,4,2025,7,KCHO,0.0,0.0,0.0,0.0,0
2025-04-22,22,2025-04-22 08:53,08:53,EDT,S  6,10.0,Fair,CLR,71.1,55.9,59.0,,,30.03,1016.2,0.0,0.0,0.0,2025-04-25,4,2025,8,KCHO,0.0,0.0,0.0,0.0,6
2025-04-22,22,2025-04-22 09:53,09:53,EDT,SW  7,10.0,Fair,CLR,73.9,55.9,54.0,,,30.03,1016.3,0.0,0.0,0.0,2025-04-25,4,2025,9,KCHO,0.0,0.0,0.0,0.0,7
2025-04-22,22,2025-04-22 10:53,10:53,EDT,S  6,10.0,Fair,CLR,75.0,55.0,50.0,,78.0,30.04,1016.4,0.0,0.0,0.0,2025-04-25,4,2025,10,KCHO,0.0,0.0,0.0,0.0,6
2025-04-22,22,2025-04-22 11:53,11:53,EDT,S  8,10.0,A Few Clouds,FEW060,78.1,52.0,40.0,,79.0,30.03,1016.2,0.0,0.0,0.0,2025-04-25,4,2025,11,KCHO,0.0,0.0,0.0,0.0,8
2025-04-22,22,2025-04-22 12:53,12:53,EDT,Calm,10.0,Fair,CLR,79.0,50.0,36.0,,79.0,30.02,1015.7,0.0,0.0,0.0,2025-04-25,4,2025,12,KCHO,0.0,0.0,0.0,0.0,0
2025-04-22,22,2025-04-22 13:53,13:53,EDT,W  8,10.0,Fair,CLR,81.0,48.9,33.0,,80.0,30.01,1015.5,0.0,0.0,0.0,2025-04-25,4,2025,13,KCHO,0.0,0.0,0.0,0.0,8
2025-04-22,22,2025-04-22 14:53,14:53,EDT,Calm,10.0,A Few Clouds,FEW070,81.0,51.1,35.0,,80.0,30.0,1015.2,0.0,0.0,0.0,2025-04-25,4,2025,14,KCHO,0.0,0.0,0.0,0.0,0
2025-04-22,22,2025-04-22 15:53,15:53,EDT,S  8,10.0,Partly Cloudy,SCT080,81.0,48.9,33.0,,80.0,30.0,1015.1,0.0,0.0,0.0,2025-04-25,4,2025,15,KCHO,0.0,0.0,0.0,0.0,8
2025-04-22,22,2025-04-22 16:53,16:53,EDT,SW  3,10.0,Fair,CLR,81.0,46.9,30.0,,80.0,29.99,1014.7,0.0,0.0,0.0,2025-04-25,4,2025,16,KCHO,0.0,0.0,0.0,0.0,3
2025-04-22,22,2025-04-22 17:53,17:53,EDT,Calm,10.0,Partly Cloudy,SCT085,80.1,48.9,34.0,,79.0,29.99,1014.9,0.0,0.0,0.0,2025-04-25,4,2025,17,KCHO,0.0,0.0,0.0,0.0,0
2025-04-22,22,2025-04-22 18:53,18:53,EDT,N  3,10.0,A Few Clouds,FEW080,78.1,50.0,37.0,,79.0,30.0,1015.1,0.0,0.0,0.0,2025-04-25,4,2025,18,KCHO,0.0,0.0,0.0,0.0,3
2025-04-22,22,2025-04-22 19:53,19:53,EDT,N  5,10.0,Fair,CLR,73.9,48.0,40.0,,,30.02,1015.8,0.0,0.0,0.0,2025-04-25,4,2025,19,KCHO,0.0,0.0,0.0,0.0,5
2025-04-22,22,2025-04-22 20:53,20:53,EDT,NE  8,10.0,Mostly Cloudy,BKN080,72.0,45.0,38.0,,,30.04,1016.7,0.0,0.0,0.0,2025-04-25,4,2025,20,KCHO,0.0,0.0,0.0,0.0,8
2025-04-22,22,2025-04-22 21:53,21:53,EDT,NE  6,10.0,Fair,CLR,70.0,44.1,39.0,,,30.07,1017.5,0.0,0.0,0.0,2025-04-25,4,2025,21,KCHO,0.0,0.0,0.0,0.0,6
2025-04-22,22,2025-04-22 22:53,22:53,EDT,NE  3,10.0,Fair,CLR,66.0,44.1,45.0,,,30.08,1017.9,0.0,0.0,0.0,2025-04-25,4,2025,22,KCHO,0.0,0.0,0.0,0.0,3
2025-04-22,22,2025-04-22 23:53,23:53,EDT,N  6,10.0,Fair,CLR,63.0,44.1,50.0,,,30.09,1018.4,0.0,0.0,0.0,2025-04-25,4,2025,23,KCHO,0.0,0.0,0.0,0.0,6
2025-04-23,23,2025-04-23 00:53,00:53,EDT,NE  7,10.0,Fair,CLR,63.0,41.0,45.0,,,30.11,1019.0,0.0,0.0,0.0,2025-04-26,4,2025,0,KCHO,0.0,0.0,0.0,0.0,7
2025-04-23,23,2025-04-23 01:53,01:53,EDT,Calm,10.0,Fair,CLR,61.0,41.0,48.0,,,30.12,1019.3,0.0,0.0,0.0,2025-04-26,4,2025,1,KCHO,0.0,0.0,0.0,0.0,0
2025-04-23,23,2025-04-23 02:53,02:53,EDT,Calm,10.0,Fair,CLR,59.0,39.9,49.0,,,30.12,1019.4,0.0,0.0,0.0,2025-04-26,4,2025,2,KCHO,0.0,0.0,0.0,0.0,0
2025-04-23,23,2025-04-23 03:53,03:53,EDT,Calm,10.0,Fair,CLR,55.9,39.9,55.0,,,30.14,1019.9,0.0,0.0,0.0,2025-04-26,4,2025,3,KCHO,0.0,0.0,0.0,0.0,0
2025-04-23,23,2025-04-23 04:53,04:53,EDT,Calm,10.0,Fair,CLR,51.1,42.1,71.0,,,30.16,1020.6,0.0,0.0,0.0,2025-04-26,4,2025,4,KCHO,0.0,0.0,0.0,0.0,0
2025-04-23,23,2025-04-23 05:53,05:53,EDT,Calm,10.0,Fair,CLR,50.0,43.0,77.0,,,30.17,1021.1,0.0,0.0,0.0,2025-04-26,4,2025,5,KCHO,0.0,0.0,0.0,0.0,0
2025-04-23,23,2025-04-23 06:53,06:53,EDT,Calm,10.0,Fair,CLR,48.9,42.1,77.0,,,30.2,1022.2,0.0,0.0,0.0,2025-04-26,4,2025,6,KCHO,0.0,0.0,0.0,0.0,0
2025-04-23,23,2025-04-23 07:53,07:53,EDT,Calm,10.0,Fair,CLR,53.1,46.0,77.0,,,30.24,1023.5,0.0,0.0,0.0,2025-04-26,4,2025,7,KCHO,0.0,0.0,0.0,0.0,0
2025-04-23,23,2025-04-23 08:53,08:53,EDT,NE  5,10.0,Fair,CLR,60.1,44.1,56.0,,,30.26,1024.0,0.0,0.0,0.0,2025-04-26,4,2025,8,KCHO,0.0,0.0,0.0,0.0,5
2025-04-23,23,2025-04-23 09:53,09:53,EDT,NE  8,10.0,Fair,CLR,66.0,42.1,42.0,,,30.26,1024.2,0.0,0.0,0.0,2025-04-26,4,2025,9,KCHO,0.0,0.0,0.0,0.0,8
2025-04-23,23,2025-04-23 10:53,10:53,EDT,NE  10,10.0,Fair,CLR,69.1,37.0,31.0,,,30.26,1024.2,0.0,0.0,0.0,2025-04-26,4,2025,10,KCHO,0.0,0.0,0.0,0.0,10
2025-04-23,23,2025-04-23 11:53,11:53,EDT,Vrbl  7,10.0,Fair,CLR,70.0,37.9,31.0,,,30.25,1023.9,0.0,0.0,0.0,2025-04-26,4,2025,11,KCHO,0.0,0.0,0.0,0.0,7
2025-04-23,23,2025-04-23 12:53,12:53,EDT,Calm,10.0,Fair,CLR,72.0,39.0,30.0,,,30.24,1023.6,0.0,0.0,0.0,2025-04-26,4,2025,12,KCHO,0.0,0.0,0.0,0.0,0
2025-04-23,23,2025-04-23 13:53,13:53,EDT,Vrbl  3,10.0,Fair,CLR,73.0,39.9,30.0,,,30.23,1023.3,0.0,0.0,0.0,2025-04-26,4,2025,13,KCHO,0.0,0.0,0.0,0.0,3
2025-04-23,23,2025-04-23 15:53,15:53,EDT,Vrbl  3,10.0,Fair,CLR,75.9,37.9,25.0,,77.0,30.2,1022.1,0.0,0.0,0.0,2025-04-26,4,2025,15,KCHO,0.0,0.0,0.0,0.0,3
2025-04-23,23,2025-04-23 16:53,16:53,EDT,Vrbl  5,10.0,Fair,CLR,75.9,37.9,25.0,,77.0,30.18,1021.7,0.0,0.0,0.0,2025-04-26,4,2025,16,KCHO,0.0,0.0,0.0,0.0,5
2025-04-23,23,2025-04-23 17:53,17:53,EDT,S  5,10.0,Fair,CLR,77.0,39.9,26.0,,77.0,30.18,1021.6,0.0,0.0,0.0,2025-04-26,4,2025,17,KCHO,0.0,0.0,0.0,0.0,5
2025-04-23,23,2025-04-23 18:53,18:53,EDT,SE  3,10.0,Fair,CLR,75.0,39.9,28.0,,77.0,30.19,1021.8,0.0,0.0,0.0,2025-04-26,4,2025,18,KCHO,0.0,0.0,0.0,0.0,3
2025-04-23,23,2025-04-23 19:53,19:53,EDT,SE  3,10.0,Fair,CLR,71.1,39.9,32.0,,,30.19,1022.0,0.0,0.0,0.0,2025-04-26,4,2025,19,KCHO,0.0,0.0,0.0,0.0,3
2025-04-23,23,2025-04-23 20:53,20:53,EDT,SE  3,10.0,Fair,CLR,69.1,39.0,33.0,,,30.22,1022.8,0.0,0.0,0.0,2025-04-26,4,2025,20,KCHO,0.0,0.0,0.0,0.0,3
2025-04-23,23,2025-04-23 21:53,21:53,EDT,Calm,10.0,Fair,CLR,66.0,37.9,36.0,,,30.24,1023.5,0.0,0.0,0.0,2025-04-26,4,2025,21,KCHO,0.0,0.0,0.0,0.0,0
2025-04-23,23,2025-04-23 22:53,22:53,EDT,SE  3,10.0,Fair,CLR,62.1,41.0,46.0,,,30.25,1023.8,0.0,0.0,0.0,2025-04-26,4,2025,22,KCHO,0.0,0.0,0.0,0.0,3
2025-04-23,23,2025-04-23 23:53,23:53,EDT,Calm,10.0,Fair,CLR,57.0,42.1,58.0,,,30.26,1024.4,0.0,0.0,0.0,2025-04-27,4,2025,23,KCHO,0.0,0.0,0.0,0.0,0
2025-04-24,24,2025-04-24 00:53,00:53,EDT,Calm,10.0,Fair,CLR,57.9,45.0,62.0,,,30.27,1024.5,0.0,0.0,0.0,2025-04-27,4,2025,0,KCHO,0.0,0.0,0.0,0.0,0
2025-04-24,24,2025-04-24 01:53,01:53,EDT,Calm,10.0,Fair,CLR,59.0,46.0,62.0,,,30.26,1024.3,0.0,0.0,0.0,2025-04-27,4,2025,1,KCHO,0.0,0.0,0.0,0.0,0
2025-04-24,24,2025-04-24 02:53,02:53,EDT,Calm,10.0,Fair,CLR,52.0,46.0,80.0,,,30.26,1024.2,0.0,0.0,0.0,2025-04-27,4,2025,2,KCHO,0.0,0.0,0.0,0.0,0
2025-04-24,24,2025-04-24 03:53,03:53,EDT,W  3,10.0,Fair,CLR,51.1,46.0,83.0,,,30.24,1023.8,0.0,0.0,0.0,2025-04-27,4,2025,3,KCHO,0.0,0.0,0.0,0.0,3
2025-04-24,24,2025-04-24 04:53,04:53,EDT,W  3,10.0,Fair,CLR,48.9,45.0,86.0,,,30.25,1023.9,0.0,0.0,0.0,2025-04-27,4,2025,4,KCHO,0.0,0.0,0.0,0.0,3
2025-04-24,24,2025-04-24 05:53,05:53,EDT,Calm,10.0,Fair,CLR,50.0,45.0,83.0,,,30.26,1024.3,0.0,0.0,0.0,2025-04-27,4,2025,5,KCHO,0.0,0.0,0.0,0.0,0
2025-04-24,24,2025-04-24 06:53,06:53,EDT,Calm,10.0,Fair,CLR,48.9,45.0,86.0,,,30.29,1025.2,0.0,0.0,0.0,2025-04-27,4,2025,6,KCHO,0.0,0.0,0.0,0.0,0
2025-04-24,24,2025-04-24 08:53,08:53,EDT,S  5,10.0,Fair,CLR,60.1,50.0,70.0,,,30.31,1025.9,0.0,0.0,0.0,2025-04-27,4,2025,8,KCHO,0.0,0.0,0.0,0.0,5
2025-04-24,24,2025-04-24 09:53,09:53,EDT,Vrbl  3,10.0,Fair,CLR,64.9,50.0,59.0,,,30.31,1025.8,0.0,0.0,0.0,2025-04-27,4,2025,9,KCHO,0.0,0.0,0.0,0.0,3
2025-04-24,24,2025-04-24 10:53,10:53,EDT,S  8,10.0,Fair,CLR,69.1,44.1,41.0,,,30.31,1025.7,0.0,0.0,0.0,2025-04-27,4,2025,10,KCHO,0.0,0.0,0.0,0.0,8
2025-04-24,24,2025-04-24 11:53,11:53,EDT,SE  7,10.0,Fair,CLR,72.0,48.0,43.0,,,30.3,1025.5,0.0,0.0,0.0,2025-04-27,4,2025,11,KCHO,0.0,0.0,0.0,0.0,7
2025-04-24,24,2025-04-24 12:53,12:53,EDT,S  7,10.0,Fair,CLR,72.0,44.1,37.0,,,30.29,1025.2,0.0,0.0,0.0,2025-04-27,4,2025,12,KCHO,0.0,0.0,0.0,0.0,7
2025-04-24,24,2025-04-24 13:53,13:53,EDT,S  9,10.0,Fair,CLR,75.0,43.0,32.0,,77.0,30.28,1024.7,0.0,0.0,0.0,2025-04-27,4,2025,13,KCHO,0.0,0.0,0.0,0.0,9
2025-04-24,24,2025-04-24 14:53,14:53,EDT,S  9,10.0,Fair,CLR,75.9,42.1,30.0,,77.0,30.25,1024.0,0.0,0.0,0.0,2025-04-27,4,2025,14,KCHO,0.0,0.0,0.0,0.0,9
2025-04-24,24,2025-04-24 15:53,15:53,EDT,Vrbl  3,10.0,Fair,CLR,77.0,41.0,28.0,,78.0,30.23,1023.2,0.0,0.0,0.0,2025-04-27,4,2025,15,KCHO,0.0,0.0,0.0,0.0,3
2025-04-24,24,2025-04-24 16:53,16:53,EDT,E  6,10.0,Fair,CLR,75.9,39.0,26.0,,77.0,30.22,1022.9,0.0,0.0,0.0,2025-04-27,4,2025,16,KCHO,0.0,0.0,0.0,0.0,6
2025-04-24,24,2025-04-24 17:53,17:53,EDT,SE  7,10.0,Fair,CLR,77.0,41.0,28.0,,78.0,30.22,1022.9,0.0,0.0,0.0,2025-04-27,4,2025,17,KCHO,0.0,0.0,0.0,0.0,7
2025-04-24,24,2025-04-24 18:53,18:53,EDT,SE  8,10.0,Fair,CLR,75.9,41.0,29.0,,77.0,30.22,1022.8,0.0,0.0,0.0,2025-04-27,4,2025,18,KCHO,0.0,0.0,0.0,0.0,8
2025-04-24,24,2025-04-24 19:53,19:53,EDT,E  5,10.0,Fair,CLR,72.0,42.1,34.0,,,30.22,1023.1,0.0,0.0,0.0,2025-04-27,4,2025,19,KCHO,0.0,0.0,0.0,0.0,5
2025-04-24,24,2025-04-24 20:53,20:53,EDT,Calm,10.0,Fair,CLR,68.0,42.1,39.0,,,30.24,1023.6,0.0,0.0,0.0,2025-04-27,4,2025,20,KCHO,0.0,0.0,0.0,0.0,0
2025-04-24,24,2025-04-24 21:53,21:53,EDT,Calm,10.0,Fair,CLR,63.0,41.0,45.0,,,30.25,1024.1,0.0,0.0,0.0,2025-04-27,4,2025,21,KCHO,0.0,0.0,0.0,0.0,0
2025-04-24,24,2025-04-24 22:53,22:53,EDT,Calm,10.0,Fair,CLR,62.1,42.1,48.0,,,30.26,1024.1,0.0,0.0,0.0,2025-04-27,4,2025,22,KCHO,0.0,0.0,0.0,0.0,0
2025-04-24,24,2025-04-24 23:53,23:53,EDT,Calm,10.0,Fair,CLR,59.0,44.1,58.0,,,30.26,1024.2,0.0,0.0,0.0,2025-04-27,4,2025,23,KCHO,0.0,0.0,0.0,0.0,0
2025-04-25,25,2025-04-25 00:53,00:53,EDT,SW  6,10.0,Fair,CLR,59.0,44.1,58.0,,,30.25,1023.8,0.0,0.0,0.0,2025-04-28,4,2025,0,KCHO,0.0,0.0,0.0,0.0,6
2025-04-25,25,2025-04-25 01:53,01:53,EDT,Calm,10.0,Fair,CLR,57.9,45.0,62.0,,,30.24,1023.6,0.0,0.0,0.0,2025-04-28,4,2025,1,KCHO,0.0,0.0,0.0,0.0,0
2025-04-25,25,2025-04-25 02:53,02:53,EDT,Calm,10.0,Fair,CLR,54.0,45.0,72.0,,,30.23,1023.1,0.0,0.0,0.0,2025-04-28,4,2025,2,KCHO,0.0,0.0,0.0,0.0,0
2025-04-25,25,2025-04-25 03:53,03:53,EDT,Calm,10.0,Fair,CLR,55.9,45.0,67.0,,,30.21,1022.6,0.0,0.0,0.0,2025-04-28,4,2025,3,KCHO,0.0,0.0,0.0,0.0,0
2025-04-25,25,2025-04-25 04:53,04:53,EDT,Calm,10.0,Overcast,OVC014,53.1,46.9,80.0,,,30.22,1022.8,0.0,0.0,0.0,2025-04-28,4,2025,4,KCHO,0.0,0.0,0.0,0.0,0
2025-04-25,25,2025-04-25 05:53,05:53,EDT,Calm,10.0,Mostly Cloudy,BKN014,54.0,48.0,80.0,,,30.21,1022.4,0.0,0.0,0.0,2025-04-28,4,2025,5,KCHO,0.0,0.0,0.0,0.0,0
2025-04-25,25,2025-04-25 06:53,06:53,EDT,Calm,10.0,Overcast,OVC014,55.0,48.9,80.0,,,30.23,1023.0,0.0,0.0,0.0,2025-04-28,4,2025,6,KCHO,0.0,0.0,0.0,0.0,0
2025-04-25,25,2025-04-25 07:53,07:53,EDT,Calm,10.0,Overcast,OVC013,57.0,48.9,74.0,,,30.23,1023.0,0.0,0.0,0.0,2025-04-28,4,2025,7,KCHO,0.0,0.0,0.0,0.0,0
2025-04-25,25,2025-04-25 08:53,08:53,EDT,Calm,10.0,Overcast,SCT012 OVC120,61.0,52.0,72.0,,,30.22,1022.9,0.0,0.0,0.0,2025-04-28,4,2025,8,KCHO,0.0,0.0,0.0,0.0,0
2025-04-25,25,2025-04-25 09:53,09:53,EDT,Calm,10.0,Overcast,SCT070 OVC120,62.1,54.0,75.0,,,30.22,1023.0,0.0,0.0,0.0,2025-04-28,4,2025,9,KCHO,0.0,0.0,0.0,0.0,0
2025-04-25,25,2025-04-25 10:53,10:53,EDT,Calm,10.0,Overcast,BKN050 OVC070,64.9,55.9,73.0,,,30.21,1022.7,0.0,0.0,0.0,2025-04-28,4,2025,10,KCHO,0.0,0.0,0.0,0.0,0
2025-04-25,25,2025-04-25 11:53,11:53,EDT,Vrbl  3,10.0,Overcast,SCT048 OVC065,69.1,57.9,68.0,,,30.19,1021.9,0.0,0.0,0.0,2025-04-28,4,2025,11,KCHO,0.0,0.0,0.0,0.0,3
2025-04-25,25,2025-04-25 12:53,12:53,EDT,S  6,10.0,Partly Cloudy,SCT043,73.0,60.1,64.0,,,30.16,1020.9,0.0,0.0,0.0,2025-04-28,4,2025,12,KCHO,0.0,0.0,0.0,0.0,6
2025-04-25,25,2025-04-25 13:53,13:53,EDT,S  9,10.0,Mostly Cloudy,FEW037 SCT048 BKN070,73.0,59.0,62.0,,,30.14,1020.3,0.0,0.0,0.0,2025-04-28,4,2025,13,KCHO,0.0,0.0,0.0,0.0,9
2025-04-25,25,2025-04-25 14:53,14:53,EDT,S  13  G 18,10.0,Mostly Cloudy,BKN055,75.0,60.1,60.0,,77.0,30.11,1019.1,0.0,0.0,0.0,2025-04-28,4,2025,14,KCHO,0.0,0.0,0.0,0.0,13
2025-04-25,25,2025-04-25 15:53,15:53,EDT,S  10,10.0,Overcast,BKN034 OVC045,75.9,61.0,60.0,,78.0,30.08,1017.9,0.0,0.0,0.0,2025-04-28,4,2025,15,KCHO,0.0,0.0,0.0,0.0,10
2025-04-25,25,2025-04-25 16:53,16:53,EDT,S  12,10.0,A Few Clouds,FEW034 FEW044,75.0,60.1,60.0,,77.0,30.05,1017.3,0.0,0.0,0.0,2025-04-28,4,2025,16,KCHO,0.0,0.0,0.0,0.0,12
2025-04-25,25,2025-04-25 17:53,17:53,EDT,S  14  G 22,10.0,Mostly Cloudy,BKN046 BKN060,75.0,61.0,62.0,,77.0,30.04,1016.8,0.0,0.0,0.0,2025-04-28,4,2025,17,KCHO,0.0,0.0,0.0,0.0,14
2025-04-25,25,2025-04-25 18:53,18:53,EDT,S  9,10.0,Partly Cloudy,FEW041 FEW050 SCT070,70.0,61.0,73.0,,,30.05,1017.0,0.0,0.0,0.0,2025-04-28,4,2025,18,KCHO,0.0,0.0,0.0,0.0,9
2025-04-25,25,2025-04-25 19:53,19:53,EDT,S  7,10.0,Mostly Cloudy,FEW065 BKN090 BKN100,68.0,63.0,84.0,,,30.04,1016.9,0.01,0.0,0.01,2025-04-28,4,2025,19,KCHO,0.010000000000000007,0.01,0.01,0.010000000000000111,7
2025-04-25,25,2025-04-25 20:53,20:53,EDT,S  8,10.0,Partly Cloudy,SCT049 SCT110,68.0,63.0,84.0,,,30.04,1016.6,0.0,0.0,0.0,2025-04-28,4,2025,20,KCHO,0.010000000000000007,0.01,0.01,0.010000000000000111,8
2025-04-25,25,2025-04-25 21:53,21:53,EDT,S  8,6.0,Light Rain Fog/Mist,FEW050 BKN100 OVC120,66.9,64.0,91.0,,,30.04,1016.6,0.02,0.0,0.0,2025-04-28,4,2025,21,KCHO,0.030000000000000006,0.03,0.03,0.03000000000000011,8
2025-04-25,25,2025-04-25 22:53,22:53,EDT,S  9,4.0,Light Rain Fog/Mist,BKN017 BKN030 OVC070,66.9,64.9,93.0,,,30.03,1016.2,0.06,0.08,0.0,2025-04-28,4,2025,22,KCHO,0.08,0.09,0.09,0.09000000000000011,9
2025-04-25,25,2025-04-25 23:53,23:53,EDT,S  8,7.0,Light Rain,FEW080 OVC100,66.0,64.9,96.0,,,30.0,1015.5,0.03,0.0,0.0,2025-04-28,4,2025,23,KCHO,0.11,0.12,0.12,0.1200000000000001,8
2025-04-26,26,2025-04-26 01:53,01:53,EDT,S  9,8.0,Overcast,BKN070 OVC085,66.0,64.0,93.0,,,29.98,1014.4,0.0,0.0,0.11,2025-04-29,4,2025,1,KCHO,0.09,0.12,0.12,0.1200000000000001,9
2025-04-26,26,2025-04-26 02:53,02:53,EDT,S  10,8.0,Overcast,OVC100,64.9,63.0,93.0,,,29.94,1013.3,0.0,0.0,0.0,2025-04-29,4,2025,2,KCHO,0.030000000000000006,0.11,0.12,0.1200000000000001,10
2025-04-26,26,2025-04-26 03:53,03:53,EDT,SW  8,10.0,Overcast,OVC110,64.0,62.1,93.0,,,29.93,1012.8,0.0,0.0,0.0,2025-04-29,4,2025,3,KCHO,0.0,0.11,0.12,0.1200000000000001,8
2025-04-26,26,2025-04-26 04:53,04:53,EDT,S  6,9.0,Mostly Cloudy,BKN100,64.0,62.1,93.0,,,29.91,1012.3,0.0,0.0,0.0,2025-04-29,4,2025,4,KCHO,0.0,0.09,0.12,0.1200000000000001,6
2025-04-26,26,2025-04-26 05:53,05:53,EDT,S  7,9.0,Overcast,BKN090 OVC110,64.0,62.1,93.0,,,29.91,1012.1,0.0,0.0,0.0,2025-04-29,4,2025,5,KCHO,0.0,0.03,0.12,0.1200000000000001,7
2025-04-26,26,2025-04-26 06:53,06:53,EDT,SW  6,8.0,Mostly Cloudy,SCT100 BKN120,64.0,62.1,93.0,,,29.91,1012.3,0.01,0.0,0.0,2025-04-29,4,2025,6,KCHO,0.010000000000000007,0.01,0.13,0.13000000000000012,6
2025-04-26,26,2025-04-26 07:53,07:53,EDT,S  8,6.0,Light Rain Fog/Mist,OVC110,64.0,62.1,93.0,,,29.92,1012.6,0.0,0.0,0.01,2025-04-29,4,2025,7,KCHO,0.010000000000000007,0.01,0.13,0.13000000000000012,8
2025-04-26,26,2025-04-26 08:53,08:53,EDT,SW  5,5.0,Light Rain Fog/Mist,OVC100,64.9,63.0,93.0,,,29.91,1012.2,0.02,0.0,0.0,2025-04-29,4,2025,8,KCHO,0.030000000000000006,0.03,0.14,0.1500000000000001,5
2025-04-26,26,2025-04-26 09:53,09:53,EDT,S  9,5.0,Light Rain Fog/Mist,BKN080 OVC095,64.9,63.0,93.0,,,29.9,1011.9,0.01,0.0,0.0,2025-04-29,4,2025,9,KCHO,0.030000000000000006,0.04,0.15,0.16000000000000011,9
2025-04-26,26,2025-04-26 10:53,10:53,EDT,S  12,9.0,Overcast,BKN005 OVC100,66.0,64.0,93.0,,,29.9,1012.1,0.02,0.05,0.0,2025-04-29,4,2025,10,KCHO,0.05000000000000001,0.060000000000000005,0.15000000000000002,0.1800000000000001,12
2025-04-26,26,2025-04-26 11:53,11:53,EDT,S  10,10.0,Overcast,OVC110,71.1,66.0,84.0,,,29.9,1011.9,0.0,0.0,0.0,2025-04-29,4,2025,11,KCHO,0.030000000000000013,0.060000000000000005,0.09,0.1800000000000001,10
2025-04-26,26,2025-04-26 12:53,12:53,EDT,S  9  G 17,10.0,Partly Cloudy,FEW040 SCT050 SCT075,77.0,64.0,64.0,,79.0,29.88,1011.2,0.0,0.0,0.0,2025-04-29,4,2025,12,KCHO,0.02000000000000001,0.05,0.06,0.1800000000000001,9
2025-04-26,26,2025-04-26 13:53,13:53,EDT,NW  9  G 17,10.0,Mostly Cloudy,BKN047 BKN060,75.9,60.1,58.0,,78.0,29.87,1011.0,0.0,0.0,0.05,2025-04-29,4,2025,13,KCHO,0.0,0.05,0.06,0.1800000000000001,9
2025-04-26,26,2025-04-26 14:53,14:53,EDT,W  8  G 23,10.0,Fair,CLR,80.1,55.0,42.0,,80.0,29.85,1010.2,0.0,0.0,0.0,2025-04-29,4,2025,14,KCHO,0.0,0.030000000000000006,0.06,0.1800000000000001,8
2025-04-26,26,2025-04-26 15:53,15:53,EDT,W  9  G 21,10.0,Mostly Cloudy,FEW070 BKN095,81.0,54.0,39.0,,81.0,29.86,1010.4,0.0,0.0,0.0,2025-04-29,4,2025,15,KCHO,0.0,0.020000000000000004,0.06,0.1800000000000001,9
2025-04-26,26,2025-04-26 16:53,16:53,EDT,Vrbl  6,10.0,Overcast,OVC100,80.1,54.0,41.0,,80.0,29.86,1010.5,0.0,0.0,0.0,2025-04-29,4,2025,16,KCHO,0.0,0.0,0.06,0.1800000000000001,6
2025-04-26,26,2025-04-26 17:53,17:53,EDT,W  10  G 17,10.0,Mostly Cloudy,BKN100,78.1,54.0,43.0,,79.0,29.88,1011.2,0.0,0.0,0.0,2025-04-29,4,2025,17,KCHO,0.0,0.0,0.06,0.1800000000000001,10
2025-04-26,26,2025-04-26 18:53,18:53,EDT,NW  10  G 23,10.0,Fair,CLR,73.9,51.1,45.0,,,29.92,1012.6,0.0,0.0,0.0,2025-04-29,4,2025,18,KCHO,0.0,0.0,0.049999999999999996,0.1800000000000001,10
2025-04-26,26,2025-04-26 19:53,19:53,EDT,NW  8  G 21,10.0,Fair,CLR,68.0,46.9,47.0,,,29.97,1014.4,0.0,0.0,0.0,2025-04-29,4,2025,19,KCHO,0.0,0.0,0.049999999999999996,0.1800000000000001,8
2025-04-26,26,2025-04-26 20:53,20:53,EDT,N  7,10.0,Fair,CLR,63.0,46.9,56.0,,,30.02,1016.3,0.0,0.0,0.0,2025-04-29,4,2025,20,KCHO,0.0,0.0,0.03,0.1700000000000001,7
2025-04-26,26,2025-04-26 21:53,21:53,EDT,Vrbl  3,10.0,Partly Cloudy,SCT046 SCT055,60.1,45.0,58.0,,,30.07,1017.9,0.0,0.0,0.0,2025-04-29,4,2025,21,KCHO,0.0,0.0,0.019999999999999997,0.1700000000000001,3
2025-04-26,26,2025-04-26 22:53,22:53,EDT,NW  12  G 22,10.0,Fair,CLR,57.9,39.9,51.0,,,30.09,1018.5,0.0,0.0,0.0,2025-04-29,4,2025,22,KCHO,0.0,0.0,0.0,0.1500000000000001,12
2025-04-26,26,2025-04-26 23:53,23:53,EDT,Vrbl  7,10.0,Fair,CLR,55.9,36.0,47.0,,,30.11,1019.2,0.0,0.0,0.0,2025-04-29,4,2025,23,KCHO,0.0,0.0,0.0,0.09000000000000011,7
2025-04-27,27,2025-04-27 00:53,00:53,EDT,Calm,10.0,Fair,CLR,54.0,34.0,47.0,,,30.13,1019.6,0.0,0.0,0.0,2025-04-30,4,2025,0,KCHO,0.0,0.0,0.0,0.06000000000000011,0
2025-04-27,27,2025-04-27 01:53,01:53,EDT,N  5,10.0,Fair,CLR,51.1,34.0,52.0,,,30.12,1019.4,0.0,0.0,0.0,2025-04-30,4,2025,1,KCHO,0.0,0.0,0.0,0.06000000000000011,5
2025-04-27,27,2025-04-27 02:53,02:53,EDT,NW  7,10.0,Fair,CLR,51.1,35.1,54.0,,,30.12,1019.3,0.0,0.0,0.0,2025-04-30,4,2025,2,KCHO,0.0,0.0,0.0,0.06000000000000011,7
2025-04-27,27,2025-04-27 03:53,03:53,EDT,Vrbl  5,10.0,Fair,CLR,50.0,34.0,54.0,49.0,,30.12,1019.5,0.0,0.0,0.0,2025-04-30,4,2025,3,KCHO,0.0,0.0,0.0,0.06000000000000011,5
2025-04-27,27,2025-04-27 04:53,04:53,EDT,NW  9  G 23,10.0,Fair,CLR,48.9,30.9,50.0,45.0,,30.14,1020.3,0.0,0.0,0.0,2025-04-30,4,2025,4,KCHO,0.0,0.0,0.0,0.06000000000000011,9
2025-04-27,27,2025-04-27 05:53,05:53,EDT,NW  9  G 18,10.0,Fair,CLR,48.0,30.9,52.0,44.0,,30.16,1021.0,0.0,0.0,0.0,2025-04-30,4,2025,5,KCHO,0.0,0.0,0.0,0.06000000000000011,9
2025-04-27,27,2025-04-27 06:53,06:53,EDT,N  7,10.0,Fair,CLR,48.0,30.9,52.0,45.0,,30.2,1022.2,0.0,0.0,0.0,2025-04-30,4,2025,6,KCHO,0.0,0.0,0.0,0.05000000000000011,7
2025-04-27,27,2025-04-27 07:53,07:53,EDT,N  6  G 18,10.0,Fair,CLR,48.9,30.9,50.0,47.0,,30.21,1022.6,0.0,0.0,0.0,2025-04-30,4,2025,7,KCHO,0.0,0.0,0.0,0.05000000000000011,6
2025-04-27,27,2025-04-27 08:53,08:53,EDT,Vrbl  3,10.0,Fair,CLR,52.0,30.9,45.0,,,30.22,1023.1,0.0,0.0,0.0,2025-04-30,4,2025,8,KCHO,0.0,0.0,0.0,0.03000000000000011,3
2025-04-27,27,2025-04-27 09:53,09:53,EDT,N  8,10.0,Fair,CLR,55.9,30.9,39.0,,,30.23,1023.2,0.0,0.0,0.0,2025-04-30,4,2025,9,KCHO,0.0,0.0,0.0,0.020000000000000108,8
2025-04-27,27,2025-04-27 10:53,10:53,EDT,N  13  G 21,10.0,Fair,CLR,57.9,30.9,36.0,,,30.23,1023.5,0.0,0.0,0.0,2025-04-30,4,2025,10,KCHO,0.0,0.0,0.0,0.0,13
2025-04-27,27,2025-04-27 11:53,11:53,EDT,N  8  G 22,10.0,Fair,CLR,62.1,28.9,29.0,,,30.22,1022.9,0.0,0.0,0.0,2025-04-30,4,2025,11,KCHO,0.0,0.0,0.0,0.0,8
2025-04-27,27,2025-04-27 12:53,12:53,EDT,N  12  G 18,10.0,Fair,CLR,66.0,27.0,23.0,,,30.2,1022.4,0.0,0.0,0.0,2025-04-30,4,2025,12,KCHO,0.0,0.0,0.0,0.0,12
2025-04-27,27,2025-04-27 13:53,13:53,EDT,N  12  G 20,10.0,Fair,CLR,69.1,27.0,21.0,,,30.19,1021.9,0.0,0.0,0.0,2025-04-30,4,2025,13,KCHO,0.0,0.0,0.0,0.0,12
2025-04-27,27,2025-04-27 14:53,14:53,EDT,NW  9  G 17,10.0,Fair,CLR,69.1,27.0,21.0,,,30.17,1021.4,0.0,0.0,0.0,2025-04-30,4,2025,14,KCHO,0.0,0.0,0.0,0.0,9
2025-04-27,27,2025-04-27 15:53,15:53,EDT,Vrbl  5  G 17,10.0,Fair,CLR,70.0,26.1,19.0,,,30.15,1020.8,0.0,0.0,0.0,2025-04-30,4,2025,15,KCHO,0.0,0.0,0.0,0.0,5
2025-04-27,27,2025-04-27 16:53,16:53,EDT,Vrbl  7  G 17,10.0,Fair,CLR,71.1,26.1,19.0,,,30.15,1020.5,0.0,0.0,0.0,2025-04-30,4,2025,16,KCHO,0.0,0.0,0.0,0.0,7
2025-04-27,27,2025-04-27 17:53,17:53,EDT,N  9,10.0,Fair,CLR,71.1,25.0,18.0,,,30.15,1020.6,0.0,0.0,0.0,2025-04-30,4,2025,17,KCHO,0.0,0.0,0.0,0.0,9
2025-04-27,27,2025-04-27 18:53,18:53,EDT,N  5,10.0,Fair,CLR,69.1,27.0,21.0,,,30.15,1020.7,0.0,0.0,0.0,2025-04-30,4,2025,18,KCHO,0.0,0.0,0.0,0.0,5
2025-04-27,27,2025-04-27 19:53,19:53,EDT,N  5,10.0,Fair,CLR,63.0,27.0,26.0,,,30.17,1021.5,0.0,0.0,0.0,2025-04-30,4,2025,19,KCHO,0.0,0.0,0.0,0.0,5
2025-04-27,27,2025-04-27 20:53,20:53,EDT,NE  5,10.0,Fair,CLR,63.0,25.0,24.0,,,30.2,1022.4,0.0,0.0,0.0,2025-04-30,4,2025,20,KCHO,0.0,0.0,0.0,0.0,5
2025-04-27,27,2025-04-27 21:53,21:53,EDT,Calm,10.0,Fair,CLR,57.0,27.0,32.0,,,30.22,1023.2,0.0,0.0,0.0,2025-04-30,4,2025,21,KCHO,0.0,0.0,0.0,0.0,0
2025-04-27,27,2025-04-27 22:53,22:53,EDT,N  3,10.0,Fair,CLR,54.0,30.0,40.0,,,30.23,1023.5,0.0,0.0,0.0,2025-04-30,4,2025,22,KCHO,0.0,0.0,0.0,0.0,3
2025-04-27,27,2025-04-27 23:53,23:53,EDT,Calm,10.0,Fair,CLR,52.0,30.9,45.0,,,30.25,1024.0,0.0,0.0,0.0,2025-04-30,4,2025,23,KCHO,0.0,0.0,0.0,0.0,0
2025-04-28,28,2025-04-28 00:53,00:53,EDT,Calm,10.0,Fair,CLR,48.0,33.1,56.0,,,30.27,1024.7,0.0,0.0,0.0,2025-05-01,4,2025,0,KCHO,0.0,0.0,0.0,0.0,0
2025-04-28,28,2025-04-28 01:53,01:53,EDT,W  3,10.0,Fair,CLR,46.9,34.0,61.0,,,30.28,1025.1,0.0,0.0,0.0,2025-05-01,4,2025,1,KCHO,0.0,0.0,0.0,0.0,3
2025-04-28,28,2025-04-28 02:53,02:53,EDT,Calm,10.0,Fair,CLR,46.9,33.1,59.0,,,30.28,1025.1,0.0,0.0,0.0,2025-05-01,4,2025,2,KCHO,0.0,0.0,0.0,0.0,0
2025-04-28,28,2025-04-28 03:53,03:53,EDT,Calm,10.0,Fair,CLR,46.0,35.1,66.0,,,30.29,1025.5,0.0,0.0,0.0,2025-05-01,4,2025,3,KCHO,0.0,0.0,0.0,0.0,0
2025-04-28,28,2025-04-28 04:53,04:53,EDT,Calm,10.0,Fair,CLR,42.1,34.0,73.0,,,30.3,1025.8,0.0,0.0,0.0,2025-05-01,4,2025,4,KCHO,0.0,0.0,0.0,0.0,0
2025-04-28,28,2025-04-28 05:53,05:53,EDT,Calm,10.0,Fair,CLR,39.9,34.0,79.0,,,30.32,1026.4,0.0,0.0,0.0,2025-05-01,4,2025,5,KCHO,0.0,0.0,0.0,0.0,0
2025-04-28,28,2025-04-28 06:53,06:53,EDT,Calm,10.0,Fair,CLR,39.9,35.1,83.0,,,30.35,1027.4,0.0,0.0,0.0,2025-05-01,4,2025,6,KCHO,0.0,0.0,0.0,0.0,0
2025-04-28,28,2025-04-28 07:53,07:53,EDT,Calm,10.0,Fair,CLR,48.0,37.9,68.0,,,30.36,1028.0,0.0,0.0,0.0,2025-05-01,4,2025,7,KCHO,0.0,0.0,0.0,0.0,0
2025-04-28,28,2025-04-28 08:53,08:53,EDT,Calm,10.0,Fair,CLR,55.0,39.0,55.0,,,30.38,1028.4,0.0,0.0,0.0,2025-05-01,4,2025,8,KCHO,0.0,0.0,0.0,0.0,0
2025-04-28,28,2025-04-28 09:53,09:53,EDT,NE  6,10.0,Fair,CLR,62.1,30.9,31.0,,,30.38,1028.6,0.0,0.0,0.0,2025-05-01,4,2025,9,KCHO,0.0,0.0,0.0,0.0,6
2025-04-28,28,2025-04-28 10:53,10:53,EDT,Vrbl  3,10.0,Fair,CLR,64.9,32.0,29.0,,,30.38,1028.5,0.0,0.0,0.0,2025-05-01,4,2025,10,KCHO,0.0,0.0,0.0,0.0,3
2025-04-28,28,2025-04-28 11:53,11:53,EDT,Calm,10.0,Fair,CLR,66.9,32.0,27.0,,,30.36,1027.9,0.0,0.0,0.0,2025-05-01,4,2025,11,KCHO,0.0,0.0,0.0,0.0,0
2025-04-28,28,2025-04-28 12:53,12:53,EDT,S  10  G 17,10.0,Fair,CLR,69.1,32.0,25.0,,,30.35,1027.4,0.0,0.0,0.0,2025-05-01,4,2025,12,KCHO,0.0,0.0,0.0,0.0,10
2025-04-28,28,2025-04-28 13:53,13:53,EDT,W  5  G 16,10.0,Fair,CLR,70.0,32.0,25.0,,,30.33,1026.7,0.0,0.0,0.0,2025-05-01,4,2025,13,KCHO,0.0,0.0,0.0,0.0,5
2025-04-28,28,2025-04-28 14:53,14:53,EDT,SE  10  G 17,10.0,Fair,CLR,73.0,34.0,24.0,,,30.31,1026.0,0.0,0.0,0.0,2025-05-01,4,2025,14,KCHO,0.0,0.0,0.0,0.0,10
2025-04-28,28,2025-04-28 15:53,15:53,EDT,Calm,10.0,Fair,CLR,72.0,34.0,25.0,,,30.28,1025.2,0.0,0.0,0.0,2025-05-01,4,2025,15,KCHO,0.0,0.0,0.0,0.0,0
2025-04-28,28,2025-04-28 16:53,16:53,EDT,S  9  G 18,10.0,Fair,CLR,73.9,34.0,23.0,,,30.27,1024.8,0.0,0.0,0.0,2025-05-01,4,2025,16,KCHO,0.0,0.0,0.0,0.0,9
2025-04-28,28,2025-04-28 17:53,17:53,EDT,S  9,10.0,Fair,CLR,73.9,36.0,25.0,,,30.27,1024.7,0.0,0.0,0.0,2025-05-01,4,2025,17,KCHO,0.0,0.0,0.0,0.0,9
2025-04-28,28,2025-04-28 18:53,18:53,EDT,SE  8,10.0,Fair,CLR,72.0,36.0,27.0,,,30.26,1024.5,0.0,0.0,0.0,2025-05-01,4,2025,18,KCHO,0.0,0.0,0.0,0.0,8
2025-04-28,28,2025-04-28 19:53,19:53,EDT,S  7,10.0,Fair,CLR,68.0,37.0,32.0,,,30.26,1024.3,0.0,0.0,0.0,2025-05-01,4,2025,19,KCHO,0.0,0.0,0.0,0.0,7
2025-04-28,28,2025-04-28 20:53,20:53,EDT,S  6,10.0,Fair,CLR,63.0,37.9,40.0,,,30.27,1024.6,0.0,0.0,0.0,2025-05-01,4,2025,20,KCHO,0.0,0.0,0.0,0.0,6
2025-04-28,28,2025-04-28 21:53,21:53,EDT,S  8,10.0,Fair,CLR,60.1,39.0,46.0,,,30.27,1024.6,0.0,0.0,0.0,2025-05-01,4,2025,21,KCHO,0.0,0.0,0.0,0.0,8
2025-04-28,28,2025-04-28 22:53,22:53,EDT,Calm,10.0,Fair,CLR,61.0,39.9,46.0,,,30.26,1024.3,0.0,0.0,0.0,2025-05-01,4,2025,22,KCHO,0.0,0.0,0.0,0.0,0
2025-04-28,28,2025-04-28 23:53,23:53,EDT,Calm,10.0,Fair,CLR,57.9,39.9,51.0,,,30.26,1024.2,0.0,0.0,0.0,2025-05-02,4,2025,23,KCHO,0.0,0.0,0.0,0.0,0
2025-04-29,29,2025-04-29 00:53,00:53,EDT,Calm,10.0,Fair,CLR,55.0,41.0,59.0,,,30.26,1024.3,0.0,0.0,0.0,2025-05-02,4,2025,0,KCHO,0.0,0.0,0.0,0.0,0
2025-04-29,29,2025-04-29 01:53,01:53,EDT,S  5,10.0,Fair,CLR,54.0,39.9,59.0,,,30.25,1023.9,0.0,0.0,0.0,2025-05-02,4,2025,1,KCHO,0.0,0.0,0.0,0.0,5
2025-04-29,29,2025-04-29 02:53,02:53,EDT,S  6,10.0,Fair,CLR,54.0,41.0,62.0,,,30.23,1023.4,0.0,0.0,0.0,2025-05-02,4,2025,2,KCHO,0.0,0.0,0.0,0.0,6
2025-04-29,29,2025-04-29 03:53,03:53,EDT,S  5,10.0,Fair,CLR,51.1,41.0,69.0,,,30.23,1023.3,0.0,0.0,0.0,2025-05-02,4,2025,3,KCHO,0.0,0.0,0.0,0.0,5
2025-04-29,29,2025-04-29 04:53,04:53,EDT,SW  7,10.0,Fair,CLR,54.0,41.0,62.0,,,30.23,1023.3,0.0,0.0,0.0,2025-05-02,4,2025,4,KCHO,0.0,0.0,0.0,0.0,7
2025-04-29,29,2025-04-29 05:53,05:53,EDT,SW  5,10.0,Fair,CLR,52.0,41.0,66.0,,,30.23,1023.4,0.0,0.0,0.0,2025-05-02,4,2025,5,KCHO,0.0,0.0,0.0,0.0,5
2025-04-29,29,2025-04-29 06:53,06:53,EDT,SW  8,10.0,Fair,CLR,51.1,42.1,71.0,,,30.24,1023.5,0.0,0.0,0.0,2025-05-02,4,2025,6,KCHO,0.0,0.0,0.0,0.0,8
2025-04-29,29,2025-04-29 07:53,07:53,EDT,S  9,10.0,Fair,CLR,55.0,43.0,64.0,,,30.24,1023.6,0.0,0.0,0.0,2025-05-02,4,2025,7,KCHO,0.0,0.0,0.0,0.0,9
2025-04-29,29,2025-04-29 08:53,08:53,EDT,S  10,10.0,Fair,CLR,60.1,44.1,56.0,,,30.24,1023.5,0.0,0.0,0.0,2025-05-02,4,2025,8,KCHO,0.0,0.0,0.0,0.0,10
2025-04-29,29,2025-04-29 09:53,09:53,EDT,S  12,10.0,Fair,CLR,66.0,45.0,47.0,,,30.22,1022.9,0.0,0.0,0.0,2025-05-02,4,2025,9,KCHO,0.0,0.0,0.0,0.0,12
2025-04-29,29,2025-04-29 10:53,10:53,EDT,S  14,10.0,Fair,CLR,69.1,46.0,44.0,,,30.2,1022.3,0.0,0.0,0.0,2025-05-02,4,2025,10,KCHO,0.0,0.0,0.0,0.0,14
2025-04-29,29,2025-04-29 11:53,11:53,EDT,S  12  G 21,10.0,Fair,CLR,73.9,46.9,38.0,,,30.18,1021.5,0.0,0.0,0.0,2025-05-02,4,2025,11,KCHO,0.0,0.0,0.0,0.0,12
2025-04-29,29,2025-04-29 12:53,12:53,EDT,S  13,10.0,Fair,CLR,78.1,48.9,36.0,,79.0,30.15,1020.4,0.0,0.0,0.0,2025-05-02,4,2025,12,KCHO,0.0,0.0,0.0,0.0,13
2025-04-29,29,2025-04-29 13:53,13:53,EDT,S  17  G 23,10.0,Fair,CLR,81.0,52.0,37.0,,80.0,30.12,1019.3,0.0,0.0,0.0,2025-05-02,4,2025,13,KCHO,0.0,0.0,0.0,0.0,17
2025-04-29,29,2025-04-29 14:53,14:53,EDT,S  16  G 24,10.0,Fair,CLR,82.0,53.1,37.0,,81.0,30.08,1018.1,0.0,0.0,0.0,2025-05-02,4,2025,14,KCHO,0.0,0.0,0.0,0.0,16
2025-04-29,29,2025-04-29 15:53,15:53,EDT,S  15  G 22,10.0,Fair,CLR,84.0,55.0,37.0,,83.0,30.05,1017.1,0.0,0.0,0.0,2025-05-02,4,2025,15,KCHO,0.0,0.0,0.0,0.0,15
2025-04-29,29,2025-04-29 16:53,16:53,EDT,S  17  G 31,10.0,Fair,CLR,82.9,55.9,40.0,,82.0,30.03,1016.2,0.0,0.0,0.0,2025-05-02,4,2025,16,KCHO,0.0,0.0,0.0,0.0,17
2025-04-29,29,2025-04-29 17:53,17:53,EDT,S  21  G 29,10.0,Fair and Breezy,CLR,82.0,57.0,43.0,,82.0,30.02,1015.9,0.0,0.0,0.0,2025-05-02,4,2025,17,KCHO,0.0,0.0,0.0,0.0,21
2025-04-29,29,2025-04-29 18:53,18:53,EDT,S  15  G 28,10.0,Fair,CLR,80.1,57.0,45.0,,80.0,30.0,1015.4,0.0,0.0,0.0,2025-05-02,4,2025,18,KCHO,0.0,0.0,0.0,0.0,15
2025-04-29,29,2025-04-29 19:53,19:53,EDT,S  15  G 22,10.0,Fair,CLR,77.0,57.0,50.0,,79.0,30.0,1015.3,0.0,0.0,0.0,2025-05-02,4,2025,19,KCHO,0.0,0.0,0.0,0.0,15
2025-04-29,29,2025-04-29 20:53,20:53,EDT,S  14,10.0,Fair,CLR,75.0,57.9,55.0,,78.0,30.01,1015.6,0.0,0.0,0.0,2025-05-02,4,2025,20,KCHO,0.0,0.0,0.0,0.0,14
2025-04-29,29,2025-04-29 21:53,21:53,EDT,S  14  G 21,10.0,Fair,CLR,73.0,57.9,59.0,,,30.02,1016.0,0.0,0.0,0.0,2025-05-02,4,2025,21,KCHO,0.0,0.0,0.0,0.0,14
2025-04-29,29,2025-04-29 22:53,22:53,EDT,S  9,10.0,A Few Clouds,FEW085,71.1,57.9,63.0,,,30.01,1015.5,0.0,0.0,0.0,2025-05-02,4,2025,22,KCHO,0.0,0.0,0.0,0.0,9
2025-04-29,29,2025-04-29 23:53,23:53,EDT,S  7,10.0,Fair,CLR,70.0,57.9,66.0,,,30.0,1015.4,0.0,0.0,0.0,2025-05-03,4,2025,23,KCHO,0.0,0.0,0.0,0.0,7
2025-04-30,30,2025-04-30 00:53,00:53,EDT,S  7,10.0,Fair,CLR,69.1,57.9,68.0,,,30.02,1015.7,0.0,0.0,0.0,2025-05-03,4,2025,0,KCHO,0.0,0.0,0.0,0.0,7
2025-04-30,30,2025-04-30 01:53,01:53,EDT,W  6,10.0,Light Rain,SCT042 SCT065 SCT085,72.0,59.0,64.0,,,30.04,1016.4,0.0,0.0,0.0,2025-05-03,4,2025,1,KCHO,0.0,0.0,0.0,0.0,6
2025-04-30,30,2025-04-30 02:53,02:53,EDT,SW  3,10.0,Overcast,FEW055 BKN090 OVC120,70.0,57.9,66.0,,,30.0,1015.0,0.01,0.0,0.0,2025-05-03,4,2025,2,KCHO,0.010000000000000014,0.010000000000000007,0.01,0.010000000000000111,3
2025-04-30,30,2025-04-30 03:53,03:53,EDT,S  9,10.0,Fair,CLR,68.0,59.0,73.0,,,29.99,1014.7,0.0,0.0,0.0,2025-05-03,4,2025,3,KCHO,0.010000000000000014,0.010000000000000007,0.01,0.010000000000000111,9
2025-04-30,30,2025-04-30 04:53,04:53,EDT,S  8,10.0,Fair,CLR,66.9,57.0,71.0,,,29.99,1014.9,0.0,0.01,0.0,2025-05-03,4,2025,4,KCHO,0.010000000000000014,0.010000000000000007,0.01,0.010000000000000111,8
2025-04-30,30,2025-04-30 05:53,05:53,EDT,SW  5,10.0,Fair,CLR,69.1,55.9,63.0,,,30.01,1015.6,0.0,0.0,0.0,2025-05-03,4,2025,5,KCHO,0.0,0.010000000000000007,0.01,0.010000000000000111,5
2025-04-30,30,2025-04-30 06:53,06:53,EDT,S  3,10.0,A Few Clouds,FEW120,69.1,57.0,66.0,,,30.02,1016.0,0.0,0.0,0.0,2025-05-03,4,2025,6,KCHO,0.0,0.010000000000000007,0.01,0.010000000000000111,3
2025-04-30,30,2025-04-30 07:53,07:53,EDT,S  5,10.0,Fair,CLR,71.1,60.1,68.0,,,30.04,1016.5,0.0,0.0,0.01,2025-05-03,4,2025,7,KCHO,0.0,0.010000000000000007,0.01,0.010000000000000111,5
2025-04-30,30,2025-04-30 08:53,08:53,EDT,S  9,10.0,A Few Clouds,FEW100,73.0,60.1,64.0,,,30.05,1016.7,0.0,0.0,0.0,2025-05-03,4,2025,8,KCHO,0.0,0.0,0.01,0.010000000000000111,9
2025-04-30,30,2025-04-30 09:53,09:53,EDT,Vrbl  5,10.0,Fair,CLR,77.0,59.0,54.0,,79.0,30.05,1016.8,0.0,0.0,0.0,2025-05-03,4,2025,9,KCHO,0.0,0.0,0.01,0.010000000000000111,5
2025-04-30,30,2025-04-30 10:53,10:53,EDT,W  3,10.0,Mostly Cloudy,BKN050 BKN060,78.1,59.0,52.0,,79.0,30.05,1016.8,0.0,0.0,0.0,2025-05-03,4,2025,10,KCHO,0.0,0.0,0.01,0.010000000000000111,3
2025-04-30,30,2025-04-30 11:53,11:53,EDT,Calm,10.0,Partly Cloudy,FEW060 SCT080,82.9,60.1,46.0,,83.0,30.04,1016.3,0.0,0.0,0.0,2025-05-03,4,2025,11,KCHO,0.0,0.0,0.01,0.010000000000000111,0
2025-04-30,30,2025-04-30 12:53,12:53,EDT,Vrbl  3,10.0,Mostly Cloudy,SCT060 BKN075 BKN085,84.0,57.9,41.0,,83.0,30.02,1015.9,0.0,0.0,0.0,2025-05-03,4,2025,12,KCHO,0.0,0.0,0.01,0.010000000000000111,3
2025-04-30,30,2025-04-30 13:53,13:53,EDT,Calm,10.0,A Few Clouds,FEW060,82.0,57.0,43.0,,82.0,30.01,1015.4,0.0,0.0,0.0,2025-05-03,4,2025,13,KCHO,0.0,0.0,0.01,0.010000000000000111,0
2025-04-30,30,2025-04-30 14:53,14:53,EDT,Vrbl  5,10.0,Mostly Cloudy,BKN070,84.9,55.0,36.0,,84.0,30.0,1014.9,0.0,0.0,0.0,2025-05-03,4,2025,14,KCHO,0.0,0.0,0.0,0.010000000000000111,5
2025-04-30,30,2025-04-30 15:53,15:53,EDT,Vrbl  3,10.0,Mostly Cloudy,SCT075 BKN100,84.0,55.9,38.0,,83.0,29.98,1014.6,0.0,0.0,0.0,2025-05-03,4,2025,15,KCHO,0.0,0.0,0.0,0.010000000000000111,3
2025-04-30,30,2025-04-30 16:53,16:53,EDT,S  5,10.0,Mostly Cloudy,BKN085,84.0,55.9,38.0,,83.0,29.97,1014.2,0.0,0.0,0.0,2025-05-03,4,2025,16,KCHO,0.0,0.0,0.0,0.010000000000000111,5
2025-04-30,30,2025-04-30 17:53,17:53,EDT,E  3,10.0,Fair,CLR,84.9,54.0,35.0,,83.0,29.97,1014.1,0.0,0.0,0.0,2025-05-03,4,2025,17,KCHO,0.0,0.0,0.0,0.010000000000000111,3
2025-04-30,30,2025-04-30 18:53,18:53,EDT,E  6,10.0,Mostly Cloudy,BKN095,82.9,57.9,43.0,,83.0,29.98,1014.5,0.0,0.0,0.0,2025-05-03,4,2025,18,KCHO,0.0,0.0,0.0,0.010000000000000111,6
2025-04-30,30,2025-04-30 19:53,19:53,EDT,NE  7,10.0,Mostly Cloudy,BKN095,80.1,59.0,49.0,,81.0,30.01,1015.5,0.0,0.0,0.0,2025-05-03,4,2025,19,KCHO,0.0,0.0,0.0,0.010000000000000111,7
2025-04-30,30,2025-04-30 20:53,20:53,EDT,NE  7,10.0,Fair,CLR,73.9,59.0,60.0,,,30.03,1016.1,0.0,0.0,0.0,2025-05-03,4,2025,20,KCHO,0.0,0.0,0.0,0.010000000000000111,7
2025-04-30,30,2025-04-30 21:53,21:53,EDT,NE  7,10.0,Fair,CLR,73.0,60.1,64.0,,,30.05,1016.8,0.0,0.0,0.0,2025-05-03,4,2025,21,KCHO,0.0,0.0,0.0,0.010000000000000111,7
2025-04-30,30,2025-04-30 22:53,22:53,EDT,N  3,10.0,Fair,CLR,71.1,60.1,68.0,,,30.05,1016.9,0.0,0.0,0.0,2025-05-03,4,2025,22,KCHO,0.0,0.0,0.0,0.010000000000000111,3
2025-04-30,30,2025-04-30 23:53,23:53,EDT,Calm,10.0,Fair,CLR,69.1,59.0,70.0,,,30.07,1017.4,0.0,0.0,0.0,2025-05-03,4,2025,23,KCHO,0.0,0.0,0.0,0.010000000000000111,0
2025-05-01,1,2025-05-01 00:53,00:53,EDT,N  5,10.0,Fair,CLR,66.9,59.0,76.0,,,30.07,1017.4,0.0,0.0,0.0,2025-05-03,5,2025,0,KCHO,0.0,0.0,0.0,0.010000000000000111,5
2025-05-01,1,2025-05-01 01:53,01:53,EDT,N  6,10.0,Fair,CLR,66.9,59.0,76.0,,,30.06,1017.2,0.0,0.0,0.0,2025-05-03,5,2025,1,KCHO,0.0,0.0,0.0,0.010000000000000111,6
2025-05-01,1,2025-05-01 02:53,02:53,EDT,N  3,10.0,Fair,CLR,64.9,57.9,78.0,,,30.05,1017.0,0.0,0.0,0.0,2025-05-03,5,2025,2,KCHO,0.0,0.0,0.0,0.0,3
2025-05-01,1,2025-05-01 03:53,03:53,EDT,N  3,10.0,Fair,CLR,64.0,57.9,81.0,,,30.04,1016.7,0.0,0.0,0.0,2025-05-03,5,2025,3,KCHO,0.0,0.0,0.0,0.0,3
2025-05-01,1,2025-05-01 04:53,04:53,EDT,Calm,10.0,Fair,CLR,62.1,57.9,86.0,,,30.04,1016.6,0.0,0.0,0.0,2025-05-03,5,2025,4,KCHO,0.0,0.0,0.0,0.0,0
2025-05-01,1,2025-05-01 05:53,05:53,EDT,Calm,10.0,Fair,CLR,62.1,57.9,86.0,,,30.04,1016.6,0.0,0.0,0.0,2025-05-03,5,2025,5,KCHO,0.0,0.0,0.0,0.0,0
2025-05-01,1,2025-05-01 06:53,06:53,EDT,Calm,10.0,Fair,CLR,63.0,57.0,81.0,,,30.07,1017.4,0.0,0.0,0.0,2025-05-03,5,2025,6,KCHO,0.0,0.0,0.0,0.0,0
2025-05-01,1,2025-05-01 07:53,07:53,EDT,Calm,10.0,Fair,CLR,64.9,57.9,78.0,,,30.07,1017.4,0.0,0.0,0.0,2025-05-03,5,2025,7,KCHO,0.0,0.0,0.0,0.0,0
2025-05-01,1,2025-05-01 08:53,08:53,EDT,Vrbl  3,10.0,Fair,CLR,68.0,57.9,70.0,,,30.07,1017.5,0.0,0.0,0.0,2025-05-03,5,2025,8,KCHO,0.0,0.0,0.0,0.0,3
2025-05-01,1,2025-05-01 09:53,09:53,EDT,Vrbl  3,9.0,Fair,CLR,73.0,60.1,64.0,,,30.07,1017.4,0.0,0.0,0.0,2025-05-03,5,2025,9,KCHO,0.0,0.0,0.0,0.0,3
2025-05-01,1,2025-05-01 10:53,10:53,EDT,Vrbl  3,10.0,Fair,CLR,75.0,61.0,62.0,,77.0,30.05,1017.0,0.0,0.0,0.0,2025-05-03,5,2025,10,KCHO,0.0,0.0,0.0,0.0,3
2025-05-01,1,2025-05-01 11:53,11:53,EDT,Calm,10.0,Fair,CLR,77.0,62.1,60.0,,79.0,30.04,1016.6,0.0,0.0,0.0,2025-05-03,5,2025,11,KCHO,0.0,0.0,0.0,0.0,0
2025-05-01,1,2025-05-01 12:53,12:53,EDT,S  8,10.0,Overcast,OVC100,80.1,64.0,58.0,,82.0,30.02,1015.8,0.0,0.0,0.0,2025-05-03,5,2025,12,KCHO,0.0,0.0,0.0,0.0,8
2025-05-01,1,2025-05-01 13:53,13:53,EDT,S  9  G 22,10.0,Partly Cloudy,SCT039,82.9,64.0,53.0,,84.0,29.98,1014.6,0.0,0.0,0.0,2025-05-03,5,2025,13,KCHO,0.0,0.0,0.0,0.0,9
2025-05-01,1,2025-05-01 14:53,14:53,EDT,S  13  G 20,10.0,Partly Cloudy,SCT050,84.0,63.0,49.0,,85.0,29.95,1013.6,0.0,0.0,0.0,2025-05-03,5,2025,14,KCHO,0.0,0.0,0.0,0.0,13
2025-05-01,1,2025-05-01 15:53,15:53,EDT,S  17  G 29,10.0,A Few Clouds,FEW065,87.1,57.9,37.0,,86.0,29.92,1012.4,0.0,0.0,0.0,2025-05-03,5,2025,15,KCHO,0.0,0.0,0.0,0.0,17
2025-05-01,1,2025-05-01 16:53,16:53,EDT,S  18  G 29,10.0,Fair,CLR,84.9,57.0,39.0,,84.0,29.9,1011.9,0.0,0.0,0.0,2025-05-03,5,2025,16,KCHO,0.0,0.0,0.0,0.0,18
2025-05-01,1,2025-05-01 17:53,17:53,EDT,S  12,10.0,Fair,CLR,82.9,55.9,40.0,,82.0,29.9,1011.6,0.0,0.0,0.0,2025-05-03,5,2025,17,KCHO,0.0,0.0,0.0,0.0,12
2025-05-01,1,2025-05-01 18:53,18:53,EDT,S  13  G 29,10.0,Fair,CLR,82.0,57.0,43.0,,82.0,29.88,1011.2,0.0,0.0,0.0,2025-05-03,5,2025,18,KCHO,0.0,0.0,0.0,0.0,13
2025-05-01,1,2025-05-01 19:53,19:53,EDT,S  16,10.0,Fair,CLR,79.0,57.9,49.0,,80.0,29.89,1011.4,0.0,0.0,0.0,2025-05-03,5,2025,19,KCHO,0.0,0.0,0.0,0.0,16
2025-05-01,1,2025-05-01 20:53,20:53,EDT,S  14  G 21,10.0,Fair,CLR,77.0,57.0,50.0,,79.0,29.89,1011.5,0.0,0.0,0.0,2025-05-03,5,2025,20,KCHO,0.0,0.0,0.0,0.0,14
2025-05-01,1,2025-05-01 21:53,21:53,EDT,S  10,10.0,A Few Clouds,FEW120,75.0,57.9,55.0,,78.0,29.9,1011.8,0.0,0.0,0.0,2025-05-03,5,2025,21,KCHO,0.0,0.0,0.0,0.0,10
2025-05-01,1,2025-05-01 22:53,22:53,EDT,S  139,10.0,Overcast and Windy,OVC100,75.0,57.9,55.0,,78.0,29.9,1011.8,0.0,0.0,0.0,2025-05-03,5,2025,22,KCHO,0.0,0.0,0.0,0.0,139
2025-05-01,1,2025-05-01 23:53,23:53,EDT,S  7,10.0,Partly Cloudy,SCT120,73.0,57.9,59.0,,,29.9,1011.7,0.0,0.0,0.0,2025-05-03,5,2025,23,KCHO,0.0,0.0,0.0,0.0,7
2025-05-02,2,2025-05-02 00:53,00:53,EDT,S  12,10.0,Fair,CLR,73.0,57.0,57.0,,,29.9,1011.6,0.0,0.0,0.0,2025-05-03,5,2025,0,KCHO,0.0,0.0,0.0,0.0,12
2025-05-02,2,2025-05-02 01:53,01:53,EDT,S  7,10.0,A Few Clouds,FEW095,69.1,55.9,63.0,,,29.89,1011.6,0.0,0.0,0.0,2025-05-03,5,2025,1,KCHO,0.0,0.0,0.0,0.0,7
2025-05-02,2,2025-05-02 02:53,02:53,EDT,S  6,10.0,Partly Cloudy,SCT090,69.1,57.0,66.0,,,29.89,1011.4,0.0,0.0,0.0,2025-05-03,5,2025,2,KCHO,0.0,0.0,0.0,0.0,6
2025-05-02,2,2025-05-02 03:53,03:53,EDT,S  7,10.0,Overcast,OVC095,69.1,57.9,68.0,,,29.91,1011.8,0.0,0.0,0.0,2025-05-03,5,2025,3,KCHO,0.0,0.0,0.0,0.0,7
2025-05-02,2,2025-05-02 04:53,04:53,EDT,S  8,10.0,Fair,CLR,66.0,57.9,75.0,,,29.9,1011.8,0.0,0.0,0.0,2025-05-03,5,2025,4,KCHO,0.0,0.0,0.0,0.0,8
2025-05-02,2,2025-05-02 05:53,05:53,EDT,S  7,10.0,Fair,CLR,66.9,57.9,73.0,,,29.91,1012.2,0.0,0.0,0.0,2025-05-03,5,2025,5,KCHO,0.0,0.0,0.0,0.0,7
2025-05-02,2,2025-05-02 06:53,06:53,EDT,S  8,10.0,Fair,CLR,66.9,60.1,79.0,,,29.92,1012.6,0.0,0.0,0.0,2025-05-03,5,2025,6,KCHO,0.0,0.0,0.0,0.0,8
2025-05-02,2,2025-05-02 07:53,07:53,EDT,S  6,10.0,Partly Cloudy,SCT110,66.9,60.1,79.0,,,29.94,1013.2,0.0,0.0,0.0,2025-05-03,5,2025,7,KCHO,0.0,0.0,0.0,0.0,6
2025-05-02,2,2025-05-02 08:53,08:53,EDT,SW  5,10.0,Fair,CLR,72.0,61.0,68.0,,,29.95,1013.3,0.0,0.0,0.0,2025-05-03,5,2025,8,KCHO,0.0,0.0,0.0,0.0,5
2025-05-02,2,2025-05-02 09:53,09:53,EDT,Vrbl  6,10.0,A Few Clouds,FEW110,75.9,57.9,54.0,,78.0,29.95,1013.4,0.0,0.0,0.0,2025-05-03,5,2025,9,KCHO,0.0,0.0,0.0,0.0,6
2025-05-02,2,2025-05-02 10:53,10:53,EDT,Vrbl  6,10.0,Fair,CLR,79.0,55.9,45.0,,80.0,29.95,1013.5,0.0,0.0,0.0,2025-05-03,5,2025,10,KCHO,0.0,0.0,0.0,0.0,6
2025-05-02,2,2025-05-02 11:53,11:53,EDT,SW  6,10.0,Fair,CLR,80.1,57.0,45.0,,80.0,29.94,1013.1,0.0,0.0,0.0,2025-05-03,5,2025,11,KCHO,0.0,0.0,0.0,0.0,6
2025-05-02,2,2025-05-02 12:53,12:53,EDT,SW  12  G 16,10.0,A Few Clouds,FEW060,82.0,52.0,35.0,,81.0,29.92,1012.4,0.0,0.0,0.0,2025-05-03,5,2025,12,KCHO,0.0,0.0,0.0,0.0,12
2025-05-02,2,2025-05-02 13:53,13:53,EDT,SW  9  G 16,10.0,A Few Clouds,FEW075,84.0,54.0,36.0,,83.0,29.92,1012.5,0.0,0.0,0.0,2025-05-03,5,2025,13,KCHO,0.0,0.0,0.0,0.0,9
2025-05-02,2,2025-05-02 14:53,14:53,EDT,SW  9  G 18,10.0,Fair,CLR,84.0,53.1,34.0,,83.0,29.91,1011.9,0.0,0.0,0.0,2025-05-03,5,2025,14,KCHO,0.0,0.0,0.0,0.0,9
2025-05-02,2,2025-05-02 15:53,15:53,EDT,SW  8,10.0,A Few Clouds,FEW080,84.9,50.0,30.0,,83.0,29.88,1011.0,0.0,0.0,0.0,2025-05-03,5,2025,15,KCHO,0.0,0.0,0.0,0.0,8
2025-05-02,2,2025-05-02 16:53,16:53,EDT,S  14  G 21,10.0,A Few Clouds,FEW110,84.9,54.0,35.0,,83.0,29.87,1010.6,0.0,0.0,0.0,2025-05-03,5,2025,16,KCHO,0.0,0.0,0.0,0.0,14
2025-05-02,2,2025-05-02 17:53,17:53,EDT,SW  14  G 21,10.0,Fair,CLR,84.0,54.0,36.0,,83.0,29.85,1010.1,0.0,0.0,0.0,2025-05-03,5,2025,17,KCHO,0.0,0.0,0.0,0.0,14
2025-05-02,2,2025-05-02 18:53,18:53,EDT,S  17  G 25,10.0,Fair,CLR,81.0,53.1,38.0,,80.0,29.86,1010.2,0.0,0.0,0.0,2025-05-03,5,2025,18,KCHO,0.0,0.0,0.0,0.0,17
2025-05-02,2,2025-05-02 19:53,19:53,EDT,SW  13  G 21,10.0,Fair,CLR,78.1,55.9,47.0,,79.0,29.88,1011.0,0.0,0.0,0.0,2025-05-03,5,2025,19,KCHO,0.0,0.0,0.0,0.0,13
2025-05-02,2,2025-05-02 20:53,20:53,EDT,SW  8,10.0,Fair,CLR,75.9,55.0,48.0,,78.0,29.89,1011.3,0.0,0.0,0.0,2025-05-03,5,2025,20,KCHO,0.0,0.0,0.0,0.0,8
2025-05-02,2,2025-05-02 21:53,21:53,EDT,SE  3,10.0,Fair,CLR,73.0,55.0,53.0,,,29.9,1011.7,0.0,0.0,0.0,2025-05-03,5,2025,21,KCHO,0.0,0.0,0.0,0.0,3
2025-05-02,2,2025-05-02 22:53,22:53,EDT,S  8,10.0,Fair,CLR,70.0,55.9,61.0,,,29.89,1011.4,0.0,0.0,0.0,2025-05-03,5,2025,22,KCHO,0.0,0.0,0.0,0.0,8
2025-05-02,2,2025-05-02 23:53,23:53,EDT,S  8,10.0,Fair,CLR,69.1,57.0,66.0,,,29.9,1011.8,0.0,0.0,0.0,2025-05-03,5,2025,23,KCHO,0.0,0.0,0.0,0.0,8
