Date,Day,Date/Time,Time,Time Zone,Wind (mph),Vis. (mi.),Weather,Sky Cond.,Temp,Dew Point,Relative Humidity,Wind Chill (°F),Heat Index (°F),Altimeter (in.),sea level (mb),1-Hour Precip,3-Hour Precip,6-Hour Precip,Data Retrieval Date,Obs_Month,Obs_Year,Hour,Station,Rolling 3-Hour Precip,Rolling 6-Hour Precip,Rolling 12-Hour Precip,Rolling 24-Hour Precip,Windspeed
2024-10-31,31,2024-10-31 02:53,02:53,EST,S  7,10.0,Fair,CLR,59.0,55.0,87.0,,,30.24,1023.5,0.0,0.0,0.0,2024-11-03,10,2024,2,KCHO,,,,,7
2024-10-31,31,2024-10-31 03:53,03:53,EST,S  3,10.0,Fair,CLR,60.1,55.9,86.0,,,30.23,1023.1,0.0,0.0,0.0,2024-11-03,10,2024,3,KCHO,,,,,3
2024-10-31,31,2024-10-31 05:53,05:53,EST,S  7,10.0,Fair,CLR,57.0,54.0,90.0,,,30.23,1023.1,0.0,0.0,0.0,2024-11-03,10,2024,5,KCHO,0.0,,,,7
2024-10-31,31,2024-10-31 06:53,06:53,EST,S  6,10.0,Fair,CLR,55.9,54.0,93.0,,,30.24,1023.5,0.0,0.0,0.0,2024-11-03,10,2024,6,KCHO,0.0,,,,6
2024-10-31,31,2024-10-31 07:53,07:53,EST,S  6,10.0,Fair,CLR,55.0,54.0,96.0,,,30.24,1023.5,0.0,0.0,0.0,2024-11-03,10,2024,7,KCHO,0.0,,,,6
2024-10-31,31,2024-10-31 08:53,08:53,EST,S  7,10.0,Fair,CLR,60.1,55.9,86.0,,,30.24,1023.5,0.0,0.0,0.0,2024-11-03,10,2024,8,KCHO,0.0,0.0,,,7
2024-10-31,31,2024-10-31 09:53,09:53,EST,Calm,10.0,Fair,CLR,64.0,57.0,78.0,,,30.24,1023.6,0.0,0.0,0.0,2024-11-03,10,2024,9,KCHO,0.0,0.0,,,0
2024-10-31,31,2024-10-31 10:53,10:53,EST,S  6,10.0,Fair,CLR,71.1,57.9,63.0,,,30.23,1023.1,0.0,0.0,0.0,2024-11-03,10,2024,10,KCHO,0.0,0.0,,,6
2024-10-31,31,2024-10-31 11:53,11:53,EST,S  10,10.0,Fair,CLR,75.0,57.9,55.0,,78.0,30.21,1022.5,0.0,0.0,0.0,2024-11-03,10,2024,11,KCHO,0.0,0.0,,,10
2024-10-31,31,2024-10-31 12:53,12:53,EST,S  10,10.0,Fair,CLR,78.1,57.9,50.0,,79.0,30.18,1021.4,0.0,0.0,0.0,2024-11-03,10,2024,12,KCHO,0.0,0.0,,,10
2024-10-31,31,2024-10-31 13:53,13:53,EST,S  16,10.0,Fair,CLR,79.0,57.0,47.0,,80.0,30.15,1020.4,0.0,0.0,0.0,2024-11-03,10,2024,13,KCHO,0.0,0.0,,,16
2024-10-31,31,2024-10-31 14:53,14:53,EST,S  17,10.0,Fair,CLR,80.1,57.0,45.0,,80.0,30.12,1019.4,0.0,0.0,0.0,2024-11-03,10,2024,14,KCHO,0.0,0.0,0.0,,17
2024-10-31,31,2024-10-31 15:53,15:53,EST,S  13  G 23,10.0,Fair,CLR,79.0,55.9,45.0,,80.0,30.11,1019.0,0.0,0.0,0.0,2024-11-03,10,2024,15,KCHO,0.0,0.0,0.0,,13
2024-10-31,31,2024-10-31 16:53,16:53,EST,S  16  G 23,10.0,Fair,CLR,78.1,55.9,47.0,,79.0,30.1,1018.6,0.0,0.0,0.0,2024-11-03,10,2024,16,KCHO,0.0,0.0,0.0,,16
2024-10-31,31,2024-10-31 17:53,17:53,EST,S  10  G 22,10.0,Fair,CLR,75.0,57.0,54.0,,78.0,30.1,1018.8,0.0,0.0,0.0,2024-11-03,10,2024,17,KCHO,0.0,0.0,0.0,,10
2024-10-31,31,2024-10-31 18:53,18:53,EST,S  10  G 21,10.0,Fair,CLR,72.0,55.9,57.0,,,30.11,1019.1,0.0,0.0,0.0,2024-11-03,10,2024,18,KCHO,0.0,0.0,0.0,,10
2024-10-31,31,2024-10-31 19:53,19:53,EST,S  12,10.0,Fair,CLR,71.1,55.0,57.0,,,30.11,1019.2,0.0,0.0,0.0,2024-11-03,10,2024,19,KCHO,0.0,0.0,0.0,,12
2024-10-31,31,2024-10-31 20:53,20:53,EST,S  10,10.0,Fair,CLR,69.1,55.0,61.0,,,30.1,1018.9,0.0,0.0,0.0,2024-11-03,10,2024,20,KCHO,0.0,0.0,0.0,,10
2024-10-31,31,2024-10-31 21:53,21:53,EST,S  8,10.0,Fair,CLR,66.0,55.0,68.0,,,30.1,1018.6,0.0,0.0,0.0,2024-11-03,10,2024,21,KCHO,0.0,0.0,0.0,,8
2024-10-31,31,2024-10-31 22:53,22:53,EST,S  8,10.0,Fair,CLR,66.0,55.9,70.0,,,30.09,1018.5,0.0,0.0,0.0,2024-11-03,10,2024,22,KCHO,0.0,0.0,0.0,,8
2024-10-31,31,2024-10-31 23:53,23:53,EST,S  9,10.0,Fair,CLR,68.0,55.0,63.0,,,30.08,1018.1,0.0,0.0,0.0,2024-11-03,10,2024,23,KCHO,0.0,0.0,0.0,,9
2024-11-01,1,2024-11-01 00:53,00:53,EST,S  13,10.0,Fair,CLR,66.9,55.0,66.0,,,30.08,1017.9,0.0,0.0,0.0,2024-11-03,11,2024,0,KCHO,0.0,0.0,0.0,,13
2024-11-01,1,2024-11-01 01:53,01:53,EST,S  10,10.0,Fair,CLR,64.9,55.0,70.0,,,30.07,1017.5,0.0,0.0,0.0,2024-11-03,11,2024,1,KCHO,0.0,0.0,0.0,,10
2024-11-01,1,2024-11-01 02:53,02:53,EST,S  8,10.0,Fair,CLR,63.0,55.0,76.0,,,30.05,1016.9,0.0,0.0,0.0,2024-11-03,11,2024,2,KCHO,0.0,0.0,0.0,0.0,8
2024-11-01,1,2024-11-01 03:53,03:53,EST,S  9,10.0,Fair,CLR,63.0,55.0,76.0,,,30.04,1016.6,0.0,0.0,0.0,2024-11-03,11,2024,3,KCHO,0.0,0.0,0.0,0.0,9
2024-11-01,1,2024-11-01 04:53,04:53,EST,S  9,10.0,Fair,CLR,63.0,55.0,76.0,,,30.04,1016.7,0.0,0.0,0.0,2024-11-03,11,2024,4,KCHO,0.0,0.0,0.0,0.0,9
2024-11-01,1,2024-11-01 05:53,05:53,EST,S  10,10.0,Fair,CLR,63.0,55.0,76.0,,,30.06,1017.2,0.0,0.0,0.0,2024-11-03,11,2024,5,KCHO,0.0,0.0,0.0,0.0,10
2024-11-01,1,2024-11-01 06:53,06:53,EST,S  10,10.0,Fair,CLR,63.0,55.0,76.0,,,30.06,1017.3,0.0,0.0,0.0,2024-11-03,11,2024,6,KCHO,0.0,0.0,0.0,0.0,10
2024-11-01,1,2024-11-01 07:53,07:53,EST,SW  6,10.0,A Few Clouds,FEW110,64.0,55.0,73.0,,,30.07,1017.7,0.0,0.0,0.0,2024-11-03,11,2024,7,KCHO,0.0,0.0,0.0,0.0,6
2024-11-01,1,2024-11-01 08:53,08:53,EST,S  7,10.0,Light Rain,FEW070 OVC110,64.0,55.9,75.0,,,30.09,1018.5,0.0,0.0,0.0,2024-11-03,11,2024,8,KCHO,0.0,0.0,0.0,0.0,7
2024-11-01,1,2024-11-01 09:53,09:53,EST,S  12,10.0,Mostly Cloudy,BKN110,64.0,57.0,78.0,,,30.11,1019.1,0.0,0.0,0.0,2024-11-03,11,2024,9,KCHO,0.0,0.0,0.0,0.0,12
2024-11-01,1,2024-11-01 10:53,10:53,EST,SW  6,10.0,A Few Clouds,FEW110,66.0,55.9,70.0,,,30.12,1019.3,0.0,0.0,0.0,2024-11-03,11,2024,10,KCHO,0.0,0.0,0.0,0.0,6
2024-11-01,1,2024-11-01 11:53,11:53,EST,S  10,10.0,Fair,CLR,71.1,57.9,63.0,,,30.12,1019.2,0.0,0.0,0.0,2024-11-03,11,2024,11,KCHO,0.0,0.0,0.0,0.0,10
2024-11-01,1,2024-11-01 12:53,12:53,EST,S  9,10.0,Fair,CLR,75.9,57.9,54.0,,78.0,30.11,1018.9,0.0,0.0,0.0,2024-11-03,11,2024,12,KCHO,0.0,0.0,0.0,0.0,9
2024-11-01,1,2024-11-01 13:53,13:53,EST,Calm,10.0,Overcast,OVC065,77.0,55.0,47.0,,78.0,30.09,1018.2,0.0,0.0,0.0,2024-11-03,11,2024,13,KCHO,0.0,0.0,0.0,0.0,0
2024-11-01,1,2024-11-01 14:53,14:53,EST,W  7,10.0,Partly Cloudy,FEW070 SCT080,79.0,54.0,42.0,,79.0,30.08,1017.8,0.0,0.0,0.0,2024-11-03,11,2024,14,KCHO,0.0,0.0,0.0,0.0,7
2024-11-01,1,2024-11-01 15:53,15:53,EST,W  8,10.0,Partly Cloudy,SCT070,79.0,51.1,38.0,,79.0,30.08,1018.1,0.0,0.0,0.0,2024-11-03,11,2024,15,KCHO,0.0,0.0,0.0,0.0,8
2024-11-01,1,2024-11-01 16:53,16:53,EST,W  6  G 18,10.0,Fair,CLR,77.0,48.9,37.0,,78.0,30.09,1018.5,0.0,0.0,0.0,2024-11-03,11,2024,16,KCHO,0.0,0.0,0.0,0.0,6
2024-11-01,1,2024-11-01 17:53,17:53,EST,NW  8,10.0,A Few Clouds,FEW060,73.9,48.0,40.0,,,30.11,1019.2,0.0,0.0,0.0,2024-11-03,11,2024,17,KCHO,0.0,0.0,0.0,0.0,8
2024-11-01,1,2024-11-01 18:53,18:53,EST,W  3,10.0,Fair,CLR,70.0,46.9,44.0,,,30.14,1020.0,0.0,0.0,0.0,2024-11-03,11,2024,18,KCHO,0.0,0.0,0.0,0.0,3
2024-11-01,1,2024-11-01 19:53,19:53,EST,N  3,10.0,Fair,CLR,66.9,46.9,49.0,,,30.16,1020.7,0.0,0.0,0.0,2024-11-03,11,2024,19,KCHO,0.0,0.0,0.0,0.0,3
2024-11-01,1,2024-11-01 20:53,20:53,EST,S  5,10.0,Fair,CLR,63.0,46.0,54.0,,,30.16,1020.8,0.0,0.0,0.0,2024-11-03,11,2024,20,KCHO,0.0,0.0,0.0,0.0,5
2024-11-01,1,2024-11-01 21:53,21:53,EST,Vrbl  3,10.0,Fair,CLR,66.0,45.0,47.0,,,30.17,1021.2,0.0,0.0,0.0,2024-11-03,11,2024,21,KCHO,0.0,0.0,0.0,0.0,3
2024-11-01,1,2024-11-01 22:53,22:53,EST,W  3,10.0,Fair,CLR,63.0,44.1,50.0,,,30.19,1021.8,0.0,0.0,0.0,2024-11-03,11,2024,22,KCHO,0.0,0.0,0.0,0.0,3
2024-11-01,1,2024-11-01 23:53,23:53,EST,Calm,10.0,Fair,CLR,55.9,43.0,62.0,,,30.21,1022.5,0.0,0.0,0.0,2024-11-03,11,2024,23,KCHO,0.0,0.0,0.0,0.0,0
2024-11-02,2,2024-11-02 00:53,00:53,EST,SE  5,10.0,Fair,CLR,57.0,37.9,49.0,,,30.22,1022.9,0.0,0.0,0.0,2024-11-03,11,2024,0,KCHO,0.0,0.0,0.0,0.0,5
2024-11-02,2,2024-11-02 01:53,01:53,EST,Calm,10.0,Fair,CLR,57.0,36.0,45.0,,,30.23,1023.3,0.0,0.0,0.0,2024-11-03,11,2024,1,KCHO,0.0,0.0,0.0,0.0,0
2024-11-02,2,2024-11-02 02:53,02:53,EST,NE  3,10.0,Fair,CLR,53.1,37.0,55.0,,,30.25,1023.9,0.0,0.0,0.0,2024-11-03,11,2024,2,KCHO,0.0,0.0,0.0,0.0,3
2024-11-02,2,2024-11-02 03:53,03:53,EST,NE  3,10.0,Fair,CLR,52.0,37.9,59.0,,,30.27,1024.5,0.0,0.0,0.0,2024-11-03,11,2024,3,KCHO,0.0,0.0,0.0,0.0,3
2024-11-02,2,2024-11-02 04:53,04:53,EST,NE  3,10.0,Fair,CLR,46.9,37.0,69.0,,,30.28,1025.0,0.0,0.0,0.0,2024-11-03,11,2024,4,KCHO,0.0,0.0,0.0,0.0,3
2024-11-02,2,2024-11-02 05:53,05:53,EST,Calm,10.0,Fair,CLR,46.9,37.0,69.0,,,30.3,1025.9,0.0,0.0,0.0,2024-11-03,11,2024,5,KCHO,0.0,0.0,0.0,0.0,0
2024-11-02,2,2024-11-02 06:53,06:53,EST,Calm,10.0,Fair,CLR,46.0,37.0,71.0,,,30.33,1026.6,0.0,0.0,0.0,2024-11-03,11,2024,6,KCHO,0.0,0.0,0.0,0.0,0
2024-11-02,2,2024-11-02 07:53,07:53,EST,Calm,10.0,Fair,CLR,46.0,36.0,68.0,,,30.34,1027.3,0.0,0.0,0.0,2024-11-03,11,2024,7,KCHO,0.0,0.0,0.0,0.0,0
2024-11-02,2,2024-11-02 08:53,08:53,EST,Calm,10.0,Fair,CLR,45.0,37.9,77.0,,,30.37,1028.1,0.0,0.0,0.0,2024-11-03,11,2024,8,KCHO,0.0,0.0,0.0,0.0,0
2024-11-02,2,2024-11-02 09:53,09:53,EST,Calm,10.0,Fair,CLR,51.1,37.9,61.0,,,30.38,1028.4,0.0,0.0,0.0,2024-11-03,11,2024,9,KCHO,0.0,0.0,0.0,0.0,0
2024-11-02,2,2024-11-02 10:53,10:53,EST,Vrbl  3,10.0,Fair,CLR,54.0,39.0,57.0,,,30.37,1028.3,0.0,0.0,0.0,2024-11-03,11,2024,10,KCHO,0.0,0.0,0.0,0.0,3
2024-11-02,2,2024-11-02 11:53,11:53,EST,Vrbl  3,10.0,Fair,CLR,57.0,37.9,49.0,,,30.37,1028.1,0.0,0.0,0.0,2024-11-03,11,2024,11,KCHO,0.0,0.0,0.0,0.0,3
2024-11-02,2,2024-11-02 12:53,12:53,EST,NE  5,10.0,Fair,CLR,60.1,37.9,44.0,,,30.34,1027.3,0.0,0.0,0.0,2024-11-03,11,2024,12,KCHO,0.0,0.0,0.0,0.0,5
2024-11-02,2,2024-11-02 13:53,13:53,EST,NE  3,10.0,Fair,CLR,62.1,37.9,41.0,,,30.32,1026.4,0.0,0.0,0.0,2024-11-03,11,2024,13,KCHO,0.0,0.0,0.0,0.0,3
2024-11-02,2,2024-11-02 14:53,14:53,EST,SE  6,10.0,Fair,CLR,64.0,37.9,38.0,,,30.3,1025.6,0.0,0.0,0.0,2024-11-03,11,2024,14,KCHO,0.0,0.0,0.0,0.0,6
2024-11-02,2,2024-11-02 15:53,15:53,EST,E  5,10.0,Fair,CLR,64.9,39.0,39.0,,,30.29,1025.5,0.0,0.0,0.0,2024-11-03,11,2024,15,KCHO,0.0,0.0,0.0,0.0,5
2024-11-02,2,2024-11-02 16:53,16:53,EST,Calm,10.0,Fair,CLR,64.0,39.0,40.0,,,30.3,1025.8,0.0,0.0,0.0,2024-11-03,11,2024,16,KCHO,0.0,0.0,0.0,0.0,0
2024-11-02,2,2024-11-02 17:53,17:53,EST,E  5,10.0,Fair,CLR,61.0,39.0,44.0,,,30.3,1025.9,0.0,0.0,0.0,2024-11-03,11,2024,17,KCHO,0.0,0.0,0.0,0.0,5
2024-11-02,2,2024-11-02 18:53,18:53,EST,NE  3,10.0,Fair,CLR,57.0,39.0,51.0,,,30.32,1026.6,0.0,0.0,0.0,2024-11-03,11,2024,18,KCHO,0.0,0.0,0.0,0.0,3
2024-11-02,2,2024-11-02 19:53,19:53,EST,Calm,10.0,Fair,CLR,54.0,39.0,57.0,,,30.33,1027.1,0.0,0.0,0.0,2024-11-03,11,2024,19,KCHO,0.0,0.0,0.0,0.0,0
2024-11-02,2,2024-11-02 20:53,20:53,EST,N  3,10.0,Fair,CLR,48.9,39.9,71.0,,,30.36,1028.0,0.0,0.0,0.0,2024-11-03,11,2024,20,KCHO,0.0,0.0,0.0,0.0,3
2024-11-02,2,2024-11-02 21:53,21:53,EST,N  3,10.0,Fair,CLR,51.1,37.9,61.0,,,30.37,1028.4,0.0,0.0,0.0,2024-11-03,11,2024,21,KCHO,0.0,0.0,0.0,0.0,3
2024-11-02,2,2024-11-02 22:53,22:53,EST,NW  5,10.0,Fair,CLR,48.9,37.9,66.0,48.0,,30.38,1028.7,0.0,0.0,0.0,2024-11-03,11,2024,22,KCHO,0.0,0.0,0.0,0.0,5
2024-11-02,2,2024-11-02 23:53,23:53,EST,Calm,10.0,Fair,CLR,45.0,37.9,77.0,,,30.38,1028.8,0.0,0.0,0.0,2024-11-03,11,2024,23,KCHO,0.0,0.0,0.0,0.0,0
2024-11-03,3,2024-11-03 00:53,00:53,EST,Calm,10.0,Fair,CLR,45.0,39.0,80.0,,,30.38,1028.8,0.0,0.0,0.0,2024-11-05,11,2024,0,KCHO,0.0,0.0,0.0,0.0,0
2024-11-03,3,2024-11-03 01:53,01:53,EST,Calm,10.0,Fair,CLR,43.0,39.0,86.0,,,30.39,1029.1,0.0,0.0,0.0,2024-11-03,11,2024,1,KCHO,0.0,0.0,0.0,0.0,0
2024-11-03,3,2024-11-03 02:53,02:53,EST,Calm,10.0,Fair,CLR,39.9,36.0,86.0,,,30.39,1028.9,0.0,0.0,0.0,2024-11-03,11,2024,2,KCHO,0.0,0.0,0.0,0.0,0
2024-11-03,3,2024-11-03 03:53,03:53,EST,Calm,10.0,Fair,CLR,39.0,37.0,93.0,,,30.4,1029.2,0.0,0.0,0.0,2024-11-03,11,2024,3,KCHO,0.0,0.0,0.0,0.0,0
2024-11-03,3,2024-11-03 04:53,04:53,EST,Calm,10.0,Fair,CLR,39.0,36.0,89.0,,,30.41,1029.5,0.0,0.0,0.0,2024-11-03,11,2024,4,KCHO,0.0,0.0,0.0,0.0,0
2024-11-03,3,2024-11-03 05:53,05:53,EST,N  3,10.0,Fair,CLR,36.0,34.0,93.0,,,30.43,1030.3,0.0,0.0,0.0,2024-11-03,11,2024,5,KCHO,0.0,0.0,0.0,0.0,3
2024-11-03,3,2024-11-03 06:53,06:53,EST,NE  3,10.0,Fair,CLR,39.0,35.1,86.0,,,30.43,1030.6,0.0,0.0,0.0,2024-11-03,11,2024,6,KCHO,0.0,0.0,0.0,0.0,3
2024-11-03,3,2024-11-03 07:53,07:53,EST,N  5,10.0,Fair,CLR,42.1,36.0,79.0,40.0,,30.46,1031.4,0.0,0.0,0.0,2024-11-03,11,2024,7,KCHO,0.0,0.0,0.0,0.0,5
2024-11-03,3,2024-11-03 08:53,08:53,EST,NE  8,10.0,Fair,CLR,48.0,36.0,63.0,45.0,,30.46,1031.5,0.0,0.0,0.0,2024-11-03,11,2024,8,KCHO,0.0,0.0,0.0,0.0,8
2024-11-03,3,2024-11-03 09:53,09:53,EST,E  8,10.0,Fair,CLR,51.1,37.0,59.0,,,30.46,1031.3,0.0,0.0,0.0,2024-11-03,11,2024,9,KCHO,0.0,0.0,0.0,0.0,8
2024-11-03,3,2024-11-03 10:53,10:53,EST,NE  7,10.0,Fair,CLR,54.0,37.0,53.0,,,30.46,1031.2,0.0,0.0,0.0,2024-11-03,11,2024,10,KCHO,0.0,0.0,0.0,0.0,7
2024-11-03,3,2024-11-03 11:53,11:53,EST,NE  6,10.0,Fair,CLR,57.0,37.0,47.0,,,30.43,1030.3,0.0,0.0,0.0,2024-11-03,11,2024,11,KCHO,0.0,0.0,0.0,0.0,6
2024-11-03,3,2024-11-03 12:53,12:53,EST,E  3,10.0,Fair,CLR,57.9,37.0,46.0,,,30.4,1029.2,0.0,0.0,0.0,2024-11-05,11,2024,12,KCHO,0.0,0.0,0.0,0.0,3
2024-11-03,3,2024-11-03 13:53,13:53,EST,Calm,10.0,Fair,CLR,57.9,36.0,44.0,,,30.39,1029.2,0.0,0.0,0.0,2024-11-03,11,2024,13,KCHO,0.0,0.0,0.0,0.0,0
2024-11-03,3,2024-11-03 14:53,14:53,EST,Calm,10.0,Fair,CLR,60.1,36.0,41.0,,,30.38,1028.6,0.0,0.0,0.0,2024-11-03,11,2024,14,KCHO,0.0,0.0,0.0,0.0,0
2024-11-03,3,2024-11-03 15:53,15:53,EST,E  6,10.0,Fair,CLR,60.1,36.0,41.0,,,30.38,1028.5,0.0,0.0,0.0,2024-11-03,11,2024,15,KCHO,0.0,0.0,0.0,0.0,6
2024-11-03,3,2024-11-03 16:53,16:53,EST,Calm,10.0,Fair,CLR,55.9,36.0,47.0,,,30.38,1028.9,0.0,0.0,0.0,2024-11-03,11,2024,16,KCHO,0.0,0.0,0.0,0.0,0
2024-11-03,3,2024-11-03 17:53,17:53,EST,NE  3,10.0,Fair,CLR,53.1,37.0,55.0,,,30.39,1029.3,0.0,0.0,0.0,2024-11-03,11,2024,17,KCHO,0.0,0.0,0.0,0.0,3
2024-11-03,3,2024-11-03 18:53,18:53,EST,Calm,10.0,Fair,CLR,50.0,36.0,59.0,,,30.41,1029.7,0.0,0.0,0.0,2024-11-03,11,2024,18,KCHO,0.0,0.0,0.0,0.0,0
2024-11-03,3,2024-11-03 19:53,19:53,EST,N  3,10.0,Fair,CLR,46.0,37.9,73.0,,,30.42,1030.2,0.0,0.0,0.0,2024-11-03,11,2024,19,KCHO,0.0,0.0,0.0,0.0,3
2024-11-03,3,2024-11-03 20:53,20:53,EST,NW  3,10.0,Fair,CLR,46.9,35.1,63.0,,,30.44,1030.6,0.0,0.0,0.0,2024-11-03,11,2024,20,KCHO,0.0,0.0,0.0,0.0,3
2024-11-03,3,2024-11-03 21:53,21:53,EST,Calm,10.0,Fair,CLR,45.0,36.0,71.0,,,30.44,1030.7,0.0,0.0,0.0,2024-11-03,11,2024,21,KCHO,0.0,0.0,0.0,0.0,0
2024-11-03,3,2024-11-03 22:53,22:53,EST,NW  3,10.0,Fair,CLR,44.1,35.1,71.0,,,30.43,1030.5,0.0,0.0,0.0,2024-11-04,11,2024,22,KCHO,0.0,0.0,0.0,0.0,3
2024-11-03,3,2024-11-03 23:53,23:53,EST,Calm,10.0,Fair,CLR,41.0,36.0,82.0,,,30.43,1030.5,0.0,0.0,0.0,2024-11-04,11,2024,23,KCHO,0.0,0.0,0.0,0.0,0
2024-11-04,4,2024-11-04 00:53,00:53,EST,N  3,10.0,Fair,CLR,39.0,35.1,86.0,,,30.43,1030.5,0.0,0.0,0.0,2024-11-04,11,2024,0,KCHO,0.0,0.0,0.0,0.0,3
2024-11-04,4,2024-11-04 01:53,01:53,EST,Calm,10.0,Fair,CLR,39.0,34.0,82.0,,,30.42,1030.1,0.0,0.0,0.0,2024-11-04,11,2024,1,KCHO,0.0,0.0,0.0,0.0,0
2024-11-04,4,2024-11-04 02:53,02:53,EST,Calm,10.0,Fair,CLR,37.0,34.0,89.0,,,30.42,1030.0,0.0,0.0,0.0,2024-11-04,11,2024,2,KCHO,0.0,0.0,0.0,0.0,0
2024-11-04,4,2024-11-04 03:53,03:53,EST,Calm,10.0,Overcast,OVC020,39.0,36.0,89.0,,,30.43,1030.2,0.0,0.0,0.0,2024-11-05,11,2024,3,KCHO,0.0,0.0,0.0,0.0,0
2024-11-04,4,2024-11-04 04:53,04:53,EST,Calm,10.0,Mostly Cloudy,BKN023,41.0,37.0,86.0,,,30.43,1030.5,0.0,0.0,0.0,2024-11-04,11,2024,4,KCHO,0.0,0.0,0.0,0.0,0
2024-11-04,4,2024-11-04 05:53,05:53,EST,Calm,10.0,Mostly Cloudy,BKN023,39.0,36.0,89.0,,,30.45,1031.1,0.0,0.0,0.0,2024-11-04,11,2024,5,KCHO,0.0,0.0,0.0,0.0,0
2024-11-04,4,2024-11-04 06:53,06:53,EST,Calm,10.0,Overcast,OVC024,39.9,36.0,86.0,,,30.45,1031.4,0.0,0.0,0.0,2024-11-04,11,2024,6,KCHO,0.0,0.0,0.0,0.0,0
2024-11-04,4,2024-11-04 07:53,07:53,EST,Calm,10.0,Mostly Cloudy,SCT024 BKN075,44.1,37.9,79.0,,,30.47,1032.1,0.0,0.0,0.0,2024-11-04,11,2024,7,KCHO,0.0,0.0,0.0,0.0,0
2024-11-04,4,2024-11-04 08:53,08:53,EST,Calm,10.0,Overcast,OVC020,46.9,39.0,74.0,,,30.47,1031.8,0.0,0.0,0.0,2024-11-04,11,2024,8,KCHO,0.0,0.0,0.0,0.0,0
2024-11-04,4,2024-11-04 09:53,09:53,EST,Calm,10.0,Overcast,OVC022,50.0,39.9,68.0,,,30.47,1031.8,0.0,0.0,0.0,2024-11-04,11,2024,9,KCHO,0.0,0.0,0.0,0.0,0
2024-11-04,4,2024-11-04 10:53,10:53,EST,S  5,10.0,Mostly Cloudy,BKN024,54.0,44.1,69.0,,,30.46,1031.4,0.0,0.0,0.0,2024-11-04,11,2024,10,KCHO,0.0,0.0,0.0,0.0,5
2024-11-04,4,2024-11-04 11:53,11:53,EST,Vrbl  3,10.0,Partly Cloudy,SCT080,55.9,43.0,62.0,,,30.43,1030.5,0.0,0.0,0.0,2024-11-04,11,2024,11,KCHO,0.0,0.0,0.0,0.0,3
2024-11-04,4,2024-11-04 12:53,12:53,EST,S  6,10.0,Fair,CLR,57.9,42.1,56.0,,,30.4,1029.6,0.0,0.0,0.0,2024-11-04,11,2024,12,KCHO,0.0,0.0,0.0,0.0,6
2024-11-04,4,2024-11-04 13:53,13:53,EST,S  8,10.0,Fair,CLR,60.1,41.0,50.0,,,30.38,1028.5,0.0,0.0,0.0,2024-11-04,11,2024,13,KCHO,0.0,0.0,0.0,0.0,8
2024-11-04,4,2024-11-04 14:53,14:53,EST,Vrbl  5,10.0,Mostly Cloudy,BKN037,60.1,41.0,50.0,,,30.35,1027.8,0.0,0.0,0.0,2024-11-04,11,2024,14,KCHO,0.0,0.0,0.0,0.0,5
2024-11-04,4,2024-11-04 15:53,15:53,EST,S  7,10.0,Mostly Cloudy,BKN036,60.1,42.1,52.0,,,30.34,1027.4,0.0,0.0,0.0,2024-11-04,11,2024,15,KCHO,0.0,0.0,0.0,0.0,7
2024-11-04,4,2024-11-04 16:53,16:53,EST,S  6,10.0,Overcast,OVC033,59.0,43.0,56.0,,,30.34,1027.2,0.0,0.0,0.0,2024-11-04,11,2024,16,KCHO,0.0,0.0,0.0,0.0,6
2024-11-04,4,2024-11-04 17:53,17:53,EST,S  6,10.0,Overcast,OVC033,57.9,44.1,60.0,,,30.33,1027.1,0.0,0.0,0.0,2024-11-04,11,2024,17,KCHO,0.0,0.0,0.0,0.0,6
2024-11-04,4,2024-11-04 18:53,18:53,EST,S  5,10.0,Overcast,OVC029,55.9,46.0,70.0,,,30.32,1026.8,0.0,0.0,0.0,2024-11-04,11,2024,18,KCHO,0.0,0.0,0.0,0.0,5
2024-11-04,4,2024-11-04 19:53,19:53,EST,SW  3,10.0,Overcast,OVC031,57.0,46.0,67.0,,,30.32,1026.5,0.0,0.0,0.0,2024-11-04,11,2024,19,KCHO,0.0,0.0,0.0,0.0,3
2024-11-04,4,2024-11-04 20:53,20:53,EST,Calm,10.0,Overcast,OVC031,53.1,46.0,77.0,,,30.32,1026.5,0.0,0.0,0.0,2024-11-04,11,2024,20,KCHO,0.0,0.0,0.0,0.0,0
2024-11-04,4,2024-11-04 21:53,21:53,EST,Calm,10.0,Fair,CLR,53.1,45.0,74.0,,,30.31,1026.4,0.0,0.0,0.0,2024-11-04,11,2024,21,KCHO,0.0,0.0,0.0,0.0,0
2024-11-04,4,2024-11-04 22:53,22:53,EST,S  3,10.0,Fair,CLR,51.1,44.1,77.0,,,30.3,1025.9,0.0,0.0,0.0,2024-11-04,11,2024,22,KCHO,0.0,0.0,0.0,0.0,3
2024-11-04,4,2024-11-04 23:53,23:53,EST,Calm,10.0,Fair,CLR,51.1,44.1,77.0,,,30.29,1025.4,0.0,0.0,0.0,2024-11-05,11,2024,23,KCHO,0.0,0.0,0.0,0.0,0
2024-11-05,5,2024-11-05 00:53,00:53,EST,Calm,10.0,Mostly Cloudy,BKN026,52.0,45.0,77.0,,,30.27,1024.9,0.0,0.0,0.0,2024-11-05,11,2024,0,KCHO,0.0,0.0,0.0,0.0,0
2024-11-05,5,2024-11-05 01:53,01:53,EST,Calm,10.0,Overcast,OVC027,53.1,45.0,74.0,,,30.27,1024.8,0.0,0.0,0.0,2024-11-05,11,2024,1,KCHO,0.0,0.0,0.0,0.0,0
2024-11-05,5,2024-11-05 02:53,02:53,EST,Calm,10.0,Mostly Cloudy,BKN032,51.1,45.0,80.0,,,30.26,1024.5,0.0,0.0,0.0,2024-11-05,11,2024,2,KCHO,0.0,0.0,0.0,0.0,0
2024-11-05,5,2024-11-05 03:53,03:53,EST,W  3,10.0,Overcast,OVC028,51.1,45.0,80.0,,,30.26,1024.4,0.0,0.0,0.0,2024-11-05,11,2024,3,KCHO,0.0,0.0,0.0,0.0,3
2024-11-05,5,2024-11-05 04:53,04:53,EST,Calm,10.0,Overcast,OVC030,51.1,44.1,77.0,,,30.26,1024.5,0.0,0.0,0.0,2024-11-05,11,2024,4,KCHO,0.0,0.0,0.0,0.0,0
2024-11-05,5,2024-11-05 05:53,05:53,EST,Calm,10.0,Overcast,OVC031,50.0,45.0,83.0,,,30.27,1024.7,0.0,0.0,0.0,2024-11-05,11,2024,5,KCHO,0.0,0.0,0.0,0.0,0
2024-11-05,5,2024-11-05 06:53,06:53,EST,SW  3,10.0,Overcast,OVC033,54.0,46.0,75.0,,,30.27,1024.8,0.0,0.0,0.0,2024-11-05,11,2024,6,KCHO,0.0,0.0,0.0,0.0,3
2024-11-05,5,2024-11-05 07:53,07:53,EST,Calm,10.0,Overcast,OVC029,54.0,46.0,75.0,,,30.28,1025.1,0.0,0.0,0.0,2024-11-05,11,2024,7,KCHO,0.0,0.0,0.0,0.0,0
2024-11-05,5,2024-11-05 08:53,08:53,EST,SW  6,10.0,Overcast,OVC032,57.0,48.9,74.0,,,30.28,1025.1,0.0,0.0,0.0,2024-11-05,11,2024,8,KCHO,0.0,0.0,0.0,0.0,6
2024-11-05,5,2024-11-05 09:53,09:53,EST,Calm,10.0,Fair,CLR,63.0,51.1,65.0,,,30.27,1024.7,0.0,0.0,0.0,2024-11-05,11,2024,9,KCHO,0.0,0.0,0.0,0.0,0
2024-11-05,5,2024-11-05 10:53,10:53,EST,S  13  G 22,10.0,Fair,CLR,69.1,55.9,63.0,,,30.26,1024.4,0.0,0.0,0.0,2024-11-05,11,2024,10,KCHO,0.0,0.0,0.0,0.0,13
2024-11-05,5,2024-11-05 11:53,11:53,EST,S  14,10.0,Fair,CLR,73.0,57.9,59.0,,,30.23,1023.4,0.0,0.0,0.0,2024-11-05,11,2024,11,KCHO,0.0,0.0,0.0,0.0,14
2024-11-05,5,2024-11-05 12:53,12:53,EST,S  16,10.0,Fair,CLR,75.0,57.9,55.0,,78.0,30.21,1022.5,0.0,0.0,0.0,2024-11-05,11,2024,12,KCHO,0.0,0.0,0.0,0.0,16
2024-11-05,5,2024-11-05 13:53,13:53,EST,S  17  G 25,10.0,A Few Clouds,FEW035,75.0,57.9,55.0,,78.0,30.18,1021.4,0.0,0.0,0.0,2024-11-05,11,2024,13,KCHO,0.0,0.0,0.0,0.0,17
2024-11-05,5,2024-11-05 14:53,14:53,EST,S  12,10.0,Overcast,OVC039,73.0,57.9,59.0,,,30.17,1021.1,0.0,0.0,0.0,2024-11-05,11,2024,14,KCHO,0.0,0.0,0.0,0.0,12
2024-11-05,5,2024-11-05 15:53,15:53,EST,SW  7,10.0,Overcast,OVC042,72.0,57.9,61.0,,,30.16,1021.0,0.0,0.0,0.0,2024-11-05,11,2024,15,KCHO,0.0,0.0,0.0,0.0,7
2024-11-05,5,2024-11-05 16:53,16:53,EST,S  7,10.0,Overcast,BKN048 OVC085,71.1,59.0,66.0,,,30.16,1020.9,0.0,0.0,0.0,2024-11-05,11,2024,16,KCHO,0.0,0.0,0.0,0.0,7
2024-11-05,5,2024-11-05 17:53,17:53,EST,S  8,10.0,Overcast,OVC080,70.0,59.0,68.0,,,30.15,1020.8,0.0,0.0,0.0,2024-11-05,11,2024,17,KCHO,0.0,0.0,0.0,0.0,8
2024-11-05,5,2024-11-05 18:53,18:53,EST,SW  7,10.0,Overcast,BKN065 OVC080,69.1,57.9,68.0,,,30.16,1020.8,0.0,0.0,0.0,2024-11-05,11,2024,18,KCHO,0.0,0.0,0.0,0.0,7
2024-11-05,5,2024-11-05 19:53,19:53,EST,SW  5,10.0,Overcast,OVC055,68.0,59.0,73.0,,,30.16,1020.8,0.0,0.0,0.0,2024-11-05,11,2024,19,KCHO,0.0,0.0,0.0,0.0,5
2024-11-05,5,2024-11-05 20:53,20:53,EST,S  6,10.0,Overcast,OVC070,64.9,57.9,78.0,,,30.15,1020.8,0.0,0.0,0.0,2024-11-05,11,2024,20,KCHO,0.0,0.0,0.0,0.0,6
2024-11-05,5,2024-11-05 21:53,21:53,EST,SW  3,10.0,Mostly Cloudy,FEW041 BKN060,66.9,59.0,76.0,,,30.15,1020.5,0.0,0.0,0.0,2024-11-05,11,2024,21,KCHO,0.0,0.0,0.0,0.0,3
2024-11-05,5,2024-11-05 22:53,22:53,EST,S  7,10.0,A Few Clouds,FEW055,64.9,59.0,81.0,,,30.15,1020.5,0.0,0.0,0.0,2024-11-05,11,2024,22,KCHO,0.0,0.0,0.0,0.0,7
2024-11-05,5,2024-11-05 23:53,23:53,EST,SW  3,10.0,Mostly Cloudy,FEW037 BKN055,64.0,59.0,84.0,,,30.16,1020.7,0.0,0.0,0.0,2024-11-06,11,2024,23,KCHO,0.0,0.0,0.0,0.0,3
2024-11-06,6,2024-11-06 00:53,00:53,EST,S  9,10.0,Overcast,BKN038 OVC047,64.0,57.9,81.0,,,30.15,1020.5,0.0,0.0,0.0,2024-11-06,11,2024,0,KCHO,0.0,0.0,0.0,0.0,9
2024-11-06,6,2024-11-06 01:53,01:53,EST,S  8,10.0,Fair,CLR,62.1,57.0,84.0,,,30.12,1019.5,0.0,0.0,0.0,2024-11-06,11,2024,1,KCHO,0.0,0.0,0.0,0.0,8
2024-11-06,6,2024-11-06 02:53,02:53,EST,S  7,10.0,Mostly Cloudy,BKN024,62.1,57.0,84.0,,,30.12,1019.4,0.0,0.0,0.0,2024-11-06,11,2024,2,KCHO,0.0,0.0,0.0,0.0,7
2024-11-06,6,2024-11-06 03:53,03:53,EST,S  7,10.0,Mostly Cloudy,BKN023 BKN033,61.0,57.0,87.0,,,30.11,1019.2,0.0,0.0,0.0,2024-11-06,11,2024,3,KCHO,0.0,0.0,0.0,0.0,7
2024-11-06,6,2024-11-06 04:53,04:53,EST,S  8,10.0,Partly Cloudy,SCT047,61.0,57.0,87.0,,,30.11,1019.1,0.0,0.0,0.0,2024-11-06,11,2024,4,KCHO,0.0,0.0,0.0,0.0,8
2024-11-06,6,2024-11-06 05:53,05:53,EST,S  9,10.0,A Few Clouds,FEW049,60.1,57.0,90.0,,,30.11,1019.0,0.0,0.0,0.0,2024-11-06,11,2024,5,KCHO,0.0,0.0,0.0,0.0,9
2024-11-06,6,2024-11-06 06:53,06:53,EST,S  7,10.0,A Few Clouds,FEW044,60.1,57.0,90.0,,,30.12,1019.5,0.0,0.0,0.0,2024-11-06,11,2024,6,KCHO,0.0,0.0,0.0,0.0,7
2024-11-06,6,2024-11-06 07:53,07:53,EST,S  8,10.0,Fair,CLR,62.1,59.0,90.0,,,30.13,1019.7,0.0,0.0,0.0,2024-11-06,11,2024,7,KCHO,0.0,0.0,0.0,0.0,8
2024-11-06,6,2024-11-06 08:53,08:53,EST,S  9,10.0,Fair,CLR,66.0,60.1,81.0,,,30.14,1020.0,0.0,0.0,0.0,2024-11-06,11,2024,8,KCHO,0.0,0.0,0.0,0.0,9
2024-11-06,6,2024-11-06 09:53,09:53,EST,S  10,10.0,Fair,CLR,71.1,61.0,71.0,,,30.13,1019.7,0.0,0.0,0.0,2024-11-06,11,2024,9,KCHO,0.0,0.0,0.0,0.0,10
2024-11-06,6,2024-11-06 10:53,10:53,EST,S  9,10.0,Fair,CLR,73.9,62.1,67.0,,,30.12,1019.4,0.0,0.0,0.0,2024-11-06,11,2024,10,KCHO,0.0,0.0,0.0,0.0,9
2024-11-06,6,2024-11-06 11:53,11:53,EST,SW  12,10.0,Fair,CLR,78.1,62.1,58.0,,80.0,30.1,1018.6,0.0,0.0,0.0,2024-11-06,11,2024,11,KCHO,0.0,0.0,0.0,0.0,12
2024-11-06,6,2024-11-06 12:53,12:53,EST,S  16  G 22,10.0,Fair,CLR,81.0,63.0,54.0,,82.0,30.07,1017.5,0.0,0.0,0.0,2024-11-06,11,2024,12,KCHO,0.0,0.0,0.0,0.0,16
2024-11-06,6,2024-11-06 13:53,13:53,EST,S  13,10.0,Partly Cloudy,SCT049,82.0,62.1,51.0,,83.0,30.06,1017.4,0.0,0.0,0.0,2024-11-06,11,2024,13,KCHO,0.0,0.0,0.0,0.0,13
2024-11-06,6,2024-11-06 14:53,14:53,EST,S  7,10.0,Fair,CLR,80.1,63.0,56.0,,81.0,30.06,1017.4,0.0,0.0,0.0,2024-11-06,11,2024,14,KCHO,0.0,0.0,0.0,0.0,7
2024-11-06,6,2024-11-06 16:53,16:53,EST,SW  6,10.0,Fair,CLR,77.0,62.1,60.0,,79.0,30.07,1017.6,0.0,0.0,0.0,2024-11-06,11,2024,16,KCHO,0.0,0.0,0.0,0.0,6
2024-11-06,6,2024-11-06 17:53,17:53,EST,S  6,10.0,Fair,CLR,71.1,62.1,73.0,,,30.08,1017.9,0.0,0.0,0.0,2024-11-06,11,2024,17,KCHO,0.0,0.0,0.0,0.0,6
2024-11-06,6,2024-11-06 18:53,18:53,EST,S  7,10.0,Fair,CLR,71.1,62.1,73.0,,,30.07,1017.7,0.0,0.0,0.0,2024-11-06,11,2024,18,KCHO,0.0,0.0,0.0,0.0,7
2024-11-06,6,2024-11-06 19:53,19:53,EST,S  6,10.0,Fair,CLR,71.1,62.1,73.0,,,30.07,1017.8,0.0,0.0,0.0,2024-11-06,11,2024,19,KCHO,0.0,0.0,0.0,0.0,6
2024-11-06,6,2024-11-06 20:53,20:53,EST,S  5,10.0,Fair,CLR,71.1,62.1,73.0,,,30.09,1018.2,0.0,0.0,0.0,2024-11-06,11,2024,20,KCHO,0.0,0.0,0.0,0.0,5
2024-11-06,6,2024-11-06 21:53,21:53,EST,S  6,10.0,Fair,CLR,68.0,62.1,81.0,,,30.1,1018.6,0.0,0.0,0.0,2024-11-06,11,2024,21,KCHO,0.0,0.0,0.0,0.0,6
2024-11-06,6,2024-11-06 22:53,22:53,EST,Calm,10.0,Fair,CLR,69.1,62.1,78.0,,,30.09,1018.3,0.0,0.0,0.0,2024-11-06,11,2024,22,KCHO,0.0,0.0,0.0,0.0,0
2024-11-06,6,2024-11-06 23:53,23:53,EST,S  3,10.0,Fair,CLR,68.0,61.0,78.0,,,30.08,1018.0,0.0,0.0,0.0,2024-11-07,11,2024,23,KCHO,0.0,0.0,0.0,0.0,3
2024-11-07,7,2024-11-07 00:53,00:53,EST,W  3,10.0,Fair,CLR,66.9,61.0,81.0,,,30.08,1017.9,0.0,0.0,0.0,2024-11-07,11,2024,0,KCHO,0.0,0.0,0.0,0.0,3
2024-11-07,7,2024-11-07 01:53,01:53,EST,S  5,10.0,Fair,CLR,64.9,61.0,87.0,,,30.08,1018.0,0.0,0.0,0.0,2024-11-07,11,2024,1,KCHO,0.0,0.0,0.0,0.0,5
2024-11-07,7,2024-11-07 02:53,02:53,EST,SW  3,10.0,Fair,CLR,64.9,61.0,87.0,,,30.09,1018.3,0.0,0.0,0.0,2024-11-07,11,2024,2,KCHO,0.0,0.0,0.0,0.0,3
2024-11-07,7,2024-11-07 03:53,03:53,EST,Calm,10.0,Fair,CLR,63.0,60.1,90.0,,,30.08,1018.1,0.0,0.0,0.0,2024-11-07,11,2024,3,KCHO,0.0,0.0,0.0,0.0,0
2024-11-07,7,2024-11-07 04:53,04:53,EST,S  3,10.0,Fair,CLR,64.0,61.0,90.0,,,30.1,1018.7,0.0,0.0,0.0,2024-11-07,11,2024,4,KCHO,0.0,0.0,0.0,0.0,3
2024-11-07,7,2024-11-07 05:53,05:53,EST,Calm,10.0,Fair,CLR,62.1,60.1,93.0,,,30.1,1018.9,0.0,0.0,0.0,2024-11-07,11,2024,5,KCHO,0.0,0.0,0.0,0.0,0
2024-11-07,7,2024-11-07 06:53,06:53,EST,Calm,10.0,A Few Clouds,FEW120,62.1,60.1,93.0,,,30.12,1019.3,0.0,0.0,0.0,2024-11-07,11,2024,6,KCHO,0.0,0.0,0.0,0.0,0
2024-11-07,7,2024-11-07 07:53,07:53,EST,Calm,10.0,Mostly Cloudy,BKN110,63.0,60.1,90.0,,,30.12,1019.5,0.0,0.0,0.0,2024-11-07,11,2024,7,KCHO,0.0,0.0,0.0,0.0,0
2024-11-07,7,2024-11-07 08:53,08:53,EST,Calm,10.0,Mostly Cloudy,BKN110,68.0,61.0,78.0,,,30.13,1019.6,0.0,0.0,0.0,2024-11-07,11,2024,8,KCHO,0.0,0.0,0.0,0.0,0
2024-11-07,7,2024-11-07 09:53,09:53,EST,Calm,10.0,Overcast,OVC110,72.0,62.1,71.0,,,30.13,1019.7,0.0,0.0,0.0,2024-11-07,11,2024,9,KCHO,0.0,0.0,0.0,0.0,0
2024-11-07,7,2024-11-07 10:53,10:53,EST,Calm,10.0,Overcast,FEW060 OVC100,73.9,62.1,67.0,,,30.13,1019.8,0.0,0.0,0.0,2024-11-07,11,2024,10,KCHO,0.0,0.0,0.0,0.0,0
2024-11-07,7,2024-11-07 11:53,11:53,EST,Calm,10.0,Mostly Cloudy,BKN100,77.0,62.1,60.0,,79.0,30.11,1018.8,0.0,0.0,0.0,2024-11-07,11,2024,11,KCHO,0.0,0.0,0.0,0.0,0
2024-11-07,7,2024-11-07 12:53,12:53,EST,S  3,10.0,Overcast,FEW080 OVC110,79.0,61.0,54.0,,80.0,30.08,1017.9,0.0,0.0,0.0,2024-11-07,11,2024,12,KCHO,0.0,0.0,0.0,0.0,3
2024-11-07,7,2024-11-07 13:53,13:53,EST,SE  7,10.0,Mostly Cloudy,BKN090,79.0,61.0,54.0,,80.0,30.07,1017.5,0.0,0.0,0.0,2024-11-07,11,2024,13,KCHO,0.0,0.0,0.0,0.0,7
2024-11-07,7,2024-11-07 14:53,14:53,EST,S  3,10.0,Partly Cloudy,SCT085,79.0,61.0,54.0,,80.0,30.06,1017.2,0.0,0.0,0.0,2024-11-07,11,2024,14,KCHO,0.0,0.0,0.0,0.0,3
2024-11-07,7,2024-11-07 15:53,15:53,EST,Calm,10.0,Overcast,BKN060 OVC075,77.0,62.1,60.0,,79.0,30.06,1017.4,0.0,0.0,0.0,2024-11-07,11,2024,15,KCHO,0.0,0.0,0.0,0.0,0
2024-11-07,7,2024-11-07 16:53,16:53,EST,NW  3,8.0,Light Rain,OVC050,69.1,64.9,87.0,,,30.07,1017.8,0.02,0.0,0.0,2024-11-07,11,2024,16,KCHO,0.02,0.02,0.02,0.02,3
2024-11-07,7,2024-11-07 17:53,17:53,EST,SE  5,10.0,Mostly Cloudy,SCT065 BKN080 BKN110,71.1,64.9,81.0,,,30.07,1017.8,0.01,0.0,0.0,2024-11-07,11,2024,17,KCHO,0.03,0.03,0.03,0.03,5
2024-11-07,7,2024-11-07 18:53,18:53,EST,NE  5,10.0,Overcast,OVC080,69.1,64.9,87.0,,,30.1,1018.6,0.0,0.0,0.03,2024-11-07,11,2024,18,KCHO,0.03,0.03,0.03,0.03,5
2024-11-07,7,2024-11-07 19:53,19:53,EST,NE  8,10.0,Fair,CLR,66.9,61.0,81.0,,,30.1,1018.9,0.0,0.0,0.0,2024-11-07,11,2024,19,KCHO,0.01,0.03,0.03,0.03,8
2024-11-07,7,2024-11-07 20:53,20:53,EST,N  7,10.0,Partly Cloudy,SCT050,66.0,57.9,75.0,,,30.11,1019.0,0.0,0.0,0.0,2024-11-07,11,2024,20,KCHO,0.0,0.03,0.03,0.03,7
2024-11-07,7,2024-11-07 21:53,21:53,EST,NE  5,10.0,Fair,CLR,64.9,55.9,73.0,,,30.11,1018.9,0.0,0.0,0.0,2024-11-07,11,2024,21,KCHO,0.0,0.03,0.03,0.03,5
2024-11-07,7,2024-11-07 22:53,22:53,EST,NE  6,10.0,Fair,CLR,64.0,55.0,73.0,,,30.11,1018.8,0.0,0.0,0.0,2024-11-07,11,2024,22,KCHO,0.0,0.01,0.03,0.03,6
2024-11-07,7,2024-11-07 23:53,23:53,EST,Calm,10.0,Mostly Cloudy,BKN100,63.0,55.0,76.0,,,30.1,1018.7,0.0,0.0,0.0,2024-11-08,11,2024,23,KCHO,0.0,0.0,0.03,0.03,0
2024-11-08,8,2024-11-08 00:53,00:53,EST,N  3,10.0,Overcast,OVC036,62.1,55.9,80.0,,,30.1,1018.5,0.0,0.0,0.0,2024-11-08,11,2024,0,KCHO,0.0,0.0,0.03,0.03,3
2024-11-08,8,2024-11-08 02:53,02:53,EST,N  3,10.0,Overcast,BKN037 OVC048,62.1,54.0,75.0,,,30.1,1018.6,0.0,0.0,0.0,2024-11-08,11,2024,2,KCHO,0.0,0.0,0.03,0.03,3
2024-11-08,8,2024-11-08 04:53,04:53,EST,NE  5,10.0,Overcast,SCT080 OVC110,59.0,51.1,75.0,,,30.11,1019.3,0.0,0.0,0.0,2024-11-08,11,2024,4,KCHO,0.0,0.0,0.03,0.03,5
2024-11-08,8,2024-11-08 05:53,05:53,EST,Calm,10.0,Overcast,FEW080 OVC100,59.0,50.0,72.0,,,30.11,1019.2,0.0,0.0,0.0,2024-11-08,11,2024,5,KCHO,0.0,0.0,0.03,0.03,0
2024-11-08,8,2024-11-08 06:53,06:53,EST,Calm,10.0,Overcast,OVC100,59.0,48.9,69.0,,,30.11,1019.3,0.0,0.0,0.0,2024-11-08,11,2024,6,KCHO,0.0,0.0,0.01,0.03,0
2024-11-08,8,2024-11-08 07:53,07:53,EST,Calm,10.0,Partly Cloudy,SCT100,59.0,52.0,78.0,,,30.12,1019.5,0.0,0.0,0.0,2024-11-08,11,2024,7,KCHO,0.0,0.0,0.0,0.03,0
2024-11-08,8,2024-11-08 08:53,08:53,EST,Calm,10.0,Fair,CLR,64.0,51.1,63.0,,,30.13,1019.6,0.0,0.0,0.0,2024-11-08,11,2024,8,KCHO,0.0,0.0,0.0,0.03,0
2024-11-08,8,2024-11-08 09:53,09:53,EST,Calm,10.0,Fair,CLR,64.0,51.1,63.0,,,30.12,1019.5,0.0,0.0,0.0,2024-11-08,11,2024,9,KCHO,0.0,0.0,0.0,0.03,0
2024-11-08,8,2024-11-08 10:53,10:53,EST,Vrbl  3,10.0,Fair,CLR,68.0,53.1,59.0,,,30.1,1018.7,0.0,0.0,0.0,2024-11-08,11,2024,10,KCHO,0.0,0.0,0.0,0.03,3
2024-11-08,8,2024-11-08 11:53,11:53,EST,SE  3,10.0,Fair,CLR,70.0,53.1,55.0,,,30.07,1017.7,0.0,0.0,0.0,2024-11-08,11,2024,11,KCHO,0.0,0.0,0.0,0.03,3
2024-11-08,8,2024-11-08 12:53,12:53,EST,N  5,10.0,Fair,CLR,73.0,53.1,50.0,,,30.04,1016.7,0.0,0.0,0.0,2024-11-08,11,2024,12,KCHO,0.0,0.0,0.0,0.03,5
2024-11-08,8,2024-11-08 13:53,13:53,EST,Vrbl  3,10.0,Fair,CLR,75.0,52.0,45.0,,78.0,30.02,1015.8,0.0,0.0,0.0,2024-11-08,11,2024,13,KCHO,0.0,0.0,0.0,0.03,3
2024-11-08,8,2024-11-08 14:53,14:53,EST,N  5,10.0,Fair,CLR,77.0,43.0,30.0,,78.0,30.01,1015.5,0.0,0.0,0.0,2024-11-08,11,2024,14,KCHO,0.0,0.0,0.0,0.03,5
2024-11-08,8,2024-11-08 15:53,15:53,EST,NW  5,10.0,Fair,CLR,75.9,35.1,23.0,,77.0,30.01,1015.4,0.0,0.0,0.0,2024-11-08,11,2024,15,KCHO,0.0,0.0,0.0,0.03,5
2024-11-08,8,2024-11-08 16:53,16:53,EST,NW  7,10.0,Fair,CLR,72.0,30.9,22.0,,,30.01,1015.8,0.0,0.0,0.0,2024-11-08,11,2024,16,KCHO,0.0,0.0,0.0,0.03,7
2024-11-08,8,2024-11-08 17:53,17:53,EST,Vrbl  5,10.0,Fair,CLR,68.0,30.0,24.0,,,30.03,1016.6,0.0,0.0,0.0,2024-11-08,11,2024,17,KCHO,0.0,0.0,0.0,0.03,5
2024-11-08,8,2024-11-08 19:53,19:53,EST,NW  7,10.0,Fair,CLR,66.0,30.0,26.0,,,30.06,1017.6,0.0,0.0,0.0,2024-11-08,11,2024,19,KCHO,0.0,0.0,0.0,0.01,7
2024-11-08,8,2024-11-08 20:53,20:53,EST,Vrbl  7,10.0,Fair,CLR,64.0,30.9,29.0,,,30.08,1018.2,0.0,0.0,0.0,2024-11-08,11,2024,20,KCHO,0.0,0.0,0.0,0.0,7
2024-11-08,8,2024-11-08 21:53,21:53,EST,N  7,10.0,Fair,CLR,62.1,30.0,30.0,,,30.11,1019.2,0.0,0.0,0.0,2024-11-08,11,2024,21,KCHO,0.0,0.0,0.0,0.0,7
2024-11-08,8,2024-11-08 22:53,22:53,EST,NW  10  G 25,10.0,Fair,CLR,63.0,28.9,28.0,,,30.12,1019.5,0.0,0.0,0.0,2024-11-08,11,2024,22,KCHO,0.0,0.0,0.0,0.0,10
2024-11-08,8,2024-11-08 23:53,23:53,EST,Calm,10.0,Fair,CLR,61.0,30.0,31.0,,,30.14,1020.1,0.0,0.0,0.0,2024-11-09,11,2024,23,KCHO,0.0,0.0,0.0,0.0,0
2024-11-09,9,2024-11-09 00:53,00:53,EST,NW  8,10.0,Fair,CLR,57.9,32.0,38.0,,,30.14,1020.3,0.0,0.0,0.0,2024-11-09,11,2024,0,KCHO,0.0,0.0,0.0,0.0,8
2024-11-09,9,2024-11-09 01:53,01:53,EST,N  8  G 17,10.0,Fair,CLR,59.0,32.0,36.0,,,30.16,1020.7,0.0,0.0,0.0,2024-11-09,11,2024,1,KCHO,0.0,0.0,0.0,0.0,8
2024-11-09,9,2024-11-09 02:53,02:53,EST,SE  5,10.0,Fair,CLR,52.0,33.1,49.0,,,30.19,1021.8,0.0,0.0,0.0,2024-11-09,11,2024,2,KCHO,0.0,0.0,0.0,0.0,5
2024-11-09,9,2024-11-09 03:53,03:53,EST,Calm,10.0,Fair,CLR,54.0,33.1,45.0,,,30.2,1022.1,0.0,0.0,0.0,2024-11-09,11,2024,3,KCHO,0.0,0.0,0.0,0.0,0
2024-11-09,9,2024-11-09 04:53,04:53,EST,N  9,10.0,Fair,CLR,50.0,34.0,54.0,47.0,,30.22,1023.0,0.0,0.0,0.0,2024-11-09,11,2024,4,KCHO,0.0,0.0,0.0,0.0,9
2024-11-09,9,2024-11-09 05:53,05:53,EST,E  5,10.0,Fair,CLR,48.9,34.0,56.0,48.0,,30.27,1024.6,0.0,0.0,0.0,2024-11-09,11,2024,5,KCHO,0.0,0.0,0.0,0.0,5
2024-11-09,9,2024-11-09 06:53,06:53,EST,N  3,10.0,Fair,CLR,46.0,34.0,63.0,,,30.3,1025.8,0.0,0.0,0.0,2024-11-09,11,2024,6,KCHO,0.0,0.0,0.0,0.0,3
2024-11-09,9,2024-11-09 07:53,07:53,EST,NE  7,10.0,Fair,CLR,48.9,34.0,56.0,46.0,,30.34,1027.0,0.0,0.0,0.0,2024-11-09,11,2024,7,KCHO,0.0,0.0,0.0,0.0,7
2024-11-09,9,2024-11-09 08:53,08:53,EST,NE  9,10.0,Fair,CLR,52.0,34.0,50.0,,,30.36,1027.7,0.0,0.0,0.0,2024-11-09,11,2024,8,KCHO,0.0,0.0,0.0,0.0,9
2024-11-09,9,2024-11-09 09:53,09:53,EST,NE  12  G 24,10.0,Fair,CLR,54.0,33.1,45.0,,,30.37,1028.0,0.0,0.0,0.0,2024-11-09,11,2024,9,KCHO,0.0,0.0,0.0,0.0,12
2024-11-09,9,2024-11-09 10:53,10:53,EST,E  7,10.0,Fair,CLR,55.9,34.0,44.0,,,30.38,1028.4,0.0,0.0,0.0,2024-11-09,11,2024,10,KCHO,0.0,0.0,0.0,0.0,7
2024-11-09,9,2024-11-09 11:53,11:53,EST,E  8,10.0,Fair,CLR,57.9,32.0,38.0,,,30.35,1027.6,0.0,0.0,0.0,2024-11-09,11,2024,11,KCHO,0.0,0.0,0.0,0.0,8
2024-11-09,9,2024-11-09 13:53,13:53,EST,SE  5,10.0,Fair,CLR,57.9,28.0,32.0,,,30.33,1026.8,0.0,0.0,0.0,2024-11-09,11,2024,13,KCHO,0.0,0.0,0.0,0.0,5
2024-11-09,9,2024-11-09 14:53,14:53,EST,Calm,10.0,Fair,CLR,59.0,27.0,29.0,,,30.33,1026.8,0.0,0.0,0.0,2024-11-09,11,2024,14,KCHO,0.0,0.0,0.0,0.0,0
2024-11-09,9,2024-11-09 15:53,15:53,EST,E  6,10.0,Fair,CLR,57.9,28.0,32.0,,,30.33,1026.8,0.0,0.0,0.0,2024-11-09,11,2024,15,KCHO,0.0,0.0,0.0,0.0,6
2024-11-09,9,2024-11-09 16:53,16:53,EST,Calm,10.0,Fair,CLR,55.9,28.9,36.0,,,30.34,1027.3,0.0,0.0,0.0,2024-11-09,11,2024,16,KCHO,0.0,0.0,0.0,0.0,0
2024-11-09,9,2024-11-09 17:53,17:53,EST,Calm,10.0,Fair,CLR,50.0,30.0,46.0,,,30.35,1027.7,0.0,0.0,0.0,2024-11-09,11,2024,17,KCHO,0.0,0.0,0.0,0.0,0
2024-11-09,9,2024-11-09 18:53,18:53,EST,Calm,10.0,Fair,CLR,48.9,30.0,48.0,,,30.36,1027.9,0.0,0.0,0.0,2024-11-09,11,2024,18,KCHO,0.0,0.0,0.0,0.0,0
2024-11-09,9,2024-11-09 19:53,19:53,EST,N  3,10.0,Fair,CLR,48.0,30.0,50.0,,,30.37,1028.4,0.0,0.0,0.0,2024-11-09,11,2024,19,KCHO,0.0,0.0,0.0,0.0,3
2024-11-09,9,2024-11-09 20:53,20:53,EST,Calm,10.0,Fair,CLR,45.0,30.9,58.0,,,30.38,1028.7,0.0,0.0,0.0,2024-11-09,11,2024,20,KCHO,0.0,0.0,0.0,0.0,0
2024-11-09,9,2024-11-09 21:53,21:53,EST,Calm,10.0,Fair,CLR,41.0,30.9,67.0,,,30.39,1029.1,0.0,0.0,0.0,2024-11-09,11,2024,21,KCHO,0.0,0.0,0.0,0.0,0
2024-11-09,9,2024-11-09 22:53,22:53,EST,Calm,10.0,Fair,CLR,42.1,30.9,65.0,,,30.39,1028.9,0.0,0.0,0.0,2024-11-09,11,2024,22,KCHO,0.0,0.0,0.0,0.0,0
2024-11-09,9,2024-11-09 23:53,23:53,EST,Calm,10.0,Fair,CLR,39.9,30.9,70.0,,,30.38,1028.9,0.0,0.0,0.0,2024-11-10,11,2024,23,KCHO,0.0,0.0,0.0,0.0,0
2024-11-10,10,2024-11-10 00:53,00:53,EST,Calm,10.0,Fair,CLR,39.0,33.1,79.0,,,30.37,1028.5,0.0,0.0,0.0,2024-11-10,11,2024,0,KCHO,0.0,0.0,0.0,0.0,0
2024-11-10,10,2024-11-10 01:53,01:53,EST,Calm,10.0,Fair,CLR,39.9,34.0,79.0,,,30.37,1028.5,0.0,0.0,0.0,2024-11-10,11,2024,1,KCHO,0.0,0.0,0.0,0.0,0
2024-11-10,10,2024-11-10 02:53,02:53,EST,Calm,10.0,Fair,CLR,39.9,33.1,77.0,,,30.36,1027.9,0.0,0.0,0.0,2024-11-10,11,2024,2,KCHO,0.0,0.0,0.0,0.0,0
2024-11-10,10,2024-11-10 03:53,03:53,EST,Calm,10.0,Fair,CLR,41.0,34.0,76.0,,,30.34,1027.3,0.0,0.0,0.0,2024-11-10,11,2024,3,KCHO,0.0,0.0,0.0,0.0,0
2024-11-10,10,2024-11-10 04:53,04:53,EST,SW  5,10.0,Fair,CLR,45.0,34.0,66.0,43.0,,30.33,1026.8,0.0,0.0,0.0,2024-11-10,11,2024,4,KCHO,0.0,0.0,0.0,0.0,5
2024-11-10,10,2024-11-10 05:53,05:53,EST,S  3,10.0,Fair,CLR,44.1,35.1,71.0,,,30.31,1026.4,0.0,0.0,0.0,2024-11-10,11,2024,5,KCHO,0.0,0.0,0.0,0.0,3
2024-11-10,10,2024-11-10 06:53,06:53,EST,S  5,10.0,Fair,CLR,45.0,35.1,68.0,43.0,,30.31,1026.3,0.0,0.0,0.0,2024-11-10,11,2024,6,KCHO,0.0,0.0,0.0,0.0,5
2024-11-10,10,2024-11-10 08:53,08:53,EST,SW  7,10.0,Fair,CLR,50.0,36.0,59.0,48.0,,30.3,1026.1,0.0,0.0,0.0,2024-11-10,11,2024,8,KCHO,0.0,0.0,0.0,0.0,7
2024-11-10,10,2024-11-10 09:53,09:53,EST,S  6,10.0,Mostly Cloudy,BKN030,51.1,37.0,59.0,,,30.27,1025.1,0.0,0.0,0.0,2024-11-10,11,2024,9,KCHO,0.0,0.0,0.0,0.0,6
2024-11-10,10,2024-11-10 10:53,10:53,EST,S  6,10.0,Mostly Cloudy,BKN070,53.1,37.0,55.0,,,30.25,1024.3,0.0,0.0,0.0,2024-11-10,11,2024,10,KCHO,0.0,0.0,0.0,0.0,6
2024-11-10,10,2024-11-10 11:53,11:53,EST,S  10,10.0,Fair,CLR,55.0,35.1,47.0,,,30.22,1023.3,0.0,0.0,0.0,2024-11-10,11,2024,11,KCHO,0.0,0.0,0.0,0.0,10
2024-11-10,10,2024-11-10 12:53,12:53,EST,S  15,10.0,Mostly Cloudy,BKN070,57.0,32.0,39.0,,,30.19,1022.2,0.0,0.0,0.0,2024-11-10,11,2024,12,KCHO,0.0,0.0,0.0,0.0,15
2024-11-10,10,2024-11-10 13:53,13:53,EST,S  15,10.0,Fair,CLR,55.9,36.0,47.0,,,30.15,1020.9,0.0,0.0,0.0,2024-11-10,11,2024,13,KCHO,0.0,0.0,0.0,0.0,15
2024-11-10,10,2024-11-10 14:53,14:53,EST,S  10,10.0,Partly Cloudy,SCT120,55.0,37.9,53.0,,,30.13,1020.2,0.0,0.0,0.0,2024-11-10,11,2024,14,KCHO,0.0,0.0,0.0,0.0,10
2024-11-10,10,2024-11-10 15:53,15:53,EST,S  10  G 18,10.0,Overcast,BKN070 OVC080,54.0,42.1,64.0,,,30.12,1019.8,0.0,0.0,0.0,2024-11-10,11,2024,15,KCHO,0.0,0.0,0.0,0.0,10
2024-11-10,10,2024-11-10 16:53,16:53,EST,SW  14  G 21,6.0,Light Rain,SCT036 BKN050 OVC060,53.1,41.0,64.0,,,30.11,1019.7,0.01,0.0,0.0,2024-11-10,11,2024,16,KCHO,0.01,0.01,0.01,0.01,14
2024-11-10,10,2024-11-10 17:53,17:53,EST,S  9,10.0,Overcast,SCT032 OVC065,52.0,43.0,72.0,,,30.1,1019.1,0.0,0.0,0.0,2024-11-10,11,2024,17,KCHO,0.01,0.01,0.01,0.01,9
2024-11-10,10,2024-11-10 18:53,18:53,EST,S  12,10.0,Overcast,SCT030 BKN039 OVC065,52.0,44.1,75.0,,,30.09,1018.8,0.0,0.0,0.01,2024-11-10,11,2024,18,KCHO,0.01,0.01,0.01,0.01,12
2024-11-10,10,2024-11-10 19:53,19:53,EST,S  13,10.0,Overcast,SCT032 OVC065,50.0,46.9,89.0,46.0,,30.07,1018.1,0.0,0.0,0.0,2024-11-10,11,2024,19,KCHO,0.0,0.01,0.01,0.01,13
2024-11-10,10,2024-11-10 20:53,20:53,EST,S  12,10.0,Overcast,BKN070 OVC100,51.1,48.0,89.0,,,30.04,1017.2,0.0,0.0,0.0,2024-11-10,11,2024,20,KCHO,0.0,0.01,0.01,0.01,12
2024-11-10,10,2024-11-10 21:53,21:53,EST,S  9,10.0,Overcast,FEW044 BKN055 OVC075,52.0,48.9,89.0,,,30.02,1016.6,0.0,0.0,0.0,2024-11-10,11,2024,21,KCHO,0.0,0.01,0.01,0.01,9
2024-11-10,10,2024-11-10 22:53,22:53,EST,S  10,7.0,Light Rain,FEW041 BKN070 OVC085,53.1,51.1,93.0,,,29.99,1015.3,0.0,0.0,0.0,2024-11-10,11,2024,22,KCHO,0.0,0.0,0.01,0.01,10
2024-11-10,10,2024-11-10 23:53,23:53,EST,S  12,10.0,Overcast,OVC004,53.1,51.1,93.0,,,29.97,1014.7,0.0,0.0,0.0,2024-11-11,11,2024,23,KCHO,0.0,0.0,0.01,0.01,12
2024-11-11,11,2024-11-11 00:53,00:53,EST,S  14,10.0,Overcast,OVC005,54.0,52.0,93.0,,,29.94,1013.5,0.0,0.0,0.0,2024-11-14,11,2024,0,KCHO,0.0,0.0,0.01,0.01,14
2024-11-11,11,2024-11-11 01:53,01:53,EST,S  9,10.0,Mostly Cloudy,SCT005 BKN048,54.0,52.0,93.0,,,29.91,1012.7,0.0,0.0,0.0,2024-11-14,11,2024,1,KCHO,0.0,0.0,0.01,0.01,9
2024-11-11,11,2024-11-11 02:53,02:53,EST,S  9  G 20,10.0,Overcast,OVC005,54.0,53.1,97.0,,,29.9,1012.4,0.0,0.0,0.0,2024-11-14,11,2024,2,KCHO,0.0,0.0,0.01,0.01,9
2024-11-11,11,2024-11-11 03:53,03:53,EST,S  9,10.0,Overcast,BKN005 BKN090 OVC110,55.0,53.1,93.0,,,29.89,1011.9,0.0,0.0,0.0,2024-11-14,11,2024,3,KCHO,0.0,0.0,0.01,0.01,9
2024-11-11,11,2024-11-11 04:53,04:53,EST,S  9,10.0,Mostly Cloudy,FEW080 BKN110,55.0,53.1,93.0,,,29.89,1011.9,0.0,0.0,0.0,2024-11-14,11,2024,4,KCHO,0.0,0.0,0.0,0.01,9
2024-11-11,11,2024-11-11 05:53,05:53,EST,S  8,10.0,Overcast,OVC085,55.9,54.0,93.0,,,29.87,1011.3,0.0,0.0,0.0,2024-11-11,11,2024,5,KCHO,0.0,0.0,0.0,0.01,8
2024-11-11,11,2024-11-11 06:53,06:53,EST,Vrbl  5,10.0,Fair,CLR,55.0,53.1,93.0,,,29.86,1011.0,0.0,0.0,0.0,2024-11-14,11,2024,6,KCHO,0.0,0.0,0.0,0.01,5
2024-11-11,11,2024-11-11 07:53,07:53,EST,SW  3,10.0,Fair,CLR,55.0,53.1,93.0,,,29.88,1011.5,0.0,0.0,0.0,2024-11-14,11,2024,7,KCHO,0.0,0.0,0.0,0.01,3
2024-11-11,11,2024-11-11 08:53,08:53,EST,Vrbl  3,10.0,Fair,CLR,57.9,54.0,87.0,,,29.87,1011.2,0.0,0.0,0.0,2024-11-14,11,2024,8,KCHO,0.0,0.0,0.0,0.01,3
2024-11-11,11,2024-11-11 09:53,09:53,EST,S  9,10.0,A Few Clouds,FEW120,63.0,55.9,78.0,,,29.86,1010.7,0.0,0.0,0.0,2024-11-14,11,2024,9,KCHO,0.0,0.0,0.0,0.01,9
2024-11-11,11,2024-11-11 10:53,10:53,EST,SE  8,10.0,Fair,CLR,68.0,57.0,68.0,,,29.84,1010.1,0.0,0.0,0.0,2024-11-14,11,2024,10,KCHO,0.0,0.0,0.0,0.01,8
2024-11-11,11,2024-11-11 11:53,11:53,EST,SW  8,10.0,Partly Cloudy,SCT055,73.9,51.1,45.0,,,29.81,1008.9,0.0,0.0,0.0,2024-11-14,11,2024,11,KCHO,0.0,0.0,0.0,0.01,8
2024-11-11,11,2024-11-11 12:53,12:53,EST,W  12  G 20,10.0,Fair,CLR,75.0,48.9,40.0,,77.0,29.78,1007.8,0.0,0.0,0.0,2024-11-14,11,2024,12,KCHO,0.0,0.0,0.0,0.01,12
2024-11-11,11,2024-11-11 13:53,13:53,EST,W  8  G 18,10.0,Fair,CLR,75.9,45.0,33.0,,77.0,29.76,1007.1,0.0,0.0,0.0,2024-11-14,11,2024,13,KCHO,0.0,0.0,0.0,0.01,8
2024-11-11,11,2024-11-11 14:53,14:53,EST,Vrbl  5,10.0,Fair,CLR,77.0,45.0,32.0,,78.0,29.74,1006.4,0.0,0.0,0.0,2024-11-14,11,2024,14,KCHO,0.0,0.0,0.0,0.01,5
2024-11-11,11,2024-11-11 15:53,15:53,EST,W  8,10.0,Fair,CLR,75.0,43.0,32.0,,77.0,29.74,1006.6,0.0,0.0,0.0,2024-11-14,11,2024,15,KCHO,0.0,0.0,0.0,0.01,8
2024-11-11,11,2024-11-11 16:53,16:53,EST,W  5,10.0,Fair,CLR,73.0,41.0,32.0,,,29.75,1006.8,0.0,0.0,0.0,2024-11-14,11,2024,16,KCHO,0.0,0.0,0.0,0.0,5
2024-11-11,11,2024-11-11 17:53,17:53,EST,SW  3,10.0,Fair,CLR,66.9,42.1,41.0,,,29.77,1007.5,0.0,0.0,0.0,2024-11-14,11,2024,17,KCHO,0.0,0.0,0.0,0.0,3
2024-11-11,11,2024-11-11 18:53,18:53,EST,Calm,10.0,Fair,CLR,68.0,41.0,38.0,,,29.79,1008.2,0.0,0.0,0.0,2024-11-14,11,2024,18,KCHO,0.0,0.0,0.0,0.0,0
2024-11-11,11,2024-11-11 19:53,19:53,EST,Calm,10.0,Fair,CLR,66.9,41.0,39.0,,,29.79,1008.3,0.0,0.0,0.0,2024-11-14,11,2024,19,KCHO,0.0,0.0,0.0,0.0,0
2024-11-11,11,2024-11-11 20:53,20:53,EST,W  3,10.0,Fair,CLR,63.0,39.9,43.0,,,29.8,1008.8,0.0,0.0,0.0,2024-11-14,11,2024,20,KCHO,0.0,0.0,0.0,0.0,3
2024-11-11,11,2024-11-11 21:53,21:53,EST,NW  5,10.0,Fair,CLR,64.0,39.0,40.0,,,29.82,1009.4,0.0,0.0,0.0,2024-11-14,11,2024,21,KCHO,0.0,0.0,0.0,0.0,5
2024-11-11,11,2024-11-11 22:53,22:53,EST,NW  5,10.0,Fair,CLR,63.0,37.0,38.0,,,29.83,1009.7,0.0,0.0,0.0,2024-11-14,11,2024,22,KCHO,0.0,0.0,0.0,0.0,5
2024-11-11,11,2024-11-11 23:53,23:53,EST,Calm,10.0,Fair,CLR,59.0,37.0,44.0,,,29.86,1010.7,0.0,0.0,0.0,2024-11-14,11,2024,23,KCHO,0.0,0.0,0.0,0.0,0
2024-11-12,12,2024-11-12 00:53,00:53,EST,Calm,10.0,Fair,CLR,59.0,37.9,46.0,,,29.89,1011.5,0.0,0.0,0.0,2024-11-15,11,2024,0,KCHO,0.0,0.0,0.0,0.0,0
2024-11-12,12,2024-11-12 01:53,01:53,EST,NW  3,10.0,Fair,CLR,57.9,37.9,48.0,,,29.9,1012.1,0.0,0.0,0.0,2024-11-15,11,2024,1,KCHO,0.0,0.0,0.0,0.0,3
2024-11-12,12,2024-11-12 03:53,03:53,EST,N  3,10.0,Fair,CLR,53.1,37.9,57.0,,,29.94,1013.4,0.0,0.0,0.0,2024-11-15,11,2024,3,KCHO,0.0,0.0,0.0,0.0,3
2024-11-12,12,2024-11-12 04:53,04:53,EST,Calm,10.0,Fair,CLR,54.0,37.0,53.0,,,29.97,1014.6,0.0,0.0,0.0,2024-11-15,11,2024,4,KCHO,0.0,0.0,0.0,0.0,0
2024-11-12,12,2024-11-12 05:53,05:53,EST,S  3,10.0,A Few Clouds,FEW055,48.9,36.0,61.0,,,30.0,1015.6,0.0,0.0,0.0,2024-11-15,11,2024,5,KCHO,0.0,0.0,0.0,0.0,3
2024-11-12,12,2024-11-12 06:53,06:53,EST,NW  6,10.0,Partly Cloudy,SCT050,51.1,37.0,59.0,,,30.03,1016.7,0.0,0.0,0.0,2024-11-15,11,2024,6,KCHO,0.0,0.0,0.0,0.0,6
2024-11-12,12,2024-11-12 07:53,07:53,EST,NW  6,10.0,Fair,CLR,50.0,37.9,63.0,48.0,,30.07,1017.9,0.0,0.0,0.0,2024-11-15,11,2024,7,KCHO,0.0,0.0,0.0,0.0,6
2024-11-12,12,2024-11-12 08:53,08:53,EST,NW  8,10.0,Fair,CLR,55.9,37.0,49.0,,,30.1,1018.9,0.0,0.0,0.0,2024-11-15,11,2024,8,KCHO,0.0,0.0,0.0,0.0,8
2024-11-12,12,2024-11-12 09:53,09:53,EST,Vrbl  6  G 17,10.0,Fair,CLR,55.9,34.0,44.0,,,30.13,1019.9,0.0,0.0,0.0,2024-11-15,11,2024,9,KCHO,0.0,0.0,0.0,0.0,6
2024-11-12,12,2024-11-12 10:53,10:53,EST,NW  8,10.0,Fair,CLR,57.9,35.1,42.0,,,30.14,1020.4,0.0,0.0,0.0,2024-11-15,11,2024,10,KCHO,0.0,0.0,0.0,0.0,8
2024-11-12,12,2024-11-12 11:53,11:53,EST,N  13  G 21,10.0,Fair,CLR,59.0,33.1,38.0,,,30.13,1020.1,0.0,0.0,0.0,2024-11-15,11,2024,11,KCHO,0.0,0.0,0.0,0.0,13
2024-11-12,12,2024-11-12 12:53,12:53,EST,NW  9  G 18,10.0,Fair,CLR,60.1,33.1,36.0,,,30.13,1020.0,0.0,0.0,0.0,2024-11-15,11,2024,12,KCHO,0.0,0.0,0.0,0.0,9
2024-11-12,12,2024-11-12 13:53,13:53,EST,Vrbl  7  G 16,10.0,Fair,CLR,60.1,33.1,36.0,,,30.13,1020.0,0.0,0.0,0.0,2024-11-15,11,2024,13,KCHO,0.0,0.0,0.0,0.0,7
2024-11-12,12,2024-11-12 14:53,14:53,EST,N  8  G 20,10.0,Fair,CLR,60.1,33.1,36.0,,,30.14,1020.5,0.0,0.0,0.0,2024-11-15,11,2024,14,KCHO,0.0,0.0,0.0,0.0,8
2024-11-12,12,2024-11-12 15:53,15:53,EST,NE  10,10.0,Fair,CLR,60.1,32.0,35.0,,,30.17,1021.3,0.0,0.0,0.0,2024-11-15,11,2024,15,KCHO,0.0,0.0,0.0,0.0,10
2024-11-12,12,2024-11-12 16:53,16:53,EST,N  5,10.0,Fair,CLR,55.0,32.0,42.0,,,30.19,1022.0,0.0,0.0,0.0,2024-11-15,11,2024,16,KCHO,0.0,0.0,0.0,0.0,5
2024-11-12,12,2024-11-12 17:53,17:53,EST,N  3,10.0,Fair,CLR,53.1,30.9,43.0,,,30.22,1023.1,0.0,0.0,0.0,2024-11-15,11,2024,17,KCHO,0.0,0.0,0.0,0.0,3
2024-11-12,12,2024-11-12 18:53,18:53,EST,N  3,10.0,Fair,CLR,50.0,30.9,48.0,,,30.24,1023.9,0.0,0.0,0.0,2024-11-15,11,2024,18,KCHO,0.0,0.0,0.0,0.0,3
2024-11-12,12,2024-11-12 19:53,19:53,EST,NE  7,10.0,Fair,CLR,48.9,28.9,46.0,46.0,,30.27,1024.8,0.0,0.0,0.0,2024-11-15,11,2024,19,KCHO,0.0,0.0,0.0,0.0,7
2024-11-12,12,2024-11-12 21:53,21:53,EST,NE  12  G 17,10.0,Fair,CLR,46.9,28.0,48.0,42.0,,30.32,1026.7,0.0,0.0,0.0,2024-11-15,11,2024,21,KCHO,0.0,0.0,0.0,0.0,12
2024-11-12,12,2024-11-12 22:53,22:53,EST,NE  10,10.0,Fair,CLR,45.0,27.0,49.0,40.0,,30.34,1027.3,0.0,0.0,0.0,2024-11-15,11,2024,22,KCHO,0.0,0.0,0.0,0.0,10
2024-11-12,12,2024-11-12 23:53,23:53,EST,NE  8,10.0,Fair,CLR,42.1,26.1,53.0,38.0,,30.36,1027.9,0.0,0.0,0.0,2024-11-15,11,2024,23,KCHO,0.0,0.0,0.0,0.0,8
2024-11-13,13,2024-11-13 00:53,00:53,EST,NE  6,10.0,Fair,CLR,41.0,26.1,55.0,38.0,,30.37,1028.3,0.0,0.0,0.0,2024-11-16,11,2024,0,KCHO,0.0,0.0,0.0,0.0,6
2024-11-13,13,2024-11-13 01:53,01:53,EST,Calm,10.0,Fair,CLR,41.0,25.0,53.0,,,30.38,1028.8,0.0,0.0,0.0,2024-11-16,11,2024,1,KCHO,0.0,0.0,0.0,0.0,0
2024-11-13,13,2024-11-13 02:53,02:53,EST,NE  8,10.0,Fair,CLR,37.9,25.0,60.0,33.0,,30.4,1029.4,0.0,0.0,0.0,2024-11-16,11,2024,2,KCHO,0.0,0.0,0.0,0.0,8
2024-11-13,13,2024-11-13 03:53,03:53,EST,Calm,10.0,Fair,CLR,36.0,24.1,62.0,,,30.42,1030.3,0.0,0.0,0.0,2024-11-16,11,2024,3,KCHO,0.0,0.0,0.0,0.0,0
2024-11-13,13,2024-11-13 04:53,04:53,EST,Calm,10.0,Fair,CLR,35.1,25.0,67.0,,,30.44,1031.0,0.0,0.0,0.0,2024-11-16,11,2024,4,KCHO,0.0,0.0,0.0,0.0,0
2024-11-13,13,2024-11-13 05:53,05:53,EST,Calm,10.0,Fair,CLR,34.0,24.1,67.0,,,30.46,1031.6,0.0,0.0,0.0,2024-11-16,11,2024,5,KCHO,0.0,0.0,0.0,0.0,0
2024-11-13,13,2024-11-13 06:53,06:53,EST,NE  5,10.0,Fair,CLR,32.0,24.1,73.0,28.0,,30.47,1031.9,0.0,0.0,0.0,2024-11-16,11,2024,6,KCHO,0.0,0.0,0.0,0.0,5
2024-11-13,13,2024-11-13 07:53,07:53,EST,Calm,10.0,Fair,CLR,35.1,24.1,64.0,,,30.49,1032.6,0.0,0.0,0.0,2024-11-16,11,2024,7,KCHO,0.0,0.0,0.0,0.0,0
2024-11-13,13,2024-11-13 08:53,08:53,EST,N  8,10.0,Fair,CLR,39.0,26.1,60.0,34.0,,30.5,1032.9,0.0,0.0,0.0,2024-11-16,11,2024,8,KCHO,0.0,0.0,0.0,0.0,8
2024-11-13,13,2024-11-13 09:53,09:53,EST,E  6,10.0,Fair,CLR,42.1,24.1,49.0,39.0,,30.5,1033.0,0.0,0.0,0.0,2024-11-16,11,2024,9,KCHO,0.0,0.0,0.0,0.0,6
2024-11-13,13,2024-11-13 10:53,10:53,EST,E  6,10.0,Fair,CLR,44.1,24.1,45.0,41.0,,30.49,1032.5,0.0,0.0,0.0,2024-11-16,11,2024,10,KCHO,0.0,0.0,0.0,0.0,6
2024-11-13,13,2024-11-13 11:53,11:53,EST,NE  3,10.0,Fair,CLR,46.0,24.1,42.0,,,30.46,1031.4,0.0,0.0,0.0,2024-11-16,11,2024,11,KCHO,0.0,0.0,0.0,0.0,3
2024-11-13,13,2024-11-13 12:53,12:53,EST,NE  5,10.0,Fair,CLR,48.0,24.1,39.0,47.0,,30.43,1030.4,0.0,0.0,0.0,2024-11-16,11,2024,12,KCHO,0.0,0.0,0.0,0.0,5
2024-11-13,13,2024-11-13 13:53,13:53,EST,NE  6,10.0,Fair,CLR,50.0,23.0,35.0,48.0,,30.4,1029.6,0.0,0.0,0.0,2024-11-16,11,2024,13,KCHO,0.0,0.0,0.0,0.0,6
2024-11-13,13,2024-11-13 14:53,14:53,EST,Vrbl  3,10.0,Fair,CLR,51.1,23.0,33.0,,,30.39,1029.1,0.0,0.0,0.0,2024-11-16,11,2024,14,KCHO,0.0,0.0,0.0,0.0,3
2024-11-13,13,2024-11-13 15:53,15:53,EST,E  6,10.0,Fair,CLR,50.0,21.0,32.0,48.0,,30.39,1029.0,0.0,0.0,0.0,2024-11-16,11,2024,15,KCHO,0.0,0.0,0.0,0.0,6
2024-11-13,13,2024-11-13 16:53,16:53,EST,NE  5,10.0,Fair,CLR,45.0,25.0,46.0,43.0,,30.39,1029.3,0.0,0.0,0.0,2024-11-16,11,2024,16,KCHO,0.0,0.0,0.0,0.0,5
2024-11-13,13,2024-11-13 17:53,17:53,EST,Calm,10.0,Fair,CLR,44.1,25.0,47.0,,,30.4,1029.8,0.0,0.0,0.0,2024-11-16,11,2024,17,KCHO,0.0,0.0,0.0,0.0,0
2024-11-13,13,2024-11-13 18:53,18:53,EST,Calm,10.0,Fair,CLR,39.9,28.0,63.0,,,30.41,1030.0,0.0,0.0,0.0,2024-11-16,11,2024,18,KCHO,0.0,0.0,0.0,0.0,0
2024-11-13,13,2024-11-13 19:53,19:53,EST,Calm,10.0,Fair,CLR,39.9,27.0,60.0,,,30.4,1029.9,0.0,0.0,0.0,2024-11-16,11,2024,19,KCHO,0.0,0.0,0.0,0.0,0
2024-11-13,13,2024-11-13 20:53,20:53,EST,Calm,10.0,Fair,CLR,37.0,27.0,67.0,,,30.39,1029.3,0.0,0.0,0.0,2024-11-16,11,2024,20,KCHO,0.0,0.0,0.0,0.0,0
2024-11-13,13,2024-11-13 21:53,21:53,EST,Calm,10.0,Fair,CLR,37.0,28.9,73.0,,,30.37,1028.6,0.0,0.0,0.0,2024-11-16,11,2024,21,KCHO,0.0,0.0,0.0,0.0,0
2024-11-13,13,2024-11-13 22:53,22:53,EST,Calm,10.0,Fair,CLR,39.0,26.1,60.0,,,30.36,1028.1,0.0,0.0,0.0,2024-11-16,11,2024,22,KCHO,0.0,0.0,0.0,0.0,0
2024-11-13,13,2024-11-13 23:53,23:53,EST,Calm,10.0,Fair,CLR,37.0,27.0,67.0,,,30.35,1027.8,0.0,0.0,0.0,2024-11-16,11,2024,23,KCHO,0.0,0.0,0.0,0.0,0
2024-11-14,14,2024-11-14 00:53,00:53,EST,W  3,10.0,Fair,CLR,36.0,28.9,76.0,,,30.34,1027.6,0.0,0.0,0.0,2024-11-17,11,2024,0,KCHO,0.0,0.0,0.0,0.0,3
2024-11-14,14,2024-11-14 01:53,01:53,EST,Calm,10.0,Fair,CLR,36.0,27.0,70.0,,,30.32,1026.9,0.0,0.0,0.0,2024-11-17,11,2024,1,KCHO,0.0,0.0,0.0,0.0,0
2024-11-14,14,2024-11-14 02:53,02:53,EST,Calm,10.0,Fair,CLR,35.1,27.0,72.0,,,30.3,1026.3,0.0,0.0,0.0,2024-11-17,11,2024,2,KCHO,0.0,0.0,0.0,0.0,0
2024-11-14,14,2024-11-14 03:53,03:53,EST,Calm,10.0,Partly Cloudy,SCT036,34.0,27.0,76.0,,,30.29,1025.9,0.0,0.0,0.0,2024-11-17,11,2024,3,KCHO,0.0,0.0,0.0,0.0,0
2024-11-14,14,2024-11-14 04:53,04:53,EST,Calm,10.0,Overcast,OVC035,35.1,28.9,78.0,,,30.28,1025.6,0.0,0.0,0.0,2024-11-17,11,2024,4,KCHO,0.0,0.0,0.0,0.0,0
2024-11-14,14,2024-11-14 05:53,05:53,EST,Calm,10.0,Overcast,OVC034,36.0,28.9,76.0,,,30.26,1025.0,0.0,0.0,0.0,2024-11-17,11,2024,5,KCHO,0.0,0.0,0.0,0.0,0
2024-11-14,14,2024-11-14 06:53,06:53,EST,Calm,10.0,Overcast,OVC033,37.0,30.0,76.0,,,30.25,1024.7,0.0,0.0,0.0,2024-11-17,11,2024,6,KCHO,0.0,0.0,0.0,0.0,0
2024-11-14,14,2024-11-14 07:53,07:53,EST,Calm,10.0,Overcast,OVC037,39.0,30.9,73.0,,,30.27,1025.1,0.0,0.0,0.0,2024-11-17,11,2024,7,KCHO,0.0,0.0,0.0,0.0,0
2024-11-14,14,2024-11-14 08:53,08:53,EST,Calm,10.0,Overcast,OVC037,39.9,30.9,70.0,,,30.24,1024.2,0.0,0.0,0.0,2024-11-17,11,2024,8,KCHO,0.0,0.0,0.0,0.0,0
2024-11-14,14,2024-11-14 09:53,09:53,EST,N  5,10.0,Fair,CLR,42.1,33.1,71.0,40.0,,30.21,1023.1,0.0,0.0,0.0,2024-11-17,11,2024,9,KCHO,0.0,0.0,0.0,0.0,5
2024-11-14,14,2024-11-14 10:53,10:53,EST,NE  7,3.0,Light Rain,FEW049 SCT060 OVC075,42.1,35.1,76.0,38.0,,30.2,1022.8,0.01,0.0,0.0,2024-11-17,11,2024,10,KCHO,0.01,0.01,0.01,0.01,7
2024-11-14,14,2024-11-14 11:53,11:53,EST,N  5,3.0,Light Rain Fog/Mist,FEW029 BKN060 OVC075,42.1,37.9,85.0,40.0,,30.15,1021.2,0.08,0.0,0.0,2024-11-17,11,2024,11,KCHO,0.09,0.09,0.09,0.09,5
2024-11-14,14,2024-11-14 12:53,12:53,EST,N  5,4.0,Light Rain Fog/Mist,OVC023,41.0,39.0,93.0,38.0,,30.12,1020.1,0.09,0.0,0.18,2024-11-17,11,2024,12,KCHO,0.18,0.18,0.18,0.18,5
2024-11-14,14,2024-11-14 13:53,13:53,EST,NW  3,3.0,Light Rain Fog/Mist,OVC016,42.1,39.9,92.0,,,30.11,1019.9,0.05,0.0,0.0,2024-11-17,11,2024,13,KCHO,0.21999999999999997,0.22999999999999998,0.22999999999999998,0.22999999999999998,3
2024-11-14,14,2024-11-14 14:53,14:53,EST,Calm,4.0,Light Rain Fog/Mist,OVC017,42.1,39.9,92.0,,,30.08,1018.8,0.09,0.0,0.0,2024-11-17,11,2024,14,KCHO,0.22999999999999998,0.32,0.32,0.32,0
2024-11-14,14,2024-11-14 15:53,15:53,EST,Calm,3.0,Light Rain Fog/Mist,BKN003 BKN050 OVC070,42.1,41.0,96.0,,,30.06,1018.3,0.13,0.27,0.0,2024-11-17,11,2024,15,KCHO,0.27,0.45,0.45,0.45,0
2024-11-14,14,2024-11-14 16:53,16:53,EST,NW  5,5.0,Light Rain Fog/Mist,FEW003 OVC012,42.1,41.0,96.0,40.0,,30.04,1017.4,0.05,0.0,0.0,2024-11-18,11,2024,16,KCHO,0.27,0.49,0.5,0.5,5
2024-11-14,14,2024-11-14 17:53,17:53,EST,E  3,4.0,Light Rain Fog/Mist,BKN003 OVC011,43.0,41.0,93.0,,,30.03,1017.0,0.01,0.0,0.0,2024-11-18,11,2024,17,KCHO,0.18999999999999997,0.42000000000000004,0.51,0.51,3
2024-11-14,14,2024-11-14 18:53,18:53,EST,Calm,3.0,Light Rain Fog/Mist,BKN003 OVC011,43.0,42.1,97.0,,,30.03,1017.1,0.02,0.0,0.35,2024-11-18,11,2024,18,KCHO,0.07999999999999997,0.35000000000000003,0.53,0.53,0
2024-11-14,14,2024-11-14 19:53,19:53,EST,Calm,2.5,Fog/Mist,BKN003 OVC012,43.0,42.1,97.0,,,30.02,1016.7,0.0,0.0,0.0,2024-11-18,11,2024,19,KCHO,0.02999999999999997,0.30000000000000004,0.53,0.53,0
2024-11-14,14,2024-11-14 20:53,20:53,EST,Calm,3.0,Fog/Mist,OVC003,44.1,42.1,93.0,,,30.01,1016.3,0.0,0.0,0.0,2024-11-18,11,2024,20,KCHO,0.01999999999999997,0.21000000000000002,0.53,0.53,0
2024-11-14,14,2024-11-14 21:53,21:53,EST,Calm,2.0,Light Rain Fog/Mist,BKN004 OVC007,44.1,42.1,93.0,,,30.0,1015.9,0.03,0.03,0.0,2024-11-18,11,2024,21,KCHO,0.02999999999999997,0.11,0.56,0.56,0
2024-11-14,14,2024-11-14 23:53,23:53,EST,Calm,3.0,Light Rain Fog/Mist,BKN003 OVC009,44.1,43.0,96.0,,,29.97,1014.8,0.03,0.0,0.0,2024-11-18,11,2024,23,KCHO,0.05999999999999997,0.09,0.58,0.59,0
2024-11-15,15,2024-11-15 00:53,00:53,EST,NE  5,4.0,Light Rain Fog/Mist,BKN005 OVC010,45.0,43.0,93.0,43.0,,29.94,1014.0,0.02,0.0,0.12,2024-11-18,11,2024,0,KCHO,0.07999999999999997,0.1,0.52,0.61,5
2024-11-15,15,2024-11-15 01:53,01:53,EST,NE  5,10.0,Overcast,OVC004,45.0,44.1,97.0,43.0,,29.94,1013.9,0.0,0.0,0.0,2024-11-18,11,2024,1,KCHO,0.049999999999999975,0.08,0.43,0.61,5
2024-11-15,15,2024-11-15 02:53,02:53,EST,N  7,9.0,Overcast,OVC005,45.0,44.1,97.0,42.0,,29.94,1013.9,0.0,0.0,0.0,2024-11-18,11,2024,2,KCHO,0.019999999999999973,0.08,0.38,0.61,7
2024-11-15,15,2024-11-15 03:53,03:53,EST,N  5,5.0,Fog/Mist,OVC006,45.0,44.1,97.0,43.0,,29.94,1014.0,0.0,0.0,0.0,2024-11-18,11,2024,3,KCHO,0.0,0.08,0.29,0.61,5
2024-11-15,15,2024-11-15 04:53,04:53,EST,N  3,7.0,Overcast,OVC005,45.0,44.1,97.0,,,29.95,1014.2,0.0,0.0,0.0,2024-11-18,11,2024,4,KCHO,0.0,0.05,0.16,0.61,3
2024-11-15,15,2024-11-15 05:53,05:53,EST,Calm,10.0,Overcast,FEW009 OVC020,45.0,44.1,97.0,,,29.96,1014.4,0.0,0.0,0.0,2024-11-18,11,2024,5,KCHO,0.0,0.02,0.11,0.61,0
2024-11-15,15,2024-11-15 06:53,06:53,EST,Calm,10.0,Overcast,OVC015,46.0,44.1,93.0,,,29.97,1014.9,0.0,0.0,0.0,2024-11-18,11,2024,6,KCHO,0.0,0.0,0.1,0.61,0
2024-11-15,15,2024-11-15 07:53,07:53,EST,NE  3,10.0,Light Rain,BKN005 OVC013,46.0,44.1,93.0,,,29.98,1015.4,0.0,0.0,0.0,2024-11-18,11,2024,7,KCHO,0.0,0.0,0.08,0.61,3
2024-11-15,15,2024-11-15 08:53,08:53,EST,N  3,10.0,Overcast,BKN005 OVC013,46.9,44.1,90.0,,,30.0,1015.9,0.0,0.0,0.0,2024-11-18,11,2024,8,KCHO,0.0,0.0,0.08,0.61,3
2024-11-15,15,2024-11-15 09:53,09:53,EST,Calm,10.0,Overcast,BKN006 BKN031 OVC080,48.0,45.0,89.0,,,30.0,1015.9,0.0,0.0,0.0,2024-11-18,11,2024,9,KCHO,0.0,0.0,0.08,0.61,0
2024-11-15,15,2024-11-15 10:53,10:53,EST,Calm,10.0,Mostly Cloudy,BKN008 BKN031,52.0,46.0,80.0,,,29.99,1015.4,0.0,0.0,0.0,2024-11-18,11,2024,10,KCHO,0.0,0.0,0.05,0.61,0
2024-11-15,15,2024-11-15 11:53,11:53,EST,W  6,10.0,A Few Clouds,FEW017,55.0,45.0,69.0,,,29.95,1014.1,0.0,0.0,0.0,2024-11-18,11,2024,11,KCHO,0.0,0.0,0.02,0.6,6
2024-11-15,15,2024-11-15 12:53,12:53,EST,N  6,10.0,Fair,CLR,59.0,45.0,60.0,,,29.94,1013.6,0.0,0.0,0.0,2024-11-18,11,2024,12,KCHO,0.0,0.0,0.0,0.52,6
2024-11-15,15,2024-11-15 13:53,13:53,EST,Vrbl  7,10.0,Partly Cloudy,SCT042,61.0,45.0,56.0,,,29.92,1013.1,0.0,0.0,0.0,2024-11-18,11,2024,13,KCHO,0.0,0.0,0.0,0.43,7
2024-11-15,15,2024-11-15 14:53,14:53,EST,N  9,10.0,Overcast,OVC043,59.0,45.0,60.0,,,29.93,1013.5,0.0,0.0,0.0,2024-11-18,11,2024,14,KCHO,0.0,0.0,0.0,0.38,9
2024-11-15,15,2024-11-15 15:53,15:53,EST,Calm,10.0,Partly Cloudy,SCT060,57.0,45.0,64.0,,,29.92,1013.2,0.0,0.0,0.0,2024-11-18,11,2024,15,KCHO,0.0,0.0,0.0,0.29,0
2024-11-15,15,2024-11-15 16:53,16:53,EST,Calm,10.0,Mostly Cloudy,BKN055,55.9,45.0,67.0,,,29.93,1013.5,0.0,0.0,0.0,2024-11-18,11,2024,16,KCHO,0.0,0.0,0.0,0.16,0
2024-11-15,15,2024-11-15 17:53,17:53,EST,NW  5,10.0,Overcast,OVC055,57.0,45.0,64.0,,,29.94,1013.7,0.0,0.0,0.0,2024-11-18,11,2024,17,KCHO,0.0,0.0,0.0,0.11,5
2024-11-15,15,2024-11-15 18:53,18:53,EST,S  5,10.0,Fair,CLR,52.0,45.0,77.0,,,29.94,1013.9,0.0,0.0,0.0,2024-11-18,11,2024,18,KCHO,0.0,0.0,0.0,0.1,5
2024-11-15,15,2024-11-15 20:53,20:53,EST,Vrbl  5,10.0,Mostly Cloudy,BKN046,54.0,44.1,69.0,,,29.95,1014.0,0.0,0.0,0.0,2024-11-18,11,2024,20,KCHO,0.0,0.0,0.0,0.08,5
2024-11-15,15,2024-11-15 21:53,21:53,EST,NW  5,10.0,Fair,CLR,55.0,42.1,62.0,,,29.94,1013.7,0.0,0.0,0.0,2024-11-18,11,2024,21,KCHO,0.0,0.0,0.0,0.08,5
2024-11-15,15,2024-11-15 23:53,23:53,EST,NW  7,10.0,Fair,CLR,53.1,41.0,64.0,,,29.94,1013.7,0.0,0.0,0.0,2024-11-18,11,2024,23,KCHO,0.0,0.0,0.0,0.08,7
2024-11-16,16,2024-11-16 00:53,00:53,EST,NW  5,10.0,Fair,CLR,52.0,39.9,64.0,,,29.94,1013.7,0.0,0.0,0.0,2024-11-19,11,2024,0,KCHO,0.0,0.0,0.0,0.05,5
2024-11-16,16,2024-11-16 01:53,01:53,EST,NW  3,10.0,Fair,CLR,51.1,39.0,64.0,,,29.96,1014.3,0.0,0.0,0.0,2024-11-19,11,2024,1,KCHO,0.0,0.0,0.0,0.02,3
2024-11-16,16,2024-11-16 02:53,02:53,EST,NW  5,10.0,Fair,CLR,51.1,39.0,64.0,,,29.95,1014.1,0.0,0.0,0.0,2024-11-19,11,2024,2,KCHO,0.0,0.0,0.0,0.0,5
2024-11-16,16,2024-11-16 03:53,03:53,EST,NW  6,10.0,Fair,CLR,51.1,39.0,64.0,,,29.96,1014.3,0.0,0.0,0.0,2024-11-19,11,2024,3,KCHO,0.0,0.0,0.0,0.0,6
2024-11-16,16,2024-11-16 04:53,04:53,EST,NW  6,10.0,Fair,CLR,51.1,37.9,61.0,,,29.97,1014.8,0.0,0.0,0.0,2024-11-19,11,2024,4,KCHO,0.0,0.0,0.0,0.0,6
2024-11-16,16,2024-11-16 05:53,05:53,EST,Vrbl  7,10.0,Fair,CLR,51.1,37.9,61.0,,,29.99,1015.1,0.0,0.0,0.0,2024-11-19,11,2024,5,KCHO,0.0,0.0,0.0,0.0,7
2024-11-16,16,2024-11-16 06:53,06:53,EST,N  3,10.0,Fair,CLR,50.0,37.9,63.0,,,30.0,1015.7,0.0,0.0,0.0,2024-11-19,11,2024,6,KCHO,0.0,0.0,0.0,0.0,3
2024-11-16,16,2024-11-16 07:53,07:53,EST,NW  6,10.0,Fair,CLR,52.0,39.0,61.0,,,30.03,1016.6,0.0,0.0,0.0,2024-11-19,11,2024,7,KCHO,0.0,0.0,0.0,0.0,6
2024-11-16,16,2024-11-16 08:53,08:53,EST,N  6,10.0,Fair,CLR,55.9,39.0,53.0,,,30.04,1017.1,0.0,0.0,0.0,2024-11-19,11,2024,8,KCHO,0.0,0.0,0.0,0.0,6
2024-11-16,16,2024-11-16 09:53,09:53,EST,N  13  G 24,10.0,Fair,CLR,57.0,39.9,53.0,,,30.06,1017.6,0.0,0.0,0.0,2024-11-19,11,2024,9,KCHO,0.0,0.0,0.0,0.0,13
2024-11-16,16,2024-11-16 10:53,10:53,EST,N  9,10.0,Fair,CLR,59.0,39.9,49.0,,,30.07,1018.1,0.0,0.0,0.0,2024-11-19,11,2024,10,KCHO,0.0,0.0,0.0,0.0,9
2024-11-16,16,2024-11-16 11:53,11:53,EST,NW  8  G 20,10.0,Fair,CLR,60.1,39.9,48.0,,,30.05,1017.3,0.0,0.0,0.0,2024-11-19,11,2024,11,KCHO,0.0,0.0,0.0,0.0,8
2024-11-16,16,2024-11-16 12:53,12:53,EST,N  9  G 23,10.0,Fair,CLR,61.0,39.0,44.0,,,30.04,1016.9,0.0,0.0,0.0,2024-11-19,11,2024,12,KCHO,0.0,0.0,0.0,0.0,9
2024-11-16,16,2024-11-16 13:53,13:53,EST,NW  10  G 17,10.0,Fair,CLR,63.0,39.0,41.0,,,30.02,1016.4,0.0,0.0,0.0,2024-11-19,11,2024,13,KCHO,0.0,0.0,0.0,0.0,10
2024-11-16,16,2024-11-16 14:53,14:53,EST,N  10  G 16,10.0,Fair,CLR,63.0,39.0,41.0,,,30.02,1016.3,0.0,0.0,0.0,2024-11-19,11,2024,14,KCHO,0.0,0.0,0.0,0.0,10
2024-11-16,16,2024-11-16 15:53,15:53,EST,Vrbl  3,10.0,Fair,CLR,62.1,39.0,43.0,,,30.04,1017.0,0.0,0.0,0.0,2024-11-19,11,2024,15,KCHO,0.0,0.0,0.0,0.0,3
2024-11-16,16,2024-11-16 16:53,16:53,EST,NW  5,10.0,Fair,CLR,59.0,37.9,46.0,,,30.05,1017.2,0.0,0.0,0.0,2024-11-19,11,2024,16,KCHO,0.0,0.0,0.0,0.0,5
2024-11-16,16,2024-11-16 17:53,17:53,EST,N  5,10.0,Fair,CLR,55.0,37.9,53.0,,,30.07,1018.0,0.0,0.0,0.0,2024-11-19,11,2024,17,KCHO,0.0,0.0,0.0,0.0,5
2024-11-16,16,2024-11-16 18:53,18:53,EST,N  3,10.0,Fair,CLR,54.0,37.0,53.0,,,30.07,1018.0,0.0,0.0,0.0,2024-11-19,11,2024,18,KCHO,0.0,0.0,0.0,0.0,3
2024-11-16,16,2024-11-16 19:53,19:53,EST,Calm,10.0,Fair,CLR,50.0,37.0,61.0,,,30.07,1018.2,0.0,0.0,0.0,2024-11-19,11,2024,19,KCHO,0.0,0.0,0.0,0.0,0
2024-11-16,16,2024-11-16 20:53,20:53,EST,E  3,10.0,Fair,CLR,50.0,37.0,61.0,,,30.1,1019.0,0.0,0.0,0.0,2024-11-19,11,2024,20,KCHO,0.0,0.0,0.0,0.0,3
2024-11-16,16,2024-11-16 21:53,21:53,EST,Calm,10.0,Fair,CLR,48.0,37.0,66.0,,,30.1,1019.2,0.0,0.0,0.0,2024-11-19,11,2024,21,KCHO,0.0,0.0,0.0,0.0,0
2024-11-16,16,2024-11-16 22:53,22:53,EST,NE  3,10.0,Fair,CLR,46.0,36.0,68.0,,,30.1,1019.2,0.0,0.0,0.0,2024-11-19,11,2024,22,KCHO,0.0,0.0,0.0,0.0,3
2024-11-16,16,2024-11-16 23:53,23:53,EST,Calm,10.0,Fair,CLR,43.0,36.0,76.0,,,30.11,1019.6,0.0,0.0,0.0,2024-11-19,11,2024,23,KCHO,0.0,0.0,0.0,0.0,0
2024-11-17,17,2024-11-17 01:53,01:53,EST,W  3,10.0,Fair,CLR,39.9,34.0,79.0,,,30.11,1019.6,0.0,0.0,0.0,2024-11-20,11,2024,1,KCHO,0.0,0.0,0.0,0.0,3
2024-11-17,17,2024-11-17 02:53,02:53,EST,Vrbl  3,10.0,Fair,CLR,37.9,34.0,86.0,,,30.12,1019.7,0.0,0.0,0.0,2024-11-20,11,2024,2,KCHO,0.0,0.0,0.0,0.0,3
2024-11-17,17,2024-11-17 03:53,03:53,EST,Calm,10.0,Fair,CLR,37.9,34.0,86.0,,,30.11,1019.5,0.0,0.0,0.0,2024-11-20,11,2024,3,KCHO,0.0,0.0,0.0,0.0,0
2024-11-17,17,2024-11-17 04:53,04:53,EST,Calm,10.0,Fair,CLR,36.0,34.0,93.0,,,30.13,1020.1,0.0,0.0,0.0,2024-11-20,11,2024,4,KCHO,0.0,0.0,0.0,0.0,0
2024-11-17,17,2024-11-17 05:53,05:53,EST,Calm,10.0,Fair,CLR,35.1,33.1,93.0,,,30.12,1020.1,0.0,0.0,0.0,2024-11-20,11,2024,5,KCHO,0.0,0.0,0.0,0.0,0
2024-11-17,17,2024-11-17 06:53,06:53,EST,Calm,10.0,Fair,CLR,33.1,32.0,96.0,,,30.13,1020.4,0.0,0.0,0.0,2024-11-20,11,2024,6,KCHO,0.0,0.0,0.0,0.0,0
2024-11-17,17,2024-11-17 07:53,07:53,EST,Calm,10.0,Fair,CLR,36.0,34.0,93.0,,,30.15,1021.0,0.0,0.0,0.0,2024-11-20,11,2024,7,KCHO,0.0,0.0,0.0,0.0,0
2024-11-17,17,2024-11-17 08:53,08:53,EST,Calm,10.0,Fair,CLR,45.0,39.0,80.0,,,30.15,1020.8,0.0,0.0,0.0,2024-11-20,11,2024,8,KCHO,0.0,0.0,0.0,0.0,0
2024-11-17,17,2024-11-17 09:53,09:53,EST,Calm,10.0,Fair,CLR,48.9,39.0,69.0,,,30.15,1020.9,0.0,0.0,0.0,2024-11-20,11,2024,9,KCHO,0.0,0.0,0.0,0.0,0
2024-11-17,17,2024-11-17 11:53,11:53,EST,S  8,10.0,Fair,CLR,57.0,39.9,53.0,,,30.11,1019.4,0.0,0.0,0.0,2024-11-20,11,2024,11,KCHO,0.0,0.0,0.0,0.0,8
2024-11-17,17,2024-11-17 12:53,12:53,EST,Calm,10.0,Fair,CLR,59.0,41.0,51.0,,,30.07,1018.2,0.0,0.0,0.0,2024-11-20,11,2024,12,KCHO,0.0,0.0,0.0,0.0,0
2024-11-17,17,2024-11-17 13:53,13:53,EST,S  6,10.0,Fair,CLR,60.1,41.0,50.0,,,30.05,1017.6,0.0,0.0,0.0,2024-11-20,11,2024,13,KCHO,0.0,0.0,0.0,0.0,6
2024-11-17,17,2024-11-17 14:53,14:53,EST,Vrbl  7,10.0,Fair,CLR,61.0,41.0,48.0,,,30.04,1017.1,0.0,0.0,0.0,2024-11-20,11,2024,14,KCHO,0.0,0.0,0.0,0.0,7
2024-11-17,17,2024-11-17 15:53,15:53,EST,S  6,10.0,Fair,CLR,61.0,42.1,50.0,,,30.04,1017.1,0.0,0.0,0.0,2024-11-20,11,2024,15,KCHO,0.0,0.0,0.0,0.0,6
2024-11-18,18,2024-11-18 09:47,09:47,EST,W  6,10.0,Fair,CLR,57.2,42.8,59.0,,,30.01,0.0,0.0,0.0,0.0,2024-11-21,11,2024,9,KCHO,0.0,0.0,0.0,0.0,6
2024-11-18,18,2024-11-18 12:53,12:53,EST,Vrbl  6,10.0,Fair,CLR,70.0,48.0,46.0,,,29.94,1013.6,0.0,0.0,0.0,2024-11-21,11,2024,12,KCHO,0.0,0.0,0.0,0.0,6
2024-11-18,18,2024-11-18 13:53,13:53,EST,NW  6,10.0,Fair,CLR,72.0,48.0,43.0,,,29.92,1012.9,0.0,0.0,0.0,2024-11-21,11,2024,13,KCHO,0.0,0.0,0.0,0.0,6
2024-11-18,18,2024-11-18 14:53,14:53,EST,Calm,6.0,Fair with Haze,CLR,72.0,46.9,41.0,,,29.91,1012.7,0.0,0.0,0.0,2024-11-21,11,2024,14,KCHO,0.0,0.0,0.0,0.0,0
2024-11-18,18,2024-11-18 15:53,15:53,EST,Calm,5.0,Fair with Haze,CLR,70.0,46.9,44.0,,,29.92,1013.1,0.0,0.0,0.0,2024-11-21,11,2024,15,KCHO,0.0,0.0,0.0,0.0,0
2024-11-18,18,2024-11-18 16:53,16:53,EST,SW  5,10.0,Fair,CLR,66.2,48.2,52.0,,,29.93,0.0,0.0,0.0,0.0,2024-11-21,11,2024,16,KCHO,0.0,0.0,0.0,0.0,5
2024-11-18,18,2024-11-18 17:53,17:53,EST,SW  3,6.0,Fair,CLR,64.0,48.0,56.0,,,29.95,1014.1,0.0,0.0,0.0,2024-11-21,11,2024,17,KCHO,0.0,0.0,0.0,0.0,3
2024-11-18,18,2024-11-18 18:53,18:53,EST,Calm,10.0,Fair,CLR,61.0,48.0,63.0,,,29.96,1014.4,0.0,0.0,0.0,2024-11-21,11,2024,18,KCHO,0.0,0.0,0.0,0.0,0
2024-11-18,18,2024-11-18 20:53,20:53,EST,Calm,10.0,Fair,CLR,57.0,48.0,72.0,,,29.95,1014.1,0.0,0.0,0.0,2024-11-21,11,2024,20,KCHO,0.0,0.0,0.0,0.0,0
2024-11-18,18,2024-11-18 21:53,21:53,EST,Vrbl  3,10.0,Fair,CLR,55.9,48.0,75.0,,,29.98,1015.0,0.0,0.0,0.0,2024-11-21,11,2024,21,KCHO,0.0,0.0,0.0,0.0,3
2024-11-18,18,2024-11-18 22:53,22:53,EST,NE  6,10.0,Fair,CLR,54.0,46.9,77.0,,,29.96,1014.1,0.0,0.0,0.0,2024-11-21,11,2024,22,KCHO,0.0,0.0,0.0,0.0,6
2024-11-18,18,2024-11-18 23:53,23:53,EST,Calm,10.0,Fair,CLR,53.1,46.9,80.0,,,29.96,1014.0,0.0,0.0,0.0,2024-11-21,11,2024,23,KCHO,0.0,0.0,0.0,0.0,0
2024-11-19,19,2024-11-19 00:53,00:53,EST,W  5,10.0,Fair,CLR,52.0,46.9,83.0,,,29.96,1014.2,0.0,0.0,0.0,2024-11-22,11,2024,0,KCHO,0.0,0.0,0.0,0.0,5
2024-11-19,19,2024-11-19 01:53,01:53,EST,Calm,10.0,Fair,CLR,53.1,46.9,80.0,,,29.95,1013.8,0.0,0.0,0.0,2024-11-22,11,2024,1,KCHO,0.0,0.0,0.0,0.0,0
2024-11-19,19,2024-11-19 02:53,02:53,EST,NE  3,10.0,Fair,CLR,51.1,46.9,86.0,,,29.95,1013.9,0.0,0.0,0.0,2024-11-22,11,2024,2,KCHO,0.0,0.0,0.0,0.0,3
2024-11-19,19,2024-11-19 03:53,03:53,EST,Calm,10.0,Fair,CLR,50.0,46.0,86.0,,,29.95,1013.9,0.0,0.0,0.0,2024-11-22,11,2024,3,KCHO,0.0,0.0,0.0,0.0,0
2024-11-19,19,2024-11-19 04:53,04:53,EST,N  5,10.0,Fair,CLR,48.9,46.0,90.0,48.0,,29.94,1013.4,0.0,0.0,0.0,2024-11-22,11,2024,4,KCHO,0.0,0.0,0.0,0.0,5
2024-11-19,19,2024-11-19 05:53,05:53,EST,N  5,10.0,Fair,CLR,50.0,46.0,86.0,49.0,,29.96,1014.2,0.0,0.0,0.0,2024-11-22,11,2024,5,KCHO,0.0,0.0,0.0,0.0,5
2024-11-19,19,2024-11-19 06:53,06:53,EST,N  3,10.0,Fair,CLR,50.0,46.0,86.0,,,29.98,1014.8,0.0,0.0,0.0,2024-11-22,11,2024,6,KCHO,0.0,0.0,0.0,0.0,3
2024-11-19,19,2024-11-19 07:53,07:53,EST,Calm,10.0,Fair,CLR,51.1,46.9,86.0,,,29.99,1015.4,0.0,0.0,0.0,2024-11-22,11,2024,7,KCHO,0.0,0.0,0.0,0.0,0
2024-11-19,19,2024-11-19 08:53,08:53,EST,Calm,10.0,Fair,CLR,57.0,48.9,74.0,,,29.99,1015.4,0.0,0.0,0.0,2024-11-22,11,2024,8,KCHO,0.0,0.0,0.0,0.0,0
2024-11-19,19,2024-11-19 09:53,09:53,EST,NE  6,10.0,Fair,CLR,57.9,45.0,62.0,,,29.99,1015.3,0.0,0.0,0.0,2024-11-22,11,2024,9,KCHO,0.0,0.0,0.0,0.0,6
2024-11-19,19,2024-11-19 10:53,10:53,EST,NE  6,10.0,Fair,CLR,60.1,43.0,53.0,,,29.96,1014.2,0.0,0.0,0.0,2024-11-22,11,2024,10,KCHO,0.0,0.0,0.0,0.0,6
2024-11-19,19,2024-11-19 11:53,11:53,EST,SE  3,10.0,Fair,CLR,60.1,43.0,53.0,,,29.94,1013.4,0.0,0.0,0.0,2024-11-22,11,2024,11,KCHO,0.0,0.0,0.0,0.0,3
2024-11-19,19,2024-11-19 12:53,12:53,EST,Calm,10.0,Fair,CLR,60.1,45.0,58.0,,,29.91,1012.6,0.0,0.0,0.0,2024-11-22,11,2024,12,KCHO,0.0,0.0,0.0,0.0,0
2024-11-19,19,2024-11-19 13:53,13:53,EST,Calm,10.0,Fair,CLR,60.1,44.1,56.0,,,29.88,1011.5,0.0,0.0,0.0,2024-11-22,11,2024,13,KCHO,0.0,0.0,0.0,0.0,0
2024-11-19,19,2024-11-19 14:53,14:53,EST,Calm,10.0,Fair,CLR,60.1,44.1,56.0,,,29.85,1010.7,0.0,0.0,0.0,2024-11-22,11,2024,14,KCHO,0.0,0.0,0.0,0.0,0
2024-11-19,19,2024-11-19 15:53,15:53,EST,Calm,10.0,Fair,CLR,59.0,45.0,60.0,,,29.84,1010.3,0.0,0.0,0.0,2024-11-22,11,2024,15,KCHO,0.0,0.0,0.0,0.0,0
2024-11-19,19,2024-11-19 16:53,16:53,EST,Calm,10.0,Overcast,BKN065 OVC120,57.0,46.0,67.0,,,29.84,1010.3,0.0,0.0,0.0,2024-11-22,11,2024,16,KCHO,0.0,0.0,0.0,0.0,0
2024-11-19,19,2024-11-19 17:53,17:53,EST,Calm,10.0,Mostly Cloudy,BKN055,57.0,46.0,67.0,,,29.84,1010.2,0.0,0.0,0.0,2024-11-22,11,2024,17,KCHO,0.0,0.0,0.0,0.0,0
2024-11-19,19,2024-11-19 18:53,18:53,EST,Calm,10.0,Overcast,OVC050,55.9,46.0,70.0,,,29.85,1010.5,0.0,0.0,0.0,2024-11-22,11,2024,18,KCHO,0.0,0.0,0.0,0.0,0
2024-11-19,19,2024-11-19 19:53,19:53,EST,Calm,10.0,Overcast,OVC046,55.9,46.9,72.0,,,29.85,1010.6,0.0,0.0,0.0,2024-11-22,11,2024,19,KCHO,0.0,0.0,0.0,0.0,0
2024-11-19,19,2024-11-19 20:53,20:53,EST,Calm,10.0,Overcast,OVC042,55.0,48.0,77.0,,,29.84,1010.3,0.0,0.0,0.0,2024-11-22,11,2024,20,KCHO,0.0,0.0,0.0,0.0,0
2024-11-19,19,2024-11-19 21:53,21:53,EST,Calm,10.0,Overcast,BKN047 OVC090,54.0,48.9,83.0,,,29.84,1010.1,0.0,0.0,0.0,2024-11-22,11,2024,21,KCHO,0.0,0.0,0.0,0.0,0
2024-11-19,19,2024-11-19 22:53,22:53,EST,Calm,7.0,Light Rain,FEW060 FEW075 OVC095,54.0,50.0,87.0,,,29.83,1010.0,0.0,0.0,0.0,2024-11-22,11,2024,22,KCHO,0.0,0.0,0.0,0.0,0
2024-11-19,19,2024-11-19 23:53,23:53,EST,Calm,10.0,Overcast,OVC100,52.0,50.0,93.0,,,29.82,1009.5,0.0,0.0,0.0,2024-11-22,11,2024,23,KCHO,0.0,0.0,0.0,0.0,0
2024-11-20,20,2024-11-20 00:53,00:53,EST,Calm,10.0,Light Rain,FEW055 BKN085 OVC110,53.1,50.0,89.0,,,29.81,1009.0,0.0,0.0,0.0,2024-11-22,11,2024,0,KCHO,0.0,0.0,0.0,0.0,0
2024-11-20,20,2024-11-20 01:53,01:53,EST,Calm,9.0,Overcast,OVC080,53.1,50.0,89.0,,,29.8,1008.8,0.0,0.0,0.0,2024-11-22,11,2024,1,KCHO,0.0,0.0,0.0,0.0,0
2024-11-20,20,2024-11-20 02:53,02:53,EST,Calm,8.0,Overcast,OVC070,53.1,51.1,93.0,,,29.79,1008.6,0.0,0.0,0.0,2024-11-22,11,2024,2,KCHO,0.0,0.0,0.0,0.0,0
2024-11-20,20,2024-11-20 03:53,03:53,EST,Calm,8.0,Overcast,OVC060,53.1,51.1,93.0,,,29.78,1008.3,0.0,0.0,0.0,2024-11-22,11,2024,3,KCHO,0.0,0.0,0.0,0.0,0
2024-11-20,20,2024-11-20 04:53,04:53,EST,Calm,9.0,Overcast,FEW009 OVC060,52.0,50.0,93.0,,,29.79,1008.6,0.0,0.0,0.0,2024-11-22,11,2024,4,KCHO,0.0,0.0,0.0,0.0,0
2024-11-20,20,2024-11-20 05:53,05:53,EST,Calm,4.0,Fog/Mist,BKN090,51.1,50.0,96.0,,,29.8,1008.8,0.0,0.0,0.0,2024-11-22,11,2024,5,KCHO,0.0,0.0,0.0,0.0,0
2024-11-20,20,2024-11-20 06:53,06:53,EST,Calm,0.5,Fog,BKN002 OVC050,50.0,48.0,93.0,,,29.8,1008.8,0.0,0.0,0.0,2024-11-22,11,2024,6,KCHO,0.0,0.0,0.0,0.0,0
2024-11-20,20,2024-11-20 07:53,07:53,EST,N  6,6.0,Fog/Mist,FEW010 OVC047,51.1,48.9,92.0,,,29.8,1008.9,0.0,0.0,0.0,2024-11-22,11,2024,7,KCHO,0.0,0.0,0.0,0.0,6
2024-11-20,20,2024-11-20 08:53,08:53,EST,Vrbl  3,7.0,Overcast,OVC047,53.1,50.0,89.0,,,29.79,1008.4,0.0,0.0,0.0,2024-11-22,11,2024,8,KCHO,0.0,0.0,0.0,0.0,3
2024-11-20,20,2024-11-20 09:53,09:53,EST,Vrbl  3,10.0,Overcast,OVC033,55.0,50.0,83.0,,,29.78,1008.3,0.0,0.0,0.0,2024-11-22,11,2024,9,KCHO,0.0,0.0,0.0,0.0,3
2024-11-20,20,2024-11-20 10:53,10:53,EST,Calm,10.0,Overcast,OVC034,55.9,50.0,81.0,,,29.79,1008.5,0.0,0.0,0.0,2024-11-22,11,2024,10,KCHO,0.0,0.0,0.0,0.0,0
2024-11-20,20,2024-11-20 12:53,12:53,EST,NW  5,10.0,Overcast,OVC028,59.0,52.0,78.0,,,29.72,1006.2,0.0,0.0,0.0,2024-11-22,11,2024,12,KCHO,0.0,0.0,0.0,0.0,5
2024-11-20,20,2024-11-20 13:53,13:53,EST,NW  3,10.0,Overcast,BKN028 OVC037,59.0,52.0,78.0,,,29.69,1005.3,0.0,0.0,0.0,2024-11-22,11,2024,13,KCHO,0.0,0.0,0.0,0.0,3
2024-11-20,20,2024-11-20 14:53,14:53,EST,Calm,10.0,Overcast,OVC032,61.0,53.1,75.0,,,29.68,1004.9,0.0,0.0,0.0,2024-11-22,11,2024,14,KCHO,0.0,0.0,0.0,0.0,0
2024-11-20,20,2024-11-20 15:53,15:53,EST,Calm,10.0,Overcast,SCT021 BKN035 OVC042,60.1,53.1,78.0,,,29.66,1004.2,0.0,0.0,0.0,2024-11-22,11,2024,15,KCHO,0.0,0.0,0.0,0.0,0
2024-11-20,20,2024-11-20 16:53,16:53,EST,E  3,10.0,Overcast,OVC019,59.0,52.0,78.0,,,29.63,1003.1,0.0,0.0,0.0,2024-11-22,11,2024,16,KCHO,0.0,0.0,0.0,0.0,3
2024-11-20,20,2024-11-20 17:53,17:53,EST,Calm,10.0,Light Rain,OVC017,57.9,53.1,84.0,,,29.62,1002.7,0.0,0.0,0.0,2024-11-22,11,2024,17,KCHO,0.0,0.0,0.0,0.0,0
2024-11-20,20,2024-11-20 18:53,18:53,EST,Calm,2.0,Light Rain Fog/Mist,BKN011 OVC029,55.9,55.0,97.0,,,29.62,1003.0,0.26,0.0,0.26,2024-11-22,11,2024,18,KCHO,0.26,0.26,0.26,0.26,0
2024-11-20,20,2024-11-20 19:53,19:53,EST,NW  10  G 20,4.0,Light Rain Fog/Mist,SCT002 BKN043 OVC060,55.9,54.0,93.0,,,29.65,1003.9,0.06,0.0,0.0,2024-11-22,11,2024,19,KCHO,0.32,0.32,0.32,0.32,10
2024-11-20,20,2024-11-20 20:53,20:53,EST,NW  9  G 24,10.0,Overcast,OVC055,51.1,39.0,64.0,,,29.7,1005.5,0.01,0.0,0.0,2024-11-22,11,2024,20,KCHO,0.33,0.33,0.33,0.33,9
2024-11-20,20,2024-11-20 21:53,21:53,EST,NW  10  G 24,10.0,Overcast,OVC070,52.0,30.9,45.0,,,29.69,1005.2,0.0,0.07,0.0,2024-11-22,11,2024,21,KCHO,0.06999999999999999,0.33,0.33,0.33,10
2024-11-20,20,2024-11-20 22:53,22:53,EST,Vrbl  7,10.0,Mostly Cloudy,FEW050 BKN100 BKN120,50.0,30.0,46.0,48.0,,29.7,1005.5,0.0,0.0,0.0,2024-11-22,11,2024,22,KCHO,0.01,0.33,0.33,0.33,7
2024-11-20,20,2024-11-20 23:53,23:53,EST,NW  12  G 26,10.0,Fair,CLR,48.0,26.1,42.0,44.0,,29.73,1006.4,0.0,0.0,0.0,2024-11-22,11,2024,23,KCHO,0.0,0.33,0.33,0.33,12
2024-11-21,21,2024-11-21 00:53,00:53,EST,NW  8  G 22,10.0,Fair,CLR,45.0,24.1,44.0,41.0,,29.74,1006.8,0.0,0.0,0.07,2024-11-22,11,2024,0,KCHO,0.0,0.06999999999999999,0.33,0.33,8
2024-11-21,21,2024-11-21 01:53,01:53,EST,NW  5,10.0,Fair,CLR,43.0,24.1,47.0,41.0,,29.75,1007.1,0.0,0.0,0.0,2024-11-22,11,2024,1,KCHO,0.0,0.01,0.33,0.33,5
2024-11-21,21,2024-11-21 02:53,02:53,EST,NW  5,10.0,Fair,CLR,42.1,25.0,51.0,40.0,,29.73,1006.5,0.0,0.0,0.0,2024-11-22,11,2024,2,KCHO,0.0,0.0,0.33,0.33,5
2024-11-21,21,2024-11-21 03:53,03:53,EST,Calm,10.0,Fair,CLR,42.1,25.0,51.0,,,29.71,1005.9,0.0,0.0,0.0,2024-11-22,11,2024,3,KCHO,0.0,0.0,0.33,0.33,0
2024-11-21,21,2024-11-21 04:53,04:53,EST,Calm,10.0,Fair,CLR,37.9,26.1,62.0,,,29.71,1006.0,0.0,0.0,0.0,2024-11-22,11,2024,4,KCHO,0.0,0.0,0.33,0.33,0
2024-11-21,21,2024-11-21 05:53,05:53,EST,W  3,10.0,Fair,CLR,36.0,27.0,70.0,,,29.72,1006.2,0.0,0.0,0.0,2024-11-22,11,2024,5,KCHO,0.0,0.0,0.33,0.33,3
2024-11-21,21,2024-11-21 06:53,06:53,EST,Calm,10.0,Fair,CLR,36.0,26.1,67.0,,,29.71,1006.2,0.0,0.0,0.0,2024-11-22,11,2024,6,KCHO,0.0,0.0,0.06999999999999999,0.33,0
2024-11-21,21,2024-11-21 07:53,07:53,EST,SW  3,10.0,Fair,CLR,39.0,27.0,62.0,,,29.71,1006.0,0.0,0.0,0.0,2024-11-22,11,2024,7,KCHO,0.0,0.0,0.01,0.33,3
2024-11-21,21,2024-11-21 08:53,08:53,EST,Calm,10.0,Fair,CLR,41.0,28.9,62.0,,,29.69,1005.5,0.0,0.0,0.0,2024-11-22,11,2024,8,KCHO,0.0,0.0,0.0,0.33,0
2024-11-21,21,2024-11-21 09:53,09:53,EST,Vrbl  3,10.0,Fair,CLR,46.0,28.9,51.0,,,29.67,1004.7,0.0,0.0,0.0,2024-11-22,11,2024,9,KCHO,0.0,0.0,0.0,0.33,3
2024-11-21,21,2024-11-21 11:53,11:53,EST,W  12,10.0,Overcast,SCT060 BKN075 OVC100,48.9,27.0,43.0,45.0,,29.63,1003.2,0.0,0.0,0.0,2024-11-22,11,2024,11,KCHO,0.0,0.0,0.0,0.33,12
2024-11-21,21,2024-11-21 12:53,12:53,EST,W  14,10.0,Overcast,BKN065 OVC110,48.0,25.0,41.0,43.0,,29.61,1002.7,0.0,0.0,0.0,2024-11-22,11,2024,12,KCHO,0.0,0.0,0.0,0.33,14
2024-11-21,21,2024-11-21 13:53,13:53,EST,W  9,10.0,Overcast,BKN070 OVC110,48.0,26.1,42.0,44.0,,29.61,1002.5,0.0,0.0,0.0,2024-11-22,11,2024,13,KCHO,0.0,0.0,0.0,0.33,9
2024-11-21,21,2024-11-21 14:53,14:53,EST,Vrbl  5,10.0,Overcast,BKN065 OVC080,48.0,25.0,41.0,47.0,,29.61,1002.5,0.0,0.0,0.0,2024-11-22,11,2024,14,KCHO,0.0,0.0,0.0,0.33,5
2024-11-21,21,2024-11-21 15:53,15:53,EST,Calm,10.0,Mostly Cloudy,FEW090 BKN110,46.0,26.1,46.0,,,29.62,1003.0,0.0,0.0,0.0,2024-11-22,11,2024,15,KCHO,0.0,0.0,0.0,0.33,0
2024-11-21,21,2024-11-21 16:53,16:53,EST,Vrbl  6,10.0,Mostly Cloudy,BKN120,44.1,26.1,49.0,41.0,,29.63,1003.3,0.0,0.0,0.0,2024-11-22,11,2024,16,KCHO,0.0,0.0,0.0,0.33,6
2024-11-21,21,2024-11-21 17:53,17:53,EST,NW  9  G 29,10.0,Partly Cloudy,FEW070 SCT090,43.0,27.0,53.0,38.0,,29.66,1004.5,0.0,0.0,0.0,2024-11-22,11,2024,17,KCHO,0.0,0.0,0.0,0.33,9
2024-11-21,21,2024-11-21 18:53,18:53,EST,Vrbl  6,10.0,Partly Cloudy,SCT120,39.9,26.1,58.0,36.0,,29.66,1004.5,0.0,0.0,0.0,2024-11-22,11,2024,18,KCHO,0.0,0.0,0.0,0.33,6
2024-11-21,21,2024-11-21 19:53,19:53,EST,SE  6,10.0,Fair,CLR,37.0,25.0,62.0,33.0,,29.67,1004.8,0.0,0.0,0.0,2024-11-22,11,2024,19,KCHO,0.0,0.0,0.0,0.06999999999999999,6
2024-11-21,21,2024-11-21 20:53,20:53,EST,W  6,10.0,Partly Cloudy,SCT120,39.0,23.0,53.0,35.0,,29.67,1004.8,0.0,0.0,0.0,2024-11-22,11,2024,20,KCHO,0.0,0.0,0.0,0.01,6
2024-11-21,21,2024-11-21 21:53,21:53,EST,W  6,10.0,Fair,CLR,37.9,21.9,52.0,34.0,,29.67,1004.9,0.0,0.0,0.0,2024-11-22,11,2024,21,KCHO,0.0,0.0,0.0,0.0,6
2024-11-21,21,2024-11-21 22:53,22:53,EST,Vrbl  3,10.0,A Few Clouds,FEW060,36.0,21.0,55.0,,,29.67,1004.7,0.0,0.0,0.0,2024-11-22,11,2024,22,KCHO,0.0,0.0,0.0,0.0,3
2024-11-21,21,2024-11-21 23:53,23:53,EST,Vrbl  3,10.0,A Few Clouds,FEW070,36.0,18.0,48.0,,,29.67,1004.7,0.0,0.0,0.0,2024-11-22,11,2024,23,KCHO,0.0,0.0,0.0,0.0,3
2024-12-30,30,2024-12-30 21:53,21:53,EST,W  3,10.0,Fair,CLR,46.9,33.1,59.0,,,29.9,1012.5,0.0,0.0,0.0,2025-01-02,12,2024,21,KCHO,0.0,0.0,0.0,0.0,3
2024-12-30,30,2024-12-30 22:53,22:53,EST,SW  3,10.0,Fair,CLR,46.0,33.1,61.0,,,29.91,1012.6,0.0,0.0,0.0,2025-01-02,12,2024,22,KCHO,0.0,0.0,0.0,0.0,3
2024-12-30,30,2024-12-30 23:53,23:53,EST,Calm,10.0,Fair,CLR,44.1,33.1,65.0,,,29.91,1012.6,0.0,0.0,0.0,2025-01-02,12,2024,23,KCHO,0.0,0.0,0.0,0.0,0
2024-12-31,31,2024-12-31 00:53,00:53,EST,W  3,10.0,Fair,CLR,43.0,33.1,68.0,,,29.89,1011.9,0.0,0.0,0.0,2025-01-02,12,2024,0,KCHO,0.0,0.0,0.0,0.0,3
2024-12-31,31,2024-12-31 01:53,01:53,EST,Calm,10.0,Fair,CLR,37.0,30.9,79.0,,,29.89,1012.0,0.0,0.0,0.0,2025-01-02,12,2024,1,KCHO,0.0,0.0,0.0,0.0,0
2024-12-31,31,2024-12-31 02:53,02:53,EST,Calm,10.0,Fair,CLR,39.0,32.0,76.0,,,29.9,1012.3,0.0,0.0,0.0,2025-01-02,12,2024,2,KCHO,0.0,0.0,0.0,0.0,0
2024-12-31,31,2024-12-31 03:53,03:53,EST,W  3,10.0,Fair,CLR,37.0,32.0,82.0,,,29.88,1011.8,0.0,0.0,0.0,2025-01-02,12,2024,3,KCHO,0.0,0.0,0.0,0.0,3
2024-12-31,31,2024-12-31 04:53,04:53,EST,Calm,10.0,Fair,CLR,34.0,30.9,89.0,,,29.86,1011.2,0.0,0.0,0.0,2025-01-02,12,2024,4,KCHO,0.0,0.0,0.0,0.0,0
2024-12-31,31,2024-12-31 05:53,05:53,EST,NE  3,10.0,Fair,CLR,35.1,30.9,85.0,,,29.85,1010.7,0.0,0.0,0.0,2025-01-02,12,2024,5,KCHO,0.0,0.0,0.0,0.0,3
2024-12-31,31,2024-12-31 06:53,06:53,EST,Calm,10.0,Fair,CLR,36.0,30.9,82.0,,,29.84,1010.6,0.0,0.0,0.0,2025-01-02,12,2024,6,KCHO,0.0,0.0,0.0,0.0,0
2024-12-31,31,2024-12-31 07:53,07:53,EST,Calm,10.0,Fair,CLR,33.1,30.9,92.0,,,29.83,1010.3,0.0,0.0,0.0,2025-01-02,12,2024,7,KCHO,0.0,0.0,0.0,0.0,0
2024-12-31,31,2024-12-31 08:53,08:53,EST,Calm,10.0,Overcast,OVC028,37.9,34.0,86.0,,,29.83,1010.2,0.0,0.0,0.0,2025-01-02,12,2024,8,KCHO,0.0,0.0,0.0,0.0,0
2024-12-31,31,2024-12-31 09:53,09:53,EST,Calm,10.0,A Few Clouds,FEW021,43.0,35.1,74.0,,,29.81,1009.4,0.0,0.0,0.0,2025-01-02,12,2024,9,KCHO,0.0,0.0,0.0,0.0,0
2024-12-31,31,2024-12-31 10:53,10:53,EST,Calm,10.0,Overcast,SCT016 OVC047,46.0,37.0,71.0,,,29.77,1008.1,0.0,0.0,0.0,2025-01-02,12,2024,10,KCHO,0.0,0.0,0.0,0.0,0
2024-12-31,31,2024-12-31 11:53,11:53,EST,SE  8,10.0,A Few Clouds,FEW013 FEW050,52.0,42.1,69.0,,,29.69,1005.3,0.0,0.0,0.0,2025-01-02,12,2024,11,KCHO,0.0,0.0,0.0,0.0,8
2024-12-31,31,2024-12-31 12:53,12:53,EST,S  9,10.0,Overcast,FEW027 BKN043 OVC060,55.0,44.1,67.0,,,29.66,1004.1,0.0,0.0,0.0,2025-01-02,12,2024,12,KCHO,0.0,0.0,0.0,0.0,9
2024-12-31,31,2024-12-31 13:53,13:53,EST,N  5,10.0,Overcast,FEW032 OVC042,53.1,42.1,66.0,,,29.61,1002.5,0.0,0.0,0.0,2025-01-02,12,2024,13,KCHO,0.0,0.0,0.0,0.0,5
2024-12-31,31,2024-12-31 14:53,14:53,EST,NW  5,10.0,Light Rain,BKN040 OVC050,50.0,42.1,74.0,49.0,,29.55,1000.8,0.0,0.0,0.0,2025-01-02,12,2024,14,KCHO,0.0,0.0,0.0,0.0,5
2024-12-31,31,2024-12-31 15:53,15:53,EST,S  9,0.75,Thunderstorm Heavy Rain Fog/Mist,FEW018 BKN036 OVC070,48.0,46.0,93.0,44.0,,29.58,1001.6,0.18,0.18,0.0,2025-01-02,12,2024,15,KCHO,0.18,0.18,0.18,0.18,9
2024-12-31,31,2024-12-31 16:53,16:53,EST,SW  6,10.0,Fair,CLR,48.0,46.0,93.0,46.0,,29.53,1000.0,0.02,0.0,0.0,2025-01-02,12,2024,16,KCHO,0.19999999999999998,0.19999999999999998,0.19999999999999998,0.19999999999999998,6
2024-12-31,31,2024-12-31 17:53,17:53,EST,Calm,10.0,A Few Clouds,FEW100,45.0,44.1,97.0,,,29.55,1000.6,0.0,0.0,0.0,2025-01-02,12,2024,17,KCHO,0.19999999999999998,0.19999999999999998,0.19999999999999998,0.19999999999999998,0
2024-12-31,31,2024-12-31 18:53,18:53,EST,Calm,5.0,Light Rain Fog/Mist,FEW026 BKN055 OVC070,46.9,46.0,97.0,,,29.58,1001.6,0.04,0.0,0.24,2025-01-02,12,2024,18,KCHO,0.06,0.24,0.24,0.24,0
2024-12-31,31,2024-12-31 19:53,19:53,EST,S  3,9.0,Overcast,OVC100,46.0,45.0,96.0,,,29.58,1001.8,0.0,0.0,0.0,2025-01-02,12,2024,19,KCHO,0.039999999999999994,0.24,0.24,0.24,3
2024-12-31,31,2024-12-31 20:53,20:53,EST,S  3,10.0,Overcast,OVC100,46.9,45.0,93.0,,,29.58,1001.6,0.0,0.0,0.0,2025-01-02,12,2024,20,KCHO,0.039999999999999994,0.24,0.24,0.24,3
2024-12-31,31,2024-12-31 21:53,21:53,EST,NW  3,5.0,Fog/Mist,CLR,44.1,43.0,96.0,,,29.56,1001.0,0.0,0.0,0.0,2025-01-02,12,2024,21,KCHO,0.0,0.06,0.24,0.24,3
2024-12-31,31,2024-12-31 22:53,22:53,EST,S  6,5.0,Fog/Mist,SCT055,46.0,44.1,93.0,44.0,,29.57,1001.2,0.0,0.0,0.0,2025-01-02,12,2024,22,KCHO,0.0,0.039999999999999994,0.24,0.24,6
2024-12-31,31,2024-12-31 23:53,23:53,EST,S  3,10.0,Fair,CLR,46.9,39.9,77.0,,,29.56,1000.8,0.0,0.0,0.0,2025-01-02,12,2024,23,KCHO,0.0,0.039999999999999994,0.24,0.24,3
2025-01-01,1,2025-01-01 00:53,00:53,EST,Vrbl  3,10.0,Fair,CLR,48.9,37.9,66.0,,,29.57,1001.1,0.0,0.0,0.0,2025-01-02,1,2025,0,KCHO,0.0,0.0,0.24,0.24,3
2025-01-01,1,2025-01-01 01:53,01:53,EST,Calm,10.0,Fair,CLR,48.0,36.0,63.0,,,29.58,1001.5,0.0,0.0,0.0,2025-01-02,1,2025,1,KCHO,0.0,0.0,0.24,0.24,0
2025-01-01,1,2025-01-01 02:53,02:53,EST,Calm,10.0,Partly Cloudy,SCT050,48.0,35.1,61.0,,,29.61,1002.5,0.0,0.0,0.0,2025-01-02,1,2025,2,KCHO,0.0,0.0,0.24,0.24,0
2025-01-01,1,2025-01-01 03:53,03:53,EST,Calm,10.0,Partly Cloudy,SCT055,48.0,30.9,52.0,,,29.64,1003.4,0.0,0.0,0.0,2025-01-02,1,2025,3,KCHO,0.0,0.0,0.06,0.24,0
2025-01-01,1,2025-01-01 04:53,04:53,EST,W  7,10.0,A Few Clouds,FEW055,48.0,28.0,46.0,45.0,,29.67,1004.5,0.0,0.0,0.0,2025-01-02,1,2025,4,KCHO,0.0,0.0,0.039999999999999994,0.24,7
2025-01-01,1,2025-01-01 05:53,05:53,EST,W  9  G 20,10.0,A Few Clouds,FEW060,46.0,28.0,50.0,42.0,,29.7,1005.7,0.0,0.0,0.0,2025-01-02,1,2025,5,KCHO,0.0,0.0,0.039999999999999994,0.24,9
2025-01-01,1,2025-01-01 06:53,06:53,EST,NW  7  G 22,10.0,Mostly Cloudy,BKN055,46.0,27.0,47.0,43.0,,29.73,1006.7,0.0,0.0,0.0,2025-01-02,1,2025,6,KCHO,0.0,0.0,0.0,0.24,7
2025-01-01,1,2025-01-01 07:53,07:53,EST,NW  13  G 24,10.0,Partly Cloudy,SCT055,46.0,27.0,47.0,41.0,,29.76,1007.9,0.0,0.0,0.0,2025-01-02,1,2025,7,KCHO,0.0,0.0,0.0,0.24,13
2025-01-01,1,2025-01-01 08:53,08:53,EST,W  12  G 29,10.0,Fair,CLR,45.0,27.0,49.0,40.0,,29.81,1009.4,0.0,0.0,0.0,2025-01-02,1,2025,8,KCHO,0.0,0.0,0.0,0.24,12
2025-01-01,1,2025-01-01 09:53,09:53,EST,NW  20  G 33,10.0,A Few Clouds,FEW055,46.9,25.0,42.0,40.0,,29.85,1010.7,0.0,0.0,0.0,2025-01-02,1,2025,9,KCHO,0.0,0.0,0.0,0.24,20
2025-01-01,1,2025-01-01 10:53,10:53,EST,W  9  G 17,10.0,A Few Clouds,FEW060,48.9,26.1,41.0,45.0,,29.86,1011.2,0.0,0.0,0.0,2025-01-02,1,2025,10,KCHO,0.0,0.0,0.0,0.24,9
2025-01-01,1,2025-01-01 11:53,11:53,EST,NW  12  G 30,10.0,Fair,CLR,48.0,24.1,39.0,44.0,,29.88,1011.6,0.0,0.0,0.0,2025-01-02,1,2025,11,KCHO,0.0,0.0,0.0,0.24,12
2025-01-01,1,2025-01-01 12:53,12:53,EST,NW  8  G 17,10.0,A Few Clouds,FEW060,50.0,25.0,38.0,47.0,,29.87,1011.3,0.0,0.0,0.0,2025-01-02,1,2025,12,KCHO,0.0,0.0,0.0,0.24,8
2025-01-01,1,2025-01-01 13:53,13:53,EST,Vrbl  7,10.0,Fair,CLR,48.0,24.1,39.0,45.0,,29.88,1011.8,0.0,0.0,0.0,2025-01-02,1,2025,13,KCHO,0.0,0.0,0.0,0.24,7
2025-01-01,1,2025-01-01 14:53,14:53,EST,NW  10  G 20,10.0,Mostly Cloudy,BKN055 BKN065,48.0,25.0,41.0,44.0,,29.9,1012.6,0.0,0.0,0.0,2025-01-02,1,2025,14,KCHO,0.0,0.0,0.0,0.24,10
2025-01-01,1,2025-01-01 15:53,15:53,EST,NW  13  G 24,10.0,Fair,CLR,45.0,24.1,44.0,39.0,,29.93,1013.5,0.0,0.0,0.0,2025-01-02,1,2025,15,KCHO,0.0,0.0,0.0,0.06,13
2025-01-01,1,2025-01-01 16:53,16:53,EST,Vrbl  7,10.0,Fair,CLR,42.1,21.9,45.0,38.0,,29.96,1014.5,0.0,0.0,0.0,2025-01-02,1,2025,16,KCHO,0.0,0.0,0.0,0.039999999999999994,7
2025-01-01,1,2025-01-01 17:53,17:53,EST,Vrbl  5,10.0,Partly Cloudy,SCT055,41.0,21.9,47.0,38.0,,29.98,1015.1,0.0,0.0,0.0,2025-01-02,1,2025,17,KCHO,0.0,0.0,0.0,0.039999999999999994,5
2025-01-01,1,2025-01-01 18:53,18:53,EST,Calm,10.0,Fair,CLR,39.9,21.9,49.0,,,29.99,1015.5,0.0,0.0,0.0,2025-01-02,1,2025,18,KCHO,0.0,0.0,0.0,0.0,0
2025-01-01,1,2025-01-01 19:53,19:53,EST,W  7,10.0,Fair,CLR,41.0,21.0,45.0,37.0,,29.99,1015.6,0.0,0.0,0.0,2025-01-02,1,2025,19,KCHO,0.0,0.0,0.0,0.0,7
2025-01-01,1,2025-01-01 20:53,20:53,EST,Vrbl  3,10.0,Fair,CLR,39.9,19.0,43.0,,,29.99,1015.5,0.0,0.0,0.0,2025-01-02,1,2025,20,KCHO,0.0,0.0,0.0,0.0,3
2025-01-01,1,2025-01-01 21:53,21:53,EST,Vrbl  5,10.0,A Few Clouds,FEW055,39.0,19.9,46.0,36.0,,30.0,1015.9,0.0,0.0,0.0,2025-01-02,1,2025,21,KCHO,0.0,0.0,0.0,0.0,5
2025-01-01,1,2025-01-01 22:53,22:53,EST,Vrbl  5,10.0,Partly Cloudy,SCT055,39.0,19.0,45.0,36.0,,30.03,1017.0,0.0,0.0,0.0,2025-01-04,1,2025,22,KCHO,0.0,0.0,0.0,0.0,5
2025-01-01,1,2025-01-01 23:53,23:53,EST,NW  10  G 23,10.0,Overcast,OVC050,37.9,18.0,44.0,32.0,,30.04,1017.4,0.0,0.0,0.0,2025-01-04,1,2025,23,KCHO,0.0,0.0,0.0,0.0,10
2025-01-02,2,2025-01-02 00:53,00:53,EST,W  8  G 18,10.0,Mostly Cloudy,BKN060,36.0,15.1,42.0,30.0,,30.06,1018.0,0.0,0.0,0.0,2025-01-04,1,2025,0,KCHO,0.0,0.0,0.0,0.0,8
2025-01-02,2,2025-01-02 01:53,01:53,EST,NW  7  G 17,10.0,Overcast,OVC055,36.0,14.0,40.0,31.0,,30.08,1018.8,0.0,0.0,0.0,2025-01-04,1,2025,1,KCHO,0.0,0.0,0.0,0.0,7
2025-01-02,2,2025-01-02 02:53,02:53,EST,W  8,10.0,Overcast,OVC055,35.1,14.0,42.0,29.0,,30.11,1019.7,0.0,0.0,0.0,2025-01-04,1,2025,2,KCHO,0.0,0.0,0.0,0.0,8
2025-01-02,2,2025-01-02 03:53,03:53,EST,Calm,10.0,Overcast,OVC055,35.1,15.1,44.0,,,30.1,1019.3,0.0,0.0,0.0,2025-01-04,1,2025,3,KCHO,0.0,0.0,0.0,0.0,0
2025-01-02,2,2025-01-02 04:53,04:53,EST,Calm,10.0,Overcast,OVC055,33.1,16.0,49.0,,,30.09,1019.4,0.0,0.0,0.0,2025-01-04,1,2025,4,KCHO,0.0,0.0,0.0,0.0,0
2025-01-02,2,2025-01-02 05:53,05:53,EST,S  5,10.0,Overcast,OVC055,34.0,15.1,46.0,30.0,,30.12,1020.1,0.0,0.0,0.0,2025-01-04,1,2025,5,KCHO,0.0,0.0,0.0,0.0,5
2025-01-02,2,2025-01-02 06:53,06:53,EST,W  8,10.0,Mostly Cloudy,BKN050,33.1,16.0,49.0,27.0,,30.14,1020.8,0.0,0.0,0.0,2025-01-04,1,2025,6,KCHO,0.0,0.0,0.0,0.0,8
2025-01-02,2,2025-01-02 07:53,07:53,EST,Vrbl  5,10.0,Fair,CLR,34.0,16.0,48.0,30.0,,30.17,1022.0,0.0,0.0,0.0,2025-01-04,1,2025,7,KCHO,0.0,0.0,0.0,0.0,5
2025-01-02,2,2025-01-02 08:53,08:53,EST,NW  7,10.0,A Few Clouds,FEW050,35.1,15.1,44.0,30.0,,30.2,1022.8,0.0,0.0,0.0,2025-01-04,1,2025,8,KCHO,0.0,0.0,0.0,0.0,7
2025-01-02,2,2025-01-02 09:53,09:53,EST,SW  6,10.0,A Few Clouds,FEW050,35.1,18.0,50.0,31.0,,30.21,1023.4,0.0,0.0,0.0,2025-01-04,1,2025,9,KCHO,0.0,0.0,0.0,0.0,6
2025-01-02,2,2025-01-02 10:53,10:53,EST,Vrbl  3,10.0,Overcast,OVC050,36.0,17.1,46.0,,,30.21,1023.4,0.0,0.0,0.0,2025-01-04,1,2025,10,KCHO,0.0,0.0,0.0,0.0,3
2025-01-02,2,2025-01-02 11:53,11:53,EST,Vrbl  7,10.0,Fair,CLR,39.0,18.0,43.0,35.0,,30.17,1021.8,0.0,0.0,0.0,2025-01-04,1,2025,11,KCHO,0.0,0.0,0.0,0.0,7
2025-01-02,2,2025-01-02 12:53,12:53,EST,W  8  G 17,10.0,Fair,CLR,39.9,18.0,41.0,35.0,,30.16,1021.5,0.0,0.0,0.0,2025-01-04,1,2025,12,KCHO,0.0,0.0,0.0,0.0,8
2025-01-02,2,2025-01-02 13:53,13:53,EST,Vrbl  7,10.0,Fair,CLR,42.1,18.0,38.0,38.0,,30.12,1020.2,0.0,0.0,0.0,2025-01-04,1,2025,13,KCHO,0.0,0.0,0.0,0.0,7
2025-01-02,2,2025-01-02 14:53,14:53,EST,Vrbl  3,10.0,Fair,CLR,41.0,16.0,36.0,,,30.11,1020.0,0.0,0.0,0.0,2025-01-04,1,2025,14,KCHO,0.0,0.0,0.0,0.0,3
2025-01-02,2,2025-01-02 16:53,16:53,EST,Calm,10.0,Fair,CLR,41.0,15.1,35.0,,,30.13,1020.5,0.0,0.0,0.0,2025-01-04,1,2025,16,KCHO,0.0,0.0,0.0,0.0,0
2025-01-02,2,2025-01-02 17:53,17:53,EST,Calm,10.0,Fair,CLR,39.0,15.1,38.0,,,30.14,1020.9,0.0,0.0,0.0,2025-01-04,1,2025,17,KCHO,0.0,0.0,0.0,0.0,0
2025-01-02,2,2025-01-02 18:53,18:53,EST,Vrbl  3,10.0,Fair,CLR,37.9,15.1,39.0,,,30.15,1021.2,0.0,0.0,0.0,2025-01-04,1,2025,18,KCHO,0.0,0.0,0.0,0.0,3
2025-01-02,2,2025-01-02 19:53,19:53,EST,Vrbl  3,10.0,Fair,CLR,36.0,15.1,42.0,,,30.15,1021.3,0.0,0.0,0.0,2025-01-04,1,2025,19,KCHO,0.0,0.0,0.0,0.0,3
2025-01-02,2,2025-01-02 20:53,20:53,EST,SW  6,10.0,Fair,CLR,35.1,16.0,46.0,31.0,,30.14,1021.1,0.0,0.0,0.0,2025-01-04,1,2025,20,KCHO,0.0,0.0,0.0,0.0,6
2025-01-02,2,2025-01-02 21:53,21:53,EST,Calm,10.0,Fair,CLR,35.1,16.0,46.0,,,30.14,1020.9,0.0,0.0,0.0,2025-01-04,1,2025,21,KCHO,0.0,0.0,0.0,0.0,0
2025-01-02,2,2025-01-02 22:53,22:53,EST,S  7,10.0,Fair,CLR,30.0,17.1,58.0,24.0,,30.15,1021.2,0.0,0.0,0.0,2025-01-04,1,2025,22,KCHO,0.0,0.0,0.0,0.0,7
2025-01-02,2,2025-01-02 23:53,23:53,EST,SW  3,10.0,Fair,CLR,35.1,17.1,48.0,,,30.14,1021.1,0.0,0.0,0.0,2025-01-04,1,2025,23,KCHO,0.0,0.0,0.0,0.0,3
2025-01-03,3,2025-01-03 00:53,00:53,EST,Calm,10.0,Fair,CLR,32.0,17.1,54.0,,,30.13,1020.5,0.0,0.0,0.0,2025-01-04,1,2025,0,KCHO,0.0,0.0,0.0,0.0,0
2025-01-03,3,2025-01-03 01:53,01:53,EST,Calm,10.0,Fair,CLR,33.1,17.1,52.0,,,30.12,1020.4,0.0,0.0,0.0,2025-01-04,1,2025,1,KCHO,0.0,0.0,0.0,0.0,0
2025-01-03,3,2025-01-03 02:53,02:53,EST,Calm,10.0,Fair,CLR,33.1,17.1,52.0,,,30.12,1020.3,0.0,0.0,0.0,2025-01-04,1,2025,2,KCHO,0.0,0.0,0.0,0.0,0
2025-01-03,3,2025-01-03 03:53,03:53,EST,S  6,10.0,Fair,CLR,33.1,19.0,56.0,28.0,,30.1,1019.6,0.0,0.0,0.0,2025-01-04,1,2025,3,KCHO,0.0,0.0,0.0,0.0,6
2025-01-03,3,2025-01-03 04:53,04:53,EST,S  7,10.0,Fair,CLR,32.0,19.0,59.0,26.0,,30.09,1019.2,0.0,0.0,0.0,2025-01-04,1,2025,4,KCHO,0.0,0.0,0.0,0.0,7
2025-01-03,3,2025-01-03 05:53,05:53,EST,S  6,10.0,Fair,CLR,30.9,19.0,61.0,26.0,,30.08,1019.1,0.0,0.0,0.0,2025-01-04,1,2025,5,KCHO,0.0,0.0,0.0,0.0,6
2025-01-03,3,2025-01-03 06:53,06:53,EST,S  7,10.0,Fair,CLR,30.0,19.9,66.0,24.0,,30.07,1018.7,0.0,0.0,0.0,2025-01-04,1,2025,6,KCHO,0.0,0.0,0.0,0.0,7
2025-01-03,3,2025-01-03 07:53,07:53,EST,S  9,10.0,Fair,CLR,30.9,19.9,64.0,24.0,,30.06,1018.1,0.0,0.0,0.0,2025-01-04,1,2025,7,KCHO,0.0,0.0,0.0,0.0,9
2025-01-03,3,2025-01-03 08:53,08:53,EST,S  8,10.0,A Few Clouds,FEW110,32.0,21.9,66.0,25.0,,30.03,1017.3,0.0,0.0,0.0,2025-01-04,1,2025,8,KCHO,0.0,0.0,0.0,0.0,8
2025-01-03,3,2025-01-03 09:53,09:53,EST,S  6,10.0,Fair,CLR,36.0,21.9,57.0,32.0,,30.0,1016.1,0.0,0.0,0.0,2025-01-04,1,2025,9,KCHO,0.0,0.0,0.0,0.0,6
2025-01-03,3,2025-01-03 10:53,10:53,EST,S  10,10.0,Fair,CLR,39.0,24.1,55.0,33.0,,29.96,1014.7,0.0,0.0,0.0,2025-01-04,1,2025,10,KCHO,0.0,0.0,0.0,0.0,10
2025-01-03,3,2025-01-03 11:53,11:53,EST,S  13,10.0,Overcast,OVC050,39.9,23.0,51.0,33.0,,29.9,1012.8,0.0,0.0,0.0,2025-01-04,1,2025,11,KCHO,0.0,0.0,0.0,0.0,13
2025-01-03,3,2025-01-03 12:53,12:53,EST,Vrbl  5  G 22,10.0,Overcast,OVC060,44.1,21.0,40.0,42.0,,29.86,1011.4,0.0,0.0,0.0,2025-01-04,1,2025,12,KCHO,0.0,0.0,0.0,0.0,5
2025-01-03,3,2025-01-03 13:53,13:53,EST,W  10,10.0,Overcast,BKN060 BKN075 OVC090,43.0,21.9,43.0,38.0,,29.84,1010.6,0.0,0.0,0.0,2025-01-04,1,2025,13,KCHO,0.0,0.0,0.0,0.0,10
2025-01-03,3,2025-01-03 14:53,14:53,EST,NW  12  G 22,10.0,Overcast,BKN060 OVC085,43.0,19.9,40.0,37.0,,29.84,1010.8,0.0,0.0,0.0,2025-01-04,1,2025,14,KCHO,0.0,0.0,0.0,0.0,12
2025-01-03,3,2025-01-03 15:53,15:53,EST,W  12  G 26,10.0,Partly Cloudy,FEW065 SCT080,41.0,17.1,38.0,35.0,,29.88,1012.1,0.0,0.0,0.0,2025-01-04,1,2025,15,KCHO,0.0,0.0,0.0,0.0,12
2025-01-03,3,2025-01-03 16:53,16:53,EST,NW  12  G 17,10.0,Mostly Cloudy,BKN055,37.0,15.1,41.0,30.0,,29.91,1013.2,0.0,0.0,0.0,2025-01-04,1,2025,16,KCHO,0.0,0.0,0.0,0.0,12
2025-01-03,3,2025-01-03 17:53,17:53,EST,W  16  G 29,10.0,A Few Clouds,FEW070,34.0,9.0,35.0,24.0,,29.94,1014.2,0.0,0.0,0.0,2025-01-04,1,2025,17,KCHO,0.0,0.0,0.0,0.0,16
2025-01-03,3,2025-01-03 18:53,18:53,EST,NW  15  G 26,10.0,A Few Clouds,FEW070,33.1,7.0,33.0,24.0,,29.98,1015.6,0.0,0.0,0.0,2025-01-04,1,2025,18,KCHO,0.0,0.0,0.0,0.0,15
2025-01-03,3,2025-01-03 19:53,19:53,EST,NW  9  G 28,10.0,Mostly Cloudy,BKN070,30.0,6.1,36.0,22.0,,30.02,1016.9,0.0,0.0,0.0,2025-01-04,1,2025,19,KCHO,0.0,0.0,0.0,0.0,9
2025-01-03,3,2025-01-03 20:53,20:53,EST,W  8  G 25,10.0,Overcast,SCT060 OVC070,30.0,8.1,39.0,23.0,,30.04,1017.6,0.0,0.0,0.0,2025-01-04,1,2025,20,KCHO,0.0,0.0,0.0,0.0,8
2025-01-03,3,2025-01-03 21:53,21:53,EST,NW  10  G 23,10.0,Overcast,OVC065,28.9,8.1,41.0,20.0,,30.04,1017.6,0.0,0.0,0.0,2025-01-04,1,2025,21,KCHO,0.0,0.0,0.0,0.0,10
2025-01-03,3,2025-01-03 22:53,22:53,EST,Vrbl  5  G 20,10.0,A Few Clouds,FEW065,28.0,6.1,39.0,24.0,,30.04,1017.5,0.0,0.0,0.0,2025-01-04,1,2025,22,KCHO,0.0,0.0,0.0,0.0,5
2025-01-04,4,2025-01-04 00:53,00:53,EST,W  9,10.0,Mostly Cloudy,BKN060,28.0,7.0,41.0,20.0,,30.03,1017.1,0.0,0.0,0.0,2025-01-04,1,2025,0,KCHO,0.0,0.0,0.0,0.0,9
2025-01-04,4,2025-01-04 01:53,01:53,EST,NW  7,10.0,Mostly Cloudy,BKN055 BKN070,27.0,9.0,46.0,20.0,,30.03,1017.3,0.0,0.0,0.0,2025-01-04,1,2025,1,KCHO,0.0,0.0,0.0,0.0,7
2025-01-04,4,2025-01-04 02:53,02:53,EST,NW  10  G 17,10.0,Fair,CLR,27.0,8.1,45.0,18.0,,30.05,1017.8,0.0,0.0,0.0,2025-01-04,1,2025,2,KCHO,0.0,0.0,0.0,0.0,10
2025-01-04,4,2025-01-04 04:53,04:53,EST,NW  7,10.0,Fair,CLR,26.1,7.0,44.0,19.0,,30.07,1018.6,0.0,0.0,0.0,2025-01-04,1,2025,4,KCHO,0.0,0.0,0.0,0.0,7
2025-01-04,4,2025-01-04 05:53,05:53,EST,Vrbl  5,10.0,Fair,CLR,26.1,7.0,44.0,21.0,,30.08,1019.1,0.0,0.0,0.0,2025-01-04,1,2025,5,KCHO,0.0,0.0,0.0,0.0,5
2025-01-04,4,2025-01-04 06:53,06:53,EST,NW  8  G 21,10.0,Fair,CLR,26.1,6.1,42.0,18.0,,30.1,1019.6,0.0,0.0,0.0,2025-01-04,1,2025,6,KCHO,0.0,0.0,0.0,0.0,8
2025-01-04,4,2025-01-04 07:53,07:53,EST,NW  9,10.0,Fair,CLR,26.1,6.1,42.0,18.0,,30.11,1020.2,0.0,0.0,0.0,2025-01-04,1,2025,7,KCHO,0.0,0.0,0.0,0.0,9
2025-01-04,4,2025-01-04 08:53,08:53,EST,NW  10  G 20,10.0,Fair,CLR,28.0,6.1,39.0,19.0,,30.12,1020.3,0.0,0.0,0.0,2025-01-04,1,2025,8,KCHO,0.0,0.0,0.0,0.0,10
2025-01-04,4,2025-01-04 09:53,09:53,EST,NW  8  G 20,10.0,Fair,CLR,28.0,5.0,37.0,21.0,,30.14,1020.9,0.0,0.0,0.0,2025-01-04,1,2025,9,KCHO,0.0,0.0,0.0,0.0,8
2025-01-04,4,2025-01-04 10:53,10:53,EST,NW  8,10.0,Fair,CLR,30.0,3.9,33.0,23.0,,30.13,1020.7,0.0,0.0,0.0,2025-01-04,1,2025,10,KCHO,0.0,0.0,0.0,0.0,8
2025-01-04,4,2025-01-04 11:53,11:53,EST,Vrbl  6  G 22,10.0,Fair,CLR,30.9,1.9,29.0,26.0,,30.12,1020.3,0.0,0.0,0.0,2025-01-04,1,2025,11,KCHO,0.0,0.0,0.0,0.0,6
2025-01-04,4,2025-01-04 12:53,12:53,EST,NW  10  G 21,10.0,Fair,CLR,32.0,1.9,27.0,24.0,,30.09,1019.3,0.0,0.0,0.0,2025-01-04,1,2025,12,KCHO,0.0,0.0,0.0,0.0,10
2025-01-04,4,2025-01-04 13:53,13:53,EST,W  10  G 20,10.0,Fair,CLR,33.1,1.0,25.0,26.0,,30.09,1019.3,0.0,0.0,0.0,2025-01-04,1,2025,13,KCHO,0.0,0.0,0.0,0.0,10
2025-01-04,4,2025-01-04 14:53,14:53,EST,NW  16  G 24,10.0,Fair,CLR,34.0,1.0,24.0,24.0,,30.09,1019.3,0.0,0.0,0.0,2025-01-04,1,2025,14,KCHO,0.0,0.0,0.0,0.0,16
2025-01-04,4,2025-01-04 15:53,15:53,EST,NW  15  G 31,10.0,Fair,CLR,33.1,-0.0,24.0,24.0,,30.09,1019.5,0.0,0.0,0.0,2025-01-04,1,2025,15,KCHO,0.0,0.0,0.0,0.0,15
2025-01-04,4,2025-01-04 16:53,16:53,EST,NW  10  G 21,10.0,Fair,CLR,30.9,1.0,28.0,23.0,,30.1,1019.6,0.0,0.0,0.0,2025-01-04,1,2025,16,KCHO,0.0,0.0,0.0,0.0,10
2025-01-04,4,2025-01-04 17:53,17:53,EST,W  8  G 20,10.0,Fair,CLR,30.0,1.0,29.0,23.0,,30.12,1020.6,0.0,0.0,0.0,2025-01-04,1,2025,17,KCHO,0.0,0.0,0.0,0.0,8
2025-01-04,4,2025-01-04 18:53,18:53,EST,W  3,10.0,Fair,CLR,28.9,1.0,30.0,,,30.14,1021.1,0.0,0.0,0.0,2025-01-04,1,2025,18,KCHO,0.0,0.0,0.0,0.0,3
2025-01-04,4,2025-01-04 19:53,19:53,EST,Vrbl  3,10.0,Fair,CLR,28.0,1.9,32.0,,,30.14,1021.3,0.0,0.0,0.0,2025-01-04,1,2025,19,KCHO,0.0,0.0,0.0,0.0,3
2025-01-04,4,2025-01-04 20:53,20:53,EST,Calm,10.0,Fair,CLR,27.0,3.0,35.0,,,30.14,1021.3,0.0,0.0,0.0,2025-01-04,1,2025,20,KCHO,0.0,0.0,0.0,0.0,0
2025-01-04,4,2025-01-04 21:53,21:53,EST,Calm,10.0,Fair,CLR,26.1,1.9,35.0,,,30.15,1021.5,0.0,0.0,0.0,2025-01-04,1,2025,21,KCHO,0.0,0.0,0.0,0.0,0
2025-01-05,5,2025-01-05 23:53,23:53,EST,S  6,2.5,Light Snow Fog/Mist,BKN006 OVC036,28.9,27.0,92.0,23.0,,30.09,1019.4,0.01,0.0,0.0,2025-01-08,1,2025,23,KCHO,0.01,0.01,0.01,0.01,6
2025-01-06,6,2025-01-06 00:53,00:53,EST,S  3,1.0,Light Snow Fog/Mist,FEW005 OVC017,28.9,27.0,92.0,,,30.06,1018.1,0.0,0.0,0.01,2025-01-09,1,2025,0,KCHO,0.01,0.01,0.01,0.01,3
2025-01-06,6,2025-01-06 01:53,01:53,EST,SE  5,1.25,Light Snow Fog/Mist,FEW003 BKN020 OVC027,28.0,26.1,92.0,24.0,,30.02,1016.9,0.01,0.0,0.0,2025-01-09,1,2025,1,KCHO,0.02,0.02,0.02,0.02,5
2025-01-06,6,2025-01-06 02:53,02:53,EST,SE  3,1.0,Light Snow Fog/Mist,VV014,28.0,26.1,92.0,,,29.99,1015.9,0.02,0.0,0.0,2025-01-09,1,2025,2,KCHO,0.03,0.04,0.04,0.04,3
2025-01-06,6,2025-01-06 03:53,03:53,EST,Calm,4.0,Light Snow Fog/Mist,SCT016 OVC041,28.0,26.1,92.0,,,29.96,1015.0,0.02,0.05,0.0,2025-01-09,1,2025,3,KCHO,0.05,0.06,0.06,0.06,0
2025-01-06,6,2025-01-06 05:53,05:53,EST,N  6,4.0,Freezing Rain Fog/Mist,BKN006 OVC009,28.9,27.0,92.0,23.0,,29.86,1011.6,0.0,0.0,0.0,2025-01-09,1,2025,5,KCHO,0.04,0.06,0.06,0.06,6
2025-01-06,6,2025-01-06 06:53,06:53,EST,NE  6,1.25,Light Snow Fog/Mist,BKN008 OVC011,28.9,27.0,92.0,23.0,,29.84,1010.6,0.11,0.0,0.0,2025-01-09,1,2025,6,KCHO,0.13,0.16,0.16999999999999998,0.16999999999999998,6
2025-01-06,6,2025-01-06 07:53,07:53,EST,N  6,2.0,Light Snow Fog/Mist,FEW003 OVC007,28.9,26.1,89.0,23.0,,29.81,1009.7,0.06,0.0,0.0,2025-01-09,1,2025,7,KCHO,0.16999999999999998,0.21999999999999997,0.22999999999999998,0.22999999999999998,6
2025-01-06,6,2025-01-06 08:53,08:53,EST,N  7,0.5,Light Snow,OVC008,28.0,26.1,92.0,22.0,,29.79,1009.4,0.08,0.0,0.0,2025-01-09,1,2025,8,KCHO,0.25,0.29,0.31,0.31,7
2025-01-06,6,2025-01-06 09:53,09:53,EST,NE  8,0.5,Light Snow,OVC008,28.9,26.1,89.0,22.0,,29.77,1008.7,0.07,0.21,0.0,2025-01-09,1,2025,9,KCHO,0.21000000000000002,0.34,0.38,0.38,8
2025-01-06,6,2025-01-06 10:53,10:53,EST,NE  8,2.0,Light Snow Fog/Mist,BKN005 OVC010,28.9,27.0,92.0,22.0,,29.75,1007.8,0.06,0.0,0.0,2025-01-09,1,2025,10,KCHO,0.21000000000000002,0.38,0.44,0.44,8
2025-01-06,6,2025-01-06 11:53,11:53,EST,NE  12,3.0,Fog/Mist,OVC005,28.9,26.1,89.0,20.0,,29.7,1006.0,0.07,0.0,0.0,2025-01-09,1,2025,11,KCHO,0.2,0.45,0.51,0.51,12
2025-01-06,6,2025-01-06 12:53,12:53,EST,NE  9,10.0,Overcast,OVC006,28.9,26.1,89.0,21.0,,29.64,1004.1,0.04,0.0,0.38,2025-01-09,1,2025,12,KCHO,0.17,0.37999999999999995,0.54,0.55,9
2025-01-06,6,2025-01-06 13:53,13:53,EST,NE  10,10.0,Overcast,OVC008,28.9,25.0,85.0,20.0,,29.61,1003.0,0.0,0.0,0.0,2025-01-09,1,2025,13,KCHO,0.11000000000000001,0.31999999999999995,0.54,0.55,10
2025-01-06,6,2025-01-06 14:53,14:53,EST,NE  10,10.0,Overcast,OVC008,27.0,24.1,89.0,18.0,,29.61,1003.2,0.0,0.0,0.0,2025-01-09,1,2025,14,KCHO,0.04,0.24000000000000002,0.53,0.55,10
2025-01-06,6,2025-01-06 15:53,15:53,EST,NE  10,1.5,Light Snow Fog/Mist,SCT009 BKN012 OVC027,27.0,24.1,89.0,18.0,,29.64,1004.1,0.0,0.0,0.0,2025-01-09,1,2025,15,KCHO,0.0,0.16999999999999998,0.51,0.55,10
2025-01-06,6,2025-01-06 16:53,16:53,EST,N  8,2.0,Light Snow Fog/Mist,OVC009,26.1,23.0,88.0,18.0,,29.66,1005.0,0.0,0.0,0.0,2025-01-09,1,2025,16,KCHO,0.0,0.10999999999999999,0.49,0.55,8
2025-01-06,6,2025-01-06 17:53,17:53,EST,NE  3,2.5,Light Snow Fog/Mist,FEW008 SCT014 OVC040,26.1,23.0,88.0,,,29.69,1005.9,0.01,0.0,0.0,2025-01-09,1,2025,17,KCHO,0.01,0.04999999999999999,0.5,0.56,3
2025-01-06,6,2025-01-06 18:53,18:53,EST,N  3,7.0,Overcast,OVC008,26.1,23.0,88.0,,,29.72,1007.0,0.0,0.0,0.01,2025-01-09,1,2025,18,KCHO,0.01,0.009999999999999986,0.39,0.56,3
2025-01-06,6,2025-01-06 19:53,19:53,EST,NW  5,4.0,Light Snow Fog/Mist,SCT029 OVC037,26.1,21.9,84.0,21.0,,29.78,1009.0,0.01,0.0,0.0,2025-01-09,1,2025,19,KCHO,0.02,0.019999999999999987,0.34,0.5700000000000001,5
2025-01-06,6,2025-01-06 20:53,20:53,EST,NW  7,8.0,Overcast,FEW034 OVC085,27.0,21.0,78.0,20.0,,29.81,1009.8,0.01,0.0,0.0,2025-01-09,1,2025,20,KCHO,0.02,0.029999999999999985,0.27,0.58,7
2025-01-06,6,2025-01-06 21:53,21:53,EST,NW  3,10.0,Partly Cloudy,SCT033,27.0,19.0,72.0,,,29.83,1010.6,0.0,0.02,0.0,2025-01-09,1,2025,21,KCHO,0.02,0.029999999999999985,0.2,0.58,3
2025-01-06,6,2025-01-06 22:53,22:53,EST,NW  7,10.0,Mostly Cloudy,BKN036,28.0,18.0,66.0,22.0,,29.86,1011.5,0.0,0.0,0.0,2025-01-09,1,2025,22,KCHO,0.01,0.029999999999999985,0.14,0.58,7
2025-01-06,6,2025-01-06 23:53,23:53,EST,Calm,10.0,Partly Cloudy,SCT038,27.0,17.1,66.0,,,29.88,1012.3,0.0,0.0,0.0,2025-01-09,1,2025,23,KCHO,0.0,0.019999999999999983,0.07,0.58,0
2025-01-07,7,2025-01-07 00:53,00:53,EST,Calm,10.0,A Few Clouds,FEW039,27.0,16.0,63.0,,,29.89,1012.7,0.0,0.0,0.02,2025-01-09,1,2025,0,KCHO,0.0,0.019999999999999983,0.03,0.57,0
2025-01-07,7,2025-01-07 01:53,01:53,EST,N  6  G 17,10.0,Fair,CLR,28.0,16.0,60.0,22.0,,29.91,1013.4,0.0,0.0,0.0,2025-01-09,1,2025,1,KCHO,0.0,0.009999999999999986,0.03,0.57,6
2025-01-07,7,2025-01-07 02:53,02:53,EST,NW  7  G 20,10.0,Fair,CLR,27.0,14.0,58.0,20.0,,29.94,1014.5,0.0,0.0,0.0,2025-01-09,1,2025,2,KCHO,0.0,0.0,0.03,0.5599999999999999,7
2025-01-07,7,2025-01-07 03:53,03:53,EST,Calm,10.0,Fair,CLR,26.1,12.9,57.0,,,29.96,1014.9,0.0,0.0,0.0,2025-01-09,1,2025,3,KCHO,0.0,0.0,0.03,0.5399999999999999,0
2025-01-07,7,2025-01-07 04:53,04:53,EST,NW  9,10.0,Fair,CLR,26.1,12.0,55.0,18.0,,29.98,1015.6,0.0,0.0,0.0,2025-01-09,1,2025,4,KCHO,0.0,0.0,0.03,0.5199999999999999,9
2025-01-07,7,2025-01-07 05:53,05:53,EST,NW  12  G 21,10.0,Fair,CLR,26.1,12.0,55.0,16.0,,30.0,1016.6,0.0,0.0,0.0,2025-01-09,1,2025,5,KCHO,0.0,0.0,0.019999999999999997,0.5199999999999999,12
2025-01-07,7,2025-01-07 06:53,06:53,EST,NW  13  G 26,10.0,Fair,CLR,26.1,10.0,51.0,16.0,,30.03,1017.5,0.0,0.0,0.0,2025-01-09,1,2025,6,KCHO,0.0,0.0,0.019999999999999997,0.41000000000000003,13
2025-01-07,7,2025-01-07 07:53,07:53,EST,NW  10,10.0,Fair,CLR,25.0,9.0,50.0,16.0,,30.06,1018.5,0.0,0.0,0.0,2025-01-09,1,2025,7,KCHO,0.0,0.0,0.01,0.35000000000000003,10
2025-01-07,7,2025-01-07 08:53,08:53,EST,NW  7,10.0,Fair,CLR,26.1,9.0,48.0,19.0,,30.09,1019.7,0.0,0.0,0.0,2025-01-09,1,2025,8,KCHO,0.0,0.0,0.0,0.27,7
2025-01-07,7,2025-01-07 09:53,09:53,EST,NW  12  G 18,10.0,Fair,CLR,28.0,9.0,44.0,19.0,,30.12,1020.6,0.0,0.0,0.0,2025-01-09,1,2025,9,KCHO,0.0,0.0,0.0,0.2,12
2025-01-07,7,2025-01-07 10:53,10:53,EST,Vrbl  6  G 18,10.0,Fair,CLR,30.0,10.0,43.0,25.0,,30.13,1020.7,0.0,0.0,0.0,2025-01-09,1,2025,10,KCHO,0.0,0.0,0.0,0.14,6
2025-01-07,7,2025-01-07 11:53,11:53,EST,Vrbl  7,10.0,Fair,CLR,32.0,10.9,41.0,26.0,,30.12,1020.3,0.0,0.0,0.0,2025-01-09,1,2025,11,KCHO,0.0,0.0,0.0,0.07,7
2025-01-07,7,2025-01-07 12:53,12:53,EST,Vrbl  3,10.0,Fair,CLR,33.1,12.0,42.0,,,30.1,1019.8,0.0,0.0,0.0,2025-01-09,1,2025,12,KCHO,0.0,0.0,0.0,0.03,3
2025-01-07,7,2025-01-07 13:53,13:53,EST,Vrbl  5,10.0,Fair,CLR,35.1,12.0,38.0,32.0,,30.1,1019.6,0.0,0.0,0.0,2025-01-09,1,2025,13,KCHO,0.0,0.0,0.0,0.03,5
2025-01-07,7,2025-01-07 14:53,14:53,EST,NW  8,10.0,Fair,CLR,35.1,12.9,40.0,29.0,,30.11,1020.1,0.0,0.0,0.0,2025-01-09,1,2025,14,KCHO,0.0,0.0,0.0,0.03,8
2025-01-07,7,2025-01-07 15:53,15:53,EST,NW  3,10.0,Fair,CLR,35.1,12.0,38.0,,,30.12,1020.6,0.0,0.0,0.0,2025-01-09,1,2025,15,KCHO,0.0,0.0,0.0,0.03,3
2025-01-07,7,2025-01-07 16:53,16:53,EST,Vrbl  3,10.0,Fair,CLR,32.0,10.9,41.0,,,30.14,1021.0,0.0,0.0,0.0,2025-01-09,1,2025,16,KCHO,0.0,0.0,0.0,0.03,3
2025-01-07,7,2025-01-07 17:53,17:53,EST,NW  8,10.0,Fair,CLR,30.0,10.0,43.0,23.0,,30.16,1021.9,0.0,0.0,0.0,2025-01-09,1,2025,17,KCHO,0.0,0.0,0.0,0.019999999999999997,8
2025-01-07,7,2025-01-07 18:53,18:53,EST,NW  12,10.0,Fair,CLR,30.0,8.1,39.0,21.0,,30.16,1022.0,0.0,0.0,0.0,2025-01-09,1,2025,18,KCHO,0.0,0.0,0.0,0.019999999999999997,12
2025-01-07,7,2025-01-07 19:53,19:53,EST,Vrbl  6,10.0,Fair,CLR,28.9,8.1,41.0,23.0,,30.17,1022.2,0.0,0.0,0.0,2025-01-09,1,2025,19,KCHO,0.0,0.0,0.0,0.01,6
2025-01-07,7,2025-01-07 20:53,20:53,EST,Vrbl  6,10.0,Fair,CLR,28.0,9.0,44.0,22.0,,30.17,1022.2,0.0,0.0,0.0,2025-01-09,1,2025,20,KCHO,0.0,0.0,0.0,0.0,6
2025-01-07,7,2025-01-07 21:53,21:53,EST,NW  5,10.0,Fair,CLR,27.0,9.0,46.0,22.0,,30.18,1022.5,0.0,0.0,0.0,2025-01-09,1,2025,21,KCHO,0.0,0.0,0.0,0.0,5
2025-01-07,7,2025-01-07 22:53,22:53,EST,NW  7,10.0,Fair,CLR,27.0,8.1,45.0,20.0,,30.19,1022.6,0.0,0.0,0.0,2025-01-10,1,2025,22,KCHO,0.0,0.0,0.0,0.0,7
2025-01-07,7,2025-01-07 23:53,23:53,EST,Vrbl  3,10.0,Fair,CLR,25.0,8.1,48.0,,,30.19,1022.9,0.0,0.0,0.0,2025-01-10,1,2025,23,KCHO,0.0,0.0,0.0,0.0,3
2025-01-08,8,2025-01-08 00:53,00:53,EST,Vrbl  5,10.0,Fair,CLR,25.0,8.1,48.0,20.0,,30.19,1022.8,0.0,0.0,0.0,2025-01-11,1,2025,0,KCHO,0.0,0.0,0.0,0.0,5
2025-01-08,8,2025-01-08 01:53,01:53,EST,NW  5,10.0,Fair,CLR,24.1,7.0,48.0,19.0,,30.19,1023.0,0.0,0.0,0.0,2025-01-11,1,2025,1,KCHO,0.0,0.0,0.0,0.0,5
2025-01-08,8,2025-01-08 02:53,02:53,EST,NW  8,10.0,Fair,CLR,23.0,7.0,50.0,15.0,,30.2,1023.1,0.0,0.0,0.0,2025-01-11,1,2025,2,KCHO,0.0,0.0,0.0,0.0,8
2025-01-08,8,2025-01-08 03:53,03:53,EST,NW  6,10.0,Fair,CLR,23.0,6.1,48.0,17.0,,30.19,1022.7,0.0,0.0,0.0,2025-01-11,1,2025,3,KCHO,0.0,0.0,0.0,0.0,6
2025-01-08,8,2025-01-08 04:53,04:53,EST,Vrbl  5,10.0,Fair,CLR,21.9,6.1,50.0,16.0,,30.19,1022.8,0.0,0.0,0.0,2025-01-11,1,2025,4,KCHO,0.0,0.0,0.0,0.0,5
2025-01-08,8,2025-01-08 05:53,05:53,EST,Calm,10.0,Fair,CLR,21.0,5.0,50.0,,,30.19,1022.9,0.0,0.0,0.0,2025-01-11,1,2025,5,KCHO,0.0,0.0,0.0,0.0,0
2025-01-08,8,2025-01-08 06:53,06:53,EST,Vrbl  5,10.0,Fair,CLR,21.0,5.0,50.0,15.0,,30.2,1023.1,0.0,0.0,0.0,2025-01-11,1,2025,6,KCHO,0.0,0.0,0.0,0.0,5
2025-01-08,8,2025-01-08 07:53,07:53,EST,S  8,10.0,Fair,CLR,19.0,5.0,54.0,10.0,,30.19,1023.0,0.0,0.0,0.0,2025-01-11,1,2025,7,KCHO,0.0,0.0,0.0,0.0,8
2025-01-08,8,2025-01-08 08:53,08:53,EST,SW  6,10.0,Fair,CLR,19.0,5.0,54.0,12.0,,30.19,1023.1,0.0,0.0,0.0,2025-01-11,1,2025,8,KCHO,0.0,0.0,0.0,0.0,6
2025-01-08,8,2025-01-08 09:53,09:53,EST,S  8,10.0,Fair,CLR,21.0,7.0,54.0,12.0,,30.18,1022.8,0.0,0.0,0.0,2025-01-11,1,2025,9,KCHO,0.0,0.0,0.0,0.0,8
2025-01-08,8,2025-01-08 11:53,11:53,EST,S  6,10.0,Fair,CLR,28.9,9.0,43.0,23.0,,30.12,1020.6,0.0,0.0,0.0,2025-01-11,1,2025,11,KCHO,0.0,0.0,0.0,0.0,6
2025-01-08,8,2025-01-08 12:53,12:53,EST,W  10,10.0,Fair,CLR,32.0,9.0,38.0,24.0,,30.07,1018.9,0.0,0.0,0.0,2025-01-11,1,2025,12,KCHO,0.0,0.0,0.0,0.0,10
2025-01-08,8,2025-01-08 13:53,13:53,EST,W  7,10.0,Fair,CLR,33.1,9.0,36.0,28.0,,30.03,1017.4,0.0,0.0,0.0,2025-01-11,1,2025,13,KCHO,0.0,0.0,0.0,0.0,7
2025-01-08,8,2025-01-08 14:53,14:53,EST,NW  10  G 16,10.0,Fair,CLR,30.9,8.1,38.0,23.0,,30.02,1017.2,0.0,0.0,0.0,2025-01-11,1,2025,14,KCHO,0.0,0.0,0.0,0.0,10
2025-01-08,8,2025-01-08 15:53,15:53,EST,NW  10  G 18,10.0,Fair,CLR,30.9,8.1,38.0,23.0,,30.02,1017.2,0.0,0.0,0.0,2025-01-11,1,2025,15,KCHO,0.0,0.0,0.0,0.0,10
2025-01-08,8,2025-01-08 16:53,16:53,EST,NW  7,10.0,Fair,CLR,30.0,8.1,39.0,24.0,,30.03,1017.3,0.0,0.0,0.0,2025-01-11,1,2025,16,KCHO,0.0,0.0,0.0,0.0,7
2025-01-08,8,2025-01-08 17:53,17:53,EST,NW  9  G 18,10.0,Fair,CLR,28.0,8.1,43.0,20.0,,30.04,1017.9,0.0,0.0,0.0,2025-01-11,1,2025,17,KCHO,0.0,0.0,0.0,0.0,9
2025-01-08,8,2025-01-08 18:53,18:53,EST,Vrbl  5,10.0,A Few Clouds,FEW050,27.0,8.1,45.0,22.0,,30.05,1018.3,0.0,0.0,0.0,2025-01-11,1,2025,18,KCHO,0.0,0.0,0.0,0.0,5
2025-01-08,8,2025-01-08 19:53,19:53,EST,W  3,10.0,Mostly Cloudy,BKN050,26.1,8.1,46.0,,,30.05,1018.2,0.0,0.0,0.0,2025-01-11,1,2025,19,KCHO,0.0,0.0,0.0,0.0,3
2025-01-08,8,2025-01-08 20:53,20:53,EST,NW  7,10.0,Partly Cloudy,SCT050,26.1,7.0,44.0,19.0,,30.05,1018.3,0.0,0.0,0.0,2025-01-11,1,2025,20,KCHO,0.0,0.0,0.0,0.0,7
2025-01-08,8,2025-01-08 21:53,21:53,EST,NW  6,10.0,A Few Clouds,FEW050,25.0,6.1,44.0,19.0,,30.05,1018.3,0.0,0.0,0.0,2025-01-11,1,2025,21,KCHO,0.0,0.0,0.0,0.0,6
2025-01-08,8,2025-01-08 22:53,22:53,EST,Calm,10.0,Partly Cloudy,SCT055,24.1,5.0,44.0,,,30.04,1018.0,0.0,0.0,0.0,2025-01-11,1,2025,22,KCHO,0.0,0.0,0.0,0.0,0
2025-01-08,8,2025-01-08 23:53,23:53,EST,Vrbl  3,10.0,Fair,CLR,24.1,3.9,42.0,,,30.04,1017.7,0.0,0.0,0.0,2025-01-11,1,2025,23,KCHO,0.0,0.0,0.0,0.0,3
2025-01-09,9,2025-01-09 00:53,00:53,EST,NW  3,10.0,Fair,CLR,23.0,3.9,44.0,,,30.02,1017.2,0.0,0.0,0.0,2025-01-11,1,2025,0,KCHO,0.0,0.0,0.0,0.0,3
2025-01-09,9,2025-01-09 01:53,01:53,EST,Vrbl  5,10.0,Fair,CLR,23.0,3.9,44.0,18.0,,30.03,1017.3,0.0,0.0,0.0,2025-01-11,1,2025,1,KCHO,0.0,0.0,0.0,0.0,5
2025-01-09,9,2025-01-09 03:53,03:53,EST,NW  6,10.0,A Few Clouds,FEW050,24.1,5.0,44.0,18.0,,30.03,1017.3,0.0,0.0,0.0,2025-01-11,1,2025,3,KCHO,0.0,0.0,0.0,0.0,6
2025-01-09,9,2025-01-09 04:53,04:53,EST,NW  10  G 22,10.0,Fair,CLR,24.1,6.1,46.0,15.0,,30.02,1017.0,0.0,0.0,0.0,2025-01-11,1,2025,4,KCHO,0.0,0.0,0.0,0.0,10
2025-01-09,9,2025-01-09 05:53,05:53,EST,NW  13  G 23,10.0,Fair,CLR,24.1,5.0,44.0,13.0,,30.03,1017.3,0.0,0.0,0.0,2025-01-11,1,2025,5,KCHO,0.0,0.0,0.0,0.0,13
2025-01-09,9,2025-01-09 06:53,06:53,EST,Vrbl  5  G 20,10.0,Fair,CLR,24.1,5.0,44.0,19.0,,30.04,1017.9,0.0,0.0,0.0,2025-01-11,1,2025,6,KCHO,0.0,0.0,0.0,0.0,5
2025-01-09,9,2025-01-09 07:53,07:53,EST,NW  8,10.0,Fair,CLR,25.0,6.1,44.0,17.0,,30.05,1018.3,0.0,0.0,0.0,2025-01-11,1,2025,7,KCHO,0.0,0.0,0.0,0.0,8
2025-01-09,9,2025-01-09 08:53,08:53,EST,NW  9  G 20,10.0,Fair,CLR,26.1,6.1,42.0,18.0,,30.07,1018.9,0.0,0.0,0.0,2025-01-11,1,2025,8,KCHO,0.0,0.0,0.0,0.0,9
2025-01-09,9,2025-01-09 09:53,09:53,EST,NW  10  G 21,10.0,Fair,CLR,28.0,6.1,39.0,19.0,,30.09,1019.5,0.0,0.0,0.0,2025-01-11,1,2025,9,KCHO,0.0,0.0,0.0,0.0,10
2025-01-09,9,2025-01-09 10:53,10:53,EST,W  10  G 18,10.0,Fair,CLR,28.9,6.1,38.0,20.0,,30.1,1019.8,0.0,0.0,0.0,2025-01-11,1,2025,10,KCHO,0.0,0.0,0.0,0.0,10
2025-01-09,9,2025-01-09 11:53,11:53,EST,NW  9  G 20,10.0,Fair,CLR,30.9,5.0,33.0,24.0,,30.08,1019.3,0.0,0.0,0.0,2025-01-11,1,2025,11,KCHO,0.0,0.0,0.0,0.0,9
2025-01-09,9,2025-01-09 12:53,12:53,EST,NW  14  G 23,10.0,Fair,CLR,32.0,5.0,32.0,23.0,,30.07,1018.7,0.0,0.0,0.0,2025-01-11,1,2025,12,KCHO,0.0,0.0,0.0,0.0,14
2025-01-09,9,2025-01-09 13:53,13:53,EST,NW  12  G 21,10.0,Fair,CLR,33.1,5.0,30.0,25.0,,30.06,1018.6,0.0,0.0,0.0,2025-01-11,1,2025,13,KCHO,0.0,0.0,0.0,0.0,12
2025-01-09,9,2025-01-09 14:53,14:53,EST,NW  12  G 23,10.0,Fair,CLR,33.1,5.0,30.0,25.0,,30.06,1018.6,0.0,0.0,0.0,2025-01-11,1,2025,14,KCHO,0.0,0.0,0.0,0.0,12
2025-01-09,9,2025-01-09 15:53,15:53,EST,NW  10  G 26,10.0,Fair,CLR,33.1,3.9,29.0,26.0,,30.08,1019.0,0.0,0.0,0.0,2025-01-11,1,2025,15,KCHO,0.0,0.0,0.0,0.0,10
2025-01-09,9,2025-01-09 16:53,16:53,EST,Vrbl  3,10.0,Fair,CLR,32.0,3.9,30.0,,,30.07,1018.8,0.0,0.0,0.0,2025-01-11,1,2025,16,KCHO,0.0,0.0,0.0,0.0,3
2025-01-09,9,2025-01-09 17:53,17:53,EST,NW  8,10.0,Fair,CLR,30.0,3.9,33.0,23.0,,30.08,1019.0,0.0,0.0,0.0,2025-01-11,1,2025,17,KCHO,0.0,0.0,0.0,0.0,8
2025-01-09,9,2025-01-09 18:53,18:53,EST,Vrbl  6,10.0,Fair,CLR,28.9,3.9,34.0,23.0,,30.1,1020.0,0.0,0.0,0.0,2025-01-11,1,2025,18,KCHO,0.0,0.0,0.0,0.0,6
2025-01-09,9,2025-01-09 19:53,19:53,EST,Vrbl  5,10.0,Fair,CLR,28.0,3.9,35.0,24.0,,30.11,1020.3,0.0,0.0,0.0,2025-01-11,1,2025,19,KCHO,0.0,0.0,0.0,0.0,5
2025-01-09,9,2025-01-09 20:53,20:53,EST,NW  9  G 21,10.0,Fair,CLR,28.0,3.9,35.0,20.0,,30.11,1020.3,0.0,0.0,0.0,2025-01-11,1,2025,20,KCHO,0.0,0.0,0.0,0.0,9
2025-01-09,9,2025-01-09 21:53,21:53,EST,NW  7  G 20,10.0,Fair,CLR,27.0,3.9,37.0,20.0,,30.11,1020.3,0.0,0.0,0.0,2025-01-11,1,2025,21,KCHO,0.0,0.0,0.0,0.0,7
2025-01-09,9,2025-01-09 22:53,22:53,EST,N  10,10.0,Fair,CLR,27.0,3.0,35.0,18.0,,30.11,1020.2,0.0,0.0,0.0,2025-01-11,1,2025,22,KCHO,0.0,0.0,0.0,0.0,10
2025-01-09,9,2025-01-09 23:53,23:53,EST,W  3,10.0,Fair,CLR,26.1,3.0,37.0,,,30.1,1019.6,0.0,0.0,0.0,2025-01-11,1,2025,23,KCHO,0.0,0.0,0.0,0.0,3
2025-01-10,10,2025-01-10 00:53,00:53,EST,SW  3,10.0,Fair,CLR,21.0,3.0,45.0,,,30.1,1020.0,0.0,0.0,0.0,2025-01-11,1,2025,0,KCHO,0.0,0.0,0.0,0.0,3
2025-01-10,10,2025-01-10 01:53,01:53,EST,SW  3,10.0,Fair,CLR,21.9,3.9,46.0,,,30.12,1020.4,0.0,0.0,0.0,2025-01-11,1,2025,1,KCHO,0.0,0.0,0.0,0.0,3
2025-01-10,10,2025-01-10 02:53,02:53,EST,SW  3,10.0,Fair,CLR,21.0,1.9,43.0,,,30.11,1020.0,0.0,0.0,0.0,2025-01-11,1,2025,2,KCHO,0.0,0.0,0.0,0.0,3
2025-01-10,10,2025-01-10 03:53,03:53,EST,SW  5,10.0,Fair,CLR,21.0,3.9,47.0,15.0,,30.12,1020.6,0.0,0.0,0.0,2025-01-11,1,2025,3,KCHO,0.0,0.0,0.0,0.0,5
2025-01-10,10,2025-01-10 04:53,04:53,EST,Calm,10.0,Fair,CLR,23.0,3.0,42.0,,,30.11,1020.1,0.0,0.0,0.0,2025-01-11,1,2025,4,KCHO,0.0,0.0,0.0,0.0,0
2025-01-10,10,2025-01-10 05:53,05:53,EST,W  3,10.0,Fair,CLR,21.0,3.0,45.0,,,30.12,1020.6,0.0,0.0,0.0,2025-01-11,1,2025,5,KCHO,0.0,0.0,0.0,0.0,3
2025-01-10,10,2025-01-10 06:53,06:53,EST,Calm,10.0,Fair,CLR,19.9,3.0,48.0,,,30.12,1020.6,0.0,0.0,0.0,2025-01-11,1,2025,6,KCHO,0.0,0.0,0.0,0.0,0
2025-01-10,10,2025-01-10 07:53,07:53,EST,Calm,10.0,Fair,CLR,19.0,3.9,52.0,,,30.12,1020.7,0.0,0.0,0.0,2025-01-11,1,2025,7,KCHO,0.0,0.0,0.0,0.0,0
2025-01-10,10,2025-01-10 08:53,08:53,EST,Calm,10.0,Fair,CLR,19.9,6.1,55.0,,,30.12,1020.5,0.0,0.0,0.0,2025-01-11,1,2025,8,KCHO,0.0,0.0,0.0,0.0,0
2025-01-10,10,2025-01-10 09:53,09:53,EST,Calm,10.0,Fair,CLR,24.1,6.1,46.0,,,30.11,1020.1,0.0,0.0,0.0,2025-01-11,1,2025,9,KCHO,0.0,0.0,0.0,0.0,0
2025-01-10,10,2025-01-10 10:53,10:53,EST,Calm,10.0,Fair,CLR,27.0,6.1,41.0,,,30.09,1019.6,0.0,0.0,0.0,2025-01-11,1,2025,10,KCHO,0.0,0.0,0.0,0.0,0
2025-01-10,10,2025-01-10 11:53,11:53,EST,Calm,10.0,Fair,CLR,30.0,3.0,31.0,,,30.1,1019.8,0.0,0.0,0.0,2025-01-11,1,2025,11,KCHO,0.0,0.0,0.0,0.0,0
2025-01-10,10,2025-01-10 12:53,12:53,EST,S  5,10.0,Fair,CLR,30.9,6.1,35.0,27.0,,30.05,1018.2,0.0,0.0,0.0,2025-01-11,1,2025,12,KCHO,0.0,0.0,0.0,0.0,5
2025-01-10,10,2025-01-10 13:53,13:53,EST,S  6,10.0,Fair,CLR,32.0,9.0,38.0,27.0,,30.01,1016.8,0.0,0.0,0.0,2025-01-11,1,2025,13,KCHO,0.0,0.0,0.0,0.0,6
2025-01-10,10,2025-01-10 14:53,14:53,EST,S  6,10.0,A Few Clouds,FEW120,33.1,7.0,33.0,28.0,,29.98,1015.8,0.0,0.0,0.0,2025-01-11,1,2025,14,KCHO,0.0,0.0,0.0,0.0,6
2025-01-10,10,2025-01-10 15:53,15:53,EST,SE  7,10.0,Overcast,OVC110,32.0,7.0,35.0,26.0,,29.91,1013.3,0.0,0.0,0.0,2025-01-11,1,2025,15,KCHO,0.0,0.0,0.0,0.0,7
2025-01-10,10,2025-01-10 16:53,16:53,EST,S  6,10.0,Overcast,OVC090,30.9,9.0,40.0,26.0,,29.91,1013.4,0.0,0.0,0.0,2025-01-11,1,2025,16,KCHO,0.0,0.0,0.0,0.0,6
2025-01-10,10,2025-01-10 17:53,17:53,EST,S  8,10.0,Overcast,OVC085,30.9,10.0,42.0,24.0,,29.89,1012.6,0.0,0.0,0.0,2025-01-11,1,2025,17,KCHO,0.0,0.0,0.0,0.0,8
2025-01-10,10,2025-01-10 18:53,18:53,EST,S  8,10.0,Overcast,OVC065,30.9,12.0,45.0,24.0,,29.88,1012.4,0.0,0.0,0.0,2025-01-11,1,2025,18,KCHO,0.0,0.0,0.0,0.0,8
2025-01-10,10,2025-01-10 19:53,19:53,EST,S  7,10.0,Overcast,OVC055,30.0,12.9,49.0,24.0,,29.83,1010.9,0.0,0.0,0.0,2025-01-11,1,2025,19,KCHO,0.0,0.0,0.0,0.0,7
2025-01-10,10,2025-01-10 20:53,20:53,EST,S  5,10.0,Overcast,OVC048,30.0,15.1,54.0,26.0,,29.81,1010.1,0.0,0.0,0.0,2025-01-11,1,2025,20,KCHO,0.0,0.0,0.0,0.0,5
2025-01-10,10,2025-01-10 21:53,21:53,EST,S  8,9.0,Light Snow,OVC030,30.0,16.0,56.0,23.0,,29.79,1009.1,0.0,0.0,0.0,2025-01-13,1,2025,21,KCHO,0.0,0.0,0.0,0.0,8
2025-01-10,10,2025-01-10 22:53,22:53,EST,S  9,4.0,Light Snow Fog/Mist,OVC034,27.0,23.0,85.0,19.0,,29.77,1008.7,0.0,0.0,0.0,2025-01-13,1,2025,22,KCHO,0.0,0.0,0.0,0.0,9
2025-01-10,10,2025-01-10 23:53,23:53,EST,S  7,2.5,Light Snow Fog/Mist,SCT006 OVC031,27.0,24.1,89.0,20.0,,29.71,1006.6,0.01,0.0,0.0,2025-01-13,1,2025,23,KCHO,0.01,0.009999999999999986,0.01,0.01,7
2025-01-11,11,2025-01-11 00:53,00:53,EST,S  7,3.0,Light Snow Fog/Mist,SCT009 SCT014 OVC039,27.0,23.0,85.0,20.0,,29.67,1004.9,0.0,0.0,0.01,2025-01-14,1,2025,0,KCHO,0.01,0.009999999999999986,0.01,0.01,7
2025-01-11,11,2025-01-11 01:53,01:53,EST,S  7,8.0,Light Snow,BKN007 OVC070,27.0,24.1,89.0,20.0,,29.62,1003.3,0.0,0.0,0.0,2025-01-14,1,2025,1,KCHO,0.01,0.009999999999999986,0.01,0.01,7
2025-01-11,11,2025-01-11 02:53,02:53,EST,S  8,10.0,Overcast,OVC008,27.0,23.0,85.0,19.0,,29.6,1002.6,0.0,0.0,0.0,2025-01-14,1,2025,2,KCHO,0.0,0.009999999999999986,0.01,0.01,8
2025-01-11,11,2025-01-11 03:53,03:53,EST,Calm,10.0,Overcast,SCT008 BKN070 OVC110,26.1,23.0,88.0,,,29.56,1001.2,0.0,0.0,0.0,2025-01-14,1,2025,3,KCHO,0.0,0.009999999999999986,0.01,0.01,0
2025-01-11,11,2025-01-11 04:53,04:53,EST,Calm,10.0,Mostly Cloudy,BKN100,26.1,21.9,84.0,,,29.54,1000.7,0.0,0.0,0.0,2025-01-14,1,2025,4,KCHO,0.0,0.009999999999999986,0.01,0.01,0
2025-01-11,11,2025-01-11 05:53,05:53,EST,Calm,9.0,Partly Cloudy,SCT008,24.1,21.0,88.0,,,29.55,1001.0,0.0,0.0,0.0,2025-01-14,1,2025,5,KCHO,0.0,0.0,0.01,0.01,0
2025-01-11,11,2025-01-11 06:53,06:53,EST,Calm,9.0,Overcast,OVC047,23.0,19.9,88.0,,,29.55,1001.3,0.0,0.0,0.0,2025-01-14,1,2025,6,KCHO,0.0,0.0,0.01,0.01,0
2025-01-11,11,2025-01-11 07:53,07:53,EST,NW  3,10.0,A Few Clouds,FEW049,23.0,21.0,92.0,,,29.57,1001.9,0.0,0.0,0.0,2025-01-14,1,2025,7,KCHO,0.0,0.0,0.01,0.01,3
2025-01-11,11,2025-01-11 08:53,08:53,EST,Calm,9.0,Mostly Cloudy,BKN050,27.0,24.1,89.0,,,29.6,1002.6,0.0,0.0,0.0,2025-01-14,1,2025,8,KCHO,0.0,0.0,0.01,0.01,0
2025-01-11,11,2025-01-11 09:53,09:53,EST,Calm,10.0,Fair,CLR,28.0,25.0,88.0,,,29.62,1003.3,0.0,0.0,0.0,2025-01-14,1,2025,9,KCHO,0.0,0.0,0.01,0.01,0
2025-01-11,11,2025-01-11 10:53,10:53,EST,S  6,10.0,Fair,CLR,30.9,24.1,76.0,26.0,,29.64,1004.0,0.0,0.0,0.0,2025-01-14,1,2025,10,KCHO,0.0,0.0,0.01,0.01,6
2025-01-11,11,2025-01-11 11:53,11:53,EST,W  6,10.0,Fair,CLR,37.0,21.0,52.0,33.0,,29.62,1003.4,0.0,0.0,0.0,2025-01-14,1,2025,11,KCHO,0.0,0.0,0.0,0.01,6
2025-01-11,11,2025-01-11 12:53,12:53,EST,NW  13  G 26,10.0,A Few Clouds,FEW060,39.9,15.1,36.0,33.0,,29.63,1003.6,0.0,0.0,0.0,2025-01-14,1,2025,12,KCHO,0.0,0.0,0.0,0.01,13
2025-01-11,11,2025-01-11 13:53,13:53,EST,W  8  G 17,10.0,Fair,CLR,39.0,14.0,36.0,34.0,,29.65,1004.4,0.0,0.0,0.0,2025-01-14,1,2025,13,KCHO,0.0,0.0,0.0,0.01,8
2025-01-11,11,2025-01-11 14:53,14:53,EST,W  10  G 18,10.0,Fair,CLR,37.9,12.9,36.0,32.0,,29.7,1006.0,0.0,0.0,0.0,2025-01-14,1,2025,14,KCHO,0.0,0.0,0.0,0.01,10
2025-01-11,11,2025-01-11 15:53,15:53,EST,NW  9,10.0,Overcast,BKN060 OVC080,37.9,14.0,37.0,32.0,,29.75,1007.6,0.0,0.0,0.0,2025-01-14,1,2025,15,KCHO,0.0,0.0,0.0,0.01,9
2025-01-11,11,2025-01-11 16:53,16:53,EST,Vrbl  7  G 18,10.0,Partly Cloudy,SCT060,36.0,14.0,40.0,31.0,,29.78,1008.7,0.0,0.0,0.0,2025-01-14,1,2025,16,KCHO,0.0,0.0,0.0,0.01,7
2025-01-11,11,2025-01-11 17:53,17:53,EST,NW  9  G 20,10.0,Mostly Cloudy,BKN055,35.1,14.0,42.0,29.0,,29.81,1009.7,0.0,0.0,0.0,2025-01-14,1,2025,17,KCHO,0.0,0.0,0.0,0.01,9
2025-01-11,11,2025-01-11 18:53,18:53,EST,Vrbl  3,10.0,Fair,CLR,33.1,14.0,45.0,,,29.87,1011.9,0.0,0.0,0.0,2025-01-14,1,2025,18,KCHO,0.0,0.0,0.0,0.01,3
2025-01-11,11,2025-01-11 19:53,19:53,EST,NW  8,10.0,Mostly Cloudy,BKN050,32.0,14.0,47.0,25.0,,29.89,1012.5,0.0,0.0,0.0,2025-01-14,1,2025,19,KCHO,0.0,0.0,0.0,0.01,8
2025-01-11,11,2025-01-11 20:53,20:53,EST,Vrbl  5,10.0,Fair,CLR,32.0,14.0,47.0,28.0,,29.9,1012.8,0.0,0.0,0.0,2025-01-14,1,2025,20,KCHO,0.0,0.0,0.0,0.01,5
2025-01-11,11,2025-01-11 21:53,21:53,EST,Vrbl  3,10.0,A Few Clouds,FEW047,30.9,14.0,49.0,,,29.92,1013.7,0.0,0.0,0.0,2025-01-14,1,2025,21,KCHO,0.0,0.0,0.0,0.01,3
2025-01-11,11,2025-01-11 22:53,22:53,EST,N  5,10.0,A Few Clouds,FEW049,30.9,14.0,49.0,27.0,,29.96,1014.9,0.0,0.0,0.0,2025-01-14,1,2025,22,KCHO,0.0,0.0,0.0,0.01,5
2025-01-11,11,2025-01-11 23:53,23:53,EST,S  5,10.0,Fair,CLR,28.9,14.0,54.0,25.0,,29.96,1015.0,0.0,0.0,0.0,2025-01-14,1,2025,23,KCHO,0.0,0.0,0.0,0.0,5
2025-01-12,12,2025-01-12 00:53,00:53,EST,Vrbl  3,10.0,Fair,CLR,30.0,12.9,49.0,,,29.98,1015.6,0.0,0.0,0.0,2025-01-14,1,2025,0,KCHO,0.0,0.0,0.0,0.0,3
2025-01-12,12,2025-01-12 01:53,01:53,EST,N  7,10.0,Fair,CLR,30.0,14.0,51.0,24.0,,29.97,1015.2,0.0,0.0,0.0,2025-01-14,1,2025,1,KCHO,0.0,0.0,0.0,0.0,7
2025-01-12,12,2025-01-12 02:53,02:53,EST,N  3,10.0,Fair,CLR,28.0,14.0,56.0,,,29.98,1015.5,0.0,0.0,0.0,2025-01-14,1,2025,2,KCHO,0.0,0.0,0.0,0.0,3
2025-01-12,12,2025-01-12 03:53,03:53,EST,Calm,10.0,Fair,CLR,27.0,12.9,55.0,,,29.99,1015.8,0.0,0.0,0.0,2025-01-14,1,2025,3,KCHO,0.0,0.0,0.0,0.0,0
2025-01-12,12,2025-01-12 04:53,04:53,EST,Calm,10.0,Fair,CLR,24.1,14.0,65.0,,,30.0,1016.3,0.0,0.0,0.0,2025-01-14,1,2025,4,KCHO,0.0,0.0,0.0,0.0,0
2025-01-12,12,2025-01-12 05:53,05:53,EST,W  3,10.0,Fair,CLR,24.1,12.9,62.0,,,30.02,1016.9,0.0,0.0,0.0,2025-01-14,1,2025,5,KCHO,0.0,0.0,0.0,0.0,3
2025-01-12,12,2025-01-12 06:53,06:53,EST,W  3,10.0,Fair,CLR,26.1,14.0,60.0,,,30.05,1017.9,0.0,0.0,0.0,2025-01-14,1,2025,6,KCHO,0.0,0.0,0.0,0.0,3
2025-01-12,12,2025-01-12 07:53,07:53,EST,W  3,10.0,Fair,CLR,24.1,14.0,65.0,,,30.06,1018.4,0.0,0.0,0.0,2025-01-14,1,2025,7,KCHO,0.0,0.0,0.0,0.0,3
2025-01-12,12,2025-01-12 08:53,08:53,EST,W  3,10.0,Fair,CLR,27.0,15.1,61.0,,,30.09,1019.4,0.0,0.0,0.0,2025-01-14,1,2025,8,KCHO,0.0,0.0,0.0,0.0,3
2025-01-12,12,2025-01-12 09:53,09:53,EST,SW  3,10.0,Fair,CLR,28.9,16.0,58.0,,,30.12,1020.5,0.0,0.0,0.0,2025-01-14,1,2025,9,KCHO,0.0,0.0,0.0,0.0,3
2025-01-12,12,2025-01-12 10:53,10:53,EST,Calm,10.0,Fair,CLR,34.0,17.1,50.0,,,30.13,1020.6,0.0,0.0,0.0,2025-01-14,1,2025,10,KCHO,0.0,0.0,0.0,0.0,0
2025-01-12,12,2025-01-12 11:53,11:53,EST,Calm,10.0,Fair,CLR,36.0,16.0,44.0,,,30.12,1020.2,0.0,0.0,0.0,2025-01-14,1,2025,11,KCHO,0.0,0.0,0.0,0.0,0
2025-01-12,12,2025-01-12 12:53,12:53,EST,Vrbl  5,10.0,Fair,CLR,36.0,16.0,44.0,33.0,,30.08,1018.8,0.0,0.0,0.0,2025-01-14,1,2025,12,KCHO,0.0,0.0,0.0,0.0,5
2025-01-12,12,2025-01-12 16:53,16:53,EST,S  5,10.0,Fair,CLR,37.0,17.1,44.0,34.0,,30.03,1017.4,0.0,0.0,0.0,2025-01-14,1,2025,16,KCHO,0.0,0.0,0.0,0.0,5
2025-01-12,12,2025-01-12 17:53,17:53,EST,S  6,10.0,Fair,CLR,33.1,17.1,52.0,28.0,,30.06,1018.5,0.0,0.0,0.0,2025-01-14,1,2025,17,KCHO,0.0,0.0,0.0,0.0,6
2025-01-12,12,2025-01-12 18:53,18:53,EST,S  9,10.0,Fair,CLR,32.0,17.1,54.0,25.0,,30.07,1018.8,0.0,0.0,0.0,2025-01-14,1,2025,18,KCHO,0.0,0.0,0.0,0.0,9
2025-01-12,12,2025-01-12 19:53,19:53,EST,SW  8,10.0,Fair,CLR,30.9,17.1,56.0,24.0,,30.08,1019.0,0.0,0.0,0.0,2025-01-14,1,2025,19,KCHO,0.0,0.0,0.0,0.0,8
2025-01-12,12,2025-01-12 20:53,20:53,EST,S  3,10.0,Fair,CLR,32.0,17.1,54.0,,,30.08,1019.0,0.0,0.0,0.0,2025-01-14,1,2025,20,KCHO,0.0,0.0,0.0,0.0,3
2025-01-12,12,2025-01-12 21:53,21:53,EST,Calm,10.0,Fair,CLR,30.0,17.1,58.0,,,30.07,1018.6,0.0,0.0,0.0,2025-01-14,1,2025,21,KCHO,0.0,0.0,0.0,0.0,0
2025-01-12,12,2025-01-12 22:53,22:53,EST,Calm,10.0,Fair,CLR,28.0,17.1,63.0,,,30.05,1018.2,0.0,0.0,0.0,2025-01-14,1,2025,22,KCHO,0.0,0.0,0.0,0.0,0
2025-01-12,12,2025-01-12 23:53,23:53,EST,S  7,10.0,Fair,CLR,28.0,17.1,63.0,22.0,,30.04,1017.5,0.0,0.0,0.0,2025-01-14,1,2025,23,KCHO,0.0,0.0,0.0,0.0,7
2025-01-13,13,2025-01-13 00:53,00:53,EST,S  5,10.0,Fair,CLR,28.9,17.1,61.0,25.0,,30.03,1017.2,0.0,0.0,0.0,2025-01-14,1,2025,0,KCHO,0.0,0.0,0.0,0.0,5
2025-01-13,13,2025-01-13 01:53,01:53,EST,S  5,10.0,Fair,CLR,26.1,17.1,69.0,21.0,,30.03,1017.2,0.0,0.0,0.0,2025-01-14,1,2025,1,KCHO,0.0,0.0,0.0,0.0,5
2025-01-13,13,2025-01-13 02:53,02:53,EST,S  7,10.0,Fair,CLR,27.0,17.1,66.0,20.0,,30.03,1017.1,0.0,0.0,0.0,2025-01-14,1,2025,2,KCHO,0.0,0.0,0.0,0.0,7
2025-01-13,13,2025-01-13 03:53,03:53,EST,SW  3,10.0,Fair,CLR,28.0,17.1,63.0,,,30.01,1016.7,0.0,0.0,0.0,2025-01-14,1,2025,3,KCHO,0.0,0.0,0.0,0.0,3
2025-01-13,13,2025-01-13 04:53,04:53,EST,Vrbl  3,10.0,Fair,CLR,26.1,17.1,69.0,,,30.02,1016.9,0.0,0.0,0.0,2025-01-14,1,2025,4,KCHO,0.0,0.0,0.0,0.0,3
2025-01-13,13,2025-01-13 05:53,05:53,EST,S  5,10.0,Fair,CLR,24.1,17.1,75.0,19.0,,30.03,1017.5,0.0,0.0,0.0,2025-01-14,1,2025,5,KCHO,0.0,0.0,0.0,0.0,5
2025-01-13,13,2025-01-13 06:53,06:53,EST,SW  3,10.0,Fair,CLR,30.0,19.0,64.0,,,30.03,1017.4,0.0,0.0,0.0,2025-01-14,1,2025,6,KCHO,0.0,0.0,0.0,0.0,3
2025-01-13,13,2025-01-13 07:53,07:53,EST,S  5,10.0,Fair,CLR,32.0,19.9,61.0,28.0,,30.05,1017.9,0.0,0.0,0.0,2025-01-14,1,2025,7,KCHO,0.0,0.0,0.0,0.0,5
2025-01-13,13,2025-01-13 08:53,08:53,EST,Calm,10.0,Fair,CLR,36.0,21.9,57.0,,,30.04,1017.7,0.0,0.0,0.0,2025-01-14,1,2025,8,KCHO,0.0,0.0,0.0,0.0,0
2025-01-13,13,2025-01-13 09:53,09:53,EST,SW  7,10.0,Partly Cloudy,SCT049,41.0,25.0,53.0,37.0,,30.06,1018.2,0.0,0.0,0.0,2025-01-14,1,2025,9,KCHO,0.0,0.0,0.0,0.0,7
2025-01-13,13,2025-01-13 10:53,10:53,EST,SW  7,10.0,Partly Cloudy,SCT050,43.0,26.1,51.0,39.0,,30.05,1017.9,0.0,0.0,0.0,2025-01-14,1,2025,10,KCHO,0.0,0.0,0.0,0.0,7
2025-01-13,13,2025-01-13 11:53,11:53,EST,SW  7,10.0,Fair,CLR,45.0,25.0,46.0,42.0,,30.02,1016.7,0.0,0.0,0.0,2025-01-14,1,2025,11,KCHO,0.0,0.0,0.0,0.0,7
2025-01-13,13,2025-01-13 12:53,12:53,EST,Calm,10.0,Fair,CLR,46.0,25.0,44.0,,,29.99,1015.8,0.0,0.0,0.0,2025-01-14,1,2025,12,KCHO,0.0,0.0,0.0,0.0,0
2025-01-13,13,2025-01-13 13:53,13:53,EST,Vrbl  7  G 18,10.0,Fair,CLR,46.9,24.1,41.0,44.0,,29.96,1014.8,0.0,0.0,0.0,2025-01-14,1,2025,13,KCHO,0.0,0.0,0.0,0.0,7
2025-01-13,13,2025-01-13 14:53,14:53,EST,Vrbl  3  G 18,10.0,Fair,CLR,46.9,23.0,39.0,,,29.98,1015.4,0.0,0.0,0.0,2025-01-14,1,2025,14,KCHO,0.0,0.0,0.0,0.0,3
2025-01-13,13,2025-01-13 15:53,15:53,EST,Vrbl  6,10.0,Fair,CLR,46.0,21.9,38.0,44.0,,29.99,1016.0,0.0,0.0,0.0,2025-01-14,1,2025,15,KCHO,0.0,0.0,0.0,0.0,6
2025-01-13,13,2025-01-13 16:53,16:53,EST,W  10,10.0,Fair,CLR,44.1,19.9,38.0,39.0,,30.01,1016.4,0.0,0.0,0.0,2025-01-14,1,2025,16,KCHO,0.0,0.0,0.0,0.0,10
2025-01-13,13,2025-01-13 17:53,17:53,EST,W  6,10.0,Fair,CLR,42.1,19.0,40.0,39.0,,30.02,1017.0,0.0,0.0,0.0,2025-01-14,1,2025,17,KCHO,0.0,0.0,0.0,0.0,6
2025-01-13,13,2025-01-13 18:53,18:53,EST,W  8,10.0,Fair,CLR,41.0,19.0,41.0,36.0,,30.03,1017.2,0.0,0.0,0.0,2025-01-14,1,2025,18,KCHO,0.0,0.0,0.0,0.0,8
2025-01-13,13,2025-01-13 19:53,19:53,EST,SE  5,10.0,Fair,CLR,37.0,19.9,50.0,34.0,,30.04,1017.5,0.0,0.0,0.0,2025-01-14,1,2025,19,KCHO,0.0,0.0,0.0,0.0,5
2025-01-13,13,2025-01-13 20:53,20:53,EST,SE  6,10.0,Fair,CLR,36.0,19.9,52.0,32.0,,30.04,1017.4,0.0,0.0,0.0,2025-01-14,1,2025,20,KCHO,0.0,0.0,0.0,0.0,6
2025-01-13,13,2025-01-13 21:53,21:53,EST,Vrbl  5,10.0,Fair,CLR,37.9,19.0,46.0,35.0,,30.02,1016.9,0.0,0.0,0.0,2025-01-14,1,2025,21,KCHO,0.0,0.0,0.0,0.0,5
2025-01-13,13,2025-01-13 22:53,22:53,EST,SW  6,10.0,Fair,CLR,37.0,18.0,46.0,33.0,,30.03,1017.1,0.0,0.0,0.0,2025-01-14,1,2025,22,KCHO,0.0,0.0,0.0,0.0,6
2025-01-13,13,2025-01-13 23:53,23:53,EST,S  9  G 20,10.0,Fair,CLR,36.0,17.1,46.0,30.0,,30.03,1017.2,0.0,0.0,0.0,2025-01-14,1,2025,23,KCHO,0.0,0.0,0.0,0.0,9
