Date,Day,Time,Time Zone,Wind (mph),Vis. (mi.),Weather,Sky Cond.,Air,Dwpt,Max.,Min.,Relative Humidity,Wind Chill (°F),Heat Index (°F),altimeter (in),sea level (mb),1 hr,3 hr,6 hr,Data Retrieval Date,Obs_Month,Obs_Year,Hour,Station
2024-11-19,19,00:52,EST,Calm,10.0,Mostly Cloudy,FEW120 BKN250,54.0,46.9,63.0,54.0,77%,,,29.96,1014.3,,,,2024-11-22,11,2024,0,KIAD
2024-11-19,19,01:52,EST,Calm,10.0,Mostly Cloudy,BKN130 BKN250,54.0,48.0,,,80%,,,29.96,1014.4,,,,2024-11-22,11,2024,1,KIAD
2024-11-19,19,02:52,EST,Calm,10.0,Mostly Cloudy,SCT130 BKN250,50.0,46.9,,,89%,,,29.97,1014.7,,,,2024-11-22,11,2024,2,KIAD
2024-11-19,19,03:52,EST,Calm,10.0,Mostly Cloudy,BKN220,50.0,46.0,,,86%,,,29.98,1015.0,,,,2024-11-22,11,2024,3,KIAD
2024-11-19,19,04:52,EST,E  3,10.0,Mostly Cloudy,BKN220,48.0,45.0,,,89%,,,29.96,1014.4,,,,2024-11-22,11,2024,4,KIAD
2024-11-19,19,06:52,EST,Calm,10.0,Mostly Cloudy,FEW045 FEW160 BKN250,45.0,43.0,57.9,45.0,93%,,,29.99,1015.4,,,,2024-11-22,11,2024,6,KIAD
2024-11-19,19,07:52,EST,Calm,10.0,Mostly Cloudy,BKN220,50.0,46.9,,,89%,,,30.0,1015.8,,,,2024-11-22,11,2024,7,KIAD
2024-11-19,19,08:52,EST,E  6,10.0,Mostly Cloudy,FEW150 BKN220,55.9,42.1,,,60%,,,29.99,1015.5,,,,2024-11-22,11,2024,8,KIAD
2024-11-19,19,09:52,EST,E  6,10.0,Mostly Cloudy,FEW120 BKN190 BKN250,55.9,39.0,,,53%,,,29.99,1015.6,,,,2024-11-22,11,2024,9,KIAD
2024-11-19,19,19:52,EST,Calm,10.0,Overcast,OVC080,55.9,44.1,,,65%,,,29.86,1011.2,,,,2024-11-22,11,2024,19,KIAD
2024-11-19,19,10:52,EST,SE  5,10.0,Mostly Cloudy,FEW120 BKN180 BKN220,57.0,37.9,,,49%,,,29.98,1015.1,,,,2024-11-22,11,2024,10,KIAD
2024-11-19,19,11:52,EST,Calm,10.0,Overcast,FEW100 BKN160 OVC200,57.9,39.0,,,50%,,,29.96,1014.5,,,,2024-11-22,11,2024,11,KIAD
2024-11-19,19,12:52,EST,SE  6,10.0,Overcast,FEW110 BKN140 OVC200,59.0,39.9,59.0,46.0,49%,,,29.92,1013.1,,,,2024-11-22,11,2024,12,KIAD
2024-11-19,19,13:52,EST,SE  5,10.0,Overcast,BKN110 OVC200,60.1,41.0,,,50%,,,29.88,1011.8,,,,2024-11-22,11,2024,13,KIAD
2024-11-19,19,14:52,EST,S  3,10.0,Overcast,BKN110 OVC200,60.1,41.0,,,50%,,,29.87,1011.4,,,,2024-11-22,11,2024,14,KIAD
2024-11-19,19,15:52,EST,S  3,10.0,Overcast,BKN100 OVC200,59.0,41.0,,,51%,,,29.85,1010.7,,,,2024-11-22,11,2024,15,KIAD
2024-11-19,19,16:52,EST,S  3,10.0,Overcast,BKN110 OVC200,54.0,42.1,,,64%,,,29.86,1011.0,,,,2024-11-22,11,2024,16,KIAD
2024-11-19,19,17:52,EST,SE  5,10.0,Mostly Cloudy,BKN090 BKN200,57.9,42.1,,,56%,,,29.85,1010.7,,,,2024-11-22,11,2024,17,KIAD
2024-11-19,19,18:52,EST,Calm,10.0,Overcast,OVC085,57.0,43.0,60.1,53.1,60%,,,29.85,1010.8,,,,2024-11-22,11,2024,18,KIAD
2024-11-19,19,20:52,EST,SE  6,10.0,Light Rain,BKN031 OVC080,55.0,44.1,,,67%,,,29.86,1010.9,,,,2024-11-22,11,2024,20,KIAD
2024-11-19,19,21:52,EST,E  5,10.0,Overcast,FEW025 OVC060,53.1,46.9,,,80%,,,29.85,1010.6,,,,2024-11-22,11,2024,21,KIAD
2024-11-19,19,22:52,EST,Calm,10.0,Overcast,OVC055,54.0,46.9,,,77%,,,29.84,1010.2,,,,2024-11-22,11,2024,22,KIAD
2024-11-19,19,23:52,EST,Calm,10.0,Overcast,OVC060,54.0,46.9,,,77%,,,29.83,1009.9,,,,2024-11-23,11,2024,23,KIAD
2024-11-20,20,00:52,EST,Calm,10.0,Overcast,OVC065,52.0,48.0,57.9,52.0,86%,,,29.81,1009.3,,,,2024-11-23,11,2024,0,KIAD
2024-11-20,20,01:52,EST,Calm,10.0,Overcast,SCT045 OVC110,51.1,48.0,,,89%,,,29.8,1009.0,,,,2024-11-23,11,2024,1,KIAD
2024-11-20,20,02:52,EST,Calm,10.0,Mostly Cloudy,FEW044 BKN110,53.1,48.0,,,83%,,,29.81,1009.2,,,,2024-11-23,11,2024,2,KIAD
2024-11-20,20,03:52,EST,Calm,10.0,Overcast,OVC110,51.1,48.0,,,89%,,,29.8,1008.9,,,,2024-11-23,11,2024,3,KIAD
2024-11-20,20,04:52,EST,Calm,10.0,Mostly Cloudy,BKN110,50.0,46.9,,,89%,,,29.8,1008.9,,,,2024-11-23,11,2024,4,KIAD
2024-11-20,20,05:52,EST,Calm,10.0,Mostly Cloudy,SCT080 BKN110,50.0,46.0,,,86%,,,29.81,1009.3,,,,2024-11-23,11,2024,5,KIAD
2024-11-20,20,06:52,EST,Calm,10.0,Mostly Cloudy,BKN055 BKN200,51.1,46.9,53.1,48.9,86%,,,29.81,1009.6,,,,2024-11-23,11,2024,6,KIAD
2024-11-20,20,07:52,EST,Calm,10.0,Mostly Cloudy,BKN055,53.1,46.9,,,80%,,,29.81,1009.3,,,,2024-11-23,11,2024,7,KIAD
2024-11-20,20,08:52,EST,Calm,10.0,Mostly Cloudy,BKN055,54.0,48.9,,,83%,,,29.8,1009.0,,,,2024-11-23,11,2024,8,KIAD
2024-11-20,20,09:52,EST,Calm,10.0,Mostly Cloudy,SCT050 BKN080,57.9,48.9,,,72%,,,29.78,1008.2,,,,2024-11-23,11,2024,9,KIAD
2024-11-20,20,10:52,EST,SE  3,10.0,Mostly Cloudy,BKN048 BKN090,59.0,48.9,,,69%,,,29.78,1008.3,,,,2024-11-23,11,2024,10,KIAD
2024-11-20,20,11:52,EST,S  3,10.0,Overcast,BKN040 OVC055,61.0,50.0,,,67%,,,29.76,1007.5,,,,2024-11-23,11,2024,11,KIAD
2024-11-20,20,12:52,EST,S  3,10.0,Overcast,FEW043 OVC050,62.1,51.1,63.0,51.1,67%,,,29.72,1006.4,,,,2024-11-23,11,2024,12,KIAD
2024-11-20,20,13:52,EST,S  3,10.0,Mostly Cloudy,BKN045 BKN080,64.0,51.1,,,63%,,,29.7,1005.6,,,,2024-11-23,11,2024,13,KIAD
2024-11-20,20,14:52,EST,Calm,10.0,Overcast,OVC045,64.0,51.1,,,63%,,,29.68,1005.0,,,,2024-11-23,11,2024,14,KIAD
2024-11-20,20,15:52,EST,SE  6,10.0,Mostly Cloudy,BKN040 BKN075,64.0,52.0,,,65%,,,29.65,1004.1,,,,2024-11-23,11,2024,15,KIAD
2024-11-20,20,16:52,EST,SE  6,10.0,Overcast,OVC039,62.1,52.0,,,70%,,,29.64,1003.6,,,,2024-11-23,11,2024,16,KIAD
2024-11-20,20,17:52,EST,S  6,10.0,Overcast,BKN030 OVC038,62.1,53.1,,,73%,,,29.64,1003.5,,,,2024-11-23,11,2024,17,KIAD
2024-11-20,20,18:52,EST,S  6,10.0,Overcast,OVC018,61.0,54.0,64.9,61.0,78%,,,29.61,1002.5,,,,2024-11-23,11,2024,18,KIAD
2024-11-20,20,19:52,EST,S  6,4.0,Rain Fog/Mist,OVC013,59.0,55.9,,,90%,,,29.6,1002.2,0.02,,,2024-11-23,11,2024,19,KIAD
2024-11-20,20,20:52,EST,NW  21  G 35,7.0,Light Rain and Breezy,BKN047 OVC060,51.1,46.0,,,83%,,,29.69,1005.3,0.71,,,2024-11-23,11,2024,20,KIAD
2024-11-20,20,21:52,EST,NW  29  G 38,10.0,Light Rain and Windy,OVC055,50.0,37.9,,,63%,43.0,,29.72,1006.5,,0.73,,2024-11-23,11,2024,21,KIAD
2024-11-20,20,22:52,EST,NW  22  G 35,10.0,Overcast and Breezy,BKN060 OVC075,48.9,37.9,,,66%,42.0,,29.72,1006.4,,,,2024-11-23,11,2024,22,KIAD
2024-11-20,20,23:52,EST,NW  17  G 26,9.0,Light Rain,FEW048 BKN070 OVC090,46.0,39.0,,,77%,40.0,,29.71,1006.0,0.04,,,2024-11-23,11,2024,23,KIAD
2024-11-21,21,00:52,EST,NW  15  G 23,10.0,A Few Clouds,FEW095,46.0,34.0,61.0,46.0,63%,40.0,,29.71,1006.1,0.01,,0.78,2024-11-24,11,2024,0,KIAD
2024-11-21,21,01:52,EST,NW  10,10.0,Fair,CLR,44.1,30.0,,,58%,39.0,,29.73,1006.6,,,,2024-11-24,11,2024,1,KIAD
2024-11-21,21,02:52,EST,NW  9,10.0,Fair,CLR,42.1,30.0,,,62%,37.0,,29.73,1006.8,,,,2024-11-24,11,2024,2,KIAD
2024-11-21,21,03:52,EST,NW  6,10.0,Fair,CLR,41.0,30.0,,,65%,38.0,,29.72,1006.2,,,,2024-11-24,11,2024,3,KIAD
2024-11-21,21,04:52,EST,NW  8,10.0,Fair,CLR,39.0,30.0,,,70%,34.0,,29.7,1005.7,,,,2024-11-24,11,2024,4,KIAD
2024-11-21,21,05:52,EST,NW  7,10.0,Fair,CLR,37.9,30.0,,,73%,33.0,,29.7,1005.7,,,,2024-11-24,11,2024,5,KIAD
2024-11-21,21,06:52,EST,Calm,10.0,Fair,CLR,37.0,30.0,46.0,37.0,76%,,,29.7,1005.6,,,,2024-11-24,11,2024,6,KIAD
2024-11-21,21,07:52,EST,Calm,10.0,A Few Clouds,FEW050,41.0,32.0,,,70%,,,29.7,1005.6,,,,2024-11-24,11,2024,7,KIAD
2024-11-21,21,08:52,EST,W  6,10.0,A Few Clouds,FEW050,45.0,33.1,,,63%,42.0,,29.69,1005.3,,,,2024-11-24,11,2024,8,KIAD
2024-11-21,21,09:52,EST,NW  7,10.0,Mostly Cloudy,FEW050 BKN085,48.9,35.1,,,59%,46.0,,29.68,1004.9,,,,2024-11-24,11,2024,9,KIAD
2024-11-21,21,10:52,EST,W  9,10.0,Mostly Cloudy,BKN075,50.0,33.1,,,52%,47.0,,29.64,1003.7,,,,2024-11-24,11,2024,10,KIAD
2024-11-21,21,11:52,EST,SW  8  G 18,10.0,Mostly Cloudy,FEW045 BKN075,48.9,30.9,,,50%,46.0,,29.61,1002.7,,,,2024-11-24,11,2024,11,KIAD
2024-11-21,21,12:52,EST,W  10,10.0,Overcast,BKN045 OVC070,48.9,32.0,51.1,36.0,52%,45.0,,29.61,1002.5,,,,2024-11-24,11,2024,12,KIAD
2024-11-21,21,13:52,EST,NW  13  G 23,10.0,Overcast,SCT042 BKN048 OVC085,43.0,35.1,,,74%,37.0,,29.61,1002.8,,,,2024-11-24,11,2024,13,KIAD
2024-11-21,21,14:52,EST,NW  7,10.0,Mostly Cloudy,BKN045 BKN070,44.1,35.1,,,71%,41.0,,29.61,1002.7,,,,2024-11-24,11,2024,14,KIAD
2024-11-21,21,15:52,EST,NW  9,10.0,Overcast,SCT045 OVC090,45.0,33.1,,,63%,41.0,,29.61,1002.6,,,,2024-11-24,11,2024,15,KIAD
2024-11-21,21,16:52,EST,NW  7,10.0,Overcast,FEW040 OVC090,44.1,33.1,,,65%,41.0,,29.61,1002.9,,,,2024-11-24,11,2024,16,KIAD
2024-11-21,21,17:52,EST,NW  9,10.0,Overcast,FEW034 OVC060,44.1,34.0,,,68%,40.0,,29.63,1003.4,,,,2024-11-24,11,2024,17,KIAD
2024-11-21,21,18:52,EST,Vrbl  6,10.0,Overcast,SCT027 OVC035,39.9,34.0,48.9,39.9,79%,36.0,,29.64,1004.0,,,,2024-11-24,11,2024,18,KIAD
2024-11-21,21,19:52,EST,W  8,10.0,Overcast,OVC065,41.0,33.1,,,73%,36.0,,29.65,1003.9,,,,2024-11-24,11,2024,19,KIAD
2024-11-21,21,20:52,EST,W  13,10.0,A Few Clouds,FEW090,39.0,30.9,,,73%,32.0,,29.64,1003.9,,,,2024-11-24,11,2024,20,KIAD
2024-11-21,21,21:52,EST,W  12,10.0,Partly Cloudy,SCT050,39.9,28.0,,,63%,34.0,,29.65,1004.1,,,,2024-11-24,11,2024,21,KIAD
2024-11-21,21,22:52,EST,NW  22  G 28,10.0,Partly Cloudy and Breezy,SCT070,37.9,25.0,,,60%,28.0,,29.65,1003.9,,,,2024-11-24,11,2024,22,KIAD
2024-11-21,21,23:52,EST,W  10,10.0,A Few Clouds,FEW070,36.0,24.1,,,62%,29.0,,29.63,1003.4,,,,2024-11-24,11,2024,23,KIAD
2024-11-22,22,00:52,EST,W  13,10.0,Mostly Cloudy,BKN110,36.0,23.0,41.0,35.1,59%,28.0,,29.61,1002.7,,,,2024-11-25,11,2024,0,KIAD
2024-11-22,22,01:52,EST,W  8,10.0,A Few Clouds,FEW110,35.1,23.0,,,61%,29.0,,29.61,1002.8,,,,2024-11-25,11,2024,1,KIAD
2024-11-22,22,02:52,EST,W  6  G 16,10.0,A Few Clouds,FEW110,34.0,24.1,,,67%,29.0,,29.61,1002.7,,,,2024-11-25,11,2024,2,KIAD
2024-11-22,22,03:52,EST,NW  12,10.0,Partly Cloudy,SCT039,35.1,23.0,,,61%,28.0,,29.6,1002.5,,,,2024-11-25,11,2024,3,KIAD
2024-11-22,22,04:52,EST,W  9,10.0,Fair,CLR,34.0,23.0,,,64%,27.0,,29.59,1002.1,,,,2024-11-25,11,2024,4,KIAD
2024-11-22,22,05:52,EST,NW  12  G 20,10.0,Fair,CLR,35.1,23.0,,,61%,28.0,,29.59,1002.0,,,,2024-11-25,11,2024,5,KIAD
2024-11-22,22,06:52,EST,W  10  G 20,10.0,A Few Clouds,FEW110,35.1,21.9,36.0,33.1,59%,28.0,,29.59,1002.0,,,,2024-11-25,11,2024,6,KIAD
2024-11-22,22,07:52,EST,W  7,10.0,Partly Cloudy,FEW080 SCT160,36.0,23.0,,,59%,31.0,,29.58,1001.9,,,,2024-11-25,11,2024,7,KIAD
2024-11-22,22,08:52,EST,W  10,10.0,Mostly Cloudy,FEW080 BKN160,37.9,24.1,,,57%,32.0,,29.57,1001.4,,,,2024-11-25,11,2024,8,KIAD
2024-11-22,22,09:52,EST,W  10,10.0,Overcast,FEW034 BKN085 OVC100,39.0,25.0,,,57%,33.0,,29.57,1001.5,,,,2024-11-25,11,2024,9,KIAD
2024-11-22,22,10:52,EST,W  12  G 30,7.0,Light Rain,SCT023 OVC050,37.9,30.0,,,73%,31.0,,29.56,1001.1,,,,2024-11-25,11,2024,10,KIAD
2024-11-22,22,11:52,EST,SW  10,6.0,Light Rain Fog/Mist,FEW015 OVC023,37.0,33.1,,,86%,30.0,,29.52,999.8,0.02,,,2024-11-25,11,2024,11,KIAD
2024-11-22,22,12:52,EST,W  13  G 23,10.0,Light Rain,BKN025 OVC033,39.0,32.0,39.0,34.0,76%,32.0,,29.5,999.1,0.02,,0.04,2024-11-25,11,2024,12,KIAD
2024-11-22,22,13:52,EST,W  16  G 25,7.0,Light Rain,BKN025 OVC033,39.0,32.0,,,76%,31.0,,29.49,998.6,,,,2024-11-25,11,2024,13,KIAD
2024-11-22,22,15:52,EST,W  9  G 22,7.0,Light Rain,BKN017 OVC025,37.9,34.0,,,86%,32.0,,29.48,998.3,0.02,0.04,,2024-11-25,11,2024,15,KIAD
2024-11-22,22,16:52,EST,SW  9,10.0,Light Rain,BKN018 OVC031,37.9,34.0,,,86%,32.0,,29.48,998.5,0.01,,,2024-11-25,11,2024,16,KIAD
2024-11-22,22,17:52,EST,S  8,10.0,Light Rain,OVC037,37.9,35.1,,,89%,33.0,,29.48,998.5,0.01,,,2024-11-25,11,2024,17,KIAD
2024-11-22,22,18:52,EST,SW  10,10.0,Light Rain,OVC033,41.0,35.1,41.0,37.9,79%,35.0,,29.48,998.4,,,0.06,2024-11-25,11,2024,18,KIAD
2024-11-22,22,19:52,EST,W  14  G 29,10.0,Light Rain,OVC038,43.0,34.0,,,71%,37.0,,29.47,998.2,0.01,,,2024-11-25,11,2024,19,KIAD
2024-11-22,22,20:52,EST,W  15  G 31,10.0,Light Rain,OVC040,44.1,35.1,,,71%,38.0,,29.49,998.6,,,,2024-11-25,11,2024,20,KIAD
2024-11-22,22,21:52,EST,NW  24  G 32,10.0,Mostly Cloudy and Breezy,FEW040 BKN100,45.0,34.0,,,66%,37.0,,29.49,998.6,,0.01,,2024-11-25,11,2024,21,KIAD
2024-11-22,22,22:52,EST,W  24  G 33,10.0,Overcast and Breezy,SCT075 OVC100,45.0,35.1,,,68%,37.0,,29.49,998.7,,,,2024-11-25,11,2024,22,KIAD
2024-11-23,23,00:52,EST,NW  14  G 29,10.0,Overcast,OVC037,45.0,35.1,46.0,41.0,68%,39.0,,29.54,1000.4,,,0.01,2024-11-26,11,2024,0,KIAD
2024-11-23,23,01:52,EST,NW  14  G 20,10.0,Partly Cloudy,SCT037,44.1,35.1,,,71%,38.0,,29.55,1000.8,,,,2024-11-26,11,2024,1,KIAD
2024-11-23,23,02:52,EST,NW  16  G 24,10.0,A Few Clouds,FEW035,44.1,35.1,,,71%,37.0,,29.58,1001.7,,,,2024-11-26,11,2024,2,KIAD
2024-11-23,23,03:52,EST,NW  15,10.0,Partly Cloudy,SCT035,44.1,35.1,,,71%,38.0,,29.61,1002.8,,,,2024-11-26,11,2024,3,KIAD
2024-11-23,23,04:52,EST,NW  8,10.0,A Few Clouds,FEW038,43.0,35.1,,,74%,39.0,,29.65,1004.1,,,,2024-11-26,11,2024,4,KIAD
2024-11-23,23,05:52,EST,NW  16  G 23,10.0,A Few Clouds,FEW040,44.1,33.1,,,65%,37.0,,29.69,1005.4,,,,2024-11-26,11,2024,5,KIAD
2024-11-23,23,06:52,EST,NW  15  G 22,10.0,A Few Clouds,FEW045,43.0,33.1,45.0,43.0,68%,36.0,,29.72,1006.3,,,,2024-11-26,11,2024,6,KIAD
2024-11-23,23,07:52,EST,NW  10,10.0,Fair,CLR,45.0,34.0,,,66%,40.0,,29.74,1007.1,,,,2024-11-26,11,2024,7,KIAD
2024-11-23,23,08:52,EST,NW  12,10.0,A Few Clouds,FEW050,48.0,35.1,,,61%,44.0,,29.77,1008.0,,,,2024-11-26,11,2024,8,KIAD
2024-11-23,23,10:52,EST,NW  12  G 24,10.0,Mostly Cloudy,BKN040 BKN080,50.0,36.0,,,59%,46.0,,29.81,1009.4,,,,2024-11-26,11,2024,10,KIAD
2024-11-23,23,11:52,EST,W  23  G 32,10.0,Mostly Cloudy and Breezy,BKN036 BKN070,51.1,37.0,,,59%,,,29.79,1008.6,,,,2024-11-26,11,2024,11,KIAD
2024-11-23,23,12:52,EST,NW  23  G 37,10.0,Mostly Cloudy and Breezy,SCT036 BKN045,54.0,37.0,54.0,43.0,53%,,,29.79,1008.8,,,,2024-11-26,11,2024,12,KIAD
2024-11-23,23,13:52,EST,NW  17  G 32,10.0,Mostly Cloudy,BKN045,55.0,37.9,,,53%,,,29.79,1008.8,,,,2024-11-26,11,2024,13,KIAD
2024-11-23,23,14:52,EST,NW  17  G 28,10.0,Mostly Cloudy,BKN049 BKN250,55.0,37.0,,,51%,,,29.81,1009.3,,,,2024-11-26,11,2024,14,KIAD
2024-11-23,23,15:52,EST,W  24  G 35,10.0,Mostly Cloudy and Breezy,BKN048 BKN250,54.0,37.0,,,53%,,,29.82,1009.9,,,,2024-11-26,11,2024,15,KIAD
2024-11-23,23,16:52,EST,NW  21  G 29,10.0,Mostly Cloudy and Breezy,BKN049 BKN250,52.0,36.0,,,55%,,,29.85,1010.8,,,,2024-11-26,11,2024,16,KIAD
2024-11-23,23,17:52,EST,W  17  G 24,10.0,Mostly Cloudy,BKN047 BKN250,51.1,35.1,,,54%,,,29.87,1011.4,,,,2024-11-26,11,2024,17,KIAD
2024-11-23,23,18:52,EST,W  15  G 25,10.0,Mostly Cloudy,BKN048,50.0,36.0,57.0,50.0,59%,45.0,,29.89,1012.3,,,,2024-11-26,11,2024,18,KIAD
2024-11-23,23,19:52,EST,NW  16  G 25,10.0,Mostly Cloudy,BKN048,50.0,36.0,,,59%,45.0,,29.93,1013.3,,,,2024-11-26,11,2024,19,KIAD
2024-11-23,23,20:52,EST,W  12  G 20,10.0,Mostly Cloudy,BKN048,48.9,35.1,,,59%,45.0,,29.92,1013.1,,,,2024-11-26,11,2024,20,KIAD
2024-11-23,23,21:52,EST,W  8  G 22,10.0,Mostly Cloudy,BKN046,48.9,35.1,,,59%,46.0,,29.95,1014.0,,,,2024-11-26,11,2024,21,KIAD
2024-11-23,23,22:52,EST,NW  6,10.0,Overcast,OVC039,50.0,35.1,,,57%,48.0,,29.94,1013.9,,,,2024-11-26,11,2024,22,KIAD
2024-11-23,23,23:52,EST,W  5,10.0,Mostly Cloudy,BKN041,48.9,35.1,,,59%,48.0,,29.95,1014.1,,,,2024-11-26,11,2024,23,KIAD
2024-11-24,24,00:52,EST,SW  5,10.0,Overcast,OVC042,48.9,35.1,51.1,48.0,59%,48.0,,29.95,1014.3,,,,2024-11-27,11,2024,0,KIAD
2024-11-24,24,01:52,EST,SW  6,10.0,Overcast,OVC042,48.0,35.1,,,61%,46.0,,29.97,1014.7,,,,2024-11-27,11,2024,1,KIAD
2024-11-24,24,02:52,EST,W  6,10.0,Partly Cloudy,SCT040,48.0,36.0,,,63%,46.0,,29.97,1015.0,,,,2024-11-27,11,2024,2,KIAD
2024-11-24,24,03:52,EST,NW  13,10.0,Mostly Cloudy,FEW040 BKN250,48.9,36.0,,,61%,44.0,,29.97,1014.7,,,,2024-11-27,11,2024,3,KIAD
2024-11-24,24,04:52,EST,W  7,10.0,Mostly Cloudy,BKN130,48.0,36.0,,,63%,45.0,,29.98,1015.2,,,,2024-11-27,11,2024,4,KIAD
2024-11-24,24,05:52,EST,S  5,10.0,Overcast,BKN150 OVC250,48.0,36.0,,,63%,47.0,,29.99,1015.6,,,,2024-11-27,11,2024,5,KIAD
2024-11-24,24,06:52,EST,W  8,10.0,Mostly Cloudy,BKN120 BKN250,48.9,35.1,48.9,46.0,59%,46.0,,30.01,1016.1,,,,2024-11-27,11,2024,6,KIAD
2024-11-24,24,07:52,EST,Calm,10.0,Mostly Cloudy,BKN120 BKN250,48.0,35.1,,,61%,,,30.03,1016.8,,,,2024-11-27,11,2024,7,KIAD
2024-11-24,24,08:52,EST,W  8,10.0,Mostly Cloudy,SCT120 BKN250,51.1,35.1,,,54%,,,30.04,1017.2,,,,2024-11-27,11,2024,8,KIAD
2024-11-24,24,09:52,EST,NW  9,10.0,Mostly Cloudy,FEW040 SCT120 BKN250,53.1,36.0,,,52%,,,30.05,1017.6,,,,2024-11-27,11,2024,9,KIAD
2024-11-24,24,10:52,EST,S  9,10.0,Mostly Cloudy,FEW040 SCT120 BKN210,52.0,36.0,,,55%,,,30.04,1017.2,,,,2024-11-27,11,2024,10,KIAD
2024-11-24,24,11:52,EST,SW  6,10.0,Mostly Cloudy,FEW040 SCT180 BKN250,54.0,36.0,,,51%,,,30.02,1016.6,,,,2024-11-27,11,2024,11,KIAD
2024-11-24,24,12:52,EST,NW  6,10.0,Mostly Cloudy,FEW040 FEW100 SCT180 BKN250,55.9,36.0,55.9,48.0,47%,,,29.99,1015.5,,,,2024-11-27,11,2024,12,KIAD
2024-11-24,24,13:52,EST,W  3,10.0,Partly Cloudy,FEW100 FEW180 SCT250,55.0,36.0,,,49%,,,29.97,1014.8,,,,2024-11-27,11,2024,13,KIAD
2024-11-24,24,14:52,EST,W  10,10.0,Partly Cloudy,FEW100 SCT180 SCT250,57.0,36.0,,,45%,,,29.96,1014.7,,,,2024-11-27,11,2024,14,KIAD
2024-11-24,24,15:52,EST,NW  7,10.0,Partly Cloudy,SCT180 SCT250,57.0,36.0,,,45%,,,29.98,1015.1,,,,2024-11-27,11,2024,15,KIAD
2024-11-24,24,16:52,EST,NW  3,10.0,Partly Cloudy,FEW180 SCT250,54.0,35.1,,,49%,,,29.99,1015.4,,,,2024-11-27,11,2024,16,KIAD
2024-11-24,24,17:52,EST,NW  5,10.0,A Few Clouds,FEW250,46.0,36.0,,,68%,44.0,,30.01,1016.2,,,,2024-11-27,11,2024,17,KIAD
2024-11-24,24,18:52,EST,NW  7,10.0,A Few Clouds,FEW250,50.0,33.1,57.9,46.0,52%,48.0,,30.03,1017.0,,,,2024-11-27,11,2024,18,KIAD
2024-11-24,24,19:52,EST,N  8,10.0,A Few Clouds,FEW250,50.0,35.1,,,57%,47.0,,30.05,1017.6,,,,2024-11-27,11,2024,19,KIAD
2024-11-24,24,20:52,EST,N  7,10.0,A Few Clouds,FEW250,45.0,35.1,,,68%,42.0,,30.06,1018.0,,,,2024-11-27,11,2024,20,KIAD
2024-11-24,24,21:52,EST,N  7,10.0,A Few Clouds,FEW250,46.9,34.0,,,61%,44.0,,30.07,1018.4,,,,2024-11-27,11,2024,21,KIAD
2024-11-24,24,22:52,EST,NE  5,10.0,Fair,CLR,46.0,34.0,,,63%,44.0,,30.08,1018.6,,,,2024-11-27,11,2024,22,KIAD
2024-11-24,24,23:52,EST,N  3,10.0,Fair,CLR,41.0,33.1,,,73%,,,30.08,1018.7,,,,2024-11-27,11,2024,23,KIAD
2024-11-25,25,00:52,EST,SW  3,10.0,Fair,CLR,37.9,33.1,50.0,37.0,83%,,,30.08,1018.8,,,,2024-11-28,11,2024,0,KIAD
2024-11-25,25,01:52,EST,Calm,10.0,Mostly Cloudy,BKN250,37.9,33.1,,,83%,,,30.09,1019.2,,,,2024-11-28,11,2024,1,KIAD
2024-11-25,25,02:52,EST,Calm,10.0,Partly Cloudy,SCT250,37.0,33.1,,,86%,,,30.11,1019.7,,,,2024-11-28,11,2024,2,KIAD
2024-11-25,25,03:52,EST,Calm,10.0,Partly Cloudy,SCT250,35.1,32.0,,,89%,,,30.11,1019.8,,,,2024-11-28,11,2024,3,KIAD
2024-11-25,25,04:52,EST,Calm,10.0,Fair,CLR,34.0,30.0,,,85%,,,30.11,1019.8,,,,2024-11-28,11,2024,4,KIAD
2024-11-25,25,05:52,EST,Calm,10.0,Fair,CLR,32.0,28.9,,,88%,,,30.11,1019.7,,,,2024-11-28,11,2024,5,KIAD
2024-11-25,25,07:52,EST,Calm,10.0,Partly Cloudy,SCT250,34.0,32.0,,,92%,,,30.14,1020.7,,,,2024-11-28,11,2024,7,KIAD
2024-11-25,25,08:52,EST,S  3,10.0,Partly Cloudy,SCT260,43.0,36.0,,,76%,,,30.14,1020.8,,,,2024-11-28,11,2024,8,KIAD
2024-11-25,25,09:52,EST,S  7,10.0,A Few Clouds,FEW250,48.0,36.0,,,63%,45.0,,30.15,1020.8,,,,2024-11-28,11,2024,9,KIAD
2024-11-25,25,10:52,EST,SW  8,10.0,Partly Cloudy,SCT250,51.1,36.0,,,56%,,,30.12,1020.1,,,,2024-11-28,11,2024,10,KIAD
2024-11-25,25,11:52,EST,S  10,10.0,Mostly Cloudy,BKN250,54.0,37.0,,,53%,,,30.09,1018.8,,,,2024-11-28,11,2024,11,KIAD
2024-11-25,25,12:52,EST,SW  12,10.0,Mostly Cloudy,FEW080 BKN250,55.9,37.9,57.0,30.9,51%,,,30.05,1017.6,,,,2024-11-28,11,2024,12,KIAD
2024-11-25,25,13:52,EST,S  5,10.0,Mostly Cloudy,FEW080 BKN250,57.9,37.0,,,46%,,,30.02,1016.6,,,,2024-11-28,11,2024,13,KIAD
2024-11-25,25,14:52,EST,S  8,10.0,Mostly Cloudy,FEW080 BKN250,59.0,37.9,,,46%,,,30.01,1016.1,,,,2024-11-28,11,2024,14,KIAD
2024-11-25,25,15:52,EST,S  8,10.0,Mostly Cloudy,FEW080 BKN250,57.9,37.9,,,48%,,,30.0,1016.0,,,,2024-11-28,11,2024,15,KIAD
2024-11-25,25,16:52,EST,S  5,10.0,Mostly Cloudy,SCT060 SCT110 BKN250,55.0,37.9,,,53%,,,30.01,1016.4,,,,2024-11-28,11,2024,16,KIAD
2024-11-25,25,17:52,EST,S  6,10.0,Mostly Cloudy,FEW060 BKN090 BKN250,54.0,39.0,,,57%,,,30.01,1016.4,,,,2024-11-28,11,2024,17,KIAD
2024-11-25,25,18:52,EST,S  6,10.0,Mostly Cloudy,FEW060 BKN090,54.0,39.0,59.0,53.1,57%,,,30.01,1016.3,,,,2024-11-28,11,2024,18,KIAD
2024-11-25,25,19:52,EST,S  7,10.0,Mostly Cloudy,FEW065 BKN095,54.0,39.9,,,59%,,,30.0,1016.0,,,,2024-11-28,11,2024,19,KIAD
2024-11-25,25,20:52,EST,SE  6,10.0,Mostly Cloudy,SCT060 BKN100,53.1,41.0,,,64%,,,29.99,1015.7,,,,2024-11-28,11,2024,20,KIAD
2024-11-25,25,21:52,EST,SE  5,10.0,Mostly Cloudy,BKN060 BKN100,54.0,42.1,,,64%,,,29.98,1015.0,,,,2024-11-28,11,2024,21,KIAD
2024-11-25,25,22:52,EST,SE  5,10.0,Overcast,FEW070 OVC100,53.1,42.1,,,66%,,,29.95,1014.2,,,,2024-11-28,11,2024,22,KIAD
2024-11-25,25,23:52,EST,S  6,10.0,Overcast,OVC200,53.1,41.0,,,64%,,,29.92,1013.2,,,,2024-11-28,11,2024,23,KIAD
2024-11-26,26,00:52,EST,Calm,10.0,Overcast,BKN110 OVC200,52.0,41.0,54.0,48.9,66%,,,29.89,1012.1,,,,2024-11-29,11,2024,0,KIAD
2024-11-26,26,01:52,EST,Calm,10.0,Light Rain,OVC090,51.1,43.0,,,74%,,,29.87,1011.3,0.01,,,2024-11-29,11,2024,1,KIAD
2024-11-26,26,02:52,EST,Calm,10.0,Partly Cloudy,SCT110,50.0,45.0,,,83%,,,29.84,1010.4,,,,2024-11-29,11,2024,2,KIAD
2024-11-26,26,03:52,EST,S  6,10.0,Overcast,OVC110,52.0,44.1,,,75%,,,29.82,1009.6,,0.01,,2024-11-29,11,2024,3,KIAD
2024-11-26,26,04:52,EST,S  6,10.0,Light Rain,OVC100,52.0,44.1,,,75%,,,29.79,1008.9,,,,2024-11-29,11,2024,4,KIAD
2024-11-26,26,05:52,EST,Vrbl  3  G 22,6.0,Light Rain Fog/Mist,SCT041 BKN050 OVC075,51.1,44.1,,,77%,,,29.83,1010.0,0.02,,,2024-11-29,11,2024,5,KIAD
2024-11-26,26,06:52,EST,Calm,7.0,Overcast,SCT031 OVC048,48.9,46.9,53.1,48.9,93%,,,29.82,1009.8,0.07,,0.1,2024-11-29,11,2024,6,KIAD
2024-11-26,26,07:52,EST,Calm,10.0,Overcast,SCT038 OVC090,50.0,48.0,,,93%,,,29.85,1010.9,,,,2024-11-29,11,2024,7,KIAD
2024-11-26,26,08:52,EST,Calm,10.0,Mostly Cloudy,FEW040 BKN090 BKN150,53.1,48.0,,,83%,,,29.87,1011.6,,,,2024-11-29,11,2024,8,KIAD
2024-11-26,26,09:52,EST,NW  20  G 32,10.0,Partly Cloudy,FEW041 SCT100,60.1,48.9,,,67%,,,29.91,1012.7,,,,2024-11-29,11,2024,9,KIAD
2024-11-26,26,10:52,EST,NW  21,10.0,Partly Cloudy and Breezy,FEW040 SCT110,62.1,45.0,,,54%,,,29.92,1013.2,,,,2024-11-29,11,2024,10,KIAD
2024-11-26,26,11:52,EST,NW  14  G 26,10.0,Partly Cloudy,FEW041 FEW100 SCT200,63.0,42.1,,,47%,,,29.92,1013.2,,,,2024-11-29,11,2024,11,KIAD
2024-11-26,26,12:52,EST,NW  15,10.0,Partly Cloudy,FEW045 FEW100 SCT200,63.0,39.9,64.0,48.9,43%,,,29.92,1013.0,,,,2024-11-29,11,2024,12,KIAD
2024-11-26,26,13:52,EST,NW  18  G 28,10.0,Partly Cloudy,FEW045 SCT100 SCT200,63.0,34.0,,,34%,,,29.91,1012.8,,,,2024-11-29,11,2024,13,KIAD
2024-11-26,26,14:52,EST,NW  18  G 28,10.0,Partly Cloudy,FEW050 SCT120 SCT200,62.1,33.1,,,34%,,,29.93,1013.5,,,,2024-11-29,11,2024,14,KIAD
2024-11-26,26,15:52,EST,NW  20  G 28,10.0,Partly Cloudy,SCT250,60.1,27.0,,,28%,,,29.97,1014.8,,,,2024-11-29,11,2024,15,KIAD
2024-11-26,26,16:52,EST,NW  12  G 22,10.0,Partly Cloudy,FEW180 SCT250,57.0,28.0,,,33%,,,30.0,1015.7,,,,2024-11-29,11,2024,16,KIAD
2024-11-26,26,17:52,EST,NW  9,10.0,A Few Clouds,FEW250,54.0,28.0,,,37%,,,30.02,1016.6,,,,2024-11-29,11,2024,17,KIAD
2024-11-26,26,18:52,EST,NW  9,10.0,A Few Clouds,FEW250,53.1,28.9,63.0,53.1,40%,,,30.03,1016.8,,,,2024-11-29,11,2024,18,KIAD
2024-11-26,26,19:52,EST,Calm,10.0,A Few Clouds,FEW250,46.0,28.9,,,51%,,,30.04,1017.3,,,,2024-11-29,11,2024,19,KIAD
2024-11-26,26,20:52,EST,NW  7,10.0,A Few Clouds,FEW250,46.9,28.9,,,50%,44.0,,30.05,1017.5,,,,2024-11-29,11,2024,20,KIAD
2024-11-26,26,21:52,EST,W  7,10.0,Mostly Cloudy,BKN250,46.9,30.0,,,52%,44.0,,30.05,1017.7,,,,2024-11-29,11,2024,21,KIAD
2024-11-26,26,22:52,EST,W  7,10.0,Partly Cloudy,SCT250,48.0,28.9,,,48%,45.0,,30.06,1017.9,,,,2024-11-29,11,2024,22,KIAD
2024-11-26,26,23:52,EST,Calm,10.0,Partly Cloudy,SCT250,42.1,28.9,,,60%,,,30.07,1018.3,,,,2024-11-29,11,2024,23,KIAD
2024-11-27,27,00:52,EST,Calm,10.0,Mostly Cloudy,BKN250,39.9,28.9,52.0,37.9,65%,,,30.06,1017.9,,,,2024-11-30,11,2024,0,KIAD
2024-11-27,27,01:52,EST,NW  3,10.0,Mostly Cloudy,BKN250,39.0,28.9,,,67%,,,30.07,1018.1,,,,2024-11-30,11,2024,1,KIAD
2024-11-27,27,02:52,EST,NW  3,10.0,Mostly Cloudy,BKN180,43.0,28.0,,,56%,,,30.06,1018.0,,,,2024-11-30,11,2024,2,KIAD
2024-11-27,27,03:52,EST,NW  7,10.0,Mostly Cloudy,BKN210,46.0,27.0,,,47%,43.0,,30.07,1018.4,,,,2024-11-30,11,2024,3,KIAD
2024-11-27,27,04:52,EST,NW  3,10.0,Mostly Cloudy,BKN210,39.9,27.0,,,60%,,,30.08,1018.4,,,,2024-11-30,11,2024,4,KIAD
2024-11-27,27,05:52,EST,Calm,10.0,Mostly Cloudy,BKN200,35.1,28.0,,,76%,,,30.09,1019.0,,,,2024-11-30,11,2024,5,KIAD
2024-11-27,27,06:52,EST,Calm,10.0,Partly Cloudy,FEW130 SCT210,33.1,27.0,46.0,30.9,78%,,,30.09,1019.1,,,,2024-11-30,11,2024,6,KIAD
2024-11-27,27,07:52,EST,Calm,10.0,Partly Cloudy,FEW130 SCT250,33.1,27.0,,,78%,,,30.09,1019.3,,,,2024-11-30,11,2024,7,KIAD
2024-11-27,27,08:52,EST,NW  5,10.0,Mostly Cloudy,FEW150 BKN250,46.0,30.0,,,54%,44.0,,30.1,1019.4,,,,2024-11-30,11,2024,8,KIAD
2024-11-27,27,09:52,EST,NW  5,10.0,Mostly Cloudy,FEW100 FEW150 BKN250,50.0,28.0,,,43%,49.0,,30.1,1019.4,,,,2024-11-30,11,2024,9,KIAD
2024-11-27,27,10:52,EST,Calm,10.0,Mostly Cloudy,SCT120 BKN170 BKN250,52.0,27.0,,,38%,,,30.1,1019.4,,,,2024-11-30,11,2024,10,KIAD
2024-11-27,27,11:52,EST,Calm,10.0,Mostly Cloudy,FEW050 SCT120 BKN220,54.0,28.9,,,38%,,,30.07,1018.4,,,,2024-11-30,11,2024,11,KIAD
2024-11-27,27,12:52,EST,S  7,10.0,Mostly Cloudy,FEW050 SCT120 BKN170 BKN230,51.1,30.9,54.0,30.9,46%,,,30.04,1017.5,,,,2024-11-30,11,2024,12,KIAD
2024-11-27,27,13:52,EST,S  8,10.0,Mostly Cloudy,FEW050 FEW120 BKN160 BKN220,51.1,28.9,,,43%,,,30.02,1016.6,,,,2024-11-30,11,2024,13,KIAD
2024-11-27,27,14:52,EST,S  6,10.0,Mostly Cloudy,FEW050 SCT120 BKN250,54.0,28.0,,,37%,,,30.0,1015.7,,,,2024-11-30,11,2024,14,KIAD
2024-11-27,27,15:52,EST,S  8,10.0,Mostly Cloudy,BKN047 BKN100 BKN250,53.1,28.9,,,40%,,,29.99,1015.5,,,,2024-11-30,11,2024,15,KIAD
2024-11-27,27,16:52,EST,SE  5,10.0,Mostly Cloudy,FEW047 SCT100 BKN180 BKN250,51.1,28.9,,,43%,,,29.98,1015.4,,,,2024-11-30,11,2024,16,KIAD
2024-11-27,27,17:52,EST,SE  7,10.0,Mostly Cloudy,SCT100 BKN180 BKN250,51.1,28.9,,,43%,,,29.98,1015.2,,,,2024-11-30,11,2024,17,KIAD
2024-11-27,27,18:52,EST,SE  7,10.0,Overcast,BKN120 BKN180 OVC250,50.0,32.0,54.0,50.0,50%,48.0,,29.96,1014.8,,,,2024-11-30,11,2024,18,KIAD
2024-11-27,27,19:52,EST,S  5,10.0,Overcast,OVC095,50.0,32.0,,,50%,49.0,,29.98,1015.4,,,,2024-11-30,11,2024,19,KIAD
2024-11-27,27,20:52,EST,S  3,10.0,Light Rain,BKN050 BKN070 OVC085,48.0,34.0,,,58%,,,29.98,1015.2,,,,2024-11-30,11,2024,20,KIAD
2024-11-27,27,21:52,EST,SE  7,10.0,Overcast,OVC110,48.0,36.0,,,63%,45.0,,29.93,1013.5,0.01,0.01,,2024-11-30,11,2024,21,KIAD
2024-11-27,27,22:52,EST,SE  5,10.0,Overcast,OVC110,48.0,35.1,,,61%,47.0,,29.91,1013.0,,,,2024-11-30,11,2024,22,KIAD
2024-11-27,27,23:52,EST,SE  8,10.0,Overcast,BKN065 OVC100,48.9,37.0,,,64%,46.0,,29.87,1011.3,,,,2024-11-30,11,2024,23,KIAD
2024-11-28,28,00:52,EST,SE  6,10.0,Overcast,OVC060,48.0,37.9,50.0,45.0,68%,46.0,,29.81,1009.4,,,0.01,2024-12-01,11,2024,0,KIAD
2024-11-28,28,01:52,EST,Calm,10.0,Light Rain,OVC041,46.9,41.0,,,80%,,,29.79,1008.6,,,,2024-12-01,11,2024,1,KIAD
2024-11-28,28,02:52,EST,E  5,7.0,Light Rain,BKN019 OVC032,46.0,43.0,,,89%,44.0,,29.73,1006.8,0.05,,,2024-12-01,11,2024,2,KIAD
2024-11-28,28,03:52,EST,NW  5,6.0,Light Rain Fog/Mist,BKN018 OVC024,46.0,43.0,,,89%,44.0,,29.73,1006.8,0.07,0.12,,2024-12-01,11,2024,3,KIAD
2024-11-28,28,04:52,EST,E  6,9.0,Light Rain,BKN020 OVC046,45.0,44.1,,,97%,42.0,,29.66,1004.4,0.12,,,2024-12-01,11,2024,4,KIAD
2024-11-28,28,05:52,EST,Calm,10.0,Light Rain,OVC012,46.0,44.1,,,93%,,,29.64,1003.7,,,,2024-12-01,11,2024,5,KIAD
2024-11-28,28,06:52,EST,Calm,6.0,Light Rain Fog/Mist,FEW005 OVC011,46.0,44.1,48.9,45.0,93%,,,29.6,1002.5,0.01,,0.25,2024-12-01,11,2024,6,KIAD
2024-11-28,28,07:52,EST,Calm,6.0,Fog/Mist,FEW006 OVC011,46.0,45.0,,,96%,,,29.57,1001.4,0.02,,,2024-12-01,11,2024,7,KIAD
2024-11-28,28,08:52,EST,Calm,4.0,Light Rain Fog/Mist,OVC011,46.9,45.0,,,93%,,,29.56,1001.0,0.01,,,2024-12-01,11,2024,8,KIAD
2024-11-28,28,09:52,EST,W  5,10.0,Overcast,FEW006 OVC010,46.9,45.0,,,93%,45.0,,29.58,1001.6,,0.03,,2024-12-01,11,2024,9,KIAD
2024-11-28,28,10:52,EST,NW  8,10.0,Overcast,FEW007 BKN012 OVC044,48.0,45.0,,,89%,45.0,,29.59,1001.8,,,,2024-12-01,11,2024,10,KIAD
2024-11-28,28,11:52,EST,W  6,10.0,Mostly Cloudy,FEW012 BKN044 BKN120,50.0,45.0,,,83%,48.0,,29.58,1001.7,,,,2024-12-01,11,2024,11,KIAD
2024-11-28,28,12:52,EST,NW  17  G 26,10.0,Mostly Cloudy,SCT020 SCT045 BKN120,53.1,43.0,53.1,46.0,69%,,,29.61,1002.6,,,0.03,2024-12-01,11,2024,12,KIAD
2024-11-28,28,13:52,EST,NW  17  G 31,10.0,Mostly Cloudy,SCT040 BKN120,53.1,39.0,,,59%,,,29.65,1004.0,,,,2024-12-01,11,2024,13,KIAD
2024-11-28,28,14:52,EST,NW  17  G 29,10.0,Mostly Cloudy,FEW040 BKN070 BKN250,53.1,37.0,,,55%,,,29.68,1005.1,,,,2024-12-01,11,2024,14,KIAD
2024-11-28,28,15:52,EST,NW  16  G 30,10.0,Mostly Cloudy,BKN060,52.0,36.0,,,55%,,,29.73,1006.8,,,,2024-12-01,11,2024,15,KIAD
2024-11-28,28,16:52,EST,NW  16  G 29,10.0,Mostly Cloudy,BKN060,48.9,34.0,,,56%,44.0,,29.79,1008.7,,,,2024-12-01,11,2024,16,KIAD
2024-11-28,28,17:52,EST,NW  15  G 24,10.0,Partly Cloudy,SCT060,46.9,33.1,,,59%,41.0,,29.82,1010.0,,,,2024-12-01,11,2024,17,KIAD
2024-11-28,28,18:52,EST,NW  12  G 17,10.0,Partly Cloudy,SCT040,46.0,32.0,57.0,46.0,58%,41.0,,29.86,1011.3,,,,2024-12-01,11,2024,18,KIAD
2024-11-28,28,19:52,EST,W  9,10.0,A Few Clouds,FEW040,44.1,32.0,,,63%,40.0,,29.89,1012.4,,,,2024-12-01,11,2024,19,KIAD
2024-11-28,28,20:52,EST,W  5,10.0,A Few Clouds,FEW040,43.0,32.0,,,65%,41.0,,29.92,1013.1,,,,2024-12-01,11,2024,20,KIAD
2024-11-28,28,21:52,EST,Calm,10.0,A Few Clouds,FEW040,37.9,32.0,,,79%,,,29.92,1013.3,,,,2024-12-01,11,2024,21,KIAD
2024-11-28,28,22:52,EST,W  10,10.0,Fair,CLR,41.0,32.0,,,70%,35.0,,29.92,1013.4,,,,2024-12-01,11,2024,22,KIAD
2024-11-28,28,23:52,EST,W  7,10.0,Overcast,OVC050,43.0,34.0,,,71%,39.0,,29.94,1013.9,,,,2024-12-01,11,2024,23,KIAD
2024-11-29,29,00:52,EST,W  8,10.0,Overcast,BKN046 OVC055,43.0,33.1,46.0,37.0,68%,39.0,,29.94,1013.9,,,,2024-12-02,11,2024,0,KIAD
2024-11-29,29,01:52,EST,W  9,10.0,Mostly Cloudy,BKN050,42.1,28.9,,,60%,37.0,,29.94,1013.8,,,,2024-12-02,11,2024,1,KIAD
2024-11-29,29,02:52,EST,NW  13  G 28,10.0,Partly Cloudy,SCT049,42.1,26.1,,,53%,36.0,,29.96,1014.5,,,,2024-12-02,11,2024,2,KIAD
2024-11-29,29,04:52,EST,Calm,10.0,Fair,CLR,33.1,24.1,,,70%,,,29.97,1014.9,,,,2024-12-02,11,2024,4,KIAD
2024-11-29,29,05:52,EST,SE  3,10.0,Mostly Cloudy,BKN065,33.1,25.0,,,72%,,,29.97,1015.0,,,,2024-12-02,11,2024,5,KIAD
2024-11-29,29,06:52,EST,SE  5,10.0,A Few Clouds,FEW065,33.1,24.1,44.1,30.9,70%,29.0,,29.97,1015.2,,,,2024-12-02,11,2024,6,KIAD
2024-11-29,29,07:52,EST,S  7,10.0,Mostly Cloudy,BKN055,33.1,26.1,,,75%,28.0,,29.98,1015.5,,,,2024-12-02,11,2024,7,KIAD
2024-11-29,29,08:52,EST,S  8,10.0,Partly Cloudy,SCT050 SCT100,41.0,28.9,,,62%,36.0,,30.0,1015.9,,,,2024-12-02,11,2024,8,KIAD
2024-11-29,29,09:52,EST,S  6,10.0,Overcast,OVC050,41.0,28.9,,,62%,38.0,,30.0,1015.9,,,,2024-12-02,11,2024,9,KIAD
2024-11-29,29,10:52,EST,SW  6,10.0,Overcast,OVC065,43.0,28.9,,,58%,40.0,,29.98,1015.4,,,,2024-12-02,11,2024,10,KIAD
2024-11-29,29,11:52,EST,W  8,10.0,Overcast,OVC055,44.1,28.9,,,55%,40.0,,29.96,1014.7,,,,2024-12-02,11,2024,11,KIAD
2024-11-29,29,12:52,EST,NW  16,10.0,Overcast,BKN039 OVC055,43.0,28.9,44.1,30.0,58%,36.0,,29.96,1014.6,,,,2024-12-02,11,2024,12,KIAD
2024-11-29,29,13:52,EST,W  10,10.0,Overcast,FEW033 BKN050 OVC075,42.1,27.0,,,55%,37.0,,29.95,1014.3,,,,2024-12-02,11,2024,13,KIAD
2024-11-29,29,14:52,EST,NW  17,10.0,Mostly Cloudy,BKN060 BKN075,43.0,24.1,,,47%,36.0,,29.95,1014.3,,,,2024-12-02,11,2024,14,KIAD
2024-11-29,29,15:52,EST,NW  20  G 32,10.0,Partly Cloudy,FEW060 SCT075 SCT250,39.9,21.9,,,49%,31.0,,29.97,1015.2,,,,2024-12-02,11,2024,15,KIAD
2024-11-29,29,16:52,EST,NW  14,10.0,Partly Cloudy,FEW050 SCT070,37.0,19.9,,,50%,29.0,,30.0,1016.0,,,,2024-12-02,11,2024,16,KIAD
2024-11-29,29,17:52,EST,NW  10,10.0,A Few Clouds,FEW055 FEW070,35.1,19.0,,,52%,28.0,,30.04,1017.3,,,,2024-12-02,11,2024,17,KIAD
2024-11-29,29,18:52,EST,W  8  G 17,10.0,A Few Clouds,FEW050,35.1,16.0,43.0,33.1,46%,29.0,,30.03,1017.1,,,,2024-12-02,11,2024,18,KIAD
2024-11-29,29,19:52,EST,W  9,10.0,A Few Clouds,FEW075,34.0,16.0,,,48%,27.0,,30.05,1017.7,,,,2024-12-02,11,2024,19,KIAD
2024-11-29,29,20:52,EST,W  6,10.0,A Few Clouds,FEW065,32.0,17.1,,,54%,27.0,,30.06,1018.1,,,,2024-12-02,11,2024,20,KIAD
2024-11-29,29,21:52,EST,Calm,10.0,Partly Cloudy,SCT050,30.9,17.1,,,56%,,,30.08,1018.7,,,,2024-12-02,11,2024,21,KIAD
2024-11-29,29,22:52,EST,NW  8,10.0,A Few Clouds,FEW050,32.0,17.1,,,54%,25.0,,30.08,1018.6,,,,2024-12-02,11,2024,22,KIAD
2024-11-29,29,23:52,EST,NW  5,10.0,A Few Clouds,FEW050,28.9,16.0,,,58%,25.0,,30.07,1018.6,,,,2024-12-02,11,2024,23,KIAD
2024-11-30,30,00:52,EST,Calm,10.0,Fair,CLR,26.1,16.0,35.1,26.1,66%,,,30.07,1018.3,,,,2024-12-03,11,2024,0,KIAD
2024-11-30,30,01:52,EST,NW  5,10.0,Fair,CLR,25.0,15.1,,,66%,20.0,,30.07,1018.6,,,,2024-12-03,11,2024,1,KIAD
2024-11-30,30,02:52,EST,W  3,10.0,A Few Clouds,FEW050,27.0,15.1,,,61%,,,30.08,1018.8,,,,2024-12-03,11,2024,2,KIAD
2024-11-30,30,03:52,EST,SW  7,10.0,Partly Cloudy,SCT050,28.0,16.0,,,60%,22.0,,30.08,1018.7,,,,2024-12-03,11,2024,3,KIAD
2024-11-30,30,04:52,EST,NW  5,10.0,Mostly Cloudy,BKN055,28.0,17.1,,,63%,24.0,,30.09,1019.1,,,,2024-12-03,11,2024,4,KIAD
2024-11-30,30,05:52,EST,Calm,10.0,Mostly Cloudy,BKN050,28.0,18.0,,,66%,,,30.1,1019.5,,,,2024-12-03,11,2024,5,KIAD
2024-11-30,30,06:52,EST,SW  5,10.0,Mostly Cloudy,BKN049,28.0,17.1,30.0,24.1,63%,24.0,,30.11,1019.8,,,,2024-12-03,11,2024,6,KIAD
2024-11-30,30,07:52,EST,W  7,10.0,Partly Cloudy,SCT050,32.0,17.1,,,54%,26.0,,30.13,1020.5,,,,2024-12-03,11,2024,7,KIAD
2024-11-30,30,08:52,EST,W  10,10.0,A Few Clouds,FEW050,33.1,16.0,,,49%,26.0,,30.14,1020.8,,,,2024-12-03,11,2024,8,KIAD
2024-11-30,30,09:52,EST,NW  13  G 25,10.0,Mostly Cloudy,BKN050,35.1,15.1,,,44%,27.0,,30.15,1021.1,,,,2024-12-03,11,2024,9,KIAD
2024-11-30,30,10:52,EST,NW  17  G 23,10.0,Mostly Cloudy,BKN048,34.0,16.0,,,48%,24.0,,30.15,1021.3,,,,2024-12-03,11,2024,10,KIAD
2024-11-30,30,11:52,EST,NW  13  G 24,10.0,A Few Clouds,FEW048,36.0,14.0,,,40%,28.0,,30.14,1020.8,,,,2024-12-03,11,2024,11,KIAD
2024-11-30,30,12:52,EST,NW  14  G 23,10.0,A Few Clouds,FEW048,36.0,12.9,37.0,28.0,39%,28.0,,30.13,1020.4,,,,2024-12-03,11,2024,12,KIAD
2024-11-30,30,13:52,EST,NW  10,10.0,A Few Clouds,FEW048,37.0,12.9,,,37%,30.0,,30.11,1020.1,,,,2024-12-03,11,2024,13,KIAD
2024-11-30,30,16:52,EST,NW  6,10.0,A Few Clouds,FEW048 FEW250,33.1,14.0,,,45%,28.0,,30.11,1020.1,,,,2024-12-03,11,2024,16,KIAD
2024-11-30,30,17:52,EST,Vrbl  6,10.0,A Few Clouds,FEW250,30.9,12.9,,,47%,26.0,,30.13,1020.4,,,,2024-12-03,11,2024,17,KIAD
2024-11-30,30,18:52,EST,NW  6,10.0,Fair,CLR,30.9,14.0,37.0,30.0,49%,26.0,,30.13,1020.7,,,,2024-12-03,11,2024,18,KIAD
2024-11-30,30,19:52,EST,Calm,10.0,Fair,CLR,27.0,14.0,,,58%,,,30.14,1020.9,,,,2024-12-03,11,2024,19,KIAD
2024-11-30,30,20:52,EST,E  5,10.0,Fair,CLR,24.1,14.0,,,65%,19.0,,30.14,1020.9,,,,2024-12-03,11,2024,20,KIAD
2024-11-30,30,21:52,EST,E  5,10.0,Fair,CLR,24.1,14.0,,,65%,19.0,,30.14,1021.0,,,,2024-12-03,11,2024,21,KIAD
2024-11-30,30,22:52,EST,Calm,10.0,Partly Cloudy,SCT250,23.0,14.0,,,68%,,,30.15,1021.3,,,,2024-12-03,11,2024,22,KIAD
2024-11-30,30,23:52,EST,Calm,10.0,Partly Cloudy,SCT250,23.0,15.1,,,72%,,,30.16,1021.5,,,,2024-12-03,11,2024,23,KIAD
2024-12-01,1,00:52,EST,S  3,10.0,Overcast,OVC200,21.9,15.1,30.9,19.9,75%,,,30.16,1021.6,,,,2024-12-04,12,2024,0,KIAD
2024-12-01,1,01:52,EST,Calm,10.0,Overcast,BKN110 OVC190,21.9,16.0,,,78%,,,30.16,1021.5,,,,2024-12-04,12,2024,1,KIAD
2024-12-01,1,02:52,EST,Calm,10.0,Overcast,FEW110 OVC180,24.1,17.1,,,75%,,,30.16,1021.7,,,,2024-12-04,12,2024,2,KIAD
2024-12-01,1,03:52,EST,Calm,10.0,Partly Cloudy,FEW055 SCT220,23.0,16.0,,,74%,,,30.15,1021.3,,,,2024-12-04,12,2024,3,KIAD
2024-12-01,1,04:52,EST,Calm,10.0,Overcast,OVC060,24.1,17.1,,,75%,,,30.15,1021.4,,,,2024-12-04,12,2024,4,KIAD
2024-12-01,1,05:52,EST,Calm,10.0,Overcast,BKN060 OVC170,24.1,18.0,,,77%,,,30.15,1021.2,,,,2024-12-04,12,2024,5,KIAD
2024-12-01,1,06:52,EST,Calm,10.0,Overcast,OVC065,25.0,19.0,26.1,21.0,78%,,,30.15,1021.1,,,,2024-12-04,12,2024,6,KIAD
2024-12-01,1,07:52,EST,Calm,10.0,Mostly Cloudy,BKN060 BKN250,26.1,19.9,,,78%,,,30.15,1021.3,,,,2024-12-04,12,2024,7,KIAD
2024-12-01,1,08:52,EST,Calm,10.0,Mostly Cloudy,BKN060 BKN250,30.0,18.0,,,61%,,,30.15,1021.4,,,,2024-12-04,12,2024,8,KIAD
2024-12-01,1,09:52,EST,Calm,10.0,Mostly Cloudy,BKN060 BKN250,33.1,21.0,,,61%,,,30.15,1021.2,,,,2024-12-04,12,2024,9,KIAD
2024-12-01,1,10:52,EST,Calm,10.0,Mostly Cloudy,FEW060 BKN150 BKN250,36.0,19.9,,,52%,,,30.14,1020.8,,,,2024-12-04,12,2024,10,KIAD
2024-12-01,1,11:52,EST,N  5,10.0,Mostly Cloudy,FEW060 BKN150 BKN250,39.0,21.0,,,48%,36.0,,30.11,1020.0,,,,2024-12-04,12,2024,11,KIAD
2024-12-01,1,12:52,EST,NW  5,10.0,Mostly Cloudy,SCT060 BKN150 BKN250,39.9,19.9,39.9,25.0,45%,37.0,,30.1,1019.5,,,,2024-12-04,12,2024,12,KIAD
2024-12-01,1,13:52,EST,W  9,10.0,Mostly Cloudy,FEW060 BKN080 BKN150 BKN250,42.1,19.9,,,41%,37.0,,30.08,1018.8,,,,2024-12-04,12,2024,13,KIAD
2024-12-01,1,14:52,EST,NW  6,10.0,Mostly Cloudy,FEW060 BKN075 BKN250,41.0,21.0,,,45%,38.0,,30.07,1018.6,,,,2024-12-04,12,2024,14,KIAD
2024-12-01,1,15:52,EST,NW  8,10.0,Overcast,OVC060,41.0,21.9,,,47%,36.0,,30.08,1019.1,,,,2024-12-04,12,2024,15,KIAD
2024-12-01,1,16:52,EST,N  10,10.0,Overcast,BKN050 OVC065,36.0,28.0,,,73%,29.0,,30.11,1019.7,,,,2024-12-04,12,2024,16,KIAD
2024-12-01,1,17:52,EST,NW  5,10.0,Mostly Cloudy,SCT045 BKN065 BKN250,36.0,28.0,,,73%,33.0,,30.11,1020.0,,,,2024-12-04,12,2024,17,KIAD
2024-12-01,1,18:52,EST,NW  7,10.0,Mostly Cloudy,BKN060 BKN095 BKN250,37.0,25.0,43.0,35.1,62%,32.0,,30.13,1020.6,,,,2024-12-04,12,2024,18,KIAD
2024-12-01,1,19:52,EST,NW  9,10.0,Mostly Cloudy,FEW060 BKN090 BKN250,36.0,24.1,,,62%,30.0,,30.15,1021.2,,,,2024-12-04,12,2024,19,KIAD
2024-12-01,1,20:52,EST,NW  8,10.0,Mostly Cloudy,BKN085,33.1,23.0,,,66%,27.0,,30.15,1021.2,,,,2024-12-04,12,2024,20,KIAD
2024-12-01,1,21:52,EST,NW  6,10.0,Partly Cloudy,SCT080,32.0,21.0,,,64%,27.0,,30.16,1021.7,,,,2024-12-04,12,2024,21,KIAD
2024-12-01,1,22:52,EST,NW  10,10.0,Fair,CLR,33.1,15.1,,,48%,26.0,,30.17,1022.0,,,,2024-12-04,12,2024,22,KIAD
2024-12-01,1,23:52,EST,NW  8,10.0,Fair,CLR,30.9,14.0,,,49%,24.0,,30.19,1022.5,,,,2024-12-04,12,2024,23,KIAD
2024-12-02,2,00:52,EST,NW  3,10.0,Fair,CLR,28.9,12.9,37.0,28.9,51%,,,30.19,1022.5,,,,2024-12-05,12,2024,0,KIAD
2024-12-02,2,01:52,EST,W  5,10.0,Fair,CLR,28.0,12.0,,,51%,24.0,,30.19,1022.4,,,,2024-12-05,12,2024,1,KIAD
2024-12-02,2,02:52,EST,W  3,10.0,Fair,CLR,26.1,10.9,,,53%,,,30.2,1022.8,,,,2024-12-05,12,2024,2,KIAD
2024-12-02,2,03:52,EST,Calm,10.0,Fair,CLR,25.0,10.9,,,55%,,,30.2,1023.1,,,,2024-12-05,12,2024,3,KIAD
2024-12-02,2,04:52,EST,Calm,10.0,Fair,CLR,24.1,10.9,,,57%,,,30.21,1023.2,,,,2024-12-05,12,2024,4,KIAD
2024-12-02,2,05:52,EST,Calm,10.0,Fair,CLR,21.9,10.9,,,63%,,,30.22,1023.6,,,,2024-12-05,12,2024,5,KIAD
2024-12-02,2,06:52,EST,Calm,10.0,A Few Clouds,FEW080,24.1,12.0,28.9,19.0,60%,,,30.23,1024.0,,,,2024-12-05,12,2024,6,KIAD
2024-12-02,2,07:52,EST,W  5,10.0,A Few Clouds,FEW080,26.1,12.9,,,57%,21.0,,30.24,1024.5,,,,2024-12-05,12,2024,7,KIAD
2024-12-02,2,08:52,EST,NW  13,10.0,A Few Clouds,FEW070,30.0,14.0,,,51%,21.0,,30.25,1024.8,,,,2024-12-05,12,2024,8,KIAD
2024-12-02,2,09:52,EST,NW  15,10.0,A Few Clouds,FEW070,33.1,14.0,,,45%,24.0,,30.26,1024.9,,,,2024-12-05,12,2024,9,KIAD
2024-12-02,2,10:52,EST,NW  12  G 22,10.0,A Few Clouds,FEW070,35.1,15.1,,,44%,28.0,,30.26,1024.8,,,,2024-12-05,12,2024,10,KIAD
2024-12-02,2,11:52,EST,NW  15,10.0,A Few Clouds,FEW070,37.0,15.1,,,41%,29.0,,30.23,1023.9,,,,2024-12-05,12,2024,11,KIAD
2024-12-02,2,12:52,EST,NW  16,10.0,A Few Clouds,FEW050 FEW070,39.0,15.1,39.0,24.1,38%,31.0,,30.22,1023.4,,,,2024-12-05,12,2024,12,KIAD
2024-12-02,2,13:52,EST,NW  10  G 21,10.0,A Few Clouds,FEW050,39.9,16.0,,,38%,34.0,,30.21,1023.1,,,,2024-12-05,12,2024,13,KIAD
2024-12-02,2,14:52,EST,NW  13,10.0,A Few Clouds,FEW050,39.0,16.0,,,39%,32.0,,30.21,1023.4,,,,2024-12-05,12,2024,14,KIAD
2024-12-02,2,15:52,EST,NW  12  G 17,10.0,A Few Clouds,FEW050,39.0,16.0,,,39%,32.0,,30.23,1023.9,,,,2024-12-05,12,2024,15,KIAD
2024-12-02,2,16:52,EST,NW  8,10.0,A Few Clouds,FEW060,36.0,16.0,,,44%,30.0,,30.25,1024.5,,,,2024-12-05,12,2024,16,KIAD
2024-12-02,2,17:52,EST,NW  8,10.0,A Few Clouds,FEW060,33.1,16.0,,,49%,27.0,,30.26,1024.9,,,,2024-12-05,12,2024,17,KIAD
2024-12-02,2,18:52,EST,NW  9,10.0,A Few Clouds,FEW060,32.0,16.0,41.0,30.0,52%,25.0,,30.26,1025.2,,,,2024-12-05,12,2024,18,KIAD
2024-12-02,2,19:52,EST,NW  6,10.0,Fair,CLR,30.9,16.0,,,54%,26.0,,30.28,1025.7,,,,2024-12-05,12,2024,19,KIAD
2024-12-02,2,20:52,EST,NW  9,10.0,Fair,CLR,30.9,15.1,,,52%,24.0,,30.29,1026.0,,,,2024-12-05,12,2024,20,KIAD
2024-12-02,2,21:52,EST,NW  9,10.0,Fair,CLR,28.9,15.1,,,56%,21.0,,30.29,1026.1,,,,2024-12-05,12,2024,21,KIAD
2024-12-02,2,22:52,EST,NW  10  G 18,10.0,Fair,CLR,30.0,14.0,,,51%,22.0,,30.29,1026.1,,,,2024-12-05,12,2024,22,KIAD
2024-12-02,2,23:52,EST,NW  12,10.0,Fair,CLR,28.9,14.0,,,54%,20.0,,30.3,1026.3,,,,2024-12-05,12,2024,23,KIAD
2024-12-03,3,00:52,EST,NW  10,10.0,Fair,CLR,28.9,14.0,32.0,28.0,54%,20.0,,30.31,1026.5,,,,2024-12-06,12,2024,0,KIAD
2024-12-03,3,01:52,EST,NW  9,10.0,Fair,CLR,28.0,14.0,,,56%,20.0,,30.31,1026.4,,,,2024-12-06,12,2024,1,KIAD
2024-12-03,3,02:52,EST,NW  10  G 17,10.0,Fair,CLR,28.0,14.0,,,56%,19.0,,30.32,1026.9,,,,2024-12-06,12,2024,2,KIAD
2024-12-03,3,03:52,EST,NW  8,10.0,Fair,CLR,28.0,14.0,,,56%,21.0,,30.31,1026.7,,,,2024-12-06,12,2024,3,KIAD
2024-12-03,3,04:52,EST,NW  8,10.0,Fair,CLR,28.0,14.0,,,56%,21.0,,30.32,1027.1,,,,2024-12-06,12,2024,4,KIAD
2024-12-03,3,05:52,EST,NW  9,10.0,Fair,CLR,28.0,14.0,,,56%,20.0,,30.33,1027.4,,,,2024-12-06,12,2024,5,KIAD
2024-12-03,3,06:52,EST,NW  8,10.0,A Few Clouds,FEW060,27.0,14.0,28.9,27.0,58%,19.0,,30.35,1027.9,,,,2024-12-06,12,2024,6,KIAD
2024-12-03,3,07:52,EST,NW  7,10.0,A Few Clouds,FEW065,28.9,14.0,,,54%,23.0,,30.36,1028.5,,,,2024-12-06,12,2024,7,KIAD
2024-12-03,3,08:52,EST,NW  12,10.0,A Few Clouds,FEW065,32.0,15.1,,,50%,24.0,,30.38,1029.1,,,,2024-12-06,12,2024,8,KIAD
2024-12-03,3,09:52,EST,NW  16  G 24,10.0,A Few Clouds,FEW080,34.0,16.0,,,48%,24.0,,30.39,1029.4,,,,2024-12-06,12,2024,9,KIAD
2024-12-03,3,10:52,EST,NW  13  G 24,10.0,A Few Clouds,FEW090,37.0,18.0,,,46%,30.0,,30.39,1029.5,,,,2024-12-06,12,2024,10,KIAD
2024-12-03,3,11:52,EST,NW  14  G 21,10.0,A Few Clouds,FEW100,39.0,18.0,,,43%,32.0,,30.37,1028.6,,,,2024-12-06,12,2024,11,KIAD
2024-12-03,3,12:52,EST,NW  16  G 26,10.0,Fair,CLR,39.9,18.0,39.9,27.0,41%,32.0,,30.35,1027.8,,,,2024-12-06,12,2024,12,KIAD
2024-12-03,3,13:52,EST,NW  15  G 25,10.0,A Few Clouds,FEW050,41.0,18.0,,,39%,34.0,,30.34,1027.5,,,,2024-12-06,12,2024,13,KIAD
2024-12-03,3,14:52,EST,NW  17  G 25,10.0,A Few Clouds,FEW050,39.9,17.1,,,40%,32.0,,30.34,1027.5,,,,2024-12-06,12,2024,14,KIAD
2024-12-03,3,15:52,EST,W  16  G 25,10.0,A Few Clouds,FEW050,39.0,17.1,,,41%,31.0,,30.35,1027.9,,,,2024-12-06,12,2024,15,KIAD
2024-12-03,3,16:52,EST,NW  12,10.0,A Few Clouds,FEW050,36.0,16.0,,,44%,29.0,,30.37,1028.6,,,,2024-12-06,12,2024,16,KIAD
2024-12-03,3,17:52,EST,NW  9,10.0,A Few Clouds,FEW050,34.0,16.0,,,48%,27.0,,30.37,1028.8,,,,2024-12-06,12,2024,17,KIAD
2024-12-03,3,18:52,EST,NW  16,10.0,Fair,CLR,33.1,16.0,42.1,33.1,49%,23.0,,30.38,1029.1,,,,2024-12-06,12,2024,18,KIAD
2024-12-03,3,19:52,EST,W  13  G 23,10.0,Fair,CLR,30.9,15.1,,,52%,22.0,,30.39,1029.5,,,,2024-12-06,12,2024,19,KIAD
2024-12-03,3,20:52,EST,N  5,10.0,Fair,CLR,30.9,14.0,,,49%,27.0,,30.41,1030.0,,,,2024-12-06,12,2024,20,KIAD
2024-12-03,3,21:52,EST,Calm,10.0,Fair,CLR,27.0,14.0,,,58%,,,30.39,1029.5,,,,2024-12-06,12,2024,21,KIAD
2024-12-03,3,22:52,EST,Calm,10.0,Fair,CLR,28.0,14.0,,,56%,,,30.38,1029.1,,,,2024-12-06,12,2024,22,KIAD
2024-12-03,3,23:52,EST,Calm,10.0,Fair,CLR,25.0,14.0,,,63%,,,30.37,1028.9,,,,2024-12-06,12,2024,23,KIAD
2024-12-04,4,00:52,EST,SW  3,10.0,Fair,CLR,23.0,14.0,33.1,19.9,68%,,,30.36,1028.5,,,,2024-12-07,12,2024,0,KIAD
2024-12-04,4,01:52,EST,Calm,10.0,Fair,CLR,19.0,12.9,,,77%,,,30.36,1028.3,,,,2024-12-07,12,2024,1,KIAD
2024-12-04,4,02:52,EST,Calm,10.0,Fair,CLR,21.0,14.0,,,74%,,,30.35,1028.2,,,,2024-12-07,12,2024,2,KIAD
2024-12-04,4,03:52,EST,Calm,10.0,Fair,CLR,19.0,14.0,,,81%,,,30.34,1027.5,,,,2024-12-07,12,2024,3,KIAD
2024-12-04,4,04:52,EST,Calm,10.0,Fair,CLR,18.0,12.9,,,81%,,,30.34,1027.6,,,,2024-12-07,12,2024,4,KIAD
2024-12-04,4,05:52,EST,SE  3,10.0,Fair,CLR,19.0,14.0,,,81%,,,30.31,1026.8,,,,2024-12-07,12,2024,5,KIAD
2024-12-04,4,06:52,EST,Calm,10.0,A Few Clouds,FEW200,17.1,12.9,23.0,17.1,84%,,,30.32,1027.1,,,,2024-12-07,12,2024,6,KIAD
2024-12-04,4,07:52,EST,S  3,10.0,Mostly Cloudy,BKN120 BKN220,24.1,16.0,,,71%,,,30.3,1026.2,,,,2024-12-07,12,2024,7,KIAD
2024-12-04,4,08:52,EST,S  8,10.0,Mostly Cloudy,BKN120 BKN220,27.0,17.1,,,66%,19.0,,30.28,1025.7,,,,2024-12-07,12,2024,8,KIAD
2024-12-04,4,09:52,EST,S  12,10.0,Partly Cloudy,FEW120 SCT220,32.0,17.1,,,54%,24.0,,30.26,1024.9,,,,2024-12-07,12,2024,9,KIAD
2024-12-04,4,10:52,EST,S  15  G 23,10.0,Partly Cloudy,FEW110 SCT220,36.0,15.1,,,42%,27.0,,30.21,1023.3,,,,2024-12-07,12,2024,10,KIAD
2024-12-04,4,11:52,EST,S  16  G 25,10.0,Mostly Cloudy,FEW110 BKN240,39.0,15.1,,,38%,31.0,,30.14,1020.9,,,,2024-12-07,12,2024,11,KIAD
2024-12-04,4,12:52,EST,S  17  G 24,10.0,Mostly Cloudy,BKN075 BKN120 BKN250,39.0,15.1,39.9,18.0,38%,31.0,,30.09,1019.3,,,,2024-12-07,12,2024,12,KIAD
2024-12-04,4,13:52,EST,SW  12  G 21,10.0,Overcast,OVC065,39.9,12.9,,,33%,34.0,,30.05,1017.8,,,,2024-12-07,12,2024,13,KIAD
2024-12-04,4,14:52,EST,S  13  G 25,10.0,Overcast,BKN070 OVC100,39.0,12.9,,,34%,32.0,,30.02,1016.7,,,,2024-12-07,12,2024,14,KIAD
2024-12-04,4,15:52,EST,S  10,10.0,Mostly Cloudy,BKN060 BKN100,39.9,14.0,,,35%,34.0,,29.97,1015.3,,,,2024-12-07,12,2024,15,KIAD
2024-12-04,4,16:52,EST,S  15  G 29,10.0,Mostly Cloudy,BKN060 BKN100 BKN250,39.0,14.0,,,36%,31.0,,29.94,1014.1,,,,2024-12-07,12,2024,16,KIAD
2024-12-04,4,17:52,EST,S  14  G 33,10.0,Mostly Cloudy,BKN065 BKN120 BKN250,39.0,16.0,,,39%,32.0,,29.89,1012.5,,,,2024-12-07,12,2024,17,KIAD
2024-12-04,4,18:52,EST,S  15  G 24,10.0,Mostly Cloudy,FEW055 SCT070 BKN110 BKN220,39.0,17.1,39.9,39.0,41%,31.0,,29.88,1012.1,,,,2024-12-07,12,2024,18,KIAD
2024-12-04,4,19:52,EST,S  15  G 33,10.0,Mostly Cloudy,SCT070 SCT120 BKN220,39.9,18.0,,,41%,32.0,,29.83,1010.4,,,,2024-12-07,12,2024,19,KIAD
2024-12-04,4,20:52,EST,SW  16  G 24,10.0,Mostly Cloudy,BKN075 BKN100 BKN220,41.0,19.0,,,41%,33.0,,29.81,1009.6,,,,2024-12-07,12,2024,20,KIAD
2024-12-04,4,21:52,EST,SW  21  G 32,10.0,Overcast and Breezy,BKN065 OVC120,42.1,19.9,,,41%,34.0,,29.78,1008.7,,,,2024-12-07,12,2024,21,KIAD
2024-12-04,4,22:52,EST,SW  16  G 28,10.0,Overcast,FEW065 OVC100,42.1,19.9,,,41%,35.0,,29.75,1007.5,,,,2024-12-07,12,2024,22,KIAD
2024-12-04,4,23:52,EST,SW  20  G 31,10.0,Overcast,SCT060 OVC100,42.1,19.9,,,41%,34.0,,29.71,1006.3,,,,2024-12-07,12,2024,23,KIAD
2024-12-05,5,00:52,EST,S  14,10.0,A Few Clouds,FEW100,41.0,21.0,43.0,39.0,45%,34.0,,29.68,1005.1,,,,2024-12-08,12,2024,0,KIAD
2024-12-05,5,01:52,EST,S  16  G 25,10.0,Partly Cloudy,FEW060 SCT110,41.0,21.0,,,45%,33.0,,29.63,1003.5,,,,2024-12-08,12,2024,1,KIAD
2024-12-05,5,02:52,EST,S  15,10.0,Partly Cloudy,SCT110,39.9,21.0,,,47%,32.0,,29.61,1002.7,,,,2024-12-08,12,2024,2,KIAD
2024-12-05,5,03:52,EST,S  14  G 25,10.0,Fair,CLR,39.9,21.0,,,47%,33.0,,29.57,1001.6,,,,2024-12-08,12,2024,3,KIAD
2024-12-05,5,04:52,EST,NW  23  G 36,9.0,Light Rain Snow and Breezy,BKN038 OVC060,37.9,28.9,,,70%,28.0,,29.66,1004.5,,,,2024-12-08,12,2024,4,KIAD
2024-12-05,5,05:52,EST,S  8,10.0,Light Rain,OVC060,37.9,30.9,,,76%,33.0,,29.64,1003.8,,,,2024-12-08,12,2024,5,KIAD
2024-12-05,5,06:52,EST,SW  7,10.0,Overcast,FEW055 OVC085,37.0,30.0,42.1,37.0,76%,32.0,,29.66,1004.5,,,,2024-12-08,12,2024,6,KIAD
2024-12-05,5,07:52,EST,NW  18  G 26,10.0,Overcast,FEW043 BKN060 OVC075,39.0,30.9,,,73%,30.0,,29.7,1006.0,,,,2024-12-08,12,2024,7,KIAD
2024-12-05,5,08:52,EST,W  23  G 40,10.0,Mostly Cloudy and Breezy,FEW060 BKN080,39.0,12.9,,,34%,29.0,,29.74,1007.2,,,,2024-12-08,12,2024,8,KIAD
2024-12-05,5,09:52,EST,NW  23  G 39,10.0,Mostly Cloudy and Breezy,BKN055,36.0,8.1,,,31%,25.0,,29.83,1010.3,,,,2024-12-08,12,2024,9,KIAD
2024-12-05,5,10:52,EST,NW  25  G 41,10.0,Partly Cloudy and Breezy,SCT005,36.0,8.1,,,31%,25.0,,29.86,1011.2,,,,2024-12-08,12,2024,10,KIAD
2024-12-05,5,11:52,EST,NW  30  G 43,10.0,A Few Clouds and Windy,FEW050,36.0,9.0,,,32%,24.0,,29.87,1011.6,,,,2024-12-08,12,2024,11,KIAD
2024-12-05,5,12:52,EST,NW  22  G 38,10.0,A Few Clouds and Breezy,FEW055,37.0,10.0,39.9,35.1,33%,27.0,,29.88,1012.0,,,,2024-12-08,12,2024,12,KIAD
2024-12-05,5,13:52,EST,W  22  G 37,10.0,Partly Cloudy and Breezy,SCT060,37.0,10.0,,,33%,27.0,,29.92,1013.4,,,,2024-12-08,12,2024,13,KIAD
2024-12-05,5,14:52,EST,NW  18  G 33,10.0,Mostly Cloudy,BKN060,37.0,10.0,,,33%,28.0,,29.95,1014.5,,,,2024-12-08,12,2024,14,KIAD
2024-12-05,5,15:52,EST,W  24  G 38,10.0,Partly Cloudy and Breezy,SCT060,34.0,9.0,,,35%,22.0,,29.99,1015.7,,,,2024-12-08,12,2024,15,KIAD
2024-12-05,5,16:52,EST,NW  16  G 28,10.0,A Few Clouds,FEW060,30.9,9.0,,,40%,21.0,,30.04,1017.4,,,,2024-12-08,12,2024,16,KIAD
2024-12-05,5,17:52,EST,W  26  G 35,10.0,A Few Clouds and Windy,FEW060,28.9,8.1,,,41%,15.0,,30.07,1018.5,,,,2024-12-08,12,2024,17,KIAD
2024-12-05,5,18:52,EST,NW  16  G 31,10.0,A Few Clouds,FEW060,28.0,8.1,37.9,28.0,43%,17.0,,30.12,1020.1,,,,2024-12-08,12,2024,18,KIAD
2024-12-05,5,19:52,EST,W  15  G 22,10.0,Fair,CLR,27.0,8.1,,,45%,16.0,,30.12,1020.1,,,,2024-12-08,12,2024,19,KIAD
2024-12-05,5,20:52,EST,W  15  G 22,10.0,Fair,CLR,27.0,9.0,,,46%,16.0,,30.11,1020.1,,,,2024-12-08,12,2024,20,KIAD
2024-12-05,5,21:52,EST,W  10,10.0,Fair,CLR,27.0,10.0,,,49%,18.0,,30.14,1020.8,,,,2024-12-08,12,2024,21,KIAD
2024-12-05,5,22:52,EST,W  14  G 21,10.0,Fair,CLR,28.0,10.9,,,49%,18.0,,30.14,1020.9,,,,2024-12-08,12,2024,22,KIAD
2024-12-05,5,23:52,EST,W  8,10.0,Fair,CLR,27.0,12.0,,,53%,19.0,,30.15,1021.2,,,,2024-12-09,12,2024,23,KIAD
2024-12-06,6,00:52,EST,W  23,10.0,Fair and Breezy,CLR,28.0,12.9,28.0,26.1,53%,15.0,,30.13,1020.7,,,,2024-12-09,12,2024,0,KIAD
2024-12-06,6,02:52,EST,W  16,10.0,Fair,CLR,27.0,14.0,,,58%,16.0,,30.16,1021.7,,,,2024-12-09,12,2024,2,KIAD
2024-12-06,6,03:52,EST,W  20,10.0,Fair,CLR,27.0,14.0,,,58%,14.0,,30.16,1021.6,,,,2024-12-09,12,2024,3,KIAD
2024-12-06,6,04:52,EST,NW  14,10.0,Fair,CLR,27.0,15.1,,,61%,16.0,,30.18,1022.4,,,,2024-12-09,12,2024,4,KIAD
2024-12-06,6,05:52,EST,NW  9,10.0,A Few Clouds,FEW120,27.0,15.1,,,61%,19.0,,30.19,1022.7,,,,2024-12-09,12,2024,5,KIAD
2024-12-06,6,06:52,EST,W  13,10.0,Partly Cloudy,FEW044 SCT050,28.0,14.0,28.0,26.1,56%,18.0,,30.22,1023.5,,,,2024-12-09,12,2024,6,KIAD
2024-12-06,6,08:52,EST,NW  12,10.0,Mostly Cloudy,BKN055,30.0,14.0,,,51%,21.0,,30.26,1025.0,,,,2024-12-09,12,2024,8,KIAD
2024-12-06,6,09:52,EST,NW  21  G 30,10.0,A Few Clouds and Breezy,FEW050,33.1,14.0,,,45%,22.0,,30.26,1025.1,,,,2024-12-09,12,2024,9,KIAD
2024-12-06,6,10:52,EST,NW  16  G 30,10.0,A Few Clouds,FEW048,35.1,14.0,,,42%,26.0,,30.25,1024.7,,,,2024-12-09,12,2024,10,KIAD
2024-12-06,6,11:52,EST,NW  20  G 31,10.0,Mostly Cloudy,SCT048 BKN200,35.1,12.9,,,40%,25.0,,30.24,1024.5,,,,2024-12-09,12,2024,11,KIAD
2024-12-06,6,12:52,EST,NW  21,10.0,Mostly Cloudy and Breezy,BKN050,35.1,12.0,37.0,27.0,38%,25.0,,30.24,1024.4,,,,2024-12-09,12,2024,12,KIAD
2024-12-06,6,13:52,EST,NW  14  G 26,10.0,Mostly Cloudy,BKN050,35.1,12.0,,,38%,27.0,,30.22,1023.7,,,,2024-12-09,12,2024,13,KIAD
2024-12-06,6,14:52,EST,NW  20  G 28,10.0,Partly Cloudy,SCT050,35.1,12.0,,,38%,25.0,,30.22,1023.5,,,,2024-12-09,12,2024,14,KIAD
2024-12-06,6,15:52,EST,NW  18  G 26,10.0,A Few Clouds,FEW050,34.0,12.0,,,40%,24.0,,30.23,1023.9,,,,2024-12-09,12,2024,15,KIAD
2024-12-06,6,16:52,EST,W  15,10.0,A Few Clouds,FEW050,30.9,10.9,,,43%,21.0,,30.24,1024.1,,,,2024-12-09,12,2024,16,KIAD
2024-12-06,6,17:52,EST,W  10,10.0,A Few Clouds,FEW060,30.0,10.9,,,45%,22.0,,30.26,1024.9,,,,2024-12-09,12,2024,17,KIAD
2024-12-06,6,18:52,EST,W  7,10.0,A Few Clouds,FEW050,30.0,10.9,37.9,28.9,45%,24.0,,30.26,1025.1,,,,2024-12-09,12,2024,18,KIAD
2024-12-06,6,19:52,EST,SW  3,10.0,Fair,CLR,27.0,10.9,,,51%,,,30.27,1025.3,,,,2024-12-09,12,2024,19,KIAD
2024-12-06,6,20:52,EST,SW  6,10.0,Fair,CLR,26.1,10.9,,,53%,20.0,,30.26,1024.9,,,,2024-12-09,12,2024,20,KIAD
2024-12-06,6,21:52,EST,SW  6,10.0,Fair,CLR,24.1,12.0,,,60%,18.0,,30.25,1024.8,,,,2024-12-09,12,2024,21,KIAD
2024-12-06,6,22:52,EST,S  6,10.0,Fair,CLR,23.0,10.9,,,60%,17.0,,30.26,1024.8,,,,2024-12-09,12,2024,22,KIAD
2024-12-06,6,23:52,EST,SW  7,10.0,A Few Clouds,FEW050,24.1,10.9,,,57%,17.0,,30.26,1024.9,,,,2024-12-10,12,2024,23,KIAD
2024-12-07,7,00:52,EST,SW  7,10.0,A Few Clouds,FEW050 FEW100,24.1,10.9,30.0,21.9,57%,17.0,,30.25,1024.7,,,,2024-12-10,12,2024,0,KIAD
2024-12-07,7,01:52,EST,SW  10,10.0,Mostly Cloudy,BKN100,27.0,12.0,,,53%,18.0,,30.25,1024.7,,,,2024-12-10,12,2024,1,KIAD
2024-12-07,7,02:52,EST,SW  8,10.0,Overcast,OVC095,26.1,12.0,,,55%,18.0,,30.25,1024.8,,,,2024-12-10,12,2024,2,KIAD
2024-12-07,7,03:52,EST,SW  8,10.0,Mostly Cloudy,BKN100,26.1,12.0,,,55%,18.0,,30.25,1024.5,,,,2024-12-10,12,2024,3,KIAD
2024-12-07,7,04:52,EST,SW  6,10.0,Partly Cloudy,SCT100,23.0,10.9,,,60%,17.0,,30.24,1024.4,,,,2024-12-10,12,2024,4,KIAD
2024-12-07,7,05:52,EST,SW  6,10.0,Mostly Cloudy,BKN055,24.1,10.9,,,57%,18.0,,30.25,1024.7,,,,2024-12-10,12,2024,5,KIAD
2024-12-07,7,06:52,EST,S  8,10.0,Partly Cloudy,FEW060 SCT250,23.0,10.9,27.0,21.9,60%,15.0,,30.26,1024.9,,,,2024-12-10,12,2024,6,KIAD
2024-12-07,7,07:52,EST,SW  8,10.0,Mostly Cloudy,SCT060 BKN250,25.0,10.9,,,55%,17.0,,30.25,1024.8,,,,2024-12-10,12,2024,7,KIAD
2024-12-07,7,08:52,EST,SW  6,10.0,Mostly Cloudy,FEW060 BKN250,28.0,12.0,,,51%,22.0,,30.26,1025.0,,,,2024-12-10,12,2024,8,KIAD
2024-12-07,7,09:52,EST,SW  7,10.0,Partly Cloudy,FEW065 SCT250,33.1,12.9,,,43%,28.0,,30.27,1025.5,,,,2024-12-10,12,2024,9,KIAD
2024-12-07,7,10:52,EST,Vrbl  6,10.0,A Few Clouds,FEW065 FEW250,37.9,10.9,,,33%,34.0,,30.26,1024.9,,,,2024-12-10,12,2024,10,KIAD
2024-12-07,7,12:52,EST,W  9,10.0,Mostly Cloudy,FEW060 SCT220 BKN250,41.0,10.0,42.1,21.9,28%,36.0,,30.21,1023.4,,,,2024-12-10,12,2024,12,KIAD
2024-12-07,7,13:52,EST,S  6,10.0,Mostly Cloudy,FEW060 SCT220 BKN250,41.0,10.0,,,28%,38.0,,30.18,1022.1,,,,2024-12-10,12,2024,13,KIAD
2024-12-07,7,14:52,EST,S  7,10.0,Mostly Cloudy,FEW060 BKN160 BKN250,39.9,12.0,,,32%,36.0,,30.15,1021.1,,,,2024-12-10,12,2024,14,KIAD
2024-12-07,7,15:52,EST,S  8,10.0,Mostly Cloudy,SCT060 BKN150 BKN250,39.9,10.9,,,30%,35.0,,30.12,1020.4,,,,2024-12-10,12,2024,15,KIAD
2024-12-07,7,16:52,EST,S  9,10.0,Mostly Cloudy,BKN120 BKN250,39.0,12.0,,,33%,33.0,,30.12,1020.2,,,,2024-12-10,12,2024,16,KIAD
2024-12-07,7,17:52,EST,S  6,10.0,Mostly Cloudy,BKN140,36.0,10.9,,,35%,32.0,,30.12,1020.1,,,,2024-12-10,12,2024,17,KIAD
2024-12-07,7,18:52,EST,S  5,10.0,Mostly Cloudy,BKN140 BKN250,36.0,12.9,41.0,34.0,39%,33.0,,30.1,1019.6,,,,2024-12-10,12,2024,18,KIAD
2024-12-07,7,19:52,EST,S  8,10.0,Mostly Cloudy,BKN200,36.0,12.9,,,39%,30.0,,30.08,1018.9,,,,2024-12-10,12,2024,19,KIAD
2024-12-07,7,20:52,EST,S  8,10.0,Mostly Cloudy,BKN200,35.1,12.0,,,38%,29.0,,30.05,1017.9,,,,2024-12-10,12,2024,20,KIAD
2024-12-07,7,21:52,EST,S  7,10.0,Mostly Cloudy,FEW120 BKN200,36.0,12.0,,,37%,31.0,,30.03,1017.2,,,,2024-12-10,12,2024,21,KIAD
2024-12-07,7,22:52,EST,S  9,10.0,Mostly Cloudy,BKN220,36.0,12.0,,,37%,30.0,,30.0,1016.2,,,,2024-12-10,12,2024,22,KIAD
2024-12-07,7,23:52,EST,S  9,10.0,Mostly Cloudy,SCT220 BKN250,35.1,12.0,,,38%,29.0,,29.98,1015.4,,,,2024-12-10,12,2024,23,KIAD
2024-12-08,8,00:52,EST,S  7,10.0,Overcast,BKN200 OVC240,35.1,12.0,37.0,35.1,38%,30.0,,29.95,1014.4,,,,2024-12-11,12,2024,0,KIAD
2024-12-08,8,02:52,EST,S  7,10.0,Overcast,OVC180,36.0,14.0,,,40%,31.0,,29.92,1013.4,,,,2024-12-11,12,2024,2,KIAD
2024-12-08,8,03:52,EST,S  7,10.0,Overcast,SCT180 OVC200,35.1,15.1,,,44%,30.0,,29.9,1012.7,,,,2024-12-11,12,2024,3,KIAD
2024-12-08,8,04:52,EST,S  5,10.0,Overcast,BKN170 OVC200,37.0,16.0,,,42%,34.0,,29.9,1012.6,,,,2024-12-11,12,2024,4,KIAD
2024-12-08,8,05:52,EST,S  7,10.0,Partly Cloudy,FEW160 SCT200 SCT250,37.9,17.1,,,43%,33.0,,29.88,1012.1,,,,2024-12-11,12,2024,5,KIAD
2024-12-08,8,06:52,EST,S  10,10.0,Mostly Cloudy,SCT160 SCT200 BKN250,37.9,19.0,37.9,34.0,46%,32.0,,29.86,1011.4,,,,2024-12-11,12,2024,6,KIAD
2024-12-08,8,07:52,EST,S  8,10.0,Mostly Cloudy,SCT170 BKN250,37.9,19.9,,,48%,33.0,,29.86,1011.5,,,,2024-12-11,12,2024,7,KIAD
2024-12-08,8,08:52,EST,S  9,10.0,Mostly Cloudy,FEW070 SCT160 BKN250,43.0,23.0,,,45%,38.0,,29.87,1011.5,,,,2024-12-11,12,2024,8,KIAD
2024-12-08,8,11:52,EST,W  10,10.0,Mostly Cloudy,FEW150 BKN250,63.0,30.0,,,29%,,,29.87,1011.5,,,,2024-12-11,12,2024,11,KIAD
2024-12-08,8,12:52,EST,W  9,10.0,Mostly Cloudy,FEW150 BKN250,64.0,30.0,64.0,37.0,28%,,,29.86,1011.3,,,,2024-12-11,12,2024,12,KIAD
2024-12-08,8,13:52,EST,W  12,10.0,Mostly Cloudy,FEW150 BKN250,66.0,30.9,,,27%,,,29.86,1011.2,,,,2024-12-11,12,2024,13,KIAD
2024-12-08,8,14:52,EST,W  9,10.0,Mostly Cloudy,FEW150 BKN250,66.0,30.9,,,27%,,,29.87,1011.5,,,,2024-12-11,12,2024,14,KIAD
2024-12-08,8,15:52,EST,W  8,10.0,Mostly Cloudy,FEW150 BKN250,64.0,32.0,,,30%,,,29.89,1012.0,,,,2024-12-11,12,2024,15,KIAD
2024-12-08,8,16:52,EST,SW  8,10.0,Mostly Cloudy,FEW150 BKN250,55.9,30.9,,,39%,,,29.92,1013.1,,,,2024-12-11,12,2024,16,KIAD
2024-12-08,8,17:52,EST,S  5,10.0,Partly Cloudy,FEW100 SCT250,52.0,30.9,,,45%,,,29.94,1013.9,,,,2024-12-11,12,2024,17,KIAD
2024-12-08,8,18:52,EST,S  5,10.0,A Few Clouds,FEW250,51.1,30.0,66.0,48.9,45%,,,29.96,1014.7,,,,2024-12-11,12,2024,18,KIAD
2024-12-08,8,19:52,EST,S  3,10.0,A Few Clouds,FEW250,44.1,30.0,,,58%,,,29.97,1015.1,,,,2024-12-11,12,2024,19,KIAD
2024-12-08,8,20:52,EST,Calm,10.0,Fair,CLR,42.1,30.0,,,62%,,,29.98,1015.2,,,,2024-12-11,12,2024,20,KIAD
2024-12-08,8,22:52,EST,Calm,10.0,Partly Cloudy,SCT250,39.0,30.0,,,70%,,,29.99,1015.5,,,,2024-12-11,12,2024,22,KIAD
2024-12-08,8,23:52,EST,Calm,10.0,Fair,CLR,39.0,30.0,,,70%,,,29.99,1015.4,,,,2024-12-12,12,2024,23,KIAD
2024-12-09,9,00:52,EST,Calm,10.0,A Few Clouds,FEW250,37.9,30.0,51.1,35.1,73%,,,29.97,1014.8,,,,2024-12-12,12,2024,0,KIAD
2024-12-09,9,01:52,EST,S  3,10.0,A Few Clouds,FEW250,35.1,28.9,,,78%,,,29.97,1014.9,,,,2024-12-12,12,2024,1,KIAD
2024-12-09,9,02:52,EST,Calm,10.0,Partly Cloudy,SCT250,34.0,28.9,,,82%,,,29.98,1015.2,,,,2024-12-12,12,2024,2,KIAD
2024-12-09,9,03:52,EST,NE  3,10.0,Mostly Cloudy,BKN100,35.1,28.9,,,78%,,,29.97,1014.9,,,,2024-12-12,12,2024,3,KIAD
2024-12-09,9,04:52,EST,NW  3,10.0,Overcast,OVC100,37.9,30.9,,,76%,,,29.95,1014.4,,,,2024-12-12,12,2024,4,KIAD
2024-12-09,9,05:52,EST,Calm,10.0,A Few Clouds,FEW110,37.0,30.9,,,79%,,,29.94,1013.9,,,,2024-12-12,12,2024,5,KIAD
2024-12-09,9,06:52,EST,W  3,10.0,Overcast,BKN055 OVC110,37.9,32.0,37.9,34.0,79%,,,29.96,1014.6,,,,2024-12-12,12,2024,6,KIAD
2024-12-09,9,07:52,EST,S  6,10.0,Light Rain,BKN055 OVC090,46.9,37.0,,,69%,45.0,,29.96,1014.5,,,,2024-12-12,12,2024,7,KIAD
2024-12-09,9,08:52,EST,S  5,7.0,Light Rain,OVC042,45.0,39.9,,,83%,43.0,,29.94,1014.0,0.01,,,2024-12-12,12,2024,8,KIAD
2024-12-09,9,09:52,EST,SE  8,10.0,Light Rain,SCT022 BKN035 OVC100,46.9,44.1,,,90%,44.0,,29.91,1012.8,0.04,0.05,,2024-12-12,12,2024,9,KIAD
2024-12-09,9,10:52,EST,S  7,7.0,Overcast,OVC016,48.0,46.0,,,93%,45.0,,29.9,1012.5,0.02,,,2024-12-12,12,2024,10,KIAD
2024-12-09,9,11:52,EST,S  9,7.0,Overcast,BKN008 OVC012,50.0,46.9,,,89%,47.0,,29.85,1011.0,,,,2024-12-12,12,2024,11,KIAD
2024-12-09,9,12:52,EST,SW  10,10.0,Overcast,BKN007 OVC011,52.0,48.0,52.0,37.9,86%,,,29.87,1011.4,,,0.07,2024-12-12,12,2024,12,KIAD
2024-12-09,9,13:52,EST,SW  14  G 22,10.0,Partly Cloudy,FEW012 SCT100 SCT120,55.9,50.0,,,81%,,,29.84,1010.6,,,,2024-12-12,12,2024,13,KIAD
2024-12-09,9,14:52,EST,S  10,10.0,A Few Clouds,FEW015 FEW030,57.9,50.0,,,75%,,,29.85,1010.9,,,,2024-12-12,12,2024,14,KIAD
2024-12-09,9,15:52,EST,S  9,10.0,Partly Cloudy,FEW050 FEW100 SCT250,57.9,48.9,,,72%,,,29.87,1011.6,,,,2024-12-12,12,2024,15,KIAD
2024-12-09,9,16:52,EST,S  8,10.0,Partly Cloudy,FEW015 FEW050 SCT250,55.0,48.0,,,77%,,,29.88,1011.9,,,,2024-12-12,12,2024,16,KIAD
2024-12-09,9,17:52,EST,S  9,10.0,Partly Cloudy,FEW075 SCT250,54.0,48.0,,,80%,,,29.92,1013.2,,,,2024-12-12,12,2024,17,KIAD
2024-12-09,9,18:52,EST,S  6,10.0,Partly Cloudy,FEW015 FEW070 SCT250,50.0,46.9,59.0,50.0,89%,48.0,,29.94,1013.9,,,,2024-12-12,12,2024,18,KIAD
2024-12-09,9,19:52,EST,S  6,10.0,Mostly Cloudy,FEW035 FEW070 BKN250,50.0,46.9,,,89%,48.0,,29.95,1014.3,,,,2024-12-12,12,2024,19,KIAD
2024-12-09,9,20:52,EST,S  5,10.0,Mostly Cloudy,FEW070 BKN250,50.0,48.0,,,93%,49.0,,29.95,1014.3,,,,2024-12-12,12,2024,20,KIAD
2024-12-09,9,21:52,EST,S  6,10.0,Mostly Cloudy,FEW070 BKN250,50.0,46.9,,,89%,48.0,,29.97,1014.8,,,,2024-12-12,12,2024,21,KIAD
2024-12-09,9,22:52,EST,S  5,10.0,Partly Cloudy,FEW070 SCT250,48.0,46.0,,,93%,47.0,,29.97,1015.0,,,,2024-12-12,12,2024,22,KIAD
2024-12-09,9,23:52,EST,S  5,10.0,Overcast,OVC060,50.0,48.0,,,93%,49.0,,29.98,1015.2,,,,2024-12-12,12,2024,23,KIAD
2024-12-10,10,00:52,EST,S  6,10.0,Overcast,OVC060,50.0,48.0,51.1,48.0,93%,48.0,,29.98,1015.1,,,,2024-12-13,12,2024,0,KIAD
2024-12-10,10,01:52,EST,Calm,9.0,A Few Clouds,FEW060,46.9,45.0,,,93%,,,29.97,1014.8,,,,2024-12-13,12,2024,1,KIAD
2024-12-10,10,02:52,EST,SE  3,0.13,Fog,FEW080,41.0,39.9,,,96%,,,29.99,1015.4,,,,2024-12-13,12,2024,2,KIAD
2024-12-10,10,03:52,EST,SE  3,0.13,Fog,FEW080,39.9,39.0,,,97%,,,29.96,1014.6,,,,2024-12-13,12,2024,3,KIAD
2024-12-10,10,04:52,EST,S  5,0.13,Fog,FEW080,41.0,39.0,,,93%,38.0,,29.99,1015.4,,,,2024-12-13,12,2024,4,KIAD
2024-12-10,10,05:52,EST,S  7,0.13,Fog,VV001,46.0,44.1,,,93%,43.0,,29.99,1015.5,,,,2024-12-13,12,2024,5,KIAD
2024-12-10,10,06:52,EST,Calm,0.13,Fog,VV001,45.0,45.0,50.0,37.9,100%,,,29.99,1015.6,,,,2024-12-13,12,2024,6,KIAD
2024-12-10,10,07:52,EST,S  5,0.13,Fog,VV001,45.0,44.1,,,97%,43.0,,30.02,1016.5,,,,2024-12-13,12,2024,7,KIAD
2024-12-10,10,08:52,EST,SW  6,0.25,Fog,VV001,45.0,44.1,,,97%,42.0,,30.04,1017.1,,,,2024-12-13,12,2024,8,KIAD
2024-12-10,10,09:52,EST,S  3,0.25,Fog,VV002,46.0,45.0,,,96%,,,30.04,1017.2,,,,2024-12-13,12,2024,9,KIAD
2024-12-10,10,10:52,EST,S  6,0.75,Fog/Mist,OVC002,46.0,46.0,,,100%,44.0,,30.03,1017.0,,,,2024-12-13,12,2024,10,KIAD
2024-12-10,10,11:52,EST,S  6,1.25,Fog/Mist,OVC004,46.9,46.0,,,97%,45.0,,29.99,1015.6,,,,2024-12-13,12,2024,11,KIAD
2024-12-10,10,12:52,EST,S  6,3.0,Fog/Mist,OVC004,48.0,46.9,48.0,45.0,96%,46.0,,29.97,1014.8,,,,2024-12-13,12,2024,12,KIAD
2024-12-10,10,13:52,EST,SE  9,3.0,Fog/Mist,OVC004,51.1,48.0,,,89%,,,29.95,1014.3,,,,2024-12-13,12,2024,13,KIAD
2024-12-10,10,14:52,EST,SE  7,1.5,Fog/Mist,OVC003,50.0,48.0,,,93%,48.0,,29.94,1013.9,,,,2024-12-13,12,2024,14,KIAD
2024-12-10,10,15:52,EST,SE  5,3.0,Fog/Mist,OVC003,50.0,48.0,,,93%,49.0,,29.94,1014.0,,,,2024-12-13,12,2024,15,KIAD
2024-12-10,10,16:52,EST,S  6,0.75,Light Rain Fog/Mist,OVC003,50.0,48.0,,,93%,48.0,,29.94,1014.0,,,,2024-12-13,12,2024,16,KIAD
2024-12-10,10,17:52,EST,SE  8,2.5,Fog/Mist,BKN002 OVC018,50.0,48.9,,,96%,47.0,,29.93,1013.4,0.01,,,2024-12-13,12,2024,17,KIAD
2024-12-10,10,18:52,EST,S  3,4.0,Fog/Mist,BKN005 OVC018,51.1,48.9,51.1,48.0,92%,,,29.93,1013.5,,,0.01,2024-12-13,12,2024,18,KIAD
2024-12-10,10,19:52,EST,Calm,2.5,Fog/Mist,OVC004,51.1,50.0,,,96%,,,29.93,1013.6,,,,2024-12-13,12,2024,19,KIAD
2024-12-10,10,20:52,EST,Calm,0.75,Light Rain Fog/Mist,VV002,51.1,50.0,,,96%,,,29.9,1012.6,,,,2024-12-13,12,2024,20,KIAD
2024-12-10,10,21:52,EST,S  3,0.13,Fog,VV002,51.1,51.1,,,100%,,,29.89,1012.0,,,,2024-12-13,12,2024,21,KIAD
2024-12-10,10,22:52,EST,SE  7,0.25,Fog,VV002,52.0,51.1,,,97%,,,29.85,1010.8,,,,2024-12-13,12,2024,22,KIAD
2024-12-10,10,23:52,EST,S  5,5.0,Light Rain Fog/Mist,OVC015,55.0,54.0,,,96%,,,29.82,1009.9,,,,2024-12-13,12,2024,23,KIAD
2024-12-11,11,00:52,EST,SW  3,7.0,Light Rain,BKN010 BKN020 OVC120,55.0,54.0,55.0,51.1,96%,,,29.79,1008.9,,,,2024-12-14,12,2024,0,KIAD
2024-12-11,11,01:52,EST,Calm,3.0,Light Rain Fog/Mist,BKN010 BKN017 OVC110,55.0,54.0,,,96%,,,29.78,1008.3,,,,2024-12-14,12,2024,1,KIAD
2024-12-11,11,02:52,EST,NW  13,3.0,Light Rain Fog/Mist,OVC006,54.0,52.0,,,93%,,,29.76,1007.7,0.01,,,2024-12-14,12,2024,2,KIAD
2024-12-11,11,03:52,EST,S  10,7.0,Light Drizzle,BKN009 OVC060,60.1,59.0,,,96%,,,29.71,1006.1,0.01,0.02,,2024-12-14,12,2024,3,KIAD
2024-12-11,11,04:52,EST,S  12  G 21,10.0,Light Rain,BKN025 BKN045 OVC080,62.1,59.0,,,90%,,,29.68,1005.0,0.02,,,2024-12-14,12,2024,4,KIAD
2024-12-11,11,05:52,EST,S  12  G 22,10.0,Light Rain,BKN019 OVC025,62.1,59.0,,,90%,,,29.68,1004.8,0.01,,,2024-12-14,12,2024,5,KIAD
2024-12-11,11,06:52,EST,S  14,10.0,Light Rain,BKN018 BKN023 OVC050,62.1,59.0,62.1,53.1,90%,,,29.66,1004.3,0.02,,0.07,2024-12-14,12,2024,6,KIAD
2024-12-11,11,07:52,EST,S  9,9.0,Light Rain,BKN013 OVC060,61.0,59.0,,,93%,,,29.65,1004.0,0.03,,,2024-12-14,12,2024,7,KIAD
2024-12-11,11,08:52,EST,S  10,6.0,Light Rain Fog/Mist,SCT008 OVC014,61.0,59.0,,,93%,,,29.64,1003.6,0.04,,,2024-12-14,12,2024,8,KIAD
2024-12-11,11,09:52,EST,S  6,5.0,Light Rain Fog/Mist,BKN009 BKN035 OVC070,61.0,60.1,,,97%,,,29.59,1002.0,0.05,0.12,,2024-12-14,12,2024,9,KIAD
2024-12-11,11,10:52,EST,SW  7  G 23,1.0,Heavy Rain Fog/Mist,BKN014 OVC030,61.0,59.0,,,93%,,,29.57,1001.4,0.47,,,2024-12-14,12,2024,10,KIAD
2024-12-11,11,11:52,EST,NE  10,4.0,Light Rain Fog/Mist,FEW007 BKN019 OVC050,54.0,51.1,,,90%,,,29.51,999.2,0.26,,,2024-12-14,12,2024,11,KIAD
2024-12-11,11,12:52,EST,E  5,4.0,Light Rain Fog/Mist,SCT007 BKN020 OVC055,55.0,53.1,62.1,54.0,93%,,,29.49,998.3,0.04,,0.89,2024-12-14,12,2024,12,KIAD
2024-12-11,11,13:52,EST,NW  22  G 33,1.0,Heavy Rain Fog/Mist and Breezy,OVC005,52.0,50.0,,,93%,,,29.51,999.2,0.18,,,2024-12-14,12,2024,13,KIAD
2024-12-11,11,14:52,EST,NW  23  G 36,3.0,Heavy Rain Fog/Mist and Breezy,SCT008 BKN015 OVC040,48.0,44.1,,,86%,41.0,,29.58,1001.6,0.3,,,2024-12-14,12,2024,14,KIAD
2024-12-11,11,15:52,EST,NW  18  G 37,6.0,Rain,SCT010 OVC050,44.1,39.0,,,83%,37.0,,29.6,1002.3,0.05,0.53,,2024-12-14,12,2024,15,KIAD
2024-12-11,11,16:52,EST,NW  21  G 31,10.0,Light Rain and Breezy,FEW010 BKN019 OVC050,43.0,36.0,,,76%,35.0,,29.64,1003.6,0.02,,,2024-12-14,12,2024,16,KIAD
2024-12-11,11,17:52,EST,NW  18  G 35,10.0,Overcast,SCT022 BKN060 OVC100,43.0,33.1,,,68%,35.0,,29.67,1004.7,,,,2024-12-14,12,2024,17,KIAD
2024-12-11,11,18:52,EST,NW  17  G 32,10.0,Overcast,FEW027 BKN040 OVC100,42.1,30.0,55.0,42.1,62%,34.0,,29.75,1007.5,,,0.55,2024-12-14,12,2024,18,KIAD
2024-12-11,11,19:52,EST,NW  25  G 37,10.0,Mostly Cloudy and Breezy,BKN046,39.9,26.1,,,58%,30.0,,29.83,1010.0,,,,2024-12-14,12,2024,19,KIAD
2024-12-11,11,20:52,EST,NW  18  G 35,10.0,A Few Clouds,FEW044,37.9,25.0,,,60%,29.0,,29.88,1011.7,,,,2024-12-14,12,2024,20,KIAD
2024-12-11,11,21:52,EST,W  28  G 45,10.0,Partly Cloudy and Windy,SCT046,37.0,23.0,,,57%,26.0,,29.92,1013.1,,,,2024-12-14,12,2024,21,KIAD
2024-12-11,11,22:52,EST,W  16  G 29,10.0,Mostly Cloudy,BKN046,37.0,21.0,,,52%,28.0,,29.96,1014.4,,,,2024-12-14,12,2024,22,KIAD
2024-12-11,11,23:52,EST,W  13,10.0,A Few Clouds,FEW050,34.0,21.0,,,59%,26.0,,29.97,1015.1,,,,2024-12-14,12,2024,23,KIAD
2024-12-12,12,00:52,EST,W  7,10.0,Fair,CLR,33.1,19.9,42.1,33.1,58%,28.0,,30.0,1016.0,,,,2024-12-15,12,2024,0,KIAD
2024-12-12,12,01:52,EST,SW  7,10.0,Fair,CLR,33.1,19.9,,,58%,28.0,,30.03,1016.9,,,,2024-12-15,12,2024,1,KIAD
2024-12-12,12,02:52,EST,S  5,10.0,Mostly Cloudy,BKN070,30.9,21.0,,,67%,27.0,,30.05,1017.8,,,,2024-12-15,12,2024,2,KIAD
2024-12-12,12,03:52,EST,S  6,10.0,Mostly Cloudy,BKN070,30.0,21.9,,,72%,25.0,,30.06,1017.9,,,,2024-12-15,12,2024,3,KIAD
2024-12-12,12,04:52,EST,S  5,10.0,Mostly Cloudy,BKN060,30.0,21.9,,,72%,26.0,,30.07,1018.4,,,,2024-12-15,12,2024,4,KIAD
2024-12-12,12,05:52,EST,Vrbl  3,10.0,A Few Clouds,FEW060,30.9,21.0,,,67%,,,30.11,1019.7,,,,2024-12-15,12,2024,5,KIAD
2024-12-12,12,06:52,EST,S  7,10.0,A Few Clouds,FEW060,28.9,21.9,34.0,28.0,75%,23.0,,30.14,1020.7,,,,2024-12-15,12,2024,6,KIAD
2024-12-12,12,08:52,EST,S  7,10.0,A Few Clouds,FEW060,34.0,23.0,,,64%,29.0,,30.2,1022.7,,,,2024-12-15,12,2024,8,KIAD
2024-12-12,12,09:52,EST,S  7,10.0,A Few Clouds,FEW060,37.9,24.1,,,57%,33.0,,30.22,1023.5,,,,2024-12-15,12,2024,9,KIAD
2024-12-12,12,10:52,EST,SW  12,10.0,Fair,CLR,41.0,17.1,,,38%,35.0,,30.23,1023.9,,,,2024-12-15,12,2024,10,KIAD
2024-12-12,12,11:52,EST,W  9  G 25,10.0,Fair,CLR,43.0,10.9,,,27%,38.0,,30.23,1023.9,,,,2024-12-15,12,2024,11,KIAD
2024-12-12,12,12:52,EST,W  12  G 22,10.0,Fair,CLR,44.1,8.1,44.1,28.0,23%,39.0,,30.23,1024.0,,,,2024-12-15,12,2024,12,KIAD
2024-12-12,12,13:52,EST,W  13  G 23,10.0,A Few Clouds,FEW200,45.0,9.0,,,23%,39.0,,30.24,1024.1,,,,2024-12-15,12,2024,13,KIAD
2024-12-12,12,14:52,EST,W  18  G 26,10.0,A Few Clouds,FEW200,45.0,8.1,,,22%,38.0,,30.25,1024.6,,,,2024-12-15,12,2024,14,KIAD
2024-12-12,12,15:52,EST,NW  13  G 23,10.0,Partly Cloudy,SCT200,43.0,8.1,,,24%,37.0,,30.29,1025.9,,,,2024-12-15,12,2024,15,KIAD
2024-12-12,12,16:52,EST,NW  7,10.0,A Few Clouds,FEW200,39.0,9.0,,,29%,35.0,,30.33,1027.1,,,,2024-12-15,12,2024,16,KIAD
2024-12-12,12,17:52,EST,NW  7,10.0,Fair,CLR,37.0,10.0,,,33%,32.0,,30.36,1028.2,,,,2024-12-15,12,2024,17,KIAD
2024-12-12,12,18:52,EST,NW  7,10.0,Fair,CLR,36.0,9.0,45.0,36.0,32%,31.0,,30.38,1029.1,,,,2024-12-15,12,2024,18,KIAD
2024-12-12,12,19:52,EST,NW  6,10.0,Fair,CLR,35.1,10.0,,,35%,31.0,,30.4,1029.8,,,,2024-12-15,12,2024,19,KIAD
2024-12-12,12,20:52,EST,Vrbl  3,10.0,Fair,CLR,30.9,12.9,,,47%,,,30.42,1030.6,,,,2024-12-15,12,2024,20,KIAD
2024-12-12,12,21:52,EST,Calm,10.0,Fair,CLR,28.9,12.0,,,49%,,,30.44,1031.1,,,,2024-12-15,12,2024,21,KIAD
2024-12-12,12,22:52,EST,E  3,10.0,Fair,CLR,28.0,12.9,,,53%,,,30.46,1031.5,,,,2024-12-15,12,2024,22,KIAD
2024-12-12,12,23:52,EST,Calm,10.0,Fair,CLR,28.0,14.0,,,56%,,,30.47,1031.9,,,,2024-12-15,12,2024,23,KIAD
2024-12-13,13,00:52,EST,Calm,10.0,Fair,CLR,26.1,16.0,36.0,25.0,66%,,,30.47,1032.1,,,,2024-12-16,12,2024,0,KIAD
2024-12-13,13,01:52,EST,Calm,10.0,Partly Cloudy,SCT065,25.0,16.0,,,69%,,,30.49,1032.7,,,,2024-12-16,12,2024,1,KIAD
2024-12-13,13,02:52,EST,Calm,10.0,Partly Cloudy,SCT065,23.0,16.0,,,74%,,,30.51,1033.5,,,,2024-12-16,12,2024,2,KIAD
2024-12-13,13,03:52,EST,Calm,10.0,Mostly Cloudy,BKN065,23.0,16.0,,,74%,,,30.52,1033.8,,,,2024-12-16,12,2024,3,KIAD
2024-12-13,13,04:52,EST,Calm,10.0,Mostly Cloudy,BKN060,25.0,18.0,,,75%,,,30.53,1034.2,,,,2024-12-16,12,2024,4,KIAD
2024-12-13,13,05:52,EST,Calm,10.0,Mostly Cloudy,BKN065,24.1,18.0,,,77%,,,30.56,1035.0,,,,2024-12-16,12,2024,5,KIAD
2024-12-13,13,06:52,EST,Calm,10.0,Mostly Cloudy,BKN060 BKN250,28.0,21.0,28.0,23.0,75%,,,30.59,1036.1,,,,2024-12-16,12,2024,6,KIAD
2024-12-13,13,07:52,EST,Calm,10.0,Mostly Cloudy,BKN060 BKN250,28.9,24.1,,,82%,,,30.61,1036.9,,,,2024-12-16,12,2024,7,KIAD
2024-12-13,13,08:52,EST,NE  6,10.0,Mostly Cloudy,SCT060 BKN080 BKN250,33.1,19.9,,,58%,28.0,,30.64,1037.7,,,,2024-12-16,12,2024,8,KIAD
2024-12-13,13,09:52,EST,NE  6,10.0,Mostly Cloudy,BKN060 BKN080 BKN250,34.0,16.0,,,48%,29.0,,30.67,1038.9,,,,2024-12-16,12,2024,9,KIAD
2024-12-13,13,10:52,EST,NE  3,10.0,Overcast,OVC060,35.1,17.1,,,48%,,,30.68,1039.4,,,,2024-12-16,12,2024,10,KIAD
2024-12-13,13,11:52,EST,N  6,10.0,Overcast,BKN065 OVC080,36.0,18.0,,,48%,32.0,,30.66,1038.7,,,,2024-12-16,12,2024,11,KIAD
2024-12-13,13,12:52,EST,N  6,10.0,Overcast,OVC065,37.0,18.0,37.0,27.0,46%,33.0,,30.65,1038.4,,,,2024-12-16,12,2024,12,KIAD
2024-12-13,13,13:52,EST,NE  6,10.0,Overcast,BKN065 OVC100,37.0,17.1,,,44%,33.0,,30.65,1038.4,,,,2024-12-16,12,2024,13,KIAD
2024-12-13,13,14:52,EST,N  6,10.0,Overcast,BKN065 OVC100,37.0,18.0,,,46%,33.0,,30.66,1038.5,,,,2024-12-16,12,2024,14,KIAD
2024-12-13,13,15:52,EST,NE  6,10.0,Overcast,BKN060 OVC100,36.0,17.1,,,46%,32.0,,30.67,1039.0,,,,2024-12-16,12,2024,15,KIAD
2024-12-13,13,16:52,EST,NE  6,10.0,Mostly Cloudy,BKN060 BKN250,35.1,17.1,,,48%,31.0,,30.69,1039.5,,,,2024-12-16,12,2024,16,KIAD
2024-12-13,13,17:52,EST,NE  6,10.0,Mostly Cloudy,SCT060 BKN250,32.0,17.1,,,54%,27.0,,30.71,1040.2,,,,2024-12-16,12,2024,17,KIAD
2024-12-13,13,18:52,EST,NE  5,10.0,Mostly Cloudy,FEW060 BKN180 BKN250,32.0,17.1,37.9,32.0,54%,28.0,,30.73,1041.0,,,,2024-12-16,12,2024,18,KIAD
2024-12-13,13,19:52,EST,NE  6,10.0,Mostly Cloudy,FEW060 BKN180 BKN250,32.0,18.0,,,56%,27.0,,30.74,1041.4,,,,2024-12-16,12,2024,19,KIAD
2024-12-13,13,20:52,EST,NE  3,10.0,Mostly Cloudy,FEW060 BKN250,30.9,18.0,,,59%,,,30.76,1042.0,,,,2024-12-16,12,2024,20,KIAD
2024-12-13,13,21:52,EST,NE  3,10.0,Mostly Cloudy,FEW060 BKN250,30.0,18.0,,,61%,,,30.78,1042.5,,,,2024-12-16,12,2024,21,KIAD
2024-12-13,13,22:52,EST,Calm,10.0,Mostly Cloudy,BKN250,28.0,18.0,,,66%,,,30.79,1043.0,,,,2024-12-16,12,2024,22,KIAD
2024-12-13,13,23:52,EST,NE  3,10.0,Mostly Cloudy,BKN250,27.0,19.0,,,72%,,,30.8,1043.3,,,,2024-12-16,12,2024,23,KIAD
2024-12-14,14,00:52,EST,NE  3,10.0,Mostly Cloudy,BKN250,27.0,19.9,32.0,26.1,75%,,,30.81,1043.6,,,,2024-12-17,12,2024,0,KIAD
2024-12-14,14,01:52,EST,Calm,10.0,Mostly Cloudy,BKN250,27.0,19.0,,,72%,,,30.8,1043.4,,,,2024-12-17,12,2024,1,KIAD
2024-12-14,14,02:52,EST,Calm,10.0,Partly Cloudy,SCT250,25.0,19.0,,,78%,,,30.83,1044.4,,,,2024-12-17,12,2024,2,KIAD
2024-12-14,14,03:52,EST,N  5,10.0,A Few Clouds,FEW250,28.9,17.1,,,61%,25.0,,30.83,1044.5,,,,2024-12-17,12,2024,3,KIAD
2024-12-14,14,04:52,EST,Calm,10.0,A Few Clouds,FEW250,25.0,17.1,,,72%,,,30.85,1044.9,,,,2024-12-17,12,2024,4,KIAD
2024-12-14,14,05:52,EST,NE  5,10.0,Fair,CLR,27.0,16.0,,,63%,22.0,,30.86,1045.5,,,,2024-12-17,12,2024,5,KIAD
2024-12-14,14,06:52,EST,NE  5,10.0,Fair,CLR,24.1,15.1,28.9,24.1,68%,19.0,,30.88,1046.1,,,,2024-12-17,12,2024,6,KIAD
2024-12-14,14,07:52,EST,NE  5,10.0,Fair,CLR,26.1,16.0,,,66%,21.0,,30.89,1046.4,,,,2024-12-17,12,2024,7,KIAD
2024-12-14,14,08:52,EST,NE  6,10.0,Fair,CLR,30.0,16.0,,,56%,25.0,,30.91,1047.1,,,,2024-12-17,12,2024,8,KIAD
2024-12-14,14,09:52,EST,N  3,10.0,A Few Clouds,FEW250,32.0,12.9,,,45%,,,30.93,1047.6,,,,2024-12-17,12,2024,9,KIAD
2024-12-14,14,10:52,EST,Vrbl  3,10.0,Fair,CLR,34.0,12.9,,,42%,,,30.92,1047.3,,,,2024-12-17,12,2024,10,KIAD
2024-12-14,14,11:52,EST,NE  5,10.0,Fair,CLR,37.0,12.9,,,37%,34.0,,30.88,1046.1,,,,2024-12-17,12,2024,11,KIAD
2024-12-14,14,12:52,EST,Calm,10.0,Fair,CLR,37.0,12.0,37.9,25.0,36%,,,30.86,1045.2,,,,2024-12-17,12,2024,12,KIAD
2024-12-14,14,13:52,EST,E  3,10.0,Fair,CLR,41.0,12.9,,,32%,,,30.83,1044.4,,,,2024-12-17,12,2024,13,KIAD
2024-12-14,14,14:52,EST,Calm,10.0,Mostly Cloudy,FEW028 BKN250,39.9,12.0,,,32%,,,30.82,1043.9,,,,2024-12-17,12,2024,14,KIAD
2024-12-14,14,15:52,EST,Calm,10.0,Mostly Cloudy,FEW028 BKN250,39.0,15.1,,,38%,,,30.82,1044.0,,,,2024-12-17,12,2024,15,KIAD
2024-12-14,14,16:52,EST,E  5,10.0,Mostly Cloudy,FEW030 BKN250,37.0,16.0,,,42%,34.0,,30.81,1043.8,,,,2024-12-17,12,2024,16,KIAD
2024-12-14,14,17:52,EST,E  6,10.0,Mostly Cloudy,FEW030 BKN250,34.0,19.0,,,54%,29.0,,30.82,1044.0,,,,2024-12-17,12,2024,17,KIAD
2024-12-14,14,18:52,EST,E  7,10.0,Mostly Cloudy,FEW033 BKN250,34.0,19.9,41.0,32.0,56%,29.0,,30.83,1044.3,,,,2024-12-17,12,2024,18,KIAD
2024-12-14,14,19:52,EST,E  6,10.0,Mostly Cloudy,FEW031 BKN250,32.0,21.0,,,64%,27.0,,30.84,1044.5,,,,2024-12-17,12,2024,19,KIAD
2024-12-14,14,20:52,EST,E  7,10.0,Mostly Cloudy,FEW031 BKN250,30.9,21.0,,,67%,25.0,,30.83,1044.3,,,,2024-12-17,12,2024,20,KIAD
2024-12-14,14,21:52,EST,E  7,10.0,Mostly Cloudy,BKN035 BKN250,32.0,21.0,,,64%,26.0,,30.83,1044.2,,,,2024-12-17,12,2024,21,KIAD
2024-12-14,14,22:52,EST,E  5,10.0,Overcast,OVC030,33.1,23.0,,,66%,29.0,,30.82,1044.1,,,,2024-12-17,12,2024,22,KIAD
2024-12-14,14,23:52,EST,E  7,10.0,Overcast,OVC028,33.1,24.1,,,70%,28.0,,30.81,1043.5,,,,2024-12-17,12,2024,23,KIAD
2024-12-15,15,00:52,EST,SE  5,10.0,Overcast,OVC028,33.1,24.1,34.0,30.9,70%,29.0,,30.81,1043.7,,,,2024-12-18,12,2024,0,KIAD
2024-12-15,15,01:52,EST,Calm,10.0,Overcast,OVC028,34.0,24.1,,,67%,,,30.8,1043.2,,,,2024-12-18,12,2024,1,KIAD
2024-12-15,15,02:52,EST,Calm,10.0,Overcast,OVC028,34.0,24.1,,,67%,,,30.8,1043.2,,,,2024-12-18,12,2024,2,KIAD
2024-12-15,15,03:52,EST,E  3,10.0,Overcast,OVC029,33.1,24.1,,,70%,,,30.78,1042.5,,,,2024-12-18,12,2024,3,KIAD
2024-12-15,15,04:52,EST,E  5,10.0,Overcast,OVC031,33.1,24.1,,,70%,29.0,,30.76,1042.0,,,,2024-12-18,12,2024,4,KIAD
2024-12-15,15,05:52,EST,E  6,10.0,Overcast,OVC032,33.1,24.1,,,70%,28.0,,30.76,1041.9,,,,2024-12-18,12,2024,5,KIAD
2024-12-15,15,06:52,EST,E  5,10.0,Mostly Cloudy,BKN038,32.0,23.0,34.0,32.0,69%,28.0,,30.75,1041.7,,,,2024-12-18,12,2024,6,KIAD
2024-12-15,15,07:52,EST,E  8,10.0,Overcast,FEW026 BKN034 BKN150 OVC250,32.0,24.1,,,73%,25.0,,30.72,1040.8,,,,2024-12-18,12,2024,7,KIAD
2024-12-15,15,08:52,EST,E  6,10.0,Overcast,BKN033 OVC150,34.0,25.0,,,70%,29.0,,30.74,1041.2,,,,2024-12-18,12,2024,8,KIAD
2024-12-15,15,09:52,EST,E  3,10.0,Overcast,SCT035 BKN080 BKN110 OVC140,35.1,25.0,,,67%,,,30.74,1041.3,,,,2024-12-18,12,2024,9,KIAD
2024-12-15,15,10:52,EST,NE  6,10.0,Overcast,BKN033 BKN075 OVC120,36.0,26.1,,,67%,32.0,,30.72,1040.5,,,,2024-12-18,12,2024,10,KIAD
2024-12-15,15,11:52,EST,E  3,10.0,Mostly Cloudy,BKN033 BKN100,37.0,27.0,,,67%,,,30.69,1039.6,,,,2024-12-18,12,2024,11,KIAD
2024-12-15,15,12:52,EST,Calm,10.0,Light Rain,SCT032 BKN065 OVC090,37.9,28.0,39.0,32.0,68%,,,30.65,1038.3,,,,2024-12-18,12,2024,12,KIAD
2024-12-15,15,13:52,EST,Calm,10.0,Light Rain Snow,BKN065 OVC080,37.9,30.0,,,73%,,,30.62,1037.2,0.01,,,2024-12-18,12,2024,13,KIAD
2024-12-15,15,14:52,EST,Calm,10.0,Light Rain Snow,BKN040 OVC060,37.9,30.9,,,76%,,,30.62,1037.1,,,,2024-12-18,12,2024,14,KIAD
2024-12-15,15,15:52,EST,NE  5,8.0,Light Rain Snow,FEW030 BKN040 OVC046,37.0,32.0,,,82%,34.0,,30.61,1036.9,0.04,0.05,,2024-12-18,12,2024,15,KIAD
2024-12-15,15,16:52,EST,E  5,10.0,Overcast,OVC070,37.0,33.1,,,86%,34.0,,30.58,1035.9,0.01,,,2024-12-18,12,2024,16,KIAD
2024-12-15,15,17:52,EST,E  3,10.0,Overcast,FEW050 BKN070 OVC085,37.0,34.0,,,89%,,,30.57,1035.4,0.01,,,2024-12-18,12,2024,17,KIAD
2024-12-15,15,18:52,EST,E  3,7.0,Light Rain,BKN035 OVC048,37.0,34.0,39.0,37.0,89%,,,30.56,1035.2,0.01,,0.08,2024-12-18,12,2024,18,KIAD
2024-12-15,15,19:52,EST,Calm,8.0,Light Rain,OVC026,37.0,34.0,,,89%,,,30.57,1035.3,0.02,,,2024-12-18,12,2024,19,KIAD
2024-12-15,15,20:52,EST,N  3,2.0,Light Rain Fog/Mist,SCT008 BKN012 OVC020,37.0,35.1,,,93%,,,30.55,1034.6,0.08,,,2024-12-18,12,2024,20,KIAD
2024-12-15,15,21:52,EST,Calm,2.0,Light Rain Fog/Mist,OVC006,37.0,35.1,,,93%,,,30.51,1033.5,0.06,0.16,,2024-12-18,12,2024,21,KIAD
2024-12-15,15,22:52,EST,NW  7,1.0,Light Rain Fog/Mist,OVC004,36.0,35.1,,,97%,31.0,,30.5,1032.9,0.03,,,2024-12-18,12,2024,22,KIAD
2024-12-15,15,23:52,EST,NW  8,1.0,Light Rain Fog/Mist,OVC002,35.1,34.0,,,96%,29.0,,30.48,1032.4,0.04,,,2024-12-18,12,2024,23,KIAD
2024-12-16,16,00:52,EST,NW  6,1.0,Light Rain Fog/Mist,BKN003 OVC014,35.1,34.0,37.0,35.1,96%,31.0,,30.47,1032.0,0.12,,0.35,2024-12-19,12,2024,0,KIAD
2024-12-16,16,01:52,EST,N  7,1.0,Light Rain Fog/Mist,OVC003,36.0,35.1,,,97%,31.0,,30.46,1031.6,0.09,,,2024-12-19,12,2024,1,KIAD
2024-12-16,16,02:52,EST,N  5,1.0,Light Rain Fog/Mist,BKN003 OVC022,37.0,35.1,,,93%,34.0,,30.45,1031.3,0.03,,,2024-12-19,12,2024,2,KIAD
2024-12-16,16,03:52,EST,NE  5,1.75,Light Rain Fog/Mist,OVC030,37.0,36.0,,,96%,34.0,,30.43,1030.6,0.02,0.14,,2024-12-19,12,2024,3,KIAD
2024-12-16,16,04:52,EST,NE  5,5.0,Light Rain Fog/Mist,OVC030,37.9,36.0,,,93%,35.0,,30.41,1030.0,,,,2024-12-19,12,2024,4,KIAD
2024-12-16,16,05:52,EST,N  3,9.0,Overcast,OVC005,37.9,37.0,,,97%,,,30.4,1029.7,,,,2024-12-19,12,2024,5,KIAD
2024-12-16,16,06:52,EST,NW  5,5.0,Fog/Mist,OVC004,37.0,35.1,37.9,35.1,93%,34.0,,30.4,1029.6,,,0.14,2024-12-19,12,2024,6,KIAD
2024-12-16,16,07:52,EST,NW  6,3.0,Fog/Mist,OVC004,37.0,35.1,,,93%,33.0,,30.4,1029.5,,,,2024-12-19,12,2024,7,KIAD
2024-12-16,16,08:52,EST,NW  6,1.0,Fog/Mist,OVC004,37.9,36.0,,,93%,34.0,,30.4,1029.5,,,,2024-12-19,12,2024,8,KIAD
2024-12-16,16,09:52,EST,W  5,0.5,Fog,OVC003,39.0,37.0,,,93%,36.0,,30.4,1029.8,,,,2024-12-19,12,2024,9,KIAD
2024-12-16,16,10:52,EST,NW  5,0.75,Fog/Mist,OVC002,39.9,37.9,,,93%,37.0,,30.38,1028.9,,,,2024-12-19,12,2024,10,KIAD
2024-12-16,16,11:52,EST,Calm,1.0,Fog/Mist,OVC003,41.0,39.0,,,93%,,,30.35,1027.8,,,,2024-12-19,12,2024,11,KIAD
2024-12-16,16,12:52,EST,Calm,2.0,Fog/Mist,OVC004,42.1,39.0,42.1,37.0,89%,,,30.31,1026.6,,,,2024-12-19,12,2024,12,KIAD
2024-12-16,16,13:52,EST,SW  3,6.0,Fog/Mist,OVC005,42.1,39.0,,,89%,,,30.28,1025.4,,,,2024-12-19,12,2024,13,KIAD
2024-12-16,16,14:52,EST,S  5,6.0,Fog/Mist,OVC005,42.1,39.9,,,92%,40.0,,30.28,1025.5,,,,2024-12-19,12,2024,14,KIAD
2024-12-16,16,15:52,EST,S  3,8.0,Overcast,OVC006,43.0,39.9,,,89%,,,30.26,1024.8,,,,2024-12-19,12,2024,15,KIAD
2024-12-16,16,16:52,EST,S  7,1.0,Fog/Mist,OVC004,43.0,41.0,,,93%,39.0,,30.24,1024.3,,,,2024-12-19,12,2024,16,KIAD
2024-12-16,16,17:52,EST,S  6,1.0,Fog/Mist,OVC003,43.0,42.1,,,97%,40.0,,30.24,1024.0,,,,2024-12-19,12,2024,17,KIAD
2024-12-16,16,18:52,EST,S  6,1.0,Light Rain Fog/Mist,OVC003,43.0,42.1,43.0,42.1,97%,40.0,,30.23,1024.0,,,,2024-12-19,12,2024,18,KIAD
2024-12-16,16,19:52,EST,S  7,1.0,Fog/Mist,OVC003,44.1,42.1,,,93%,41.0,,30.23,1023.8,,,,2024-12-19,12,2024,19,KIAD
2024-12-16,16,20:52,EST,S  9,1.0,Fog/Mist,OVC004,44.1,42.1,,,93%,40.0,,30.21,1023.1,,,,2024-12-19,12,2024,20,KIAD
2024-12-16,16,21:52,EST,S  13,5.0,Fog/Mist,OVC004,46.0,43.0,,,89%,41.0,,30.18,1021.9,,,,2024-12-19,12,2024,21,KIAD
2024-12-16,16,22:52,EST,S  14,10.0,Overcast,OVC005,46.9,44.1,,,90%,42.0,,30.16,1021.4,,,,2024-12-19,12,2024,22,KIAD
2024-12-16,16,23:52,EST,SW  14  G 21,10.0,Overcast,OVC006,48.0,46.0,,,93%,43.0,,30.14,1020.8,,,,2024-12-19,12,2024,23,KIAD
2024-12-17,17,00:52,EST,SW  14  G 22,10.0,Overcast,OVC006,48.9,46.9,48.9,43.0,93%,44.0,,30.13,1020.2,,,,2024-12-20,12,2024,0,KIAD
2024-12-17,17,01:52,EST,S  16  G 23,10.0,Overcast,OVC007,50.0,46.9,,,89%,45.0,,30.11,1019.8,,,,2024-12-20,12,2024,1,KIAD
2024-12-17,17,02:52,EST,SW  17  G 25,10.0,Overcast,OVC006,50.0,46.9,,,89%,45.0,,30.11,1019.7,,,,2024-12-20,12,2024,2,KIAD
2024-12-17,17,03:52,EST,SW  13  G 23,10.0,Overcast,OVC006,50.0,48.0,,,93%,46.0,,30.12,1019.9,,,,2024-12-20,12,2024,3,KIAD
2024-12-17,17,04:52,EST,SW  12,10.0,Overcast,OVC005,51.1,48.0,,,89%,,,30.12,1020.1,,,,2024-12-20,12,2024,4,KIAD
2024-12-17,17,05:52,EST,SW  8,10.0,Overcast,OVC005,51.1,48.0,,,89%,,,30.13,1020.3,,,,2024-12-20,12,2024,5,KIAD
2024-12-17,17,06:52,EST,SW  6,10.0,Overcast,OVC006,51.1,48.0,51.1,48.9,89%,,,30.15,1020.9,,,,2024-12-20,12,2024,6,KIAD
2024-12-17,17,07:52,EST,SW  12,10.0,Overcast,OVC006,51.1,48.0,,,89%,,,30.16,1021.2,,,,2024-12-20,12,2024,7,KIAD
2024-12-17,17,08:52,EST,SW  8,10.0,Overcast,OVC005,51.1,48.9,,,92%,,,30.17,1021.6,,,,2024-12-20,12,2024,8,KIAD
2024-12-17,17,09:52,EST,SW  7,10.0,Overcast,OVC006,53.1,48.9,,,86%,,,30.19,1022.2,,,,2024-12-20,12,2024,9,KIAD
2024-12-17,17,10:52,EST,SW  6,10.0,Mostly Cloudy,BKN008,55.0,50.0,,,83%,,,30.19,1022.4,,,,2024-12-20,12,2024,10,KIAD
2024-12-17,17,11:52,EST,N  7,10.0,Mostly Cloudy,SCT012 BKN060 BKN140,57.0,51.1,,,81%,,,30.18,1022.0,,,,2024-12-20,12,2024,11,KIAD
2024-12-17,17,12:52,EST,Calm,10.0,Mostly Cloudy,FEW018 SCT055 BKN140 BKN250,60.1,51.1,60.1,50.0,72%,,,30.17,1021.5,,,,2024-12-20,12,2024,12,KIAD
2024-12-17,17,13:52,EST,Calm,10.0,Mostly Cloudy,FEW020 BKN250,62.1,50.0,,,65%,,,30.15,1020.9,,,,2024-12-20,12,2024,13,KIAD
2024-12-17,17,14:52,EST,Calm,10.0,Mostly Cloudy,FEW025 BKN250,62.1,50.0,,,65%,,,30.15,1020.9,,,,2024-12-20,12,2024,14,KIAD
2024-12-17,17,15:52,EST,Calm,10.0,Mostly Cloudy,FEW100 BKN250,62.1,48.9,,,62%,,,30.17,1021.7,,,,2024-12-20,12,2024,15,KIAD
2024-12-17,17,16:52,EST,N  5,10.0,Mostly Cloudy,FEW040 FEW100 BKN250,57.9,48.0,,,70%,,,30.2,1022.5,,,,2024-12-20,12,2024,16,KIAD
2024-12-17,17,17:52,EST,NW  6,10.0,A Few Clouds,FEW100 FEW250,57.0,39.9,,,53%,,,30.23,1023.6,,,,2024-12-20,12,2024,17,KIAD
2024-12-17,17,18:52,EST,NW  6,10.0,A Few Clouds,FEW100,55.9,33.1,62.1,48.9,42%,,,30.25,1024.3,,,,2024-12-20,12,2024,18,KIAD
2024-12-17,17,19:52,EST,NE  3,10.0,Fair,CLR,46.0,34.0,,,63%,,,30.26,1024.7,,,,2024-12-20,12,2024,19,KIAD
2024-12-17,17,20:52,EST,Calm,10.0,Fair,CLR,48.0,28.9,,,48%,,,30.27,1024.9,,,,2024-12-20,12,2024,20,KIAD
2024-12-17,17,21:52,EST,NW  5,10.0,A Few Clouds,FEW100,46.0,28.0,,,50%,44.0,,30.28,1025.2,,,,2024-12-20,12,2024,21,KIAD
2024-12-17,17,22:52,EST,NE  5,10.0,Fair,CLR,42.1,30.0,,,62%,40.0,,30.28,1025.3,,,,2024-12-20,12,2024,22,KIAD
2024-12-17,17,23:52,EST,E  3,10.0,Fair,CLR,34.0,30.0,,,85%,,,30.28,1025.4,,,,2024-12-20,12,2024,23,KIAD
2024-12-18,18,00:52,EST,Calm,10.0,Fair,CLR,35.1,30.0,55.9,34.0,82%,,,30.26,1024.8,,,,2024-12-21,12,2024,0,KIAD
2024-12-18,18,01:52,EST,Calm,10.0,Fair,CLR,34.0,30.0,,,85%,,,30.26,1024.8,,,,2024-12-21,12,2024,1,KIAD
2024-12-18,18,02:52,EST,Calm,10.0,Partly Cloudy,SCT036,34.0,28.9,,,82%,,,30.28,1025.3,,,,2024-12-21,12,2024,2,KIAD
2024-12-18,18,03:52,EST,S  3,10.0,A Few Clouds,FEW037,33.1,30.0,,,89%,,,30.27,1024.9,,,,2024-12-21,12,2024,3,KIAD
2024-12-18,18,04:52,EST,S  3,10.0,Fair,CLR,33.1,28.9,,,85%,,,30.26,1024.7,,,,2024-12-21,12,2024,4,KIAD
2024-12-18,18,05:52,EST,Calm,10.0,A Few Clouds,FEW038,32.0,28.9,,,88%,,,30.25,1024.6,,,,2024-12-21,12,2024,5,KIAD
2024-12-18,18,06:52,EST,Calm,10.0,Mostly Cloudy,BKN038,32.0,28.9,36.0,30.9,88%,,,30.25,1024.5,,,,2024-12-21,12,2024,6,KIAD
2024-12-18,18,07:52,EST,Calm,10.0,A Few Clouds,FEW250,32.0,28.9,,,88%,,,30.24,1024.3,,,,2024-12-21,12,2024,7,KIAD
2024-12-18,18,08:52,EST,Calm,10.0,Partly Cloudy,SCT040 SCT250,41.0,34.0,,,76%,,,30.26,1024.7,,,,2024-12-21,12,2024,8,KIAD
2024-12-18,18,09:52,EST,NW  5,10.0,Partly Cloudy,SCT055 SCT250,48.0,36.0,,,63%,47.0,,30.25,1024.5,,,,2024-12-21,12,2024,9,KIAD
2024-12-18,18,10:52,EST,SW  5,10.0,Mostly Cloudy,BKN048 BKN250,51.1,35.1,,,54%,,,30.2,1022.8,,,,2024-12-21,12,2024,10,KIAD
2024-12-18,18,11:52,EST,S  6,10.0,Overcast,BKN038 OVC055,50.0,34.0,,,54%,48.0,,30.14,1020.7,,,,2024-12-21,12,2024,11,KIAD
2024-12-18,18,12:52,EST,S  7,10.0,Overcast,OVC035,51.1,34.0,52.0,30.9,52%,,,30.08,1018.8,,,,2024-12-21,12,2024,12,KIAD
2024-12-18,18,13:52,EST,S  5,10.0,Overcast,OVC035,52.0,35.1,,,53%,,,30.05,1017.7,,,,2024-12-21,12,2024,13,KIAD
2024-12-18,18,14:52,EST,S  7,10.0,Overcast,BKN035 OVC046,53.1,37.0,,,55%,,,30.01,1016.2,,,,2024-12-21,12,2024,14,KIAD
2024-12-18,18,15:52,EST,SW  5,10.0,Overcast,BKN033 OVC090,53.1,39.0,,,59%,,,30.0,1016.1,,,,2024-12-21,12,2024,15,KIAD
2024-12-18,18,16:52,EST,Calm,10.0,Overcast,BKN025 OVC060,50.0,41.0,,,71%,,,30.01,1016.2,,,,2024-12-21,12,2024,16,KIAD
2024-12-18,18,17:52,EST,S  6,10.0,Overcast,OVC070,50.0,41.0,,,71%,48.0,,29.98,1015.2,,,,2024-12-21,12,2024,17,KIAD
2024-12-18,18,18:52,EST,Calm,10.0,Light Rain,OVC075,48.9,43.0,53.1,48.9,80%,,,29.98,1015.2,,,,2024-12-21,12,2024,18,KIAD
2024-12-18,18,19:52,EST,S  5,8.0,Light Rain,OVC070,48.0,45.0,,,89%,47.0,,29.98,1015.4,0.05,,,2024-12-21,12,2024,19,KIAD
2024-12-18,18,20:52,EST,N  7  G 18,7.0,Rain,SCT042 OVC070,46.9,42.1,,,83%,44.0,,30.04,1017.3,0.09,,,2024-12-21,12,2024,20,KIAD
2024-12-18,18,21:52,EST,NW  12,10.0,Light Rain,OVC040,45.0,41.0,,,86%,40.0,,30.09,1018.9,0.03,0.17,,2024-12-21,12,2024,21,KIAD
2024-12-18,18,22:52,EST,NW  9,10.0,Light Rain,FEW015 SCT055 OVC075,45.0,39.9,,,83%,41.0,,30.1,1019.3,0.02,,,2024-12-21,12,2024,22,KIAD
2024-12-18,18,23:52,EST,NW  15,10.0,Mostly Cloudy,BKN090,45.0,37.0,,,74%,39.0,,30.11,1019.5,,,,2024-12-21,12,2024,23,KIAD
2024-12-19,19,00:52,EST,NW  16  G 25,10.0,Overcast,SCT060 BKN100 OVC170,44.1,36.0,48.9,44.1,73%,37.0,,30.11,1019.7,,,0.19,2024-12-22,12,2024,0,KIAD
2024-12-19,19,01:52,EST,NW  13  G 23,10.0,Overcast,SCT100 OVC200,44.1,34.0,,,68%,38.0,,30.15,1021.0,,,,2024-12-22,12,2024,1,KIAD
2024-12-19,19,02:52,EST,N  15  G 24,10.0,Overcast,OVC033,43.0,34.0,,,71%,36.0,,30.2,1022.6,,,,2024-12-22,12,2024,2,KIAD
2024-12-19,19,03:52,EST,N  14,10.0,Overcast,OVC041,42.1,32.0,,,68%,35.0,,30.22,1023.2,,,,2024-12-22,12,2024,3,KIAD
2024-12-19,19,04:52,EST,N  9,10.0,Mostly Cloudy,BKN040,41.0,30.0,,,65%,36.0,,30.23,1023.7,,,,2024-12-22,12,2024,4,KIAD
2024-12-19,19,05:52,EST,NW  10,10.0,Mostly Cloudy,BKN041,41.0,30.0,,,65%,35.0,,30.25,1024.4,,,,2024-12-22,12,2024,5,KIAD
2024-12-19,19,06:52,EST,NW  8,10.0,Mostly Cloudy,BKN040,39.9,30.0,44.1,39.9,68%,35.0,,30.27,1025.1,,,,2024-12-22,12,2024,6,KIAD
2024-12-19,19,07:52,EST,NW  3,10.0,Partly Cloudy,SCT040,39.9,30.0,,,68%,,,30.29,1025.7,,,,2024-12-22,12,2024,7,KIAD
2024-12-19,19,08:52,EST,N  7,10.0,Mostly Cloudy,BKN040,41.0,30.0,,,65%,37.0,,30.3,1026.3,,,,2024-12-22,12,2024,8,KIAD
2024-12-19,19,09:52,EST,W  7,10.0,Mostly Cloudy,BKN040,42.1,30.0,,,62%,38.0,,30.32,1026.8,,,,2024-12-22,12,2024,9,KIAD
2024-12-19,19,10:52,EST,NW  8,10.0,Mostly Cloudy,BKN034,42.1,28.9,,,60%,38.0,,30.33,1027.2,,,,2024-12-22,12,2024,10,KIAD
2024-12-19,19,11:52,EST,NW  8,10.0,Overcast,OVC036,43.0,28.9,,,58%,39.0,,30.31,1026.4,,,,2024-12-22,12,2024,11,KIAD
2024-12-19,19,12:52,EST,NW  8,10.0,Overcast,OVC040,44.1,28.9,45.0,39.9,55%,40.0,,30.28,1025.4,,,,2024-12-22,12,2024,12,KIAD
2024-12-19,19,13:52,EST,NW  8,10.0,Mostly Cloudy,BKN040,46.0,28.0,,,50%,42.0,,30.26,1024.9,,,,2024-12-22,12,2024,13,KIAD
2024-12-19,19,14:52,EST,NW  5,10.0,Mostly Cloudy,BKN040 BKN250,45.0,28.0,,,52%,43.0,,30.25,1024.6,,,,2024-12-22,12,2024,14,KIAD
2024-12-19,19,15:52,EST,NW  6,10.0,Overcast,BKN042 OVC200,44.1,27.0,,,51%,41.0,,30.26,1024.9,,,,2024-12-22,12,2024,15,KIAD
2024-12-19,19,16:52,EST,NW  10,10.0,Mostly Cloudy,SCT044 BKN100 BKN200,42.1,27.0,,,55%,37.0,,30.29,1025.8,,,,2024-12-22,12,2024,16,KIAD
2024-12-19,19,17:52,EST,NW  6,10.0,Mostly Cloudy,SCT044 BKN200,41.0,27.0,,,57%,38.0,,30.28,1025.5,,,,2024-12-22,12,2024,17,KIAD
2024-12-19,19,18:52,EST,Vrbl  3,10.0,Mostly Cloudy,FEW046 BKN200,41.0,27.0,46.0,39.9,57%,,,30.28,1025.6,,,,2024-12-22,12,2024,18,KIAD
2024-12-19,19,19:52,EST,N  3,10.0,Overcast,OVC043,39.9,27.0,,,60%,,,30.29,1026.1,,,,2024-12-22,12,2024,19,KIAD
2024-12-19,19,20:52,EST,E  3,10.0,A Few Clouds,FEW200,37.0,26.1,,,65%,,,30.27,1025.2,,,,2024-12-22,12,2024,20,KIAD
2024-12-19,19,21:52,EST,E  5,10.0,A Few Clouds,FEW200,35.1,27.0,,,72%,32.0,,30.24,1024.1,,,,2024-12-22,12,2024,21,KIAD
2024-12-19,19,22:52,EST,E  5,10.0,A Few Clouds,FEW065 FEW200,36.0,27.0,,,70%,33.0,,30.23,1023.9,,,,2024-12-22,12,2024,22,KIAD
2024-12-19,19,23:52,EST,E  5,10.0,Mostly Cloudy,BKN046,35.1,27.0,,,72%,32.0,,30.2,1023.0,,,,2024-12-22,12,2024,23,KIAD
2024-12-20,20,00:52,EST,E  6,10.0,Overcast,BKN045 OVC060,37.0,28.0,41.0,34.0,70%,33.0,,30.18,1022.0,,,,2024-12-23,12,2024,0,KIAD
2024-12-20,20,01:52,EST,E  8,10.0,Overcast,OVC055,37.0,28.0,,,70%,32.0,,30.16,1021.4,,,,2024-12-23,12,2024,1,KIAD
2024-12-20,20,02:52,EST,E  7,10.0,Overcast,OVC065,37.0,28.0,,,70%,32.0,,30.15,1021.0,,,,2024-12-23,12,2024,2,KIAD
2024-12-20,20,03:52,EST,E  5,10.0,Overcast,OVC065,37.0,27.0,,,67%,34.0,,30.13,1020.2,,,,2024-12-23,12,2024,3,KIAD
2024-12-20,20,04:52,EST,E  5,10.0,Overcast,OVC065,37.0,27.0,,,67%,34.0,,30.09,1019.2,,,,2024-12-23,12,2024,4,KIAD
2024-12-20,20,05:52,EST,Calm,10.0,Overcast,OVC070,37.0,27.0,,,67%,,,30.08,1018.9,,,,2024-12-23,12,2024,5,KIAD
2024-12-20,20,06:52,EST,NE  3,10.0,Overcast,BKN044 OVC065,37.0,28.0,37.9,37.0,70%,,,30.08,1018.7,,,,2024-12-23,12,2024,6,KIAD
2024-12-20,20,07:52,EST,NE  6,10.0,Light Drizzle,SCT044 OVC060,37.0,28.0,,,70%,33.0,,30.07,1018.3,,,,2024-12-23,12,2024,7,KIAD
2024-12-20,20,08:52,EST,NE  6,10.0,Overcast,BKN045 OVC080,37.0,28.9,,,73%,33.0,,30.04,1017.3,,,,2024-12-23,12,2024,8,KIAD
2024-12-20,20,09:52,EST,NE  6,10.0,Overcast,FEW023 OVC040,37.0,28.9,,,73%,33.0,,30.03,1017.2,,,,2024-12-23,12,2024,9,KIAD
2024-12-20,20,10:52,EST,N  3,3.0,Light Snow,BKN019 BKN030 OVC045,37.0,30.0,,,76%,,,30.01,1016.4,,,,2024-12-23,12,2024,10,KIAD
2024-12-20,20,11:52,EST,N  6,10.0,Overcast,BKN028 OVC040,37.0,30.9,,,79%,33.0,,29.96,1014.8,,,,2024-12-23,12,2024,11,KIAD
2024-12-23,23,08:52,EST,SE  5,10.0,Fair,CLR,21.0,10.9,,,65%,15.0,,30.63,1037.8,,,,2024-12-23,12,2024,8,KIAD
2024-12-20,20,12:52,EST,NE  7,10.0,Overcast,FEW028 BKN042 OVC090,37.9,32.0,37.9,36.0,79%,33.0,,29.93,1013.6,,,,2024-12-23,12,2024,12,KIAD
2024-12-20,20,13:52,EST,NE  6,10.0,Overcast,BKN044 OVC090,39.0,33.1,,,79%,35.0,,29.91,1012.9,,,,2024-12-23,12,2024,13,KIAD
2024-12-20,20,14:52,EST,N  6,10.0,Overcast,BKN042 BKN060 OVC100,39.0,33.1,,,79%,35.0,,29.9,1012.8,,,,2024-12-23,12,2024,14,KIAD
2024-12-20,20,15:52,EST,N  7,10.0,Mostly Cloudy,BKN049 BKN065 BKN110,39.0,33.1,,,79%,35.0,,29.91,1012.9,,,,2024-12-23,12,2024,15,KIAD
2024-12-20,20,16:52,EST,N  7,10.0,Mostly Cloudy,BKN055 BKN090 BKN250,39.0,32.0,,,76%,35.0,,29.91,1013.1,,,,2024-12-23,12,2024,16,KIAD
2024-12-20,20,17:52,EST,NW  6,10.0,Overcast,SCT040 BKN095 OVC120,37.9,32.0,,,79%,34.0,,29.94,1014.0,,,,2024-12-23,12,2024,17,KIAD
2024-12-20,20,18:52,EST,NW  9,10.0,Overcast,SCT080 OVC100,37.9,32.0,39.9,37.9,79%,32.0,,29.96,1014.6,,,,2024-12-23,12,2024,18,KIAD
2024-12-20,20,19:52,EST,N  7,10.0,Overcast,FEW065 SCT090 OVC110,37.9,30.9,,,76%,33.0,,29.96,1014.8,,,,2024-12-23,12,2024,19,KIAD
2024-12-20,20,20:52,EST,NW  8,10.0,Partly Cloudy,SCT070 SCT090,36.0,30.0,,,79%,30.0,,29.97,1015.0,,,,2024-12-23,12,2024,20,KIAD
2024-12-20,20,21:52,EST,NW  6,10.0,Mostly Cloudy,BKN050,35.1,30.9,,,85%,31.0,,29.98,1015.3,,,,2024-12-23,12,2024,21,KIAD
2024-12-20,20,22:52,EST,NW  6,10.0,Partly Cloudy,SCT045,36.0,30.0,,,79%,32.0,,29.97,1015.1,,,,2024-12-23,12,2024,22,KIAD
2024-12-20,20,23:52,EST,NW  8,10.0,Mostly Cloudy,SCT041 BKN130,35.1,30.0,,,82%,29.0,,29.96,1014.6,,,,2024-12-23,12,2024,23,KIAD
2024-12-21,21,00:52,EST,NW  8,10.0,Mostly Cloudy,FEW040 BKN130,35.1,28.9,37.9,34.0,78%,29.0,,29.95,1014.5,,,,2024-12-24,12,2024,0,KIAD
2024-12-21,21,01:52,EST,NW  5,10.0,Partly Cloudy,SCT045 SCT100,34.0,27.0,,,76%,30.0,,29.97,1015.0,,,,2024-12-24,12,2024,1,KIAD
2024-12-21,21,02:52,EST,NW  8,10.0,Mostly Cloudy,FEW045 BKN120,34.0,26.1,,,73%,28.0,,29.99,1015.6,,,,2024-12-24,12,2024,2,KIAD
2024-12-21,21,03:52,EST,NW  22  G 31,10.0,Mostly Cloudy and Breezy,BKN095 BKN120,37.0,23.0,,,57%,27.0,,30.01,1016.5,,,,2024-12-24,12,2024,3,KIAD
2024-12-21,21,04:52,EST,NW  16  G 23,10.0,Overcast,OVC095,37.0,21.9,,,54%,28.0,,30.05,1017.6,,,,2024-12-24,12,2024,4,KIAD
2024-12-21,21,05:52,EST,NW  13  G 22,10.0,Mostly Cloudy,BKN047 BKN100,36.0,21.9,,,57%,28.0,,30.08,1018.8,,,,2024-12-24,12,2024,5,KIAD
2024-12-21,21,06:52,EST,NW  10,10.0,Partly Cloudy,FEW045 SCT100,35.1,21.0,37.0,30.0,57%,28.0,,30.11,1019.8,,,,2024-12-24,12,2024,6,KIAD
2024-12-21,21,07:52,EST,NW  14,10.0,Mostly Cloudy,BKN055,34.0,19.0,,,54%,25.0,,30.14,1020.9,,,,2024-12-24,12,2024,7,KIAD
2024-12-21,21,08:52,EST,NW  17  G 26,10.0,Partly Cloudy,SCT050,36.0,16.0,,,44%,27.0,,30.18,1022.1,,,,2024-12-24,12,2024,8,KIAD
2024-12-21,21,09:52,EST,NW  17  G 32,10.0,Partly Cloudy,SCT055,36.0,14.0,,,40%,27.0,,30.21,1023.1,,,,2024-12-24,12,2024,9,KIAD
2024-12-21,21,10:52,EST,NW  23  G 39,10.0,Mostly Cloudy and Breezy,BKN050,35.1,14.0,,,42%,24.0,,30.22,1023.5,,,,2024-12-24,12,2024,10,KIAD
2024-12-21,21,11:52,EST,N  20  G 33,10.0,Mostly Cloudy,BKN060,35.1,10.9,,,37%,25.0,,30.21,1023.1,,,,2024-12-24,12,2024,11,KIAD
2024-12-21,21,12:52,EST,NW  16  G 24,10.0,Mostly Cloudy,BKN055,35.1,14.0,36.0,34.0,42%,26.0,,30.2,1022.9,,,,2024-12-24,12,2024,12,KIAD
2024-12-21,21,13:52,EST,NW  14,10.0,Mostly Cloudy,BKN055,37.0,16.0,,,42%,29.0,,30.2,1022.8,,,,2024-12-24,12,2024,13,KIAD
2024-12-21,21,14:52,EST,NW  18  G 28,10.0,Mostly Cloudy,BKN055,35.1,12.9,,,40%,25.0,,30.22,1023.5,,,,2024-12-24,12,2024,14,KIAD
2024-12-21,21,15:52,EST,NW  16,10.0,Mostly Cloudy,BKN060,35.1,14.0,,,42%,26.0,,30.22,1023.6,,,,2024-12-24,12,2024,15,KIAD
2024-12-21,21,16:52,EST,NW  10,10.0,Partly Cloudy,SCT055,32.0,15.1,,,50%,24.0,,30.23,1023.9,,,,2024-12-24,12,2024,16,KIAD
2024-12-21,21,17:52,EST,NW  9,10.0,Partly Cloudy,SCT050,30.9,15.1,,,52%,24.0,,30.24,1024.3,,,,2024-12-24,12,2024,17,KIAD
2024-12-21,21,18:52,EST,NW  9,10.0,Partly Cloudy,FEW050 SCT250,30.9,15.1,37.9,30.9,52%,24.0,,30.27,1025.2,,,,2024-12-24,12,2024,18,KIAD
2024-12-21,21,19:52,EST,NW  9,10.0,Mostly Cloudy,SCT050 BKN250,30.0,15.1,,,54%,22.0,,30.29,1025.9,,,,2024-12-24,12,2024,19,KIAD
2024-12-21,21,20:52,EST,NW  13  G 22,10.0,Mostly Cloudy,BKN055 BKN250,30.0,12.0,,,47%,21.0,,30.31,1026.8,,,,2024-12-24,12,2024,20,KIAD
2024-12-21,21,21:52,EST,N  15  G 23,10.0,Mostly Cloudy,BKN050 BKN250,30.0,9.0,,,41%,20.0,,30.33,1027.4,,,,2024-12-24,12,2024,21,KIAD
2024-12-21,21,22:52,EST,N  10,10.0,Mostly Cloudy,BKN050 BKN220,28.9,8.1,,,41%,20.0,,30.35,1028.2,,,,2024-12-24,12,2024,22,KIAD
2024-12-21,21,23:52,EST,N  10,10.0,Overcast,OVC050,28.0,9.0,,,44%,19.0,,30.35,1028.1,,,,2024-12-24,12,2024,23,KIAD
2024-12-22,22,00:52,EST,NW  7,10.0,Overcast,OVC049,28.0,10.0,30.9,28.0,47%,22.0,,30.36,1028.3,,,,2024-12-25,12,2024,0,KIAD
2024-12-22,22,01:52,EST,NW  8,10.0,Overcast,BKN047 OVC200,28.0,12.9,,,53%,21.0,,30.36,1028.3,,,,2024-12-25,12,2024,1,KIAD
2024-12-22,22,02:52,EST,NW  10,10.0,Overcast,OVC046,28.0,12.0,,,51%,19.0,,30.37,1028.8,,,,2024-12-25,12,2024,2,KIAD
2024-12-22,22,03:52,EST,NW  8,10.0,Mostly Cloudy,BKN047,27.0,10.9,,,51%,19.0,,30.38,1029.0,,,,2024-12-25,12,2024,3,KIAD
2024-12-22,22,04:52,EST,NW  9,10.0,Overcast,OVC046,27.0,10.0,,,49%,19.0,,30.39,1029.4,,,,2024-12-25,12,2024,4,KIAD
2024-12-22,22,05:52,EST,NW  8,10.0,Mostly Cloudy,BKN042,25.0,10.9,,,55%,17.0,,30.41,1030.0,,,,2024-12-25,12,2024,5,KIAD
2024-12-22,22,06:52,EST,NW  6,10.0,Mostly Cloudy,BKN040 BKN060,25.0,10.9,28.0,25.0,55%,19.0,,30.44,1031.0,,,,2024-12-25,12,2024,6,KIAD
2024-12-22,22,07:52,EST,NW  5,10.0,Mostly Cloudy,FEW035 BKN041,25.0,14.0,,,63%,20.0,,30.45,1031.6,,,,2024-12-25,12,2024,7,KIAD
2024-12-22,22,08:52,EST,NW  6,10.0,Mostly Cloudy,BKN038,27.0,15.1,,,61%,21.0,,30.48,1032.5,,,,2024-12-25,12,2024,8,KIAD
2024-12-22,22,09:52,EST,NW  13,10.0,Mostly Cloudy,BKN037,28.0,12.9,,,53%,18.0,,30.5,1033.1,,,,2024-12-25,12,2024,9,KIAD
2024-12-22,22,10:52,EST,NW  7,10.0,Mostly Cloudy,BKN035,28.9,12.9,,,51%,23.0,,30.51,1033.5,,,,2024-12-25,12,2024,10,KIAD
2024-12-22,22,11:52,EST,NW  6,10.0,Partly Cloudy,SCT039,30.9,12.0,,,45%,26.0,,30.48,1032.4,,,,2024-12-25,12,2024,11,KIAD
2024-12-22,22,12:52,EST,Vrbl  5,10.0,A Few Clouds,FEW044,33.1,12.9,33.1,25.0,43%,29.0,,30.46,1031.7,,,,2024-12-25,12,2024,12,KIAD
2024-12-22,22,13:52,EST,Vrbl  6,10.0,A Few Clouds,FEW046,33.1,12.0,,,42%,28.0,,30.46,1031.8,,,,2024-12-25,12,2024,13,KIAD
2024-12-22,22,14:52,EST,NW  7,10.0,A Few Clouds,FEW046,33.1,10.0,,,38%,28.0,,30.46,1031.6,,,,2024-12-25,12,2024,14,KIAD
2024-12-22,22,15:52,EST,NW  6,10.0,A Few Clouds,FEW250,32.0,10.9,,,41%,27.0,,30.48,1032.4,,,,2024-12-25,12,2024,15,KIAD
2024-12-22,22,16:52,EST,NW  6,10.0,A Few Clouds,FEW250,28.9,10.0,,,45%,23.0,,30.49,1032.9,,,,2024-12-25,12,2024,16,KIAD
2024-12-22,22,17:52,EST,N  7,10.0,A Few Clouds,FEW250,30.0,10.0,,,43%,24.0,,30.51,1033.4,,,,2024-12-25,12,2024,17,KIAD
2024-12-22,22,18:52,EST,NE  6,10.0,A Few Clouds,FEW250,26.1,10.9,34.0,26.1,53%,20.0,,30.52,1034.1,,,,2024-12-25,12,2024,18,KIAD
2024-12-22,22,19:52,EST,NE  7,10.0,Fair,CLR,25.0,10.0,,,53%,18.0,,30.54,1034.6,,,,2024-12-25,12,2024,19,KIAD
2024-12-22,22,20:52,EST,NE  7,10.0,Fair,CLR,24.1,8.1,,,50%,17.0,,30.56,1035.2,,,,2024-12-25,12,2024,20,KIAD
2024-12-22,22,21:52,EST,E  6,10.0,Fair,CLR,24.1,9.0,,,52%,18.0,,30.57,1035.5,,,,2024-12-25,12,2024,21,KIAD
2024-12-22,22,22:52,EST,Calm,10.0,Fair,CLR,19.9,9.0,,,62%,,,30.59,1036.1,,,,2024-12-25,12,2024,22,KIAD
2024-12-22,22,23:52,EST,Calm,10.0,Fair,CLR,19.0,9.0,,,65%,,,30.58,1035.9,,,,2024-12-25,12,2024,23,KIAD
2024-12-23,23,00:52,EST,Calm,10.0,Fair,CLR,18.0,10.0,26.1,18.0,71%,,,30.57,1035.7,,,,2024-12-26,12,2024,0,KIAD
2024-12-23,23,01:52,EST,E  3,10.0,Fair,CLR,18.0,10.0,,,71%,,,30.58,1035.9,,,,2024-12-26,12,2024,1,KIAD
2024-12-23,23,02:52,EST,Calm,10.0,Fair,CLR,18.0,10.0,,,71%,,,30.59,1036.4,,,,2024-12-26,12,2024,2,KIAD
2024-12-23,23,03:52,EST,Calm,10.0,Fair,CLR,17.1,10.0,,,74%,,,30.6,1036.7,,,,2024-12-26,12,2024,3,KIAD
2024-12-23,23,04:52,EST,Calm,10.0,Fair,CLR,17.1,9.0,,,70%,,,30.59,1036.2,,,,2024-12-26,12,2024,4,KIAD
2024-12-23,23,05:52,EST,Calm,10.0,Fair,CLR,14.0,9.0,,,80%,,,30.61,1036.8,,,,2024-12-26,12,2024,5,KIAD
2024-12-23,23,06:52,EST,Calm,10.0,A Few Clouds,FEW250,15.1,9.0,19.9,14.0,77%,,,30.61,1037.0,,,,2024-12-26,12,2024,6,KIAD
2024-12-23,23,07:52,EST,NW  6,9.0,A Few Clouds,FEW250,17.1,10.0,,,74%,10.0,,30.63,1037.7,,,,2024-12-26,12,2024,7,KIAD
2024-12-23,23,09:52,EST,S  7,10.0,Fair,CLR,25.0,12.9,,,60%,18.0,,30.65,1038.2,,,,2024-12-26,12,2024,9,KIAD
2024-12-23,23,10:52,EST,Vrbl  7,10.0,A Few Clouds,FEW250,28.0,14.0,,,56%,22.0,,30.62,1037.5,,,,2024-12-26,12,2024,10,KIAD
2024-12-23,23,11:52,EST,Vrbl  6,10.0,Mostly Cloudy,BKN250,30.0,14.0,,,51%,25.0,,30.59,1036.3,,,,2024-12-26,12,2024,11,KIAD
2024-12-23,23,12:52,EST,SE  10,10.0,Mostly Cloudy,BKN250,32.0,15.1,32.0,15.1,50%,24.0,,30.55,1035.1,,,,2024-12-26,12,2024,12,KIAD
2024-12-23,23,13:52,EST,SE  6,10.0,Mostly Cloudy,FEW200 BKN250,33.1,14.0,,,45%,28.0,,30.52,1033.9,,,,2024-12-26,12,2024,13,KIAD
2024-12-23,23,14:52,EST,Vrbl  7,10.0,Mostly Cloudy,SCT150 BKN250,34.0,16.0,,,48%,29.0,,30.53,1034.1,,,,2024-12-26,12,2024,14,KIAD
2024-12-23,23,15:52,EST,SE  9,10.0,Overcast,BKN150 OVC250,33.1,15.1,,,48%,26.0,,30.51,1033.5,,,,2024-12-26,12,2024,15,KIAD
2024-12-23,23,16:52,EST,S  8,10.0,Overcast,BKN150 OVC250,32.0,15.1,,,50%,25.0,,30.5,1033.3,,,,2024-12-26,12,2024,16,KIAD
2024-12-23,23,17:52,EST,SE  8,10.0,Partly Cloudy,FEW140 SCT250,30.9,16.0,,,54%,24.0,,30.49,1033.0,,,,2024-12-26,12,2024,17,KIAD
2024-12-23,23,18:52,EST,S  3,10.0,A Few Clouds,FEW140,30.0,16.0,35.1,28.9,56%,,,30.5,1033.2,,,,2024-12-26,12,2024,18,KIAD
2024-12-23,23,19:52,EST,SE  6,10.0,Fair,CLR,28.9,17.1,,,61%,23.0,,30.48,1032.6,,,,2024-12-26,12,2024,19,KIAD
2024-12-23,23,20:52,EST,S  6,10.0,Fair,CLR,28.0,18.0,,,66%,22.0,,30.47,1032.1,,,,2024-12-26,12,2024,20,KIAD
2024-12-23,23,21:52,EST,S  8,10.0,Fair,CLR,28.9,18.0,,,63%,22.0,,30.45,1031.6,,,,2024-12-26,12,2024,21,KIAD
2024-12-23,23,22:52,EST,S  6,10.0,Fair,CLR,28.9,17.1,,,61%,23.0,,30.42,1030.5,,,,2024-12-26,12,2024,22,KIAD
2024-12-23,23,23:52,EST,S  8,10.0,Fair,CLR,28.9,16.0,,,58%,22.0,,30.38,1029.2,,,,2024-12-26,12,2024,23,KIAD
2024-12-24,24,00:52,EST,S  7,10.0,Fair,CLR,28.9,16.0,28.9,28.0,58%,23.0,,30.35,1028.2,,,,2024-12-27,12,2024,0,KIAD
2024-12-24,24,01:52,EST,Vrbl  5,10.0,Fair,CLR,27.0,16.0,,,63%,22.0,,30.34,1027.5,,,,2024-12-27,12,2024,1,KIAD
2024-12-24,24,02:52,EST,S  3,10.0,Partly Cloudy,SCT250,26.1,16.0,,,66%,,,30.34,1027.7,,,,2024-12-27,12,2024,2,KIAD
2024-12-24,24,03:52,EST,S  3,10.0,Mostly Cloudy,BKN065,28.0,16.0,,,60%,,,30.32,1027.0,,,,2024-12-27,12,2024,3,KIAD
2024-12-24,24,04:52,EST,Calm,10.0,Partly Cloudy,SCT065,27.0,16.0,,,63%,,,30.31,1026.6,,,,2024-12-27,12,2024,4,KIAD
2024-12-24,24,05:52,EST,Calm,10.0,Overcast,BKN090 OVC120,27.0,19.0,,,72%,,,30.31,1026.6,,,,2024-12-27,12,2024,5,KIAD
2024-12-24,24,06:52,EST,Calm,10.0,Overcast,FEW050 BKN090 OVC120,28.9,19.9,28.9,25.0,69%,,,30.32,1027.0,,,,2024-12-27,12,2024,6,KIAD
2024-12-24,24,07:52,EST,Calm,10.0,Mostly Cloudy,SCT060 BKN080 BKN120,28.9,21.0,,,72%,,,30.31,1026.6,0.02,,,2024-12-27,12,2024,7,KIAD
2024-12-24,24,08:52,EST,Calm,10.0,Mostly Cloudy,BKN080 BKN120,30.9,21.0,,,67%,,,30.32,1026.9,,,,2024-12-27,12,2024,8,KIAD
2024-12-24,24,09:52,EST,Calm,10.0,Mostly Cloudy,SCT065 BKN080 BKN110,30.9,19.9,,,64%,,,30.33,1027.3,,0.02,,2024-12-27,12,2024,9,KIAD
2024-12-24,24,10:52,EST,Calm,10.0,Mostly Cloudy,FEW060 BKN080,33.1,21.9,,,64%,,,30.32,1027.2,0.01,,,2024-12-27,12,2024,10,KIAD
2024-12-24,24,11:52,EST,Calm,10.0,Mostly Cloudy,BKN070 BKN095,34.0,24.1,,,67%,,,30.3,1026.4,,,,2024-12-27,12,2024,11,KIAD
2024-12-24,24,12:52,EST,S  5,10.0,Mostly Cloudy,BKN046 BKN100 BKN150 BKN200,36.0,25.0,36.0,28.9,64%,33.0,,30.29,1025.8,,,0.03,2024-12-27,12,2024,12,KIAD
2024-12-24,24,13:52,EST,S  5,10.0,Overcast,SCT047 BKN100 OVC200,39.0,26.1,,,60%,36.0,,30.27,1025.2,,,,2024-12-27,12,2024,13,KIAD
2024-12-24,24,14:52,EST,S  3,10.0,Overcast,BKN050 BKN100 OVC200,41.0,27.0,,,57%,,,30.26,1024.8,,,,2024-12-27,12,2024,14,KIAD
2024-12-24,24,15:52,EST,Calm,10.0,Overcast,OVC050,41.0,28.0,,,60%,,,30.27,1025.1,,,,2024-12-27,12,2024,15,KIAD
2024-12-24,24,16:52,EST,Calm,10.0,Overcast,OVC049,39.0,28.9,,,67%,,,30.27,1025.5,,,,2024-12-27,12,2024,16,KIAD
2024-12-24,24,17:52,EST,Calm,10.0,Overcast,OVC047,37.9,28.9,,,70%,,,30.28,1025.7,,,,2024-12-27,12,2024,17,KIAD
2024-12-24,24,18:52,EST,Calm,10.0,Overcast,OVC045,39.0,28.9,42.1,36.0,67%,,,30.29,1026.0,,,,2024-12-27,12,2024,18,KIAD
2024-12-24,24,19:52,EST,Calm,10.0,Overcast,OVC045,37.9,30.0,,,73%,,,30.31,1026.4,,,,2024-12-27,12,2024,19,KIAD
2024-12-24,24,21:52,EST,Calm,10.0,Overcast,OVC044,37.0,30.0,,,76%,,,30.31,1026.7,,,,2024-12-27,12,2024,21,KIAD
2024-12-24,24,22:52,EST,Calm,10.0,Overcast,OVC047,37.0,30.0,,,76%,,,30.32,1026.8,,,,2024-12-27,12,2024,22,KIAD
2024-12-24,24,23:52,EST,NE  3,10.0,Overcast,OVC049,37.9,30.9,,,76%,,,30.32,1026.9,,,,2024-12-28,12,2024,23,KIAD
2024-12-25,25,00:52,EST,E  3,10.0,Overcast,OVC050,37.0,30.9,39.0,36.0,79%,,,30.31,1026.8,,,,2024-12-28,12,2024,0,KIAD
2024-12-25,25,01:52,EST,Calm,10.0,Overcast,SCT028 BKN037 OVC050,37.0,30.9,,,79%,,,30.32,1027.0,,,,2024-12-28,12,2024,1,KIAD
2024-12-25,25,02:52,EST,Calm,10.0,Overcast,SCT033 OVC050,37.0,32.0,,,82%,,,30.33,1027.4,,,,2024-12-28,12,2024,2,KIAD
2024-12-25,25,03:52,EST,Vrbl  3,10.0,Overcast,BKN037 OVC048,36.0,32.0,,,86%,,,30.33,1027.3,,,,2024-12-28,12,2024,3,KIAD
2024-12-25,25,04:52,EST,E  5,10.0,Overcast,OVC048,37.9,30.9,,,76%,35.0,,30.33,1027.3,,,,2024-12-28,12,2024,4,KIAD
2024-12-25,25,05:52,EST,Calm,10.0,Overcast,OVC048,37.0,30.9,,,79%,,,30.34,1027.6,,,,2024-12-28,12,2024,5,KIAD
2024-12-25,25,06:52,EST,Calm,10.0,Overcast,OVC046,35.1,30.9,39.0,35.1,85%,,,30.36,1028.2,,,,2024-12-28,12,2024,6,KIAD
2024-12-25,25,07:52,EST,Calm,8.0,Overcast,OVC044,35.1,30.9,,,85%,,,30.37,1028.6,,,,2024-12-28,12,2024,7,KIAD
2024-12-25,25,08:52,EST,Calm,8.0,Overcast,OVC044,39.0,32.0,,,76%,,,30.39,1029.4,,,,2024-12-28,12,2024,8,KIAD
2024-12-25,25,09:52,EST,Calm,10.0,Overcast,OVC044,39.9,30.0,,,68%,,,30.4,1029.7,,,,2024-12-28,12,2024,9,KIAD
2024-12-25,25,10:52,EST,Calm,10.0,Overcast,OVC044,41.0,30.0,,,65%,,,30.41,1029.8,,,,2024-12-28,12,2024,10,KIAD
2024-12-25,25,11:52,EST,NW  3,10.0,Overcast,OVC045,43.0,28.9,,,58%,,,30.38,1028.8,,,,2024-12-28,12,2024,11,KIAD
2024-12-25,25,12:52,EST,Calm,10.0,Overcast,OVC043,44.1,28.9,45.0,35.1,55%,,,30.36,1028.2,,,,2024-12-28,12,2024,12,KIAD
2024-12-25,25,13:52,EST,NW  3,10.0,Overcast,BKN042 OVC055,45.0,28.9,,,54%,,,30.35,1027.9,,,,2024-12-28,12,2024,13,KIAD
2024-12-25,25,14:52,EST,NW  3,10.0,Overcast,OVC039,44.1,28.9,,,55%,,,30.35,1027.9,,,,2024-12-28,12,2024,14,KIAD
2024-12-25,25,15:52,EST,Calm,10.0,Overcast,OVC039,45.0,28.0,,,52%,,,30.35,1027.9,,,,2024-12-28,12,2024,15,KIAD
2024-12-25,25,16:52,EST,Calm,10.0,Overcast,OVC042,43.0,28.9,,,58%,,,30.35,1027.8,,,,2024-12-28,12,2024,16,KIAD
2024-12-25,25,17:52,EST,Calm,10.0,Overcast,BKN041 BKN140 OVC200,37.9,30.0,,,73%,,,30.34,1027.8,,,,2024-12-28,12,2024,17,KIAD
2024-12-25,25,18:52,EST,Calm,10.0,Mostly Cloudy,SCT040 BKN140 BKN200,36.0,28.9,46.0,36.0,76%,,,30.36,1028.3,,,,2024-12-28,12,2024,18,KIAD
2024-12-25,25,19:52,EST,N  5,10.0,Mostly Cloudy,SCT160 BKN250,33.1,27.0,,,78%,29.0,,30.38,1028.8,,,,2024-12-28,12,2024,19,KIAD
2024-12-25,25,20:52,EST,E  7,10.0,Mostly Cloudy,FEW120 BKN250,37.0,28.9,,,73%,32.0,,30.38,1028.9,,,,2024-12-28,12,2024,20,KIAD
2024-12-25,25,21:52,EST,SE  7,10.0,Mostly Cloudy,FEW120 BKN250,36.0,27.0,,,70%,31.0,,30.39,1029.4,,,,2024-12-28,12,2024,21,KIAD
2024-12-25,25,22:52,EST,E  5,10.0,Partly Cloudy,SCT250,34.0,27.0,,,76%,30.0,,30.4,1029.5,,,,2024-12-28,12,2024,22,KIAD
2024-12-25,25,23:52,EST,Calm,10.0,Partly Cloudy,SCT250,30.9,25.0,,,79%,,,30.4,1029.6,,,,2024-12-29,12,2024,23,KIAD
2024-12-26,26,00:52,EST,Calm,10.0,Partly Cloudy,SCT250,28.9,25.0,37.0,28.9,85%,,,30.39,1029.1,,,,2024-12-29,12,2024,0,KIAD
2024-12-26,26,01:52,EST,Calm,10.0,Partly Cloudy,SCT250,28.9,25.0,,,85%,,,30.39,1029.2,,,,2024-12-29,12,2024,1,KIAD
2024-12-26,26,02:52,EST,Calm,10.0,Partly Cloudy,FEW045 SCT250,27.0,24.1,,,89%,,,30.39,1029.5,,,,2024-12-29,12,2024,2,KIAD
2024-12-26,26,03:52,EST,Calm,10.0,Mostly Cloudy,BKN030 BKN250,27.0,24.1,,,89%,,,30.4,1029.6,,,,2024-12-29,12,2024,3,KIAD
2024-12-26,26,04:52,EST,Calm,10.0,Overcast,OVC028,30.0,27.0,,,88%,,,30.41,1029.8,,,,2024-12-29,12,2024,4,KIAD
2024-12-26,26,05:52,EST,Calm,10.0,Overcast,OVC028,30.9,28.0,,,89%,,,30.43,1030.6,,,,2024-12-29,12,2024,5,KIAD
2024-12-26,26,06:52,EST,E  5,7.0,Overcast,OVC025,33.1,28.9,33.1,27.0,85%,29.0,,30.44,1031.0,,,,2024-12-29,12,2024,6,KIAD
2024-12-26,26,07:52,EST,E  5,7.0,Overcast,OVC028,34.0,28.9,,,82%,30.0,,30.46,1031.7,,,,2024-12-29,12,2024,7,KIAD
2024-12-26,26,08:52,EST,E  6,7.0,Overcast,OVC028,35.1,28.9,,,78%,31.0,,30.47,1032.0,,,,2024-12-29,12,2024,8,KIAD
2024-12-26,26,09:52,EST,E  5,9.0,Overcast,OVC027,36.0,28.9,,,76%,33.0,,30.47,1032.1,,,,2024-12-29,12,2024,9,KIAD
2024-12-26,26,10:52,EST,E  6,10.0,Overcast,OVC026,37.0,28.9,,,73%,33.0,,30.47,1032.1,,,,2024-12-29,12,2024,10,KIAD
2024-12-26,26,11:52,EST,E  5,10.0,Overcast,OVC026,37.9,28.0,,,68%,35.0,,30.45,1031.3,,,,2024-12-29,12,2024,11,KIAD
2024-12-26,26,12:52,EST,SE  3,10.0,Overcast,OVC026,39.0,28.0,39.0,33.1,65%,,,30.43,1030.6,,,,2024-12-29,12,2024,12,KIAD
2024-12-26,26,13:52,EST,NE  5,10.0,Overcast,OVC027,39.9,28.9,,,65%,37.0,,30.41,1029.9,,,,2024-12-29,12,2024,13,KIAD
2024-12-26,26,14:52,EST,Vrbl  6,10.0,Mostly Cloudy,BKN027 BKN250,41.0,28.0,,,60%,38.0,,30.4,1029.7,,,,2024-12-29,12,2024,14,KIAD
2024-12-26,26,15:52,EST,E  5,10.0,Mostly Cloudy,BKN027,39.9,28.0,,,63%,37.0,,30.41,1029.9,,,,2024-12-29,12,2024,15,KIAD
2024-12-26,26,16:52,EST,E  6,10.0,Mostly Cloudy,BKN027,37.9,27.0,,,65%,34.0,,30.4,1029.7,,,,2024-12-29,12,2024,16,KIAD
2024-12-26,26,17:52,EST,Calm,10.0,Mostly Cloudy,BKN026,37.0,26.1,,,65%,,,30.42,1030.3,,,,2024-12-29,12,2024,17,KIAD
2024-12-26,26,18:52,EST,E  6,10.0,Overcast,OVC024,37.0,27.0,41.0,36.0,67%,33.0,,30.43,1030.6,,,,2024-12-29,12,2024,18,KIAD
2024-12-26,26,19:52,EST,Calm,10.0,Overcast,OVC024,37.0,27.0,,,67%,,,30.44,1030.9,,,,2024-12-29,12,2024,19,KIAD
2024-12-26,26,20:52,EST,S  3,10.0,Partly Cloudy,SCT024,32.0,26.1,,,79%,,,30.44,1030.9,,,,2024-12-29,12,2024,20,KIAD
2024-12-26,26,21:52,EST,Calm,9.0,A Few Clouds,FEW024,30.0,25.0,,,82%,,,30.43,1030.8,,,,2024-12-29,12,2024,21,KIAD
2024-12-26,26,22:52,EST,Calm,8.0,Mostly Cloudy,BKN026,28.9,24.1,,,82%,,,30.43,1030.9,,,,2024-12-29,12,2024,22,KIAD
2024-12-26,26,23:52,EST,Calm,9.0,Overcast,OVC024,30.9,27.0,,,85%,,,30.43,1030.7,,,,2024-12-29,12,2024,23,KIAD
2024-12-27,27,00:52,EST,Calm,9.0,Overcast,OVC023,32.0,28.0,37.0,28.0,85%,,,30.43,1030.7,,,,2024-12-30,12,2024,0,KIAD
2024-12-27,27,01:52,EST,Calm,9.0,Overcast,OVC023,34.0,28.9,,,82%,,,30.44,1030.9,,,,2024-12-30,12,2024,1,KIAD
2024-12-27,27,02:52,EST,Calm,9.0,Overcast,OVC022,34.0,28.9,,,82%,,,30.45,1031.4,,,,2024-12-30,12,2024,2,KIAD
2024-12-27,27,03:52,EST,Calm,9.0,Overcast,OVC021,34.0,28.9,,,82%,,,30.45,1031.2,,,,2024-12-30,12,2024,3,KIAD
2024-12-27,27,04:52,EST,Calm,9.0,Overcast,OVC021,34.0,28.9,,,82%,,,30.45,1031.3,,,,2024-12-30,12,2024,4,KIAD
2024-12-27,27,05:52,EST,Calm,10.0,Overcast,OVC020,34.0,28.0,,,79%,,,30.43,1030.8,,,,2024-12-30,12,2024,5,KIAD
2024-12-27,27,06:52,EST,SE  3,9.0,Overcast,OVC019,34.0,28.0,35.1,33.1,79%,,,30.44,1030.9,,,,2024-12-30,12,2024,6,KIAD
2024-12-27,27,07:52,EST,Calm,7.0,Overcast,OVC019,34.0,28.9,,,82%,,,30.44,1031.0,,,,2024-12-30,12,2024,7,KIAD
2024-12-27,27,08:52,EST,Calm,7.0,Overcast,OVC018,36.0,28.9,,,76%,,,30.46,1031.7,,,,2024-12-30,12,2024,8,KIAD
2024-12-27,27,09:52,EST,Vrbl  6,8.0,Overcast,OVC018,37.9,30.0,,,73%,34.0,,30.46,1031.7,,,,2024-12-30,12,2024,9,KIAD
2024-12-27,27,10:52,EST,S  6,8.0,Overcast,OVC018,39.0,30.0,,,70%,35.0,,30.45,1031.3,,,,2024-12-30,12,2024,10,KIAD
2024-12-27,27,11:52,EST,S  3,9.0,Mostly Cloudy,SCT020 BKN250,39.9,30.0,,,68%,,,30.41,1030.1,,,,2024-12-30,12,2024,11,KIAD
2024-12-27,27,12:52,EST,Vrbl  3,10.0,Mostly Cloudy,FEW022 BKN250,43.0,30.9,44.1,34.0,63%,,,30.37,1028.7,,,,2024-12-30,12,2024,12,KIAD
2024-12-27,27,13:52,EST,Vrbl  6,10.0,Mostly Cloudy,BKN250,45.0,32.0,,,61%,42.0,,30.34,1027.7,,,,2024-12-30,12,2024,13,KIAD
2024-12-27,27,14:52,EST,S  8,10.0,Mostly Cloudy,FEW050 BKN180,46.9,32.0,,,56%,44.0,,30.33,1027.3,,,,2024-12-30,12,2024,14,KIAD
2024-12-27,27,15:52,EST,S  7,10.0,Mostly Cloudy,BKN044 BKN180,46.0,32.0,,,58%,43.0,,30.34,1027.6,,,,2024-12-30,12,2024,15,KIAD
2024-12-27,27,16:52,EST,SE  6,10.0,Overcast,BKN042 OVC120,45.0,32.0,,,61%,42.0,,30.35,1027.9,,,,2024-12-30,12,2024,16,KIAD
2024-12-27,27,17:52,EST,S  3,10.0,Overcast,OVC041,44.1,32.0,,,63%,,,30.34,1027.6,,,,2024-12-30,12,2024,17,KIAD
2024-12-27,27,18:52,EST,SE  6,10.0,Mostly Cloudy,BKN055 BKN120 BKN250,44.1,33.1,46.9,43.0,65%,41.0,,30.33,1027.1,,,,2024-12-30,12,2024,18,KIAD
2024-12-27,27,19:52,EST,S  6,10.0,Overcast,OVC029,45.0,33.1,,,63%,42.0,,30.33,1027.4,,,,2024-12-30,12,2024,19,KIAD
2024-12-27,27,20:52,EST,S  7,10.0,Overcast,OVC025,45.0,33.1,,,63%,42.0,,30.32,1026.9,,,,2024-12-30,12,2024,20,KIAD
2024-12-27,27,21:52,EST,S  5,10.0,Overcast,OVC022,44.1,35.1,,,71%,42.0,,30.32,1027.0,,,,2024-12-30,12,2024,21,KIAD
2024-12-27,27,22:52,EST,S  6,10.0,Light Rain,OVC019,43.0,36.0,,,76%,40.0,,30.31,1026.4,,,,2024-12-30,12,2024,22,KIAD
2024-12-27,27,23:52,EST,S  5,8.0,Light Rain,OVC014,41.0,37.9,,,89%,38.0,,30.29,1025.8,0.01,,,2024-12-30,12,2024,23,KIAD
2024-12-28,28,00:52,EST,SW  5,2.5,Fog/Mist,OVC010,39.9,37.9,45.0,39.9,93%,37.0,,30.28,1025.6,0.01,,0.02,2024-12-31,12,2024,0,KIAD
2024-12-28,28,01:52,EST,S  3,2.5,Light Drizzle,OVC009,39.9,39.0,,,97%,,,30.27,1025.3,0.01,,,2024-12-31,12,2024,1,KIAD
2024-12-28,28,02:52,EST,SE  5,2.0,Light Rain Fog/Mist,BKN005 OVC011,39.9,39.0,,,97%,37.0,,30.26,1024.8,0.02,,,2024-12-31,12,2024,2,KIAD
2024-12-28,28,03:52,EST,SE  3,2.0,Light Rain Fog/Mist,BKN008 OVC013,41.0,39.0,,,93%,,,30.25,1024.5,0.04,0.07,,2024-12-31,12,2024,3,KIAD
2024-12-28,28,04:52,EST,SE  6,2.0,Rain Fog/Mist,SCT007 OVC013,41.0,39.0,,,93%,38.0,,30.23,1023.9,0.04,,,2024-12-31,12,2024,4,KIAD
2024-12-28,28,05:52,EST,S  6,3.0,Light Rain Fog/Mist,FEW006 OVC014,42.1,39.9,,,92%,39.0,,30.23,1023.9,0.09,,,2024-12-31,12,2024,5,KIAD
2024-12-28,28,06:52,EST,S  6,4.0,Light Rain Fog/Mist,FEW005 OVC014,42.1,41.0,42.1,39.9,96%,39.0,,30.25,1024.5,0.04,,0.24,2024-12-31,12,2024,6,KIAD
2024-12-28,28,07:52,EST,S  6,5.0,Light Rain Fog/Mist,FEW005 BKN018 OVC025,44.1,42.1,,,93%,41.0,,30.25,1024.5,0.03,,,2024-12-31,12,2024,7,KIAD
2024-12-28,28,08:52,EST,S  6,7.0,Overcast,FEW005 OVC025,45.0,43.0,,,93%,42.0,,30.26,1024.7,0.02,,,2024-12-31,12,2024,8,KIAD
2024-12-28,28,09:52,EST,SW  6,7.0,Light Rain,OVC020,46.0,43.0,,,89%,44.0,,30.27,1025.3,,0.05,,2024-12-31,12,2024,9,KIAD
2024-12-28,28,10:52,EST,S  7,6.0,Fog/Mist,BKN016 OVC024,46.9,44.1,,,90%,44.0,,30.26,1025.0,,,,2024-12-31,12,2024,10,KIAD
2024-12-28,28,11:52,EST,S  6,3.0,Light Rain Fog/Mist,SCT005 OVC019,46.9,45.0,,,93%,45.0,,30.23,1023.9,0.01,,,2024-12-31,12,2024,11,KIAD
2024-12-28,28,12:52,EST,S  7,1.0,Light Rain Fog/Mist,BKN004 BKN030 OVC055,48.0,46.9,48.0,42.1,96%,45.0,,30.2,1022.8,0.06,,0.12,2024-12-31,12,2024,12,KIAD
2024-12-28,28,13:52,EST,S  6,1.0,Light Rain Fog/Mist,OVC004,50.0,48.0,,,93%,48.0,,30.18,1021.9,0.03,,,2024-12-31,12,2024,13,KIAD
2024-12-28,28,14:52,EST,S  6,8.0,Overcast,OVC004,51.1,48.9,,,92%,,,30.18,1022.0,0.01,,,2024-12-31,12,2024,14,KIAD
2024-12-28,28,15:52,EST,SW  7,8.0,Overcast,OVC004,51.1,50.0,,,96%,,,30.18,1022.1,,0.04,,2024-12-31,12,2024,15,KIAD
2024-12-28,28,16:52,EST,S  9,6.0,Fog/Mist,OVC004,51.1,50.0,,,96%,,,30.18,1022.2,,,,2024-12-31,12,2024,16,KIAD
2024-12-28,28,17:52,EST,Calm,8.0,Overcast,OVC003,51.1,50.0,,,96%,,,30.2,1022.6,,,,2024-12-31,12,2024,17,KIAD
2024-12-28,28,18:52,EST,S  5,0.5,Fog/Mist,OVC003,50.0,48.9,52.0,48.0,96%,49.0,,30.2,1022.7,,,0.04,2024-12-31,12,2024,18,KIAD
2024-12-28,28,19:52,EST,SW  3,0.5,Fog/Mist,OVC002,51.1,50.0,,,96%,,,30.2,1022.8,,,,2024-12-31,12,2024,19,KIAD
2024-12-28,28,20:52,EST,SE  3,0.5,Fog/Mist,OVC002,51.1,50.0,,,96%,,,30.2,1022.7,,,,2024-12-31,12,2024,20,KIAD
2024-12-28,28,21:52,EST,SE  3,0.25,Fog,VV002,51.1,50.0,,,96%,,,30.19,1022.5,,,,2024-12-31,12,2024,21,KIAD
2024-12-28,28,22:52,EST,Calm,0.5,Fog,OVC003,51.1,50.0,,,96%,,,30.19,1022.4,,,,2024-12-31,12,2024,22,KIAD
2024-12-28,28,23:52,EST,S  3,0.5,Light Rain Fog,OVC002,51.1,50.0,,,96%,,,30.18,1021.9,0.07,,,2025-01-01,12,2024,23,KIAD
2024-12-29,29,00:52,EST,S  3,1.0,Light Rain Fog/Mist,OVC004,51.1,50.0,51.1,50.0,96%,,,30.16,1021.3,0.03,,0.1,2025-01-01,12,2024,0,KIAD
2024-12-29,29,01:52,EST,S  5,7.0,Overcast,BKN004 OVC010,51.1,50.0,,,96%,,,30.15,1020.9,,,,2025-01-01,12,2024,1,KIAD
2024-12-29,29,02:52,EST,Calm,0.5,Fog,OVC003,51.1,51.1,,,100%,,,30.14,1020.8,,,,2025-01-01,12,2024,2,KIAD
2024-12-29,29,03:52,EST,S  3,0.75,Fog/Mist,OVC003,51.1,51.1,,,100%,,,30.11,1019.7,0.02,0.02,,2025-01-01,12,2024,3,KIAD
2024-12-29,29,04:52,EST,S  3,0.5,Light Rain Fog,OVC002,51.1,50.0,,,96%,,,30.09,1018.9,0.02,,,2025-01-01,12,2024,4,KIAD
2024-12-29,29,05:52,EST,S  6,3.0,Light Rain Fog/Mist,BKN003 BKN008,53.1,52.0,,,96%,,,30.07,1018.1,0.05,,,2025-01-01,12,2024,5,KIAD
2024-12-29,29,06:52,EST,S  10,5.0,Fog/Mist,OVC005,55.9,55.0,55.9,51.1,97%,,,30.05,1017.5,,,0.09,2025-01-01,12,2024,6,KIAD
2024-12-29,29,07:52,EST,S  8,10.0,Overcast,OVC006,55.9,55.0,,,97%,,,30.04,1017.2,,,,2025-01-01,12,2024,7,KIAD
2024-12-29,29,08:52,EST,S  10  G 21,10.0,Mostly Cloudy,BKN009 BKN013,57.9,55.9,,,93%,,,30.03,1016.8,,,,2025-01-01,12,2024,8,KIAD
2024-12-29,29,09:52,EST,S  9  G 20,10.0,Mostly Cloudy,SCT010 BKN050 BKN250,60.1,55.9,,,86%,,,30.01,1016.3,,,,2025-01-01,12,2024,9,KIAD
2024-12-29,29,10:52,EST,S  13  G 31,10.0,Mostly Cloudy,FEW012 FEW050 BKN250,63.0,57.0,,,81%,,,29.97,1014.9,,,,2025-01-01,12,2024,10,KIAD
2024-12-29,29,11:52,EST,S  14  G 30,10.0,Mostly Cloudy,BKN030 BKN250,66.0,55.9,,,70%,,,29.91,1012.8,,,,2025-01-01,12,2024,11,KIAD
2024-12-29,29,12:52,EST,S  13  G 28,10.0,Mostly Cloudy,BKN032 BKN250,66.9,55.0,66.9,55.9,66%,,,29.86,1011.1,,,,2025-01-01,12,2024,12,KIAD
2024-12-29,29,13:52,EST,S  15  G 26,10.0,Mostly Cloudy,BKN040 BKN250,66.9,55.0,,,66%,,,29.83,1009.9,,,,2025-01-01,12,2024,13,KIAD
2024-12-29,29,14:52,EST,S  18  G 32,10.0,Mostly Cloudy,BKN038 BKN250,66.9,55.0,,,66%,,,29.8,1008.9,,,,2025-01-01,12,2024,14,KIAD
2024-12-29,29,15:52,EST,SE  15  G 26,10.0,Mostly Cloudy,BKN037 BKN046 BKN250,66.0,54.0,,,65%,,,29.76,1007.7,,,,2025-01-01,12,2024,15,KIAD
2024-12-29,29,16:52,EST,SE  10,10.0,Mostly Cloudy,BKN085 BKN110 BKN250,64.9,54.0,,,68%,,,29.72,1006.3,,,,2025-01-01,12,2024,16,KIAD
2024-12-29,29,17:52,EST,S  17  G 29,10.0,Overcast,FEW010 SCT031 OVC070,64.0,55.0,,,73%,,,29.71,1006.0,,,,2025-01-01,12,2024,17,KIAD
2024-12-29,29,18:52,EST,S  15  G 31,10.0,Light Rain,FEW005 BKN100 OVC120,62.1,57.9,66.9,61.0,86%,,,29.69,1005.3,,,,2025-01-01,12,2024,18,KIAD
2024-12-29,29,19:52,EST,S  14  G 24,10.0,Overcast,BKN014 BKN065 OVC085,62.1,57.0,,,84%,,,29.68,1005.0,0.01,,,2025-01-01,12,2024,19,KIAD
2024-12-29,29,20:52,EST,S  13  G 24,10.0,Overcast,BKN018 BKN029 OVC080,61.0,55.9,,,84%,,,29.66,1004.3,,,,2025-01-01,12,2024,20,KIAD
2024-12-29,29,21:52,EST,S  12  G 21,10.0,Overcast,BKN022 OVC028,61.0,55.0,,,81%,,,29.67,1004.5,,0.01,,2025-01-01,12,2024,21,KIAD
2024-12-29,29,22:52,EST,S  15  G 29,10.0,Overcast,BKN022 OVC030,61.0,54.0,,,78%,,,29.66,1004.1,,,,2025-01-01,12,2024,22,KIAD
2024-12-29,29,23:52,EST,S  14,10.0,Overcast,FEW022 OVC070,60.1,53.1,,,78%,,,29.65,1003.6,,,,2025-01-01,12,2024,23,KIAD
2024-12-30,30,00:52,EST,S  12,10.0,Mostly Cloudy,FEW018 BKN085,59.0,53.1,62.1,57.9,81%,,,29.62,1003.0,,,0.01,2025-01-02,12,2024,0,KIAD
2024-12-30,30,01:52,EST,SW  7,10.0,A Few Clouds,FEW100,55.9,51.1,,,84%,,,29.62,1002.8,,,,2025-01-02,12,2024,1,KIAD
2024-12-30,30,02:52,EST,S  8,10.0,Fair,CLR,54.0,50.0,,,87%,,,29.64,1003.6,,,,2025-01-02,12,2024,2,KIAD
2024-12-30,30,03:52,EST,S  7,10.0,Fair,CLR,50.0,46.9,,,89%,48.0,,29.64,1003.5,,,,2025-01-02,12,2024,3,KIAD
2024-12-30,30,04:52,EST,SW  8,10.0,Mostly Cloudy,BKN150,51.1,46.9,,,86%,,,29.64,1003.6,,,,2025-01-02,12,2024,4,KIAD
2024-12-30,30,05:52,EST,SW  8,10.0,Mostly Cloudy,BKN120,51.1,46.9,,,86%,,,29.66,1004.2,,,,2025-01-02,12,2024,5,KIAD
2024-12-30,30,06:52,EST,W  8,10.0,A Few Clouds,FEW120,52.0,39.0,59.0,48.9,61%,,,29.69,1005.2,,,,2025-01-02,12,2024,6,KIAD
2024-12-30,30,07:52,EST,W  6,10.0,Mostly Cloudy,BKN140,51.1,39.0,,,64%,,,29.72,1006.2,,,,2025-01-02,12,2024,7,KIAD
2024-12-30,30,08:52,EST,W  8,10.0,A Few Clouds,FEW150 FEW250,54.0,36.0,,,51%,,,29.75,1007.3,,,,2025-01-02,12,2024,8,KIAD
2024-12-30,30,09:52,EST,W  12  G 22,10.0,A Few Clouds,FEW050 FEW250,55.9,34.0,,,44%,,,29.77,1007.9,,,,2025-01-02,12,2024,9,KIAD
2024-12-30,30,10:52,EST,W  10  G 22,10.0,A Few Clouds,FEW050 FEW250,57.0,33.1,,,41%,,,29.76,1007.7,,,,2025-01-02,12,2024,10,KIAD
2024-12-30,30,11:52,EST,W  10  G 21,10.0,A Few Clouds,FEW050 FEW200,57.9,32.0,,,38%,,,29.75,1007.3,,,,2025-01-02,12,2024,11,KIAD
2024-12-30,30,12:52,EST,W  15  G 31,10.0,A Few Clouds,FEW050,60.1,32.0,60.1,48.9,35%,,,29.74,1006.9,,,,2025-01-02,12,2024,12,KIAD
2024-12-30,30,13:52,EST,W  14  G 26,10.0,A Few Clouds,FEW070 FEW250,60.1,30.9,,,33%,,,29.74,1006.8,,,,2025-01-02,12,2024,13,KIAD
2024-12-30,30,14:52,EST,W  15  G 28,10.0,A Few Clouds,FEW075 FEW250,60.1,30.0,,,32%,,,29.75,1007.2,,,,2025-01-02,12,2024,14,KIAD
2024-12-30,30,15:52,EST,W  10  G 20,10.0,A Few Clouds,FEW080 FEW250,59.0,28.9,,,32%,,,29.77,1007.9,,,,2025-01-02,12,2024,15,KIAD
2024-12-30,30,16:52,EST,W  8,10.0,A Few Clouds,FEW080 FEW250,55.0,28.9,,,37%,,,29.8,1009.0,,,,2025-01-02,12,2024,16,KIAD
2024-12-30,30,17:52,EST,W  5,10.0,A Few Clouds,FEW250,53.1,28.0,,,38%,,,29.82,1009.8,,,,2025-01-02,12,2024,17,KIAD
2024-12-30,30,18:52,EST,W  6,10.0,Fair,CLR,52.0,27.0,61.0,45.0,38%,,,29.84,1010.5,,,,2025-01-02,12,2024,18,KIAD
2024-12-30,30,19:52,EST,W  6,10.0,Fair,CLR,52.0,26.1,,,37%,,,29.86,1011.2,,,,2025-01-02,12,2024,19,KIAD
2024-12-30,30,20:52,EST,Calm,10.0,Fair,CLR,43.0,28.0,,,56%,,,29.88,1011.9,,,,2025-01-02,12,2024,20,KIAD
2024-12-30,30,21:52,EST,SE  5,10.0,A Few Clouds,FEW250,41.0,28.0,,,60%,38.0,,29.9,1012.3,,,,2025-01-02,12,2024,21,KIAD
2024-12-30,30,22:52,EST,S  3,10.0,Partly Cloudy,SCT250,35.1,28.0,,,76%,,,29.9,1012.5,,,,2025-01-02,12,2024,22,KIAD
2024-12-30,30,23:52,EST,Calm,10.0,A Few Clouds,FEW250,34.0,27.0,,,76%,,,29.9,1012.7,,,,2025-01-03,12,2024,23,KIAD
2024-12-31,31,00:52,EST,SE  5,10.0,A Few Clouds,FEW250,37.9,28.0,53.1,33.1,68%,35.0,,29.9,1012.4,,,,2025-01-03,12,2024,0,KIAD
2024-12-31,31,01:52,EST,Calm,10.0,Mostly Cloudy,BKN160,37.9,28.9,,,70%,,,29.89,1012.3,,,,2025-01-03,12,2024,1,KIAD
2024-12-31,31,02:52,EST,Calm,10.0,Mostly Cloudy,BKN160,36.0,30.0,,,79%,,,29.9,1012.6,,,,2025-01-03,12,2024,2,KIAD
2024-12-31,31,03:52,EST,Calm,10.0,Partly Cloudy,SCT170,35.1,30.0,,,82%,,,29.9,1012.4,,,,2025-01-03,12,2024,3,KIAD
2024-12-31,31,04:52,EST,Calm,10.0,A Few Clouds,FEW170,33.1,28.9,,,85%,,,29.88,1012.0,,,,2025-01-03,12,2024,4,KIAD
2024-12-31,31,05:52,EST,Calm,10.0,A Few Clouds,FEW120,34.0,30.0,,,85%,,,29.88,1011.8,,,,2025-01-03,12,2024,5,KIAD
2024-12-31,31,06:52,EST,Calm,10.0,A Few Clouds,FEW120,32.0,28.9,39.0,30.9,88%,,,29.88,1011.9,,,,2025-01-03,12,2024,6,KIAD
2024-12-31,31,07:52,EST,E  3,10.0,A Few Clouds,FEW060 FEW120,32.0,28.9,,,88%,,,29.86,1011.1,,,,2025-01-03,12,2024,7,KIAD
2024-12-31,31,08:52,EST,Calm,10.0,A Few Clouds,FEW060 FEW120,46.0,36.0,,,68%,,,29.85,1011.0,,,,2025-01-03,12,2024,8,KIAD
2024-12-31,31,09:52,EST,Vrbl  6,10.0,A Few Clouds,FEW100 FEW200,52.0,37.9,,,59%,,,29.83,1010.3,,,,2025-01-03,12,2024,9,KIAD
2024-12-31,31,10:52,EST,S  10,10.0,A Few Clouds,FEW100 FEW200,55.0,37.9,,,53%,,,29.8,1009.1,,,,2025-01-03,12,2024,10,KIAD
2024-12-31,31,11:52,EST,SE  16  G 25,10.0,Mostly Cloudy,BKN050 BKN200,57.0,39.0,,,51%,,,29.73,1006.9,,,,2025-01-03,12,2024,11,KIAD
2024-12-31,31,12:52,EST,S  12,10.0,Mostly Cloudy,BKN050 BKN200,57.9,39.9,59.0,32.0,51%,,,29.68,1004.9,,,,2025-01-03,12,2024,12,KIAD
2024-12-31,31,13:52,EST,SE  17  G 29,10.0,Mostly Cloudy,BKN050 BKN110 BKN200,59.0,39.9,,,49%,,,29.65,1003.8,,,,2025-01-03,12,2024,13,KIAD
2024-12-31,31,14:52,EST,SE  16  G 25,10.0,Mostly Cloudy,BKN045 BKN060 BKN200,59.0,39.9,,,49%,,,29.61,1002.7,,,,2025-01-03,12,2024,14,KIAD
2024-12-31,31,15:52,EST,SE  15  G 26,10.0,Mostly Cloudy,FEW045 BKN065 BKN140 BKN250,57.9,39.9,,,51%,,,29.56,1001.2,,,,2025-01-03,12,2024,15,KIAD
2024-12-31,31,16:52,EST,SE  7  G 25,5.0,Thunderstorm Rain,FEW030 BKN050CB BKN080 BKN130 BKN180,54.0,44.1,,,69%,,,29.55,1000.7,0.04,,,2025-01-03,12,2024,16,KIAD
2024-12-31,31,17:52,EST,E  18  G 28,6.0,Thunderstorm Rain Fog/Mist,FEW024 BKN030CB BKN041 BKN160 BKN250,48.9,46.9,,,93%,43.0,,29.52,999.8,0.31,,,2025-01-03,12,2024,17,KIAD
2024-12-31,31,18:52,EST,S  5,10.0,Mostly Cloudy,FEW060 SCT110 BKN180,48.0,46.0,61.0,48.0,93%,47.0,,29.54,1000.5,0.01,,0.36,2025-01-03,12,2024,18,KIAD
2024-12-31,31,19:52,EST,W  8,10.0,Mostly Cloudy,FEW020 SCT048 BKN075 BKN130,50.0,46.9,,,89%,47.0,,29.57,1001.3,,,,2025-01-03,12,2024,19,KIAD
2024-12-31,31,20:52,EST,NW  5,10.0,Mostly Cloudy,SCT080 BKN100,48.9,46.0,,,90%,48.0,,29.56,1001.0,,,,2025-01-03,12,2024,20,KIAD
2024-12-31,31,21:52,EST,SW  3,7.0,Mostly Cloudy,BKN110,46.0,44.1,,,93%,,,29.57,1001.1,,,,2025-01-03,12,2024,21,KIAD
2024-12-31,31,22:52,EST,S  5,7.0,Partly Cloudy,SCT110,45.0,43.0,,,93%,43.0,,29.56,1000.8,,,,2025-01-03,12,2024,22,KIAD
2024-12-31,31,23:52,EST,Calm,0.5,Fog,SCT110,41.0,39.9,,,96%,,,29.54,1000.4,,,,2025-01-03,12,2024,23,KIAD
2025-01-01,1,00:52,EST,S  5,7.0,Partly Cloudy,SCT055,43.0,41.0,51.1,39.0,93%,41.0,,29.54,1000.4,,,,2025-01-04,1,2025,0,KIAD
2025-01-01,1,01:52,EST,S  5,5.0,Fog/Mist,FEW045 SCT060 BKN080,42.1,41.0,,,96%,40.0,,29.56,1000.9,,,,2025-01-04,1,2025,1,KIAD
2025-01-01,1,02:52,EST,Calm,3.0,Fog/Mist,BKN049 OVC060,42.1,42.1,,,100%,,,29.58,1001.6,,,,2025-01-04,1,2025,2,KIAD
2025-01-01,1,03:52,EST,W  3,4.0,Fog/Mist,BKN095 BKN120,44.1,42.1,,,93%,,,29.59,1002.1,,,,2025-01-04,1,2025,3,KIAD
2025-01-01,1,04:52,EST,W  7  G 18,10.0,Overcast,OVC080,46.9,37.9,,,71%,44.0,,29.62,1002.9,,,,2025-01-04,1,2025,4,KIAD
2025-01-01,1,05:52,EST,W  17  G 29,10.0,Overcast,OVC080,46.9,32.0,,,56%,41.0,,29.64,1003.8,,,,2025-01-04,1,2025,5,KIAD
2025-01-01,1,06:52,EST,W  21  G 30,10.0,Mostly Cloudy and Breezy,BKN100 BKN200,46.0,30.9,46.9,39.0,56%,39.0,,29.68,1005.1,,,,2025-01-04,1,2025,6,KIAD
2025-01-01,1,07:52,EST,W  22  G 36,10.0,Mostly Cloudy and Breezy,SCT047 BKN090,45.0,28.9,,,54%,37.0,,29.71,1006.0,,,,2025-01-04,1,2025,7,KIAD
2025-01-01,1,08:52,EST,NW  23  G 35,10.0,A Few Clouds and Breezy,FEW043,45.0,30.0,,,56%,37.0,,29.73,1006.8,,,,2025-01-04,1,2025,8,KIAD
2025-01-01,1,09:52,EST,NW  22  G 35,10.0,Mostly Cloudy and Breezy,BKN043,46.0,30.0,,,54%,39.0,,29.79,1008.8,,,,2025-01-04,1,2025,9,KIAD
2025-01-01,1,10:52,EST,NW  26  G 40,10.0,A Few Clouds and Windy,FEW044,46.9,30.9,,,54%,39.0,,29.8,1009.0,,,,2025-01-04,1,2025,10,KIAD
2025-01-01,1,11:52,EST,W  29  G 46,10.0,Mostly Cloudy and Windy,BKN044,48.0,30.0,,,50%,40.0,,29.82,1009.8,,,,2025-01-04,1,2025,11,KIAD
2025-01-01,1,12:52,EST,NW  29  G 39,10.0,Mostly Cloudy and Windy,BKN049,46.9,28.9,48.9,44.1,50%,39.0,,29.83,1010.3,,,,2025-01-04,1,2025,12,KIAD
2025-01-01,1,13:52,EST,NW  25  G 44,10.0,Overcast and Breezy,OVC050,48.0,28.0,,,46%,41.0,,29.85,1011.0,,,,2025-01-04,1,2025,13,KIAD
2025-01-01,1,14:52,EST,NW  22  G 35,10.0,Mostly Cloudy and Breezy,BKN050,46.9,28.9,,,50%,40.0,,29.87,1011.4,,,,2025-01-04,1,2025,14,KIAD
2025-01-01,1,15:52,EST,NW  26  G 37,10.0,Mostly Cloudy and Windy,BKN050,44.1,25.0,,,47%,35.0,,29.9,1012.4,,,,2025-01-04,1,2025,15,KIAD
2025-01-01,1,16:52,EST,W  21  G 29,10.0,Mostly Cloudy and Breezy,BKN055,42.1,25.0,,,51%,34.0,,29.92,1013.2,,,,2025-01-04,1,2025,16,KIAD
2025-01-01,1,17:52,EST,W  7,10.0,Mostly Cloudy,BKN060,42.1,25.0,,,51%,38.0,,29.93,1013.6,,,,2025-01-04,1,2025,17,KIAD
2025-01-01,1,18:52,EST,W  9,10.0,A Few Clouds,FEW065,41.0,24.1,48.0,41.0,51%,36.0,,29.95,1014.1,,,,2025-01-04,1,2025,18,KIAD
2025-01-01,1,19:52,EST,W  6,10.0,A Few Clouds,FEW055,39.0,24.1,,,55%,35.0,,29.96,1014.7,,,,2025-01-04,1,2025,19,KIAD
2025-01-01,1,20:52,EST,W  6,10.0,Mostly Cloudy,BKN055,37.9,25.0,,,60%,34.0,,29.96,1014.7,,,,2025-01-04,1,2025,20,KIAD
2025-01-01,1,21:52,EST,W  14,10.0,Mostly Cloudy,BKN060,39.9,25.0,,,55%,33.0,,29.98,1015.2,,,,2025-01-04,1,2025,21,KIAD
2025-01-01,1,22:52,EST,W  17  G 28,10.0,Mostly Cloudy,BKN055,39.9,21.9,,,49%,32.0,,29.99,1015.6,,,,2025-01-04,1,2025,22,KIAD
2025-01-01,1,23:52,EST,NW  21  G 37,10.0,Overcast and Breezy,OVC055,37.0,19.0,,,48%,27.0,,30.02,1016.6,,,,2025-01-04,1,2025,23,KIAD
2025-01-02,2,00:52,EST,NW  17  G 29,10.0,Mostly Cloudy,BKN060,37.0,19.0,41.0,37.0,48%,28.0,,30.04,1017.4,,,,2025-01-05,1,2025,0,KIAD
2025-01-02,2,01:52,EST,NW  25  G 37,10.0,Mostly Cloudy and Breezy,BKN060,36.0,18.0,,,48%,25.0,,30.05,1017.7,,,,2025-01-05,1,2025,1,KIAD
2025-01-02,2,02:52,EST,NW  22  G 33,10.0,Mostly Cloudy and Breezy,BKN060,36.0,15.1,,,42%,25.0,,30.1,1019.4,,,,2025-01-05,1,2025,2,KIAD
2025-01-02,2,03:52,EST,NW  14  G 22,10.0,Mostly Cloudy,BKN065,36.0,15.1,,,42%,28.0,,30.09,1019.0,,,,2025-01-05,1,2025,3,KIAD
2025-01-02,2,04:52,EST,W  13,10.0,Overcast,OVC060,36.0,15.1,,,42%,28.0,,30.08,1018.8,,,,2025-01-05,1,2025,4,KIAD
2025-01-02,2,05:52,EST,NW  15  G 26,10.0,Mostly Cloudy,BKN060,36.0,15.1,,,42%,27.0,,30.1,1019.3,,,,2025-01-05,1,2025,5,KIAD
2025-01-02,2,06:52,EST,W  13  G 22,10.0,Mostly Cloudy,BKN055,36.0,16.0,37.0,35.1,44%,28.0,,30.12,1020.3,,,,2025-01-05,1,2025,6,KIAD
2025-01-02,2,07:52,EST,NW  15  G 26,10.0,Mostly Cloudy,BKN055,36.0,18.0,,,48%,27.0,,30.15,1021.2,,,,2025-01-05,1,2025,7,KIAD
2025-01-02,2,08:52,EST,NW  21  G 29,10.0,Mostly Cloudy and Breezy,BKN050,36.0,18.0,,,48%,26.0,,30.17,1021.8,,,,2025-01-05,1,2025,8,KIAD
2025-01-02,2,09:52,EST,NW  21  G 37,10.0,Mostly Cloudy and Breezy,BKN050,37.0,16.0,,,42%,27.0,,30.19,1022.6,,,,2025-01-05,1,2025,9,KIAD
2025-01-02,2,10:52,EST,NW  17  G 28,10.0,Mostly Cloudy,BKN055,39.0,18.0,,,43%,31.0,,30.2,1022.9,,,,2025-01-05,1,2025,10,KIAD
2025-01-02,2,11:52,EST,W  17  G 30,10.0,Mostly Cloudy,BKN050,39.0,18.0,,,43%,31.0,,30.17,1022.0,,,,2025-01-05,1,2025,11,KIAD
2025-01-02,2,12:52,EST,W  14  G 22,10.0,Mostly Cloudy,BKN055 BKN200,39.9,18.0,41.0,35.1,41%,33.0,,30.14,1020.9,,,,2025-01-05,1,2025,12,KIAD
2025-01-02,2,13:52,EST,W  13  G 22,10.0,Mostly Cloudy,BKN055 BKN220,41.0,19.0,,,41%,34.0,,30.13,1020.5,,,,2025-01-05,1,2025,13,KIAD
2025-01-02,2,14:52,EST,W  14  G 21,10.0,Mostly Cloudy,BKN050 BKN250,39.9,19.0,,,43%,33.0,,30.11,1019.9,,,,2025-01-05,1,2025,14,KIAD
2025-01-02,2,15:52,EST,NW  17,10.0,Mostly Cloudy,SCT060 BKN250,41.0,19.0,,,41%,33.0,,30.12,1020.2,,,,2025-01-05,1,2025,15,KIAD
2025-01-02,2,16:52,EST,W  8,10.0,A Few Clouds,FEW060 FEW120,37.9,19.0,,,46%,33.0,,30.12,1020.3,,,,2025-01-05,1,2025,16,KIAD
2025-01-02,2,17:52,EST,NW  5,10.0,A Few Clouds,FEW060,36.0,18.0,,,48%,33.0,,30.14,1020.8,,,,2025-01-05,1,2025,17,KIAD
2025-01-02,2,18:52,EST,W  5,10.0,A Few Clouds,FEW060,35.1,18.0,42.1,35.1,50%,32.0,,30.14,1020.9,,,,2025-01-05,1,2025,18,KIAD
2025-01-02,2,19:52,EST,W  7,10.0,A Few Clouds,FEW060 FEW200,35.1,18.0,,,50%,30.0,,30.14,1020.7,,,,2025-01-05,1,2025,19,KIAD
2025-01-02,2,20:52,EST,W  6,10.0,Partly Cloudy,SCT060,35.1,18.0,,,50%,31.0,,30.12,1020.3,,,,2025-01-05,1,2025,20,KIAD
2025-01-02,2,21:52,EST,W  6,10.0,Mostly Cloudy,BKN060,36.0,18.0,,,48%,32.0,,30.13,1020.4,,,,2025-01-05,1,2025,21,KIAD
2025-01-02,2,22:52,EST,W  9,10.0,Partly Cloudy,SCT055,36.0,19.0,,,50%,30.0,,30.13,1020.5,,,,2025-01-05,1,2025,22,KIAD
2025-01-02,2,23:52,EST,NW  12,10.0,A Few Clouds,FEW055,35.1,19.0,,,52%,28.0,,30.13,1020.6,,,,2025-01-06,1,2025,23,KIAD
2025-01-03,3,00:52,EST,NW  7,10.0,A Few Clouds,FEW055,34.0,19.0,37.0,34.0,54%,29.0,,30.14,1020.7,,,,2025-01-06,1,2025,0,KIAD
2025-01-03,3,01:52,EST,NW  6,10.0,A Few Clouds,FEW055,33.1,18.0,,,54%,28.0,,30.14,1020.7,,,,2025-01-06,1,2025,1,KIAD
2025-01-03,3,02:52,EST,NW  6,10.0,A Few Clouds,FEW055,32.0,18.0,,,56%,27.0,,30.13,1020.6,,,,2025-01-06,1,2025,2,KIAD
2025-01-03,3,03:52,EST,Calm,10.0,Fair,CLR,27.0,18.0,,,69%,,,30.12,1020.1,,,,2025-01-06,1,2025,3,KIAD
2025-01-03,3,05:52,EST,NW  5,10.0,Fair,CLR,30.0,19.0,,,64%,26.0,,30.09,1019.2,,,,2025-01-06,1,2025,5,KIAD
2025-01-03,3,06:52,EST,Calm,10.0,Mostly Cloudy,SCT150 BKN220,28.0,19.0,34.0,26.1,69%,,,30.1,1019.4,,,,2025-01-06,1,2025,6,KIAD
2025-01-03,3,07:52,EST,S  6,10.0,Partly Cloudy,SCT150 SCT250,28.0,19.0,,,69%,22.0,,30.07,1018.6,,,,2025-01-06,1,2025,7,KIAD
2025-01-03,3,08:52,EST,S  7,10.0,Mostly Cloudy,FEW070 BKN250,33.1,21.0,,,61%,28.0,,30.04,1017.5,,,,2025-01-06,1,2025,8,KIAD
2025-01-03,3,09:52,EST,S  8,10.0,Mostly Cloudy,BKN120 BKN250,36.0,21.0,,,55%,30.0,,30.01,1016.3,,,,2025-01-06,1,2025,9,KIAD
2025-01-03,3,10:52,EST,S  8,10.0,Mostly Cloudy,FEW055 BKN120 BKN250,35.1,21.9,,,59%,29.0,,29.96,1014.8,,,,2025-01-06,1,2025,10,KIAD
2025-01-03,3,11:52,EST,S  9,10.0,Mostly Cloudy,FEW055 BKN120 BKN250,37.9,24.1,,,57%,32.0,,29.9,1012.5,,,,2025-01-06,1,2025,11,KIAD
2025-01-03,3,12:52,EST,SW  14,10.0,Mostly Cloudy,FEW060 BKN120 BKN200,41.0,25.0,41.0,26.1,53%,34.0,,29.85,1011.1,,,,2025-01-06,1,2025,12,KIAD
2025-01-03,3,13:52,EST,W  13  G 20,5.0,Light Snow Rain,BKN039 OVC060,39.9,27.0,,,60%,33.0,,29.84,1010.5,,,,2025-01-06,1,2025,13,KIAD
2025-01-03,3,14:52,EST,N  12  G 18,10.0,Overcast,SCT024 BKN037 OVC070,39.0,30.0,,,70%,32.0,,29.83,1010.3,,,,2025-01-06,1,2025,14,KIAD
2025-01-03,3,15:52,EST,W  8  G 20,10.0,Overcast,SCT007 BKN015 OVC036,34.0,30.0,,,85%,28.0,,29.85,1011.2,0.05,0.05,,2025-01-06,1,2025,15,KIAD
2025-01-03,3,16:52,EST,NW  18  G 28,10.0,Mostly Cloudy,FEW017 SCT028 BKN047,34.0,28.0,,,79%,24.0,,29.89,1012.4,,,,2025-01-06,1,2025,16,KIAD
2025-01-03,3,17:52,EST,NW  22  G 30,10.0,A Few Clouds and Breezy,FEW030 FEW055,33.1,21.9,,,64%,22.0,,29.92,1013.4,,,,2025-01-06,1,2025,17,KIAD
2025-01-03,3,18:52,EST,W  22  G 33,10.0,A Few Clouds and Breezy,FEW040,30.9,18.0,42.1,30.9,59%,19.0,,29.94,1014.1,,,0.05,2025-01-06,1,2025,18,KIAD
2025-01-03,3,19:52,EST,W  20  G 31,10.0,A Few Clouds,FEW050,30.9,17.1,,,56%,20.0,,29.96,1014.7,,,,2025-01-06,1,2025,19,KIAD
2025-01-03,3,20:52,EST,NW  16  G 29,10.0,A Few Clouds,FEW050,28.9,16.0,,,58%,18.0,,29.98,1015.5,,,,2025-01-06,1,2025,20,KIAD
2025-01-03,3,21:52,EST,NW  16  G 29,10.0,A Few Clouds,FEW060,28.9,15.1,,,56%,18.0,,29.98,1015.6,,,,2025-01-06,1,2025,21,KIAD
2025-01-03,3,22:52,EST,NW  13,10.0,Partly Cloudy,FEW060 SCT080,28.0,15.1,,,58%,18.0,,30.0,1016.1,,,,2025-01-06,1,2025,22,KIAD
2025-01-03,3,23:52,EST,NW  10,10.0,Mostly Cloudy,BKN050,28.0,15.1,,,58%,19.0,,30.0,1016.3,,,,2025-01-06,1,2025,23,KIAD
2025-01-04,4,00:52,EST,NW  15  G 29,10.0,Mostly Cloudy,BKN050,28.0,14.0,30.9,28.0,56%,17.0,,29.99,1015.8,,,,2025-01-07,1,2025,0,KIAD
2025-01-04,4,01:52,EST,NW  21  G 31,10.0,Mostly Cloudy and Breezy,BKN050,27.0,12.9,,,55%,14.0,,30.0,1016.1,,,,2025-01-07,1,2025,1,KIAD
2025-01-04,4,02:52,EST,NW  12  G 23,10.0,A Few Clouds,FEW070,28.0,14.0,,,56%,19.0,,30.02,1016.6,,,,2025-01-07,1,2025,2,KIAD
2025-01-04,4,03:52,EST,W  15  G 23,10.0,A Few Clouds,FEW070,27.0,15.1,,,61%,16.0,,30.03,1017.0,,,,2025-01-07,1,2025,3,KIAD
2025-01-04,4,04:52,EST,NW  15  G 25,10.0,A Few Clouds,FEW050,27.0,14.0,,,58%,16.0,,30.03,1017.2,,,,2025-01-07,1,2025,4,KIAD
2025-01-04,4,05:52,EST,W  18  G 30,10.0,Mostly Cloudy,BKN055,27.0,12.0,,,53%,15.0,,30.05,1017.8,,,,2025-01-07,1,2025,5,KIAD
2025-01-04,4,06:52,EST,W  22  G 38,10.0,Mostly Cloudy and Breezy,BKN050,27.0,10.9,28.0,27.0,51%,14.0,,30.08,1018.7,,,,2025-01-07,1,2025,6,KIAD
2025-01-04,4,07:52,EST,NW  14  G 23,10.0,Mostly Cloudy,BKN050,27.0,10.0,,,49%,16.0,,30.11,1019.9,,,,2025-01-07,1,2025,7,KIAD
2025-01-04,4,08:52,EST,NW  14  G 26,10.0,Mostly Cloudy,BKN050,28.0,10.0,,,47%,18.0,,30.13,1020.4,,,,2025-01-07,1,2025,8,KIAD
2025-01-04,4,14:52,EST,NW  18  G 36,10.0,Mostly Cloudy,BKN055,30.0,8.1,,,39%,19.0,,30.1,1019.6,,,,2025-01-07,1,2025,14,KIAD
2025-01-05,5,12:52,EST,NW  7,10.0,Mostly Cloudy,BKN250,34.0,5.0,34.0,15.1,29%,29.0,,30.17,1021.9,,,,2025-01-07,1,2025,12,KIAD
2025-01-05,5,22:52,EST,E  3,10.0,Overcast,OVC060,30.9,9.0,,,40%,,,30.12,1020.3,,,,2025-01-07,1,2025,22,KIAD
2025-01-06,6,14:52,EST,N  10,1.5,Light Snow Fog/Mist,OVC009,27.0,23.0,,,85%,18.0,,29.67,1004.9,,,,2025-01-07,1,2025,14,KIAD
2025-01-04,4,10:52,EST,NW  25  G 36,10.0,Mostly Cloudy and Breezy,BKN050,28.9,9.0,,,43%,15.0,,30.12,1020.3,,,,2025-01-07,1,2025,10,KIAD
2025-01-04,4,11:52,EST,NW  20  G 37,10.0,Mostly Cloudy,BKN050,28.9,8.1,,,41%,17.0,,30.11,1019.9,,,,2025-01-07,1,2025,11,KIAD
2025-01-04,4,12:52,EST,NW  24  G 38,10.0,Mostly Cloudy and Breezy,BKN050,28.9,8.1,30.0,27.0,41%,16.0,,30.1,1019.5,,,,2025-01-07,1,2025,12,KIAD
2025-01-04,4,13:52,EST,NW  16  G 26,10.0,Mostly Cloudy,BKN060,28.9,8.1,,,41%,18.0,,30.11,1019.8,,,,2025-01-07,1,2025,13,KIAD
2025-01-04,4,15:52,EST,NW  23  G 39,10.0,Mostly Cloudy and Breezy,BKN055,28.9,7.0,,,39%,16.0,,30.1,1019.6,,,,2025-01-07,1,2025,15,KIAD
2025-01-04,4,16:52,EST,NW  17  G 24,10.0,A Few Clouds,FEW055,28.0,8.1,,,43%,17.0,,30.12,1020.2,,,,2025-01-07,1,2025,16,KIAD
2025-01-04,4,17:52,EST,NW  20,10.0,A Few Clouds,FEW055,27.0,8.1,,,45%,14.0,,30.13,1020.6,,,,2025-01-07,1,2025,17,KIAD
2025-01-04,4,18:52,EST,NW  22  G 31,10.0,A Few Clouds and Breezy,FEW055,26.1,7.0,30.9,26.1,44%,13.0,,30.15,1021.3,,,,2025-01-07,1,2025,18,KIAD
2025-01-04,4,19:52,EST,NW  18,10.0,A Few Clouds,FEW055,25.0,7.0,,,46%,12.0,,30.16,1021.8,,,,2025-01-07,1,2025,19,KIAD
2025-01-04,4,20:52,EST,NW  21  G 33,10.0,Partly Cloudy and Breezy,SCT055,25.0,7.0,,,46%,11.0,,30.16,1021.5,,,,2025-01-07,1,2025,20,KIAD
2025-01-04,4,21:52,EST,NW  13,10.0,Mostly Cloudy,BKN044,25.0,8.1,,,48%,14.0,,30.17,1022.0,,,,2025-01-07,1,2025,21,KIAD
2025-01-04,4,22:52,EST,NW  16  G 28,10.0,A Few Clouds,FEW045,25.0,8.1,,,48%,13.0,,30.17,1022.1,,,,2025-01-07,1,2025,22,KIAD
2025-01-04,4,23:52,EST,NW  10,10.0,A Few Clouds,FEW040,24.1,8.1,,,50%,15.0,,30.18,1022.1,,,,2025-01-07,1,2025,23,KIAD
2025-01-05,5,00:52,EST,NW  9,10.0,Fair,CLR,21.9,9.0,26.1,21.9,57%,13.0,,30.18,1022.3,,,,2025-01-08,1,2025,0,KIAD
2025-01-05,5,01:52,EST,NW  9,10.0,Fair,CLR,23.0,8.1,,,53%,14.0,,30.17,1021.9,,,,2025-01-08,1,2025,1,KIAD
2025-01-05,5,02:52,EST,NE  3,10.0,Fair,CLR,21.0,8.1,,,57%,,,30.18,1022.3,,,,2025-01-08,1,2025,2,KIAD
2025-01-05,5,03:52,EST,W  5,10.0,A Few Clouds,FEW250,23.0,8.1,,,53%,18.0,,30.19,1022.5,,,,2025-01-08,1,2025,3,KIAD
2025-01-05,5,04:52,EST,Calm,10.0,A Few Clouds,FEW250,19.0,7.0,,,59%,,,30.18,1022.4,,,,2025-01-08,1,2025,4,KIAD
2025-01-05,5,05:52,EST,Calm,10.0,A Few Clouds,FEW250,17.1,8.1,,,68%,,,30.19,1022.9,,,,2025-01-08,1,2025,5,KIAD
2025-01-05,5,06:52,EST,S  5,10.0,A Few Clouds,FEW250,16.0,8.1,23.0,15.1,71%,10.0,,30.22,1023.7,,,,2025-01-08,1,2025,6,KIAD
2025-01-05,5,07:52,EST,Calm,10.0,A Few Clouds,FEW055 FEW250,16.0,9.0,,,74%,,,30.22,1023.6,,,,2025-01-08,1,2025,7,KIAD
2025-01-05,5,08:52,EST,Calm,10.0,A Few Clouds,FEW250,21.9,12.9,,,68%,,,30.22,1023.8,,,,2025-01-08,1,2025,8,KIAD
2025-01-05,5,09:52,EST,NW  6,10.0,A Few Clouds,FEW250,27.0,8.1,,,45%,21.0,,30.23,1024.2,,,,2025-01-08,1,2025,9,KIAD
2025-01-05,5,10:52,EST,Vrbl  6,10.0,A Few Clouds,FEW250,30.0,5.0,,,34%,25.0,,30.24,1024.3,,,,2025-01-08,1,2025,10,KIAD
2025-01-05,5,11:52,EST,W  8,10.0,Mostly Cloudy,BKN250,30.9,5.0,,,33%,24.0,,30.2,1023.0,,,,2025-01-08,1,2025,11,KIAD
2025-01-05,5,13:52,EST,NW  9,10.0,Mostly Cloudy,FEW110 BKN200 BKN250,34.0,5.0,,,29%,27.0,,30.14,1020.9,,,,2025-01-08,1,2025,13,KIAD
2025-01-05,5,14:52,EST,N  8,10.0,Mostly Cloudy,FEW110 BKN180 BKN250,34.0,6.1,,,31%,28.0,,30.14,1020.9,,,,2025-01-08,1,2025,14,KIAD
2025-01-05,5,15:52,EST,N  3,10.0,Mostly Cloudy,FEW100 BKN180 BKN250,34.0,5.0,,,29%,,,30.14,1021.0,,,,2025-01-08,1,2025,15,KIAD
2025-01-05,5,16:52,EST,Calm,10.0,Mostly Cloudy,FEW120 BKN180 BKN250,32.0,8.1,,,36%,,,30.14,1021.0,,,,2025-01-08,1,2025,16,KIAD
2025-01-05,5,17:52,EST,NW  6,10.0,Overcast,SCT110 BKN180 OVC250,33.1,5.0,,,30%,28.0,,30.14,1021.1,,,,2025-01-08,1,2025,17,KIAD
2025-01-05,5,18:52,EST,NW  5,10.0,Overcast,OVC110,33.1,5.0,35.1,30.9,30%,29.0,,30.14,1020.9,,,,2025-01-08,1,2025,18,KIAD
2025-01-05,5,19:52,EST,NW  6,10.0,Overcast,OVC110,33.1,6.1,,,32%,28.0,,30.12,1020.3,,,,2025-01-08,1,2025,19,KIAD
2025-01-05,5,20:52,EST,Calm,10.0,Overcast,OVC100,33.1,8.1,,,35%,,,30.13,1020.6,,,,2025-01-08,1,2025,20,KIAD
2025-01-05,5,21:52,EST,Calm,10.0,Overcast,BKN075 OVC090,32.0,10.0,,,40%,,,30.12,1020.3,,,,2025-01-08,1,2025,21,KIAD
2025-01-05,5,23:52,EST,SW  10,10.0,Overcast,OVC055,30.0,19.0,,,64%,22.0,,30.11,1020.0,,,,2025-01-09,1,2025,23,KIAD
2025-01-06,6,00:52,EST,SW  5,3.0,Light Snow Fog/Mist,OVC018,27.0,21.9,33.1,27.0,81%,22.0,,30.1,1019.4,,,,2025-01-09,1,2025,0,KIAD
2025-01-06,6,01:52,EST,Calm,0.75,Light Snow Fog/Mist,VV014,26.1,24.1,,,92%,,,30.06,1018.3,0.07,,,2025-01-09,1,2025,1,KIAD
2025-01-06,6,02:52,EST,E  3,0.75,Light Snow Fog/Mist,VV010,27.0,24.1,,,89%,,,30.05,1017.7,0.07,,,2025-01-09,1,2025,2,KIAD
2025-01-06,6,03:52,EST,E  3,1.0,Light Snow Fog/Mist,VV012,27.0,24.1,,,89%,,,30.0,1016.3,0.06,0.2,,2025-01-09,1,2025,3,KIAD
2025-01-06,6,04:52,EST,E  6,0.75,Light Snow Fog/Mist,BKN008 OVC160,26.1,24.1,,,92%,20.0,,29.96,1014.8,0.1,,,2025-01-09,1,2025,4,KIAD
2025-01-06,6,05:52,EST,E  5,1.0,Light Snow Fog/Mist,VV014,26.1,23.0,,,88%,21.0,,29.94,1014.0,0.09,,,2025-01-09,1,2025,5,KIAD
2025-01-06,6,06:52,EST,E  9,3.0,Light Snow Fog/Mist,SCT014 BKN026 OVC050,26.1,21.9,27.0,26.1,84%,18.0,,29.89,1012.6,0.09,,0.48,2025-01-09,1,2025,6,KIAD
2025-01-06,6,07:52,EST,E  7,2.0,Light Snow Fog/Mist,BKN025 OVC037,26.1,23.0,,,88%,19.0,,29.87,1011.9,0.03,,,2025-01-09,1,2025,7,KIAD
2025-01-06,6,08:52,EST,E  8,2.5,Light Snow Fog/Mist,FEW010 BKN028 OVC047,26.1,23.0,,,88%,18.0,,29.86,1011.5,0.04,,,2025-01-09,1,2025,8,KIAD
2025-01-06,6,09:52,EST,NE  8,1.5,Light Snow Fog/Mist,FEW009 BKN014 OVC032,26.1,23.0,,,88%,18.0,,29.83,1010.6,0.02,0.09,,2025-01-09,1,2025,9,KIAD
2025-01-06,6,10:52,EST,NE  9,1.25,Light Snow Fog/Mist,FEW008 SCT012 OVC026,26.1,23.0,,,88%,18.0,,29.83,1010.3,0.01,,,2025-01-09,1,2025,10,KIAD
2025-01-06,6,11:52,EST,NE  10,4.0,Fog/Mist,SCT008 BKN010 OVC026,26.1,21.9,,,84%,17.0,,29.77,1008.2,,,,2025-01-09,1,2025,11,KIAD
2025-01-06,6,12:52,EST,NE  10,10.0,Overcast,FEW008 BKN011 OVC025,27.0,21.9,27.0,26.1,81%,18.0,,29.71,1006.5,,,0.1,2025-01-09,1,2025,12,KIAD
2025-01-06,6,13:52,EST,NE  10,5.0,Light Snow Fog/Mist,OVC011,27.0,21.9,,,81%,18.0,,29.68,1005.1,,,,2025-01-09,1,2025,13,KIAD
2025-01-06,6,15:52,EST,N  10,4.0,Light Snow,BKN009 OVC015,27.0,23.0,,,85%,18.0,,29.67,1004.9,0.01,0.01,,2025-01-09,1,2025,15,KIAD
2025-01-06,6,16:52,EST,N  13,1.5,Light Snow Fog/Mist,BKN009 OVC020,26.1,23.0,,,88%,16.0,,29.69,1005.6,,,,2025-01-09,1,2025,16,KIAD
2025-01-06,6,17:52,EST,N  10,1.5,Light Snow Fog/Mist,BKN007 OVC017,27.0,23.0,,,85%,18.0,,29.7,1006.1,0.01,,,2025-01-09,1,2025,17,KIAD
2025-01-06,6,18:52,EST,NW  14,1.0,Light Snow Fog/Mist,BKN009 OVC017,27.0,24.1,28.0,26.1,89%,16.0,,29.73,1007.1,0.01,,0.03,2025-01-09,1,2025,18,KIAD
2025-01-06,6,19:52,EST,NW  14,1.0,Light Snow Fog/Mist,SCT009 OVC015,27.0,23.0,,,85%,16.0,,29.77,1008.4,0.02,,,2025-01-09,1,2025,19,KIAD
2025-01-06,6,20:52,EST,NW  10,1.0,Light Snow Fog/Mist,VV013,27.0,24.1,,,89%,18.0,,29.79,1008.9,0.01,,,2025-01-09,1,2025,20,KIAD
2025-01-06,6,21:52,EST,NW  16  G 24,4.0,Light Snow,SCT013 BKN040 OVC110,28.0,23.0,,,81%,17.0,,29.81,1009.6,,0.03,,2025-01-09,1,2025,21,KIAD
2025-01-06,6,22:52,EST,N  12,7.0,Overcast,FEW015 OVC030,28.9,23.0,,,78%,20.0,,29.83,1010.4,,,,2025-01-09,1,2025,22,KIAD
2025-01-06,6,23:52,EST,NW  23  G 35,10.0,Mostly Cloudy and Breezy,BKN033,28.9,19.0,,,66%,16.0,,29.85,1011.2,,,,2025-01-09,1,2025,23,KIAD
2025-01-07,7,00:52,EST,NW  16  G 25,10.0,Overcast,OVC034,28.0,18.0,30.0,27.0,66%,17.0,,29.88,1012.2,,,0.03,2025-01-10,1,2025,0,KIAD
2025-01-07,7,01:52,EST,NW  23  G 36,9.0,Mostly Cloudy and Breezy,BKN034,27.0,16.0,,,63%,13.0,,29.91,1012.9,,,,2025-01-10,1,2025,1,KIAD
2025-01-07,7,02:52,EST,N  17  G 28,10.0,Overcast,OVC035,25.0,14.0,,,63%,13.0,,29.94,1014.4,,,,2025-01-10,1,2025,2,KIAD
2025-01-07,7,03:52,EST,N  14  G 23,10.0,Mostly Cloudy,BKN038,24.1,12.9,,,62%,13.0,,29.96,1015.1,,,,2025-01-10,1,2025,3,KIAD
2025-01-07,7,04:52,EST,NW  16  G 23,10.0,Mostly Cloudy,BKN036,23.0,12.0,,,63%,11.0,,29.99,1015.8,,,,2025-01-10,1,2025,4,KIAD
2025-01-07,7,05:52,EST,NW  15  G 25,10.0,Partly Cloudy,SCT026,21.9,10.9,,,63%,10.0,,30.0,1016.4,,,,2025-01-10,1,2025,5,KIAD
2025-01-07,7,06:52,EST,NW  18  G 28,10.0,A Few Clouds,FEW042,23.0,9.0,28.0,21.9,55%,10.0,,30.04,1017.6,,,,2025-01-10,1,2025,6,KIAD
2025-01-07,7,07:52,EST,NW  9,10.0,Partly Cloudy,SCT041,23.0,9.0,,,55%,14.0,,30.06,1018.4,,,,2025-01-10,1,2025,7,KIAD
2025-01-07,7,08:52,EST,NW  10,10.0,Partly Cloudy,SCT043,25.0,10.9,,,55%,16.0,,30.07,1018.6,,,,2025-01-10,1,2025,8,KIAD
2025-01-07,7,09:52,EST,NW  16,10.0,Mostly Cloudy,BKN040,28.0,12.9,,,53%,17.0,,30.1,1019.4,,,,2025-01-10,1,2025,9,KIAD
2025-01-07,7,10:52,EST,NW  21  G 26,10.0,Mostly Cloudy and Breezy,BKN040,30.0,15.1,,,54%,18.0,,30.09,1019.4,,,,2025-01-10,1,2025,10,KIAD
2025-01-07,7,11:52,EST,NW  24  G 33,10.0,Mostly Cloudy and Breezy,BKN036,32.0,16.0,,,52%,20.0,,30.07,1018.5,,,,2025-01-10,1,2025,11,KIAD
2025-01-07,7,12:52,EST,W  24  G 35,10.0,Partly Cloudy and Breezy,SCT040,33.1,17.1,33.1,21.9,52%,21.0,,30.06,1018.3,,,,2025-01-10,1,2025,12,KIAD
2025-01-07,7,13:52,EST,NW  28  G 37,10.0,Partly Cloudy and Windy,SCT045,34.0,17.1,,,50%,22.0,,30.06,1018.3,,,,2025-01-10,1,2025,13,KIAD
2025-01-07,7,14:52,EST,W  25  G 37,10.0,A Few Clouds and Breezy,FEW046,33.1,16.0,,,49%,21.0,,30.08,1018.9,,,,2025-01-10,1,2025,14,KIAD
2025-01-07,7,15:52,EST,NW  16  G 26,10.0,Mostly Cloudy,BKN048,32.0,16.0,,,52%,22.0,,30.12,1020.1,,,,2025-01-10,1,2025,15,KIAD
2025-01-07,7,16:52,EST,W  15  G 29,10.0,Partly Cloudy,SCT046 SCT150,30.9,16.0,,,54%,21.0,,30.13,1020.5,,,,2025-01-10,1,2025,16,KIAD
2025-01-07,7,17:52,EST,NW  17,10.0,Mostly Cloudy,BKN045,28.9,15.1,,,56%,18.0,,30.15,1021.5,,,,2025-01-10,1,2025,17,KIAD
2025-01-07,7,18:52,EST,NW  15  G 23,10.0,Overcast,OVC047,28.9,14.0,34.0,28.9,54%,18.0,,30.16,1021.8,,,,2025-01-10,1,2025,18,KIAD
2025-01-07,7,19:52,EST,NW  22  G 29,10.0,Partly Cloudy and Breezy,SCT047,28.0,14.0,,,56%,15.0,,30.16,1021.7,,,,2025-01-10,1,2025,19,KIAD
2025-01-07,7,20:52,EST,NW  25  G 33,10.0,Overcast and Breezy,FEW040 OVC160,28.0,12.9,,,53%,14.0,,30.17,1021.8,,,,2025-01-10,1,2025,20,KIAD
2025-01-07,7,21:52,EST,NW  18  G 28,10.0,Overcast,FEW044 OVC160,27.0,12.0,,,53%,15.0,,30.17,1021.8,,,,2025-01-10,1,2025,21,KIAD
2025-01-07,7,22:52,EST,NW  21  G 35,10.0,Overcast and Breezy,FEW044 OVC210,27.0,10.9,,,51%,14.0,,30.17,1021.9,,,,2025-01-10,1,2025,22,KIAD
2025-01-07,7,23:52,EST,NW  20  G 33,10.0,Overcast,OVC220,26.1,10.9,,,53%,13.0,,30.18,1022.1,,,,2025-01-11,1,2025,23,KIAD
2025-01-08,8,00:52,EST,NW  26  G 35,10.0,Overcast and Windy,OVC200,26.1,10.0,28.9,26.1,51%,11.0,,30.17,1022.0,,,,2025-01-11,1,2025,0,KIAD
2025-01-08,8,01:52,EST,NW  22  G 33,10.0,Overcast and Breezy,FEW050 OVC200,26.1,10.9,,,53%,13.0,,30.18,1022.2,,,,2025-01-11,1,2025,1,KIAD
2025-01-08,8,02:52,EST,NW  17,10.0,Overcast,SCT043 OVC210,26.1,10.9,,,53%,14.0,,30.19,1022.6,,,,2025-01-11,1,2025,2,KIAD
2025-01-08,8,03:52,EST,NW  15,10.0,Overcast,BKN045 OVC210,26.1,12.0,,,55%,15.0,,30.18,1022.4,,,,2025-01-11,1,2025,3,KIAD
2025-01-08,8,04:52,EST,NW  13,10.0,Overcast,OVC046,26.1,12.0,,,55%,16.0,,30.17,1022.1,,,,2025-01-11,1,2025,4,KIAD
2025-01-08,8,05:52,EST,W  6,10.0,Overcast,BKN047 OVC200,25.0,10.9,,,55%,19.0,,30.17,1021.9,,,,2025-01-11,1,2025,5,KIAD
2025-01-08,8,06:52,EST,NW  13  G 22,10.0,Mostly Cloudy,BKN050 BKN250,25.0,10.9,26.1,24.1,55%,14.0,,30.17,1021.9,,,,2025-01-11,1,2025,6,KIAD
2025-01-08,8,07:52,EST,NW  17  G 24,10.0,Mostly Cloudy,BKN045 BKN250,24.1,10.9,,,57%,11.0,,30.17,1022.0,,,,2025-01-11,1,2025,7,KIAD
2025-01-08,8,08:52,EST,W  8,10.0,Mostly Cloudy,SCT046 BKN220,25.0,10.0,,,53%,17.0,,30.17,1021.8,,,,2025-01-11,1,2025,8,KIAD
2025-01-08,8,09:52,EST,NW  7,10.0,Mostly Cloudy,FEW030 FEW036 BKN220,27.0,10.9,,,51%,20.0,,30.16,1021.7,,,,2025-01-11,1,2025,9,KIAD
2025-01-08,8,10:52,EST,NW  20  G 31,10.0,Mostly Cloudy,FEW035 SCT046 BKN250,30.0,12.9,,,49%,18.0,,30.14,1020.9,,,,2025-01-11,1,2025,10,KIAD
2025-01-08,8,11:52,EST,NW  21  G 25,10.0,Mostly Cloudy and Breezy,BKN048 BKN250,28.9,12.9,,,51%,17.0,,30.11,1020.1,,,,2025-01-11,1,2025,11,KIAD
2025-01-08,8,12:52,EST,NW  24  G 35,10.0,Mostly Cloudy and Breezy,BKN048 BKN120 BKN250,32.0,12.9,32.0,24.1,45%,20.0,,30.06,1018.3,,,,2025-01-11,1,2025,12,KIAD
2025-01-08,8,13:52,EST,NW  22  G 38,10.0,Mostly Cloudy and Breezy,BKN048 BKN120 BKN250,30.0,12.9,,,49%,18.0,,30.02,1017.0,,,,2025-01-11,1,2025,13,KIAD
2025-01-08,8,14:52,EST,NW  17,10.0,Mostly Cloudy,BKN050 BKN120 BKN250,30.0,12.9,,,49%,19.0,,30.01,1016.6,,,,2025-01-11,1,2025,14,KIAD
2025-01-08,8,15:52,EST,NW  16  G 29,10.0,Mostly Cloudy,BKN045 BKN120 BKN250,28.9,15.1,,,56%,18.0,,30.03,1017.2,,,,2025-01-11,1,2025,15,KIAD
2025-01-08,8,16:52,EST,NW  14,10.0,Overcast,BKN045 BKN140 OVC250,28.0,15.1,,,58%,18.0,,30.03,1017.1,,,,2025-01-11,1,2025,16,KIAD
2025-01-08,8,17:52,EST,NW  15  G 23,10.0,Mostly Cloudy,BKN045 BKN140,27.0,14.0,,,58%,16.0,,30.03,1017.1,,,,2025-01-11,1,2025,17,KIAD
2025-01-08,8,18:52,EST,NW  12,10.0,Mostly Cloudy,FEW060 BKN140,26.1,14.0,32.0,26.1,60%,16.0,,30.03,1017.4,,,,2025-01-11,1,2025,18,KIAD
2025-01-08,8,19:52,EST,NW  10,10.0,Mostly Cloudy,BKN049,27.0,10.9,,,51%,18.0,,30.05,1018.0,,,,2025-01-11,1,2025,19,KIAD
2025-01-08,8,20:52,EST,NW  15  G 23,10.0,Partly Cloudy,SCT050,25.0,7.0,,,46%,13.0,,30.05,1018.1,,,,2025-01-11,1,2025,20,KIAD
2025-01-08,8,21:52,EST,NW  10,10.0,Partly Cloudy,SCT050,23.0,7.0,,,50%,13.0,,30.05,1018.0,,,,2025-01-11,1,2025,21,KIAD
2025-01-08,8,22:52,EST,NW  10,10.0,Overcast,OVC050,23.0,7.0,,,50%,13.0,,30.04,1017.6,,,,2025-01-11,1,2025,22,KIAD
2025-01-08,8,23:52,EST,NW  12,10.0,Overcast,OVC050,24.1,9.0,,,52%,14.0,,30.03,1017.2,,,,2025-01-11,1,2025,23,KIAD
2025-01-09,9,00:52,EST,NW  16  G 26,10.0,A Few Clouds,FEW050,23.0,6.1,27.0,21.9,48%,11.0,,30.02,1016.8,,,,2025-01-12,1,2025,0,KIAD
2025-01-09,9,01:52,EST,NW  13  G 20,10.0,Fair,CLR,21.9,6.1,,,50%,11.0,,30.02,1017.0,,,,2025-01-12,1,2025,1,KIAD
2025-01-09,9,02:52,EST,NW  9,10.0,Mostly Cloudy,BKN047,21.9,7.0,,,52%,13.0,,30.03,1017.2,,,,2025-01-12,1,2025,2,KIAD
2025-01-09,9,03:52,EST,NW  12,10.0,A Few Clouds,FEW047,19.0,7.0,,,59%,8.0,,30.01,1016.6,,,,2025-01-12,1,2025,3,KIAD
2025-01-09,9,04:52,EST,NW  9,10.0,Fair,CLR,19.9,7.0,,,57%,10.0,,30.01,1016.6,,,,2025-01-12,1,2025,4,KIAD
2025-01-09,9,05:52,EST,NW  10,10.0,A Few Clouds,FEW047,21.0,8.1,,,57%,11.0,,30.03,1017.1,,,,2025-01-12,1,2025,5,KIAD
2025-01-09,9,06:52,EST,NW  13,10.0,A Few Clouds,FEW047,21.0,7.0,23.0,18.0,54%,10.0,,30.03,1017.4,,,,2025-01-12,1,2025,6,KIAD
2025-01-09,9,07:52,EST,NW  15  G 26,10.0,A Few Clouds,FEW046,23.0,7.0,,,50%,11.0,,30.04,1017.6,,,,2025-01-12,1,2025,7,KIAD
2025-01-09,9,08:52,EST,NW  17  G 29,10.0,A Few Clouds,FEW046,24.1,7.0,,,48%,11.0,,30.06,1018.3,,,,2025-01-12,1,2025,8,KIAD
2025-01-09,9,09:52,EST,NW  24  G 33,10.0,A Few Clouds and Breezy,FEW046,25.0,7.0,,,46%,10.0,,30.07,1018.7,,,,2025-01-12,1,2025,9,KIAD
2025-01-09,9,10:52,EST,NW  23  G 37,10.0,Fair and Breezy,CLR,27.0,7.0,,,43%,13.0,,30.08,1019.1,,,,2025-01-12,1,2025,10,KIAD
2025-01-09,9,11:52,EST,NW  22  G 40,10.0,Fair and Breezy,CLR,28.0,8.1,,,43%,15.0,,30.07,1018.6,,,,2025-01-12,1,2025,11,KIAD
2025-01-09,9,12:52,EST,NW  22  G 32,10.0,Fair and Breezy,CLR,30.0,9.0,30.0,21.0,41%,18.0,,30.04,1017.6,,,,2025-01-12,1,2025,12,KIAD
2025-01-09,9,13:52,EST,NW  18  G 29,10.0,Fair,CLR,30.9,10.0,,,42%,20.0,,30.04,1017.6,,,,2025-01-12,1,2025,13,KIAD
2025-01-09,9,14:52,EST,NW  26  G 35,10.0,Fair and Windy,CLR,30.9,7.0,,,36%,18.0,,30.05,1018.0,,,,2025-01-12,1,2025,14,KIAD
2025-01-09,9,15:52,EST,NW  15  G 26,10.0,Fair,CLR,30.9,8.1,,,38%,21.0,,30.07,1018.6,,,,2025-01-12,1,2025,15,KIAD
2025-01-09,9,16:52,EST,NW  17  G 31,10.0,Fair,CLR,30.0,8.1,,,39%,19.0,,30.08,1018.8,,,,2025-01-12,1,2025,16,KIAD
2025-01-09,9,17:52,EST,NW  16  G 26,10.0,Fair,CLR,28.9,7.0,,,39%,18.0,,30.08,1019.0,,,,2025-01-12,1,2025,17,KIAD
2025-01-09,9,18:52,EST,NW  12,10.0,Fair,CLR,28.0,8.1,30.9,28.0,43%,19.0,,30.1,1019.7,,,,2025-01-12,1,2025,18,KIAD
2025-01-09,9,19:52,EST,NW  15  G 24,10.0,Fair,CLR,27.0,8.1,,,45%,16.0,,30.12,1020.4,,,,2025-01-12,1,2025,19,KIAD
2025-01-09,9,20:52,EST,NW  17  G 26,10.0,Fair,CLR,26.1,8.1,,,46%,14.0,,30.13,1020.7,,,,2025-01-12,1,2025,20,KIAD
2025-01-09,9,21:52,EST,NW  10,10.0,Fair,CLR,25.0,8.1,,,48%,16.0,,30.13,1020.7,,,,2025-01-12,1,2025,21,KIAD
2025-01-09,9,22:52,EST,NW  14  G 22,10.0,Fair,CLR,25.0,8.1,,,48%,14.0,,30.13,1020.8,,,,2025-01-12,1,2025,22,KIAD
2025-01-09,9,23:52,EST,NW  7,10.0,Fair,CLR,24.1,7.0,,,48%,17.0,,30.12,1020.3,,,,2025-01-13,1,2025,23,KIAD
2025-01-10,10,00:52,EST,NW  8,10.0,Fair,CLR,21.0,6.1,28.0,21.0,52%,12.0,,30.12,1020.5,,,,2025-01-13,1,2025,0,KIAD
2025-01-10,10,01:52,EST,NW  10,10.0,Fair,CLR,23.0,5.0,,,46%,13.0,,30.11,1020.0,,,,2025-01-13,1,2025,1,KIAD
2025-01-10,10,02:52,EST,NW  9,10.0,Fair,CLR,21.9,5.0,,,48%,13.0,,30.13,1020.4,,,,2025-01-13,1,2025,2,KIAD
2025-01-10,10,03:52,EST,Vrbl  5,10.0,Fair,CLR,21.9,5.0,,,48%,16.0,,30.15,1021.2,,,,2025-01-13,1,2025,3,KIAD
2025-01-10,10,04:52,EST,N  10,10.0,Fair,CLR,21.9,6.1,,,50%,12.0,,30.14,1020.9,,,,2025-01-13,1,2025,4,KIAD
2025-01-10,10,05:52,EST,NW  10,10.0,Fair,CLR,21.0,6.1,,,52%,11.0,,30.16,1021.8,,,,2025-01-13,1,2025,5,KIAD
2025-01-10,10,06:52,EST,NW  13  G 18,10.0,Fair,CLR,21.9,6.1,23.0,19.0,50%,11.0,,30.15,1021.5,,,,2025-01-13,1,2025,6,KIAD
2025-01-10,10,07:52,EST,NW  5,10.0,Fair,CLR,21.0,7.0,,,54%,15.0,,30.14,1020.8,,,,2025-01-13,1,2025,7,KIAD
2025-01-10,10,08:52,EST,NW  8,10.0,A Few Clouds,FEW250,24.1,8.1,,,50%,16.0,,30.16,1021.6,,,,2025-01-13,1,2025,8,KIAD
2025-01-10,10,09:52,EST,NW  14  G 22,10.0,Mostly Cloudy,BKN150 BKN250,25.0,7.0,,,46%,14.0,,30.13,1020.8,,,,2025-01-13,1,2025,9,KIAD
2025-01-10,10,10:52,EST,NW  10,10.0,Mostly Cloudy,BKN150 BKN250,27.0,7.0,,,43%,18.0,,30.12,1020.4,,,,2025-01-13,1,2025,10,KIAD
2025-01-10,10,11:52,EST,NW  8,10.0,Mostly Cloudy,BKN250,30.0,7.0,,,38%,23.0,,30.1,1019.4,,,,2025-01-13,1,2025,11,KIAD
2025-01-12,12,13:52,EST,Calm,10.0,A Few Clouds,FEW120,41.0,19.0,,,41%,,,30.06,1018.1,,,,2025-01-13,1,2025,13,KIAD
2025-01-12,12,14:52,EST,N  5,10.0,A Few Clouds,FEW120,39.9,18.0,,,41%,37.0,,30.06,1018.1,,,,2025-01-13,1,2025,14,KIAD
2025-01-12,12,15:52,EST,NW  3,10.0,A Few Clouds,FEW120 FEW250,39.0,18.0,,,43%,,,30.07,1018.5,,,,2025-01-13,1,2025,15,KIAD
2025-01-10,10,12:52,EST,NW  6,10.0,Mostly Cloudy,BKN250,30.0,8.1,30.0,21.0,39%,25.0,,30.06,1018.4,,,,2025-01-13,1,2025,12,KIAD
2025-01-10,10,13:52,EST,NW  5,10.0,Mostly Cloudy,BKN170 BKN250,30.0,9.0,,,41%,26.0,,30.05,1017.7,,,,2025-01-13,1,2025,13,KIAD
2025-01-10,10,14:52,EST,NW  6,10.0,Mostly Cloudy,BKN160 BKN250,32.0,9.0,,,38%,27.0,,29.99,1015.7,,,,2025-01-13,1,2025,14,KIAD
2025-01-10,10,15:52,EST,W  5,10.0,Mostly Cloudy,BKN140 BKN250,30.9,10.0,,,42%,27.0,,30.0,1016.1,,,,2025-01-13,1,2025,15,KIAD
2025-01-10,10,16:52,EST,Calm,10.0,Overcast,SCT110 BKN160 OVC200,30.0,10.9,,,45%,,,29.95,1014.4,,,,2025-01-13,1,2025,16,KIAD
2025-01-10,10,17:52,EST,Calm,10.0,Overcast,BKN100 OVC160,30.9,10.9,,,43%,,,29.92,1013.6,,,,2025-01-13,1,2025,17,KIAD
2025-01-10,10,18:52,EST,Calm,10.0,Overcast,OVC095,30.0,16.0,33.1,28.9,56%,,,29.91,1013.3,,,,2025-01-13,1,2025,18,KIAD
2025-01-10,10,19:52,EST,Calm,10.0,Overcast,OVC095,30.0,14.0,,,51%,,,29.86,1011.5,,,,2025-01-13,1,2025,19,KIAD
2025-01-10,10,20:52,EST,SE  5,10.0,Overcast,OVC080,30.0,14.0,,,51%,26.0,,29.81,1009.8,,,,2025-01-13,1,2025,20,KIAD
2025-01-10,10,21:52,EST,S  3,10.0,Overcast,OVC065,30.0,14.0,,,51%,,,29.81,1009.8,,,,2025-01-13,1,2025,21,KIAD
2025-01-10,10,22:52,EST,SW  15  G 25,3.0,Light Snow,FEW027 OVC034,28.9,19.0,,,66%,18.0,,29.79,1009.1,,,,2025-01-13,1,2025,22,KIAD
2025-01-10,10,23:52,EST,S  7,0.5,Snow,VV015,27.0,24.1,,,89%,20.0,,29.75,1007.8,0.05,,,2025-01-13,1,2025,23,KIAD
2025-01-11,11,00:52,EST,S  3,0.5,Snow,VV010,27.0,24.1,30.9,27.0,89%,,,29.71,1006.2,0.05,,0.1,2025-01-14,1,2025,0,KIAD
2025-01-11,11,01:52,EST,Calm,3.0,Light Snow,BKN042 OVC070,27.0,24.1,,,89%,,,29.65,1004.3,0.02,,,2025-01-14,1,2025,1,KIAD
2025-01-11,11,02:52,EST,Calm,10.0,Overcast,OVC013,27.0,24.1,,,89%,,,29.63,1003.7,,,,2025-01-14,1,2025,2,KIAD
2025-01-11,11,03:52,EST,Calm,10.0,Overcast,OVC010,27.0,24.1,,,89%,,,29.6,1002.6,,0.02,,2025-01-14,1,2025,3,KIAD
2025-01-11,11,04:52,EST,NW  3,10.0,Overcast,OVC010,27.0,24.1,,,89%,,,29.57,1001.7,,,,2025-01-14,1,2025,4,KIAD
2025-01-11,11,05:52,EST,NW  3,10.0,Overcast,BKN010 OVC040,27.0,24.1,,,89%,,,29.57,1001.4,,,,2025-01-14,1,2025,5,KIAD
2025-01-11,11,06:52,EST,NW  9,10.0,Overcast,BKN010 OVC035,26.1,23.0,28.0,25.0,88%,18.0,,29.59,1002.1,,,0.02,2025-01-14,1,2025,6,KIAD
2025-01-11,11,07:52,EST,NW  8,10.0,Mostly Cloudy,BKN038,26.1,21.9,,,84%,18.0,,29.6,1002.4,,,,2025-01-14,1,2025,7,KIAD
2025-01-11,11,08:52,EST,NW  7,9.0,Mostly Cloudy,FEW040 SCT120 BKN180,27.0,19.9,,,75%,20.0,,29.61,1002.9,,,,2025-01-14,1,2025,8,KIAD
2025-01-11,11,09:52,EST,NW  7,10.0,Partly Cloudy,FEW035 SCT140,28.9,19.9,,,69%,23.0,,29.62,1003.4,,,,2025-01-14,1,2025,9,KIAD
2025-01-11,11,10:52,EST,NW  16  G 31,10.0,Mostly Cloudy,BKN120,32.0,19.0,,,59%,22.0,,29.63,1003.6,,,,2025-01-14,1,2025,10,KIAD
2025-01-11,11,11:52,EST,NW  16,10.0,Mostly Cloudy,FEW035 BKN120,32.0,19.0,,,59%,22.0,,29.63,1003.5,,,,2025-01-14,1,2025,11,KIAD
2025-01-11,11,12:52,EST,NW  20  G 31,10.0,Mostly Cloudy,BKN120,35.1,19.0,35.1,25.0,52%,25.0,,29.63,1003.6,,,,2025-01-14,1,2025,12,KIAD
2025-01-11,11,13:52,EST,W  25  G 39,10.0,Mostly Cloudy and Breezy,BKN050,35.1,18.0,,,50%,23.0,,29.64,1003.9,,,,2025-01-14,1,2025,13,KIAD
2025-01-11,11,14:52,EST,NW  24  G 35,10.0,Partly Cloudy and Breezy,FEW044 SCT100,35.1,18.0,,,50%,24.0,,29.67,1005.1,,,,2025-01-14,1,2025,14,KIAD
2025-01-11,11,15:52,EST,NW  18  G 29,10.0,Partly Cloudy,SCT047 SCT100,35.1,17.1,,,48%,25.0,,29.73,1007.0,,,,2025-01-14,1,2025,15,KIAD
2025-01-11,11,16:52,EST,NW  21  G 28,10.0,A Few Clouds and Breezy,FEW050 FEW100,33.1,17.1,,,52%,22.0,,29.78,1008.6,,,,2025-01-14,1,2025,16,KIAD
2025-01-11,11,17:52,EST,NW  17,10.0,A Few Clouds,FEW050,32.0,17.1,,,54%,22.0,,29.82,1009.9,,,,2025-01-14,1,2025,17,KIAD
2025-01-11,11,18:52,EST,NW  13,10.0,A Few Clouds,FEW055,30.0,17.1,36.0,30.0,58%,21.0,,29.84,1010.6,,,,2025-01-14,1,2025,18,KIAD
2025-01-11,11,19:52,EST,NW  14,10.0,Overcast,OVC039,32.0,19.0,,,59%,23.0,,29.88,1012.1,,,,2025-01-14,1,2025,19,KIAD
2025-01-11,11,20:52,EST,NW  14,10.0,Overcast,OVC039,32.0,19.0,,,59%,23.0,,29.9,1012.9,,,,2025-01-14,1,2025,20,KIAD
2025-01-11,11,21:52,EST,NW  7,10.0,Mostly Cloudy,BKN040,30.9,19.0,,,61%,25.0,,29.92,1013.4,,,,2025-01-14,1,2025,21,KIAD
2025-01-11,11,22:52,EST,NW  6,10.0,Mostly Cloudy,BKN041,30.9,19.0,,,61%,26.0,,29.95,1014.6,,,,2025-01-14,1,2025,22,KIAD
2025-01-11,11,23:52,EST,N  3,10.0,A Few Clouds,FEW043,30.0,18.0,,,61%,,,29.96,1014.7,,,,2025-01-14,1,2025,23,KIAD
2025-01-12,12,00:52,EST,NW  5,10.0,Mostly Cloudy,BKN043,28.9,17.1,32.0,28.0,61%,25.0,,29.97,1015.1,,,,2025-01-15,1,2025,0,KIAD
2025-01-12,12,01:52,EST,W  13,10.0,Partly Cloudy,SCT045,30.9,18.0,,,59%,22.0,,29.99,1015.8,,,,2025-01-15,1,2025,1,KIAD
2025-01-12,12,02:52,EST,NW  8,10.0,Partly Cloudy,SCT042,28.9,18.0,,,63%,22.0,,29.99,1015.9,,,,2025-01-15,1,2025,2,KIAD
2025-01-12,12,03:52,EST,NW  13,10.0,Mostly Cloudy,BKN039,30.0,19.0,,,64%,21.0,,29.99,1015.8,,,,2025-01-15,1,2025,3,KIAD
2025-01-12,12,04:52,EST,NW  8,10.0,Mostly Cloudy,BKN041 BKN180,30.9,19.0,,,61%,24.0,,30.0,1016.2,,,,2025-01-15,1,2025,4,KIAD
2025-01-12,12,05:52,EST,NW  8,10.0,Mostly Cloudy,FEW040 BKN190,32.0,19.9,,,61%,25.0,,30.01,1016.6,,,,2025-01-15,1,2025,5,KIAD
2025-01-12,12,06:52,EST,W  5,10.0,Partly Cloudy,FEW040 SCT190,28.9,19.0,32.0,25.0,66%,25.0,,30.04,1017.5,,,,2025-01-15,1,2025,6,KIAD
2025-01-12,12,07:52,EST,SW  5,10.0,A Few Clouds,FEW040 FEW180,28.0,18.0,,,66%,24.0,,30.06,1018.1,,,,2025-01-15,1,2025,7,KIAD
2025-01-12,12,08:52,EST,W  6,10.0,A Few Clouds,FEW170,32.0,19.0,,,59%,27.0,,30.09,1019.3,,,,2025-01-15,1,2025,8,KIAD
2025-01-12,12,09:52,EST,W  9,10.0,A Few Clouds,FEW170,33.1,21.0,,,61%,26.0,,30.12,1020.1,,,,2025-01-15,1,2025,9,KIAD
2025-01-12,12,10:52,EST,W  6,10.0,A Few Clouds,FEW110,36.0,21.0,,,55%,32.0,,30.13,1020.6,,,,2025-01-15,1,2025,10,KIAD
2025-01-12,12,11:52,EST,W  7,10.0,A Few Clouds,FEW030 FEW120,37.0,21.0,,,52%,32.0,,30.12,1020.0,,,,2025-01-15,1,2025,11,KIAD
2025-01-12,12,12:52,EST,W  7,10.0,A Few Clouds,FEW040,37.9,19.9,39.0,26.1,48%,33.0,,30.09,1019.1,,,,2025-01-15,1,2025,12,KIAD
2025-01-12,12,16:52,EST,Calm,10.0,Partly Cloudy,SCT160 SCT250,34.0,18.0,,,52%,,,30.06,1018.1,,,,2025-01-15,1,2025,16,KIAD
2025-01-12,12,17:52,EST,Calm,10.0,A Few Clouds,FEW160,32.0,18.0,,,56%,,,30.06,1018.3,,,,2025-01-15,1,2025,17,KIAD
2025-01-12,12,18:52,EST,S  3,10.0,Fair,CLR,32.0,17.1,41.0,30.0,54%,,,30.09,1019.2,,,,2025-01-15,1,2025,18,KIAD
2025-01-12,12,19:52,EST,SE  5,10.0,Fair,CLR,32.0,17.1,,,54%,28.0,,30.09,1019.1,,,,2025-01-15,1,2025,19,KIAD
2025-01-12,12,20:52,EST,S  3,10.0,A Few Clouds,FEW160,27.0,16.0,,,63%,,,30.09,1019.1,,,,2025-01-15,1,2025,20,KIAD
2025-01-12,12,21:52,EST,S  6,10.0,Partly Cloudy,SCT160,30.0,16.0,,,56%,25.0,,30.08,1018.7,,,,2025-01-15,1,2025,21,KIAD
2025-01-12,12,22:52,EST,S  7,10.0,Overcast,OVC170,30.0,18.0,,,61%,24.0,,30.06,1018.3,,,,2025-01-15,1,2025,22,KIAD
2025-01-12,12,23:52,EST,S  5,10.0,Overcast,OVC160,32.0,18.0,,,56%,28.0,,30.05,1017.8,,,,2025-01-15,1,2025,23,KIAD
2025-01-13,13,00:52,EST,SW  5,10.0,Overcast,OVC160,30.0,18.0,32.0,26.1,61%,26.0,,30.04,1017.5,,,,2025-01-16,1,2025,0,KIAD
2025-01-13,13,01:52,EST,Calm,10.0,Overcast,OVC150,28.9,17.1,,,61%,,,30.04,1017.3,,,,2025-01-16,1,2025,1,KIAD
2025-01-13,13,02:52,EST,S  3,10.0,Partly Cloudy,SCT150,28.0,17.1,,,63%,,,30.03,1017.1,,,,2025-01-16,1,2025,2,KIAD
2025-01-13,13,03:52,EST,S  3,10.0,Fair,CLR,26.1,16.0,,,66%,,,30.04,1017.5,,,,2025-01-16,1,2025,3,KIAD
2025-01-13,13,04:52,EST,Calm,10.0,Fair,CLR,24.1,16.0,,,71%,,,30.03,1017.2,,,,2025-01-16,1,2025,4,KIAD
2025-01-13,13,05:52,EST,Calm,10.0,A Few Clouds,FEW120,21.9,15.1,,,75%,,,30.04,1017.6,,,,2025-01-16,1,2025,5,KIAD
2025-01-13,13,06:52,EST,Calm,10.0,A Few Clouds,FEW120,19.9,15.1,30.9,19.0,81%,,,30.03,1017.3,,,,2025-01-16,1,2025,6,KIAD
2025-01-13,13,07:52,EST,S  3,10.0,Partly Cloudy,SCT060 SCT095,21.0,16.0,,,81%,,,30.04,1017.6,,,,2025-01-16,1,2025,7,KIAD
2025-01-13,13,08:52,EST,Calm,10.0,Mostly Cloudy,BKN050 BKN095,28.0,19.0,,,69%,,,30.05,1017.8,,,,2025-01-16,1,2025,8,KIAD
2025-01-13,13,09:52,EST,S  7,10.0,Mostly Cloudy,BKN049,30.0,19.9,,,66%,24.0,,30.05,1018.0,,,,2025-01-16,1,2025,9,KIAD
2025-01-13,13,10:52,EST,SW  5,10.0,Overcast,OVC055,34.0,21.9,,,61%,30.0,,30.06,1018.3,,,,2025-01-16,1,2025,10,KIAD
2025-01-13,13,11:52,EST,SW  3,10.0,Mostly Cloudy,BKN060,39.0,24.1,,,55%,,,30.02,1016.6,,,,2025-01-16,1,2025,11,KIAD
2025-01-13,13,12:52,EST,SW  7,10.0,Mostly Cloudy,BKN055,44.1,25.0,44.1,19.0,47%,41.0,,29.98,1015.4,,,,2025-01-16,1,2025,12,KIAD
2025-01-13,13,13:52,EST,W  6,10.0,Partly Cloudy,SCT060,45.0,25.0,,,46%,42.0,,29.96,1014.6,,,,2025-01-16,1,2025,13,KIAD
2025-01-13,13,15:52,EST,W  9  G 18,10.0,A Few Clouds,FEW060,45.0,24.1,,,44%,41.0,,29.97,1015.2,,,,2025-01-16,1,2025,15,KIAD
2025-01-13,13,16:52,EST,NW  12,10.0,A Few Clouds,FEW060,42.1,25.0,,,51%,36.0,,29.99,1015.8,,,,2025-01-16,1,2025,16,KIAD
2025-01-13,13,17:52,EST,W  10,10.0,A Few Clouds,FEW060,39.9,23.0,,,51%,34.0,,30.01,1016.5,,,,2025-01-16,1,2025,17,KIAD
2025-01-13,13,18:52,EST,W  9,10.0,A Few Clouds,FEW065,39.9,21.0,46.0,39.0,47%,34.0,,30.02,1017.0,,,,2025-01-16,1,2025,18,KIAD
2025-01-13,13,19:52,EST,W  5,10.0,Fair,CLR,37.0,19.9,,,50%,34.0,,30.03,1017.1,,,,2025-01-16,1,2025,19,KIAD
2025-01-13,13,20:52,EST,W  5,10.0,Fair,CLR,30.9,19.0,,,61%,27.0,,30.02,1017.0,,,,2025-01-16,1,2025,20,KIAD
2025-01-13,13,21:52,EST,Calm,10.0,Fair,CLR,30.9,18.0,,,59%,,,30.03,1017.1,,,,2025-01-16,1,2025,21,KIAD
2025-01-13,13,22:52,EST,W  5,10.0,Fair,CLR,36.0,19.0,,,50%,33.0,,30.02,1016.9,,,,2025-01-16,1,2025,22,KIAD
2025-01-13,13,23:52,EST,NW  5,10.0,Fair,CLR,30.0,18.0,,,61%,26.0,,30.05,1017.6,,,,2025-01-17,1,2025,23,KIAD
2025-01-14,14,00:52,EST,NW  5,10.0,Fair,CLR,30.0,16.0,41.0,28.0,56%,26.0,,30.05,1017.9,,,,2025-01-17,1,2025,0,KIAD
2025-01-14,14,01:52,EST,NW  13,10.0,Fair,CLR,32.0,14.0,,,47%,23.0,,30.07,1018.3,,,,2025-01-17,1,2025,1,KIAD
2025-01-14,14,02:52,EST,NW  10  G 17,10.0,Fair,CLR,30.0,12.0,,,47%,22.0,,30.09,1019.0,,,,2025-01-17,1,2025,2,KIAD
2025-01-14,14,03:52,EST,NW  12,10.0,Fair,CLR,28.9,9.0,,,43%,20.0,,30.09,1019.2,,,,2025-01-17,1,2025,3,KIAD
2025-01-14,14,04:52,EST,NW  14  G 24,10.0,Fair,CLR,28.0,9.0,,,44%,18.0,,30.11,1019.9,,,,2025-01-17,1,2025,4,KIAD
2025-01-14,14,05:52,EST,NW  17  G 28,10.0,Fair,CLR,27.0,7.0,,,43%,15.0,,30.15,1021.0,,,,2025-01-17,1,2025,5,KIAD
2025-01-14,14,07:52,EST,NW  13  G 21,10.0,Fair,CLR,25.0,3.0,,,39%,14.0,,30.21,1023.3,,,,2025-01-17,1,2025,7,KIAD
2025-01-14,14,08:52,EST,NW  13  G 18,10.0,Fair,CLR,25.0,3.9,,,40%,14.0,,30.22,1023.8,,,,2025-01-17,1,2025,8,KIAD
2025-01-14,14,09:52,EST,NW  12,10.0,Fair,CLR,26.1,3.9,,,38%,16.0,,30.23,1024.0,,,,2025-01-17,1,2025,9,KIAD
2025-01-14,14,10:52,EST,N  7,10.0,Fair,CLR,28.0,3.9,,,35%,22.0,,30.22,1023.6,,,,2025-01-17,1,2025,10,KIAD
2025-01-14,14,11:52,EST,NW  7,10.0,Fair,CLR,28.9,5.0,,,36%,23.0,,30.19,1022.6,,,,2025-01-17,1,2025,11,KIAD
2025-01-14,14,12:52,EST,NW  6,10.0,Fair,CLR,30.9,6.1,30.9,24.1,35%,26.0,,30.15,1021.4,,,,2025-01-17,1,2025,12,KIAD
2025-01-14,14,13:52,EST,NW  3,10.0,A Few Clouds,FEW200,32.0,6.1,,,33%,,,30.12,1020.3,,,,2025-01-17,1,2025,13,KIAD
2025-01-14,14,14:52,EST,E  3,10.0,A Few Clouds,FEW200,34.0,7.0,,,32%,,,30.09,1019.1,,,,2025-01-17,1,2025,14,KIAD
2025-01-14,14,15:52,EST,Calm,10.0,Mostly Cloudy,SCT075 BKN120,33.1,7.0,,,33%,,,30.09,1019.2,,,,2025-01-17,1,2025,15,KIAD
2025-01-14,14,16:52,EST,NW  3,10.0,Overcast,OVC075,34.0,8.1,,,34%,,,30.08,1018.9,,,,2025-01-17,1,2025,16,KIAD
2025-01-14,14,17:52,EST,N  7,10.0,Overcast,OVC070,33.1,9.0,,,36%,28.0,,30.09,1019.3,,,,2025-01-17,1,2025,17,KIAD
2025-01-14,14,18:52,EST,NW  12,10.0,Overcast,SCT060 OVC075,32.0,10.0,35.1,30.9,40%,24.0,,30.12,1020.3,,,,2025-01-17,1,2025,18,KIAD
2025-01-14,14,19:52,EST,NW  15  G 25,10.0,Overcast,OVC060,32.0,12.9,,,45%,22.0,,30.13,1020.5,,,,2025-01-17,1,2025,19,KIAD
2025-01-14,14,20:52,EST,NW  13  G 25,10.0,Overcast,OVC050,30.0,15.1,,,54%,21.0,,30.14,1021.0,,,,2025-01-17,1,2025,20,KIAD
2025-01-14,14,21:52,EST,NW  14,3.0,Light Snow,OVC032,27.0,17.1,,,66%,16.0,,30.18,1022.1,,,,2025-01-17,1,2025,21,KIAD
2025-01-14,14,22:52,EST,NW  18  G 28,7.0,Overcast,FEW040 SCT070 OVC085,27.0,12.9,,,55%,15.0,,30.22,1023.5,,,,2025-01-17,1,2025,22,KIAD
2025-01-14,14,23:52,EST,NW  20  G 33,10.0,Partly Cloudy,SCT050 SCT080,25.0,10.0,,,53%,12.0,,30.23,1023.9,,,,2025-01-17,1,2025,23,KIAD
2025-01-15,15,00:52,EST,NW  15  G 29,10.0,A Few Clouds,FEW049,24.1,8.1,32.0,24.1,50%,12.0,,30.25,1024.6,,,,2025-01-18,1,2025,0,KIAD
2025-01-15,15,01:52,EST,NW  7,10.0,Partly Cloudy,SCT046,23.0,7.0,,,50%,16.0,,30.27,1025.4,,,,2025-01-18,1,2025,1,KIAD
2025-01-15,15,02:52,EST,NW  12,10.0,A Few Clouds,FEW044,21.9,7.0,,,52%,11.0,,30.3,1026.2,,,,2025-01-18,1,2025,2,KIAD
2025-01-15,15,03:52,EST,NW  15  G 26,10.0,A Few Clouds,FEW040,21.0,7.0,,,54%,8.0,,30.32,1026.9,,,,2025-01-18,1,2025,3,KIAD
2025-01-15,15,04:52,EST,NW  10,10.0,Fair,CLR,19.9,6.1,,,55%,9.0,,30.32,1026.9,,,,2025-01-18,1,2025,4,KIAD
2025-01-15,15,05:52,EST,NW  12  G 18,10.0,Fair,CLR,19.9,7.0,,,57%,9.0,,30.34,1027.7,,,,2025-01-18,1,2025,5,KIAD
2025-01-15,15,06:52,EST,W  13,10.0,Fair,CLR,19.9,6.1,24.1,19.0,55%,8.0,,30.34,1027.9,,,,2025-01-18,1,2025,6,KIAD
2025-01-15,15,07:52,EST,NW  13,10.0,Fair,CLR,19.9,5.0,,,52%,8.0,,30.36,1028.5,,,,2025-01-18,1,2025,7,KIAD
2025-01-15,15,08:52,EST,NW  12,10.0,Fair,CLR,21.9,3.9,,,46%,11.0,,30.37,1028.9,,,,2025-01-18,1,2025,8,KIAD
2025-01-15,15,09:52,EST,NW  13  G 23,10.0,Fair,CLR,23.0,6.1,,,48%,12.0,,30.4,1029.9,,,,2025-01-18,1,2025,9,KIAD
2025-01-15,15,10:52,EST,NW  13,10.0,Fair,CLR,25.0,7.0,,,46%,14.0,,30.39,1029.4,,,,2025-01-18,1,2025,10,KIAD
2025-01-15,15,11:52,EST,NW  17,10.0,Fair,CLR,26.1,10.0,,,51%,14.0,,30.36,1028.6,,,,2025-01-18,1,2025,11,KIAD
2025-01-15,15,12:52,EST,NW  15,10.0,A Few Clouds,FEW050,28.0,10.0,28.0,19.0,47%,17.0,,30.32,1027.2,,,,2025-01-18,1,2025,12,KIAD
2025-01-15,15,13:52,EST,W  15  G 25,10.0,A Few Clouds,FEW050,28.9,10.9,,,47%,18.0,,30.3,1026.4,,,,2025-01-18,1,2025,13,KIAD
2025-01-15,15,14:52,EST,NW  21  G 28,10.0,A Few Clouds and Breezy,FEW050,28.9,10.0,,,45%,17.0,,30.29,1026.0,,,,2025-01-18,1,2025,14,KIAD
2025-01-15,15,15:52,EST,NW  15  G 25,10.0,Fair,CLR,30.0,10.0,,,43%,20.0,,30.3,1026.4,,,,2025-01-18,1,2025,15,KIAD
2025-01-15,15,16:52,EST,W  15  G 24,10.0,Fair,CLR,28.0,9.0,,,44%,17.0,,30.29,1026.2,,,,2025-01-18,1,2025,16,KIAD
2025-01-15,15,17:52,EST,W  7,10.0,Fair,CLR,27.0,9.0,,,46%,20.0,,30.29,1026.1,,,,2025-01-18,1,2025,17,KIAD
2025-01-15,15,18:52,EST,W  9  G 16,10.0,Fair,CLR,26.1,8.1,30.0,26.1,46%,18.0,,30.31,1026.6,,,,2025-01-18,1,2025,18,KIAD
2025-01-15,15,19:52,EST,NW  12,10.0,Fair,CLR,24.1,8.1,,,50%,14.0,,30.3,1026.4,,,,2025-01-18,1,2025,19,KIAD
2025-01-15,15,20:52,EST,NW  16,10.0,Fair,CLR,23.0,8.1,,,53%,11.0,,30.29,1026.0,,,,2025-01-18,1,2025,20,KIAD
2025-01-15,15,22:52,EST,NW  6,10.0,Fair,CLR,21.9,7.0,,,52%,15.0,,30.28,1025.7,,,,2025-01-19,1,2025,22,KIAD
2025-01-15,15,23:52,EST,NW  6,10.0,Fair,CLR,21.0,8.1,,,57%,14.0,,30.26,1025.2,,,,2025-01-19,1,2025,23,KIAD
2025-01-16,16,00:52,EST,NW  3,10.0,Fair,CLR,18.0,7.0,26.1,17.1,62%,,,30.24,1024.5,,,,2025-01-19,1,2025,0,KIAD
2025-01-16,16,01:52,EST,Calm,10.0,Fair,CLR,15.1,6.1,,,67%,,,30.21,1023.4,,,,2025-01-19,1,2025,1,KIAD
2025-01-16,16,02:52,EST,Calm,10.0,Fair,CLR,10.9,6.1,,,81%,,,30.2,1022.9,,,,2025-01-19,1,2025,2,KIAD
2025-01-16,16,03:52,EST,S  6,10.0,Fair,CLR,14.0,6.1,,,71%,6.0,,30.17,1022.0,,,,2025-01-19,1,2025,3,KIAD
2025-01-16,16,04:52,EST,S  3,10.0,Fair,CLR,9.0,3.9,,,80%,,,30.14,1021.2,,,,2025-01-19,1,2025,4,KIAD
2025-01-16,16,05:52,EST,Calm,10.0,Mostly Cloudy,BKN090,15.1,8.1,,,74%,,,30.14,1020.9,,,,2025-01-19,1,2025,5,KIAD
2025-01-16,16,06:52,EST,SE  3,10.0,Mostly Cloudy,SCT075 BKN090,17.1,10.0,19.0,9.0,74%,,,30.11,1020.1,,,,2025-01-19,1,2025,6,KIAD
2025-01-16,16,07:52,EST,Calm,10.0,Overcast,OVC090,18.0,10.0,,,71%,,,30.1,1019.8,,,,2025-01-19,1,2025,7,KIAD
2025-01-16,16,08:52,EST,Calm,10.0,Overcast,BKN043 BKN050 OVC070,21.0,10.9,,,65%,,,30.08,1019.0,,,,2025-01-19,1,2025,8,KIAD
2025-01-16,16,09:52,EST,S  9,10.0,Overcast,OVC055,24.1,10.0,,,55%,15.0,,30.05,1017.8,,,,2025-01-19,1,2025,9,KIAD
2025-01-16,16,10:52,EST,S  7,10.0,Overcast,BKN055 OVC070,26.1,10.9,,,53%,19.0,,29.99,1016.0,,,,2025-01-19,1,2025,10,KIAD
2025-01-16,16,11:52,EST,S  7,10.0,Overcast,OVC050,27.0,12.0,,,53%,20.0,,29.94,1014.3,,,,2025-01-19,1,2025,11,KIAD
2025-01-16,16,12:52,EST,S  6,10.0,Overcast,OVC050,28.0,12.0,28.0,17.1,51%,22.0,,29.88,1012.1,,,,2025-01-19,1,2025,12,KIAD
2025-01-16,16,13:52,EST,S  8,10.0,Mostly Cloudy,BKN060 BKN080,30.0,12.9,,,49%,23.0,,29.84,1010.7,,,,2025-01-19,1,2025,13,KIAD
2025-01-16,16,14:52,EST,S  9,10.0,Mostly Cloudy,SCT055 BKN090,32.0,14.0,,,47%,25.0,,29.81,1009.8,,,,2025-01-19,1,2025,14,KIAD
2025-01-16,16,15:52,EST,S  7,10.0,Overcast,BKN055 OVC110,33.1,15.1,,,48%,28.0,,29.8,1009.6,,,,2025-01-19,1,2025,15,KIAD
2025-01-16,16,16:52,EST,Calm,10.0,Mostly Cloudy,BKN050 BKN100 BKN200,33.1,17.1,,,52%,,,29.81,1009.7,,,,2025-01-19,1,2025,16,KIAD
2025-01-16,16,17:52,EST,NW  3,10.0,Overcast,BKN039 OVC055,33.1,17.1,,,52%,,,29.84,1010.8,,,,2025-01-19,1,2025,17,KIAD
2025-01-16,16,18:52,EST,N  5,6.0,Light Snow,FEW020 BKN038 OVC045,30.9,23.0,34.0,28.0,72%,27.0,,29.85,1011.2,,,,2025-01-19,1,2025,18,KIAD
2025-01-16,16,19:52,EST,E  3,2.5,Light Snow,BKN026 OVC046,30.9,26.1,,,82%,,,29.86,1011.4,,,,2025-01-19,1,2025,19,KIAD
2025-01-16,16,20:52,EST,Calm,10.0,Overcast,BKN026 OVC049,30.0,26.1,,,85%,,,29.86,1011.6,,,,2025-01-19,1,2025,20,KIAD
2025-01-16,16,21:52,EST,NW  5,8.0,Overcast,BKN034 OVC055,30.9,27.0,,,85%,27.0,,29.88,1012.0,,,,2025-01-19,1,2025,21,KIAD
2025-01-16,16,22:52,EST,NW  5,10.0,Overcast,OVC049,32.0,27.0,,,82%,28.0,,29.9,1012.9,,,,2025-01-19,1,2025,22,KIAD
2025-01-16,16,23:52,EST,NW  14,10.0,Mostly Cloudy,BKN046,34.0,25.0,,,70%,25.0,,29.93,1013.9,,,,2025-01-19,1,2025,23,KIAD
2025-01-17,17,00:52,EST,NW  15,10.0,Fair,CLR,34.0,24.1,36.0,30.0,67%,25.0,,29.95,1014.4,,,,2025-01-20,1,2025,0,KIAD
2025-01-17,17,01:52,EST,NW  13,10.0,Mostly Cloudy,FEW038 BKN075,34.0,23.0,,,64%,26.0,,29.97,1015.3,,,,2025-01-20,1,2025,1,KIAD
2025-01-17,17,02:52,EST,W  12,10.0,Overcast,SCT037 OVC070,34.0,23.0,,,64%,26.0,,30.01,1016.4,,,,2025-01-20,1,2025,2,KIAD
2025-01-17,17,03:52,EST,NW  12,10.0,Partly Cloudy,SCT040,33.1,23.0,,,66%,25.0,,30.01,1016.6,,,,2025-01-20,1,2025,3,KIAD
2025-01-17,17,05:52,EST,NW  8,10.0,Overcast,OVC039,34.0,24.1,,,67%,28.0,,30.07,1018.5,,,,2025-01-20,1,2025,5,KIAD
2025-01-17,17,06:52,EST,W  8,10.0,Overcast,OVC044,35.1,23.0,36.0,32.0,61%,29.0,,30.11,1019.9,,,,2025-01-20,1,2025,6,KIAD
2025-01-17,17,07:52,EST,Calm,10.0,Mostly Cloudy,BKN044,34.0,23.0,,,64%,,,30.14,1021.0,,,,2025-01-20,1,2025,7,KIAD
2025-01-17,17,08:52,EST,W  7,10.0,Overcast,OVC043,37.0,21.9,,,54%,32.0,,30.17,1021.7,,,,2025-01-20,1,2025,8,KIAD
2025-01-17,17,09:52,EST,S  3,10.0,Overcast,OVC048,37.0,23.0,,,57%,,,30.18,1022.3,,,,2025-01-20,1,2025,9,KIAD
2025-01-17,17,10:52,EST,S  5,10.0,Overcast,OVC048,37.0,24.1,,,59%,34.0,,30.19,1022.4,,,,2025-01-20,1,2025,10,KIAD
2025-01-17,17,11:52,EST,S  7,10.0,Overcast,OVC050,39.0,23.0,,,53%,35.0,,30.17,1021.7,,,,2025-01-20,1,2025,11,KIAD
2025-01-17,17,12:52,EST,S  6,10.0,Mostly Cloudy,BKN050 BKN140,41.0,21.9,42.1,34.0,47%,38.0,,30.13,1020.6,,,,2025-01-20,1,2025,12,KIAD
2025-01-17,17,13:52,EST,NW  3,10.0,A Few Clouds,FEW070 FEW250,43.0,21.9,,,43%,,,30.1,1019.5,,,,2025-01-20,1,2025,13,KIAD
2025-01-17,17,14:52,EST,S  6,10.0,A Few Clouds,FEW047 FEW250,42.1,21.9,,,45%,39.0,,30.09,1019.2,,,,2025-01-20,1,2025,14,KIAD
2025-01-17,17,15:52,EST,S  8,10.0,A Few Clouds,FEW047 FEW250,42.1,21.9,,,45%,38.0,,30.1,1019.3,,,,2025-01-20,1,2025,15,KIAD
2025-01-17,17,16:52,EST,S  7,10.0,A Few Clouds,FEW250,39.9,21.9,,,49%,36.0,,30.1,1019.3,,,,2025-01-20,1,2025,16,KIAD
2025-01-17,17,17:52,EST,SE  5,10.0,A Few Clouds,FEW250,37.0,21.0,,,52%,34.0,,30.1,1019.4,,,,2025-01-20,1,2025,17,KIAD
2025-01-17,17,18:52,EST,SE  6,10.0,Fair,CLR,36.0,21.0,44.1,35.1,55%,32.0,,30.1,1019.5,,,,2025-01-20,1,2025,18,KIAD
2025-01-17,17,19:52,EST,S  8,10.0,Fair,CLR,36.0,21.0,,,55%,30.0,,30.09,1019.3,,,,2025-01-20,1,2025,19,KIAD
2025-01-17,17,20:52,EST,S  8,10.0,Fair,CLR,35.1,21.9,,,59%,29.0,,30.09,1019.3,,,,2025-01-20,1,2025,20,KIAD
2025-01-17,17,21:52,EST,S  6,10.0,A Few Clouds,FEW250,35.1,23.0,,,61%,31.0,,30.1,1019.3,,,,2025-01-20,1,2025,21,KIAD
2025-01-17,17,23:52,EST,S  8,10.0,Mostly Cloudy,BKN250,34.0,23.0,,,64%,28.0,,30.06,1018.1,,,,2025-01-21,1,2025,23,KIAD
2025-01-18,18,00:52,EST,S  6,10.0,Mostly Cloudy,BKN250,33.1,24.1,36.0,33.1,70%,28.0,,30.04,1017.5,,,,2025-01-21,1,2025,0,KIAD
2025-01-18,18,01:52,EST,S  7,10.0,Mostly Cloudy,BKN250,33.1,24.1,,,70%,28.0,,30.04,1017.3,,,,2025-01-21,1,2025,1,KIAD
2025-01-18,18,02:52,EST,S  8,10.0,Mostly Cloudy,BKN250,33.1,25.0,,,72%,27.0,,30.02,1016.7,,,,2025-01-21,1,2025,2,KIAD
2025-01-18,18,03:52,EST,S  7,10.0,Mostly Cloudy,BKN180,33.1,25.0,,,72%,28.0,,30.0,1016.0,,,,2025-01-21,1,2025,3,KIAD
2025-01-18,18,04:52,EST,S  8  G 18,10.0,Mostly Cloudy,BKN160,34.0,27.0,,,76%,28.0,,29.97,1015.0,,,,2025-01-21,1,2025,4,KIAD
2025-01-18,18,05:52,EST,S  10,10.0,Overcast,OVC120,35.1,28.0,,,76%,28.0,,29.96,1014.8,,,,2025-01-21,1,2025,5,KIAD
2025-01-18,18,06:52,EST,S  7,10.0,Overcast,OVC110,35.1,28.0,36.0,32.0,76%,30.0,,29.96,1014.8,,,,2025-01-21,1,2025,6,KIAD
2025-01-18,18,07:52,EST,S  9,10.0,Mostly Cloudy,SCT070 BKN095,37.0,28.0,,,70%,31.0,,29.96,1014.6,,,,2025-01-21,1,2025,7,KIAD
2025-01-18,18,08:52,EST,S  8,10.0,Overcast,SCT048 BKN060 OVC100,36.0,32.0,,,86%,30.0,,29.92,1013.5,0.03,,,2025-01-21,1,2025,8,KIAD
2025-01-18,18,09:52,EST,S  8,10.0,Overcast,SCT030 BKN075 OVC100,36.0,32.0,,,86%,30.0,,29.92,1013.2,,0.03,,2025-01-21,1,2025,9,KIAD
2025-01-18,18,11:52,EST,S  8,10.0,Overcast,OVC055,37.9,30.9,,,76%,33.0,,29.85,1011.1,,,,2025-01-21,1,2025,11,KIAD
2025-01-18,18,12:52,EST,S  7,10.0,Overcast,BKN055 OVC100,39.0,32.0,39.0,35.1,76%,35.0,,29.8,1009.1,,,0.03,2025-01-21,1,2025,12,KIAD
2025-01-18,18,13:52,EST,SW  6,10.0,Mostly Cloudy,SCT060 BKN075 BKN100,43.0,34.0,,,71%,40.0,,29.76,1008.0,,,,2025-01-21,1,2025,13,KIAD
2025-01-18,18,14:52,EST,S  9,10.0,Mostly Cloudy,BKN060 BKN100,43.0,34.0,,,71%,38.0,,29.74,1007.1,,,,2025-01-21,1,2025,14,KIAD
2025-01-18,18,15:52,EST,S  8,10.0,Partly Cloudy,FEW060 SCT100,45.0,34.0,,,66%,41.0,,29.73,1007.0,,,,2025-01-21,1,2025,15,KIAD
2025-01-18,18,16:52,EST,S  6,10.0,A Few Clouds,FEW100,43.0,33.1,,,68%,40.0,,29.75,1007.5,,,,2025-01-21,1,2025,16,KIAD
2025-01-18,18,17:52,EST,S  3,10.0,Mostly Cloudy,BKN100,39.0,32.0,,,76%,,,29.77,1008.2,,,,2025-01-21,1,2025,17,KIAD
2025-01-18,18,18:52,EST,Calm,10.0,Mostly Cloudy,BKN100,36.0,30.9,45.0,35.1,82%,,,29.79,1008.8,,,,2025-01-21,1,2025,18,KIAD
2025-01-18,18,19:52,EST,Calm,10.0,Fair,CLR,33.1,30.0,,,89%,,,29.8,1009.4,,,,2025-01-21,1,2025,19,KIAD
2025-01-18,18,20:52,EST,Calm,10.0,Partly Cloudy,SCT100,33.1,30.0,,,89%,,,29.8,1009.4,,,,2025-01-21,1,2025,20,KIAD
2025-01-18,18,21:52,EST,Calm,10.0,Mostly Cloudy,BKN050 BKN100,34.0,30.0,,,85%,,,29.81,1009.8,,,,2025-01-21,1,2025,21,KIAD
2025-01-18,18,23:52,EST,N  5,10.0,Overcast,SCT050 OVC100,37.9,32.0,,,79%,35.0,,29.82,1009.9,,,,2025-01-21,1,2025,23,KIAD
2025-01-19,19,00:52,EST,Calm,10.0,Mostly Cloudy,FEW050 BKN100,37.0,32.0,39.0,32.0,82%,,,29.81,1009.7,,,,2025-01-22,1,2025,0,KIAD
2025-01-19,19,01:52,EST,Calm,10.0,Mostly Cloudy,FEW050 BKN100,34.0,30.0,,,85%,,,29.81,1009.5,,,,2025-01-22,1,2025,1,KIAD
2025-01-19,19,02:52,EST,Calm,10.0,Overcast,BKN044 OVC050,35.1,32.0,,,89%,,,29.82,1009.8,,,,2025-01-22,1,2025,2,KIAD
2025-01-19,19,03:52,EST,Calm,10.0,Overcast,OVC043,36.0,32.0,,,86%,,,29.82,1009.9,,,,2025-01-22,1,2025,3,KIAD
2025-01-19,19,04:52,EST,NE  5,10.0,Overcast,OVC049,37.9,33.1,,,83%,35.0,,29.8,1009.3,,,,2025-01-22,1,2025,4,KIAD
2025-01-19,19,05:52,EST,NE  5,10.0,Overcast,OVC047,39.0,33.1,,,79%,36.0,,29.82,1010.1,,,,2025-01-22,1,2025,5,KIAD
2025-01-19,19,06:52,EST,N  8,10.0,Light Rain,OVC045,39.0,33.1,41.0,32.0,79%,34.0,,29.82,1009.9,,,,2025-01-22,1,2025,6,KIAD
2025-01-19,19,07:52,EST,NE  6,10.0,Overcast,OVC042,39.0,33.1,,,79%,35.0,,29.83,1010.2,,,,2025-01-22,1,2025,7,KIAD
2025-01-19,19,08:52,EST,NE  3,10.0,Overcast,OVC044,39.0,32.0,,,76%,,,29.83,1010.4,,,,2025-01-22,1,2025,8,KIAD
2025-01-19,19,09:52,EST,NE  3,5.0,Light Rain,BKN036 OVC046,39.0,34.0,,,82%,,,29.83,1010.4,0.01,0.01,,2025-01-22,1,2025,9,KIAD
2025-01-19,19,10:52,EST,NE  7,10.0,Light Rain,SCT019 BKN036 OVC045,37.9,33.1,,,83%,33.0,,29.81,1009.7,,,,2025-01-22,1,2025,10,KIAD
2025-01-19,19,11:52,EST,E  10,8.0,Light Rain,FEW008 OVC012,37.9,33.1,,,83%,32.0,,29.75,1007.6,0.01,,,2025-01-22,1,2025,11,KIAD
2025-01-19,19,12:52,EST,NE  5,2.5,Rain Snow Fog/Mist,FEW006 OVC012,35.1,32.0,39.9,35.1,89%,32.0,,29.71,1006.2,0.04,,0.06,2025-01-22,1,2025,12,KIAD
2025-01-19,19,13:52,EST,N  7,1.5,Light Rain Snow Fog/Mist,OVC008,34.0,32.0,,,92%,29.0,,29.66,1004.5,0.06,,,2025-01-22,1,2025,13,KIAD
2025-01-19,19,14:52,EST,N  14  G 22,1.0,Fog/Mist,OVC004,33.1,30.9,,,92%,24.0,,29.69,1005.5,0.1,,,2025-01-22,1,2025,14,KIAD
2025-01-19,19,15:52,EST,N  15  G 22,0.75,Light Snow Fog/Mist,OVC005,33.1,30.9,,,92%,24.0,,29.72,1006.7,0.06,0.22,,2025-01-22,1,2025,15,KIAD
2025-01-19,19,16:52,EST,N  13,6.0,Light Snow Fog/Mist,BKN007 OVC015,32.0,28.9,,,88%,23.0,,29.75,1007.7,0.02,,,2025-01-22,1,2025,16,KIAD
2025-01-19,19,17:52,EST,NW  17  G 24,3.0,Light Snow Fog/Mist,SCT013 BKN023 OVC030,30.9,27.0,,,85%,20.0,,29.8,1009.1,,,,2025-01-22,1,2025,17,KIAD
2025-01-19,19,18:52,EST,NW  15  G 28,10.0,Overcast,BKN013 OVC020,30.0,25.0,35.1,30.0,82%,20.0,,29.85,1010.9,,,0.24,2025-01-22,1,2025,18,KIAD
2025-01-19,19,19:52,EST,NW  15  G 29,10.0,Partly Cloudy,SCT017 SCT110,28.0,21.9,,,78%,17.0,,29.88,1012.0,,,,2025-01-22,1,2025,19,KIAD
2025-01-19,19,20:52,EST,NW  15  G 31,10.0,A Few Clouds,FEW017 FEW100,28.0,19.9,,,72%,17.0,,29.91,1013.0,,,,2025-01-22,1,2025,20,KIAD
2025-01-19,19,21:52,EST,NW  13,10.0,A Few Clouds,FEW015,26.1,17.1,,,69%,16.0,,29.96,1014.7,,,,2025-01-22,1,2025,21,KIAD
2025-01-19,19,22:52,EST,NW  15,10.0,A Few Clouds,FEW015,25.0,16.0,,,69%,13.0,,29.99,1015.8,,,,2025-01-22,1,2025,22,KIAD
2025-01-19,19,23:52,EST,NW  9,10.0,Fair,CLR,24.1,15.1,,,68%,15.0,,30.02,1016.7,,,,2025-01-22,1,2025,23,KIAD
2025-01-20,20,00:52,EST,W  6,10.0,Fair,CLR,23.0,15.1,30.9,23.0,72%,17.0,,30.04,1017.6,,,,2025-01-23,1,2025,0,KIAD
2025-01-20,20,01:52,EST,NW  9,10.0,Fair,CLR,23.0,15.1,,,72%,14.0,,30.07,1018.5,,,,2025-01-23,1,2025,1,KIAD
2025-01-20,20,02:52,EST,SW  5,10.0,Fair,CLR,21.9,14.0,,,71%,16.0,,30.1,1019.7,,,,2025-01-23,1,2025,2,KIAD
2025-01-20,20,03:52,EST,W  17  G 26,10.0,Fair,CLR,24.1,12.9,,,62%,11.0,,30.13,1020.5,,,,2025-01-23,1,2025,3,KIAD
2025-01-20,20,04:52,EST,W  13,10.0,Fair,CLR,21.9,12.0,,,66%,11.0,,30.15,1021.1,,,,2025-01-23,1,2025,4,KIAD
2025-01-20,20,05:52,EST,W  8,10.0,A Few Clouds,FEW065,19.9,12.0,,,71%,11.0,,30.18,1022.5,,,,2025-01-23,1,2025,5,KIAD
2025-01-20,20,06:52,EST,W  5,10.0,A Few Clouds,FEW065,19.9,10.9,24.1,19.9,68%,14.0,,30.25,1024.7,,,,2025-01-23,1,2025,6,KIAD
2025-01-20,20,07:52,EST,W  6,10.0,Partly Cloudy,FEW045 FEW070 SCT250,19.9,10.9,,,68%,13.0,,30.28,1025.6,,,,2025-01-23,1,2025,7,KIAD
2025-01-20,20,08:52,EST,W  7,10.0,Mostly Cloudy,FEW045 FEW070 BKN250,23.0,12.0,,,63%,16.0,,30.3,1026.4,,,,2025-01-23,1,2025,8,KIAD
2025-01-20,20,09:52,EST,NW  20  G 29,10.0,Mostly Cloudy,SCT042 SCT070 BKN250,23.0,12.9,,,65%,9.0,,30.33,1027.6,,,,2025-01-23,1,2025,9,KIAD
2025-01-20,20,10:52,EST,NW  14  G 25,10.0,Mostly Cloudy,SCT035 BKN050 BKN220,23.0,9.0,,,55%,11.0,,30.39,1029.4,,,,2025-01-23,1,2025,10,KIAD
2025-01-20,20,12:52,EST,NW  16  G 24,10.0,Partly Cloudy,FEW045 SCT250,21.0,7.0,24.1,19.0,54%,8.0,,30.39,1029.3,,,,2025-01-23,1,2025,12,KIAD
2025-01-20,20,13:52,EST,W  13  G 23,10.0,A Few Clouds,FEW047 FEW250,21.9,6.1,,,50%,11.0,,30.4,1029.7,,,,2025-01-23,1,2025,13,KIAD
2025-01-20,20,14:52,EST,NW  18  G 25,10.0,A Few Clouds,FEW080 FEW200,21.9,3.9,,,46%,8.0,,30.42,1030.5,,,,2025-01-23,1,2025,14,KIAD
2025-01-20,20,15:52,EST,NW  14,10.0,A Few Clouds,FEW080 FEW200,21.0,3.0,,,45%,9.0,,30.44,1031.3,,,,2025-01-23,1,2025,15,KIAD
2025-01-20,20,16:52,EST,NW  12,10.0,A Few Clouds,FEW100 FEW200,19.0,1.0,,,45%,8.0,,30.44,1031.4,,,,2025-01-23,1,2025,16,KIAD
2025-01-20,20,17:52,EST,NW  7,10.0,Fair,CLR,17.1,-0.0,,,47%,8.0,,30.47,1032.4,,,,2025-01-23,1,2025,17,KIAD
2025-01-20,20,18:52,EST,NW  7,10.0,Fair,CLR,16.0,1.0,23.0,16.0,51%,7.0,,30.51,1033.5,,,,2025-01-23,1,2025,18,KIAD
2025-01-20,20,19:52,EST,NW  9,10.0,Fair,CLR,15.1,-0.9,,,49%,4.0,,30.52,1034.1,,,,2025-01-23,1,2025,19,KIAD
2025-01-20,20,20:52,EST,NW  8,10.0,Fair,CLR,14.0,-0.9,,,51%,4.0,,30.54,1034.6,,,,2025-01-23,1,2025,20,KIAD
2025-01-20,20,21:52,EST,NW  10,10.0,Fair,CLR,14.0,-0.9,,,51%,2.0,,30.56,1035.5,,,,2025-01-23,1,2025,21,KIAD
2025-01-20,20,22:52,EST,NW  10,10.0,Fair,CLR,12.9,-0.9,,,54%,1.0,,30.57,1035.8,,,,2025-01-23,1,2025,22,KIAD
2025-01-20,20,23:52,EST,NW  6,10.0,Fair,CLR,12.9,-0.9,,,54%,5.0,,30.59,1036.4,,,,2025-01-23,1,2025,23,KIAD
2025-01-21,21,00:52,EST,N  7,10.0,Fair,CLR,12.9,-0.9,16.0,12.0,54%,4.0,,30.57,1035.8,,,,2025-01-24,1,2025,0,KIAD
2025-01-21,21,01:52,EST,N  7,10.0,Overcast,OVC180,14.0,-0.0,,,53%,5.0,,30.57,1035.6,,,,2025-01-24,1,2025,1,KIAD
2025-01-21,21,02:52,EST,NW  3,10.0,Overcast,OVC170,12.9,-0.0,,,56%,,,30.57,1035.8,,,,2025-01-24,1,2025,2,KIAD
2025-01-21,21,03:52,EST,NW  5,10.0,Overcast,OVC140,14.0,-0.0,,,53%,7.0,,30.58,1036.1,,,,2025-01-24,1,2025,3,KIAD
2025-01-21,21,04:52,EST,Calm,10.0,Mostly Cloudy,BKN120,12.0,-0.9,,,56%,,,30.61,1036.9,,,,2025-01-24,1,2025,4,KIAD
2025-01-21,21,05:52,EST,N  8,10.0,Mostly Cloudy,BKN120,12.9,-2.0,,,51%,3.0,,30.59,1036.5,,,,2025-01-24,1,2025,5,KIAD
2025-01-21,21,06:52,EST,NE  3,10.0,Partly Cloudy,SCT120,12.0,-2.0,14.0,12.0,53%,,,30.59,1036.5,,,,2025-01-24,1,2025,6,KIAD
2025-01-21,21,07:52,EST,N  6,10.0,Mostly Cloudy,SCT120 BKN250,12.9,-2.0,,,51%,5.0,,30.6,1036.7,,,,2025-01-24,1,2025,7,KIAD
2025-01-21,21,08:52,EST,NW  8,10.0,Mostly Cloudy,SCT140 BKN250,14.0,-0.9,,,51%,4.0,,30.61,1036.9,,,,2025-01-24,1,2025,8,KIAD
2025-01-21,21,09:52,EST,NW  8,10.0,Mostly Cloudy,SCT130 BKN250,17.1,-0.0,,,47%,7.0,,30.63,1037.7,,,,2025-01-24,1,2025,9,KIAD
2025-01-21,21,10:52,EST,N  6,10.0,Mostly Cloudy,SCT150 BKN250,17.1,-0.9,,,45%,10.0,,30.61,1037.0,,,,2025-01-24,1,2025,10,KIAD
2025-01-21,21,11:52,EST,NW  6,10.0,Mostly Cloudy,BKN180 BKN250,18.0,-0.0,,,45%,11.0,,30.56,1035.3,,,,2025-01-24,1,2025,11,KIAD
2025-01-21,21,12:52,EST,W  3,10.0,Mostly Cloudy,BKN180 BKN250,19.0,-2.0,19.0,10.0,39%,,,30.51,1033.7,,,,2025-01-24,1,2025,12,KIAD
2025-01-21,21,13:52,EST,NW  5,10.0,Overcast,BKN120 BKN180 OVC250,19.0,-0.9,,,41%,13.0,,30.49,1033.1,,,,2025-01-24,1,2025,13,KIAD
2025-01-21,21,14:52,EST,Calm,10.0,Overcast,BKN120 OVC200,19.0,-0.0,,,43%,,,30.48,1032.7,,,,2025-01-24,1,2025,14,KIAD
2025-01-21,21,15:52,EST,Calm,10.0,Overcast,OVC110,19.0,-0.0,,,43%,,,30.47,1032.2,,,,2025-01-24,1,2025,15,KIAD
2025-01-21,21,16:52,EST,Calm,10.0,Overcast,OVC100,19.0,-0.0,,,43%,,,30.47,1032.1,,,,2025-01-24,1,2025,16,KIAD
2025-01-21,21,17:52,EST,Calm,10.0,Overcast,BKN080 OVC200,19.0,-0.9,,,41%,,,30.47,1032.3,,,,2025-01-24,1,2025,17,KIAD
2025-01-21,21,18:52,EST,Calm,10.0,Overcast,OVC110,19.0,1.0,19.9,18.0,45%,,,30.49,1032.9,,,,2025-01-24,1,2025,18,KIAD
2025-01-21,21,19:52,EST,Calm,10.0,Overcast,BKN100 OVC200,18.0,3.9,,,54%,,,30.49,1032.9,,,,2025-01-24,1,2025,19,KIAD
2025-01-21,21,20:52,EST,Calm,10.0,Overcast,FEW100 OVC200,19.0,3.9,,,52%,,,30.47,1032.4,,,,2025-01-24,1,2025,20,KIAD
2025-01-21,21,21:52,EST,W  3,10.0,A Few Clouds,FEW055 FEW070,18.0,5.0,,,57%,,,30.48,1032.5,,,,2025-01-24,1,2025,21,KIAD
2025-01-21,21,22:52,EST,Calm,10.0,Overcast,FEW060 OVC250,17.1,5.0,,,59%,,,30.5,1033.2,,,,2025-01-24,1,2025,22,KIAD
2025-01-21,21,23:52,EST,N  5,10.0,Overcast,OVC250,18.0,3.9,,,54%,12.0,,30.48,1032.6,,,,2025-01-24,1,2025,23,KIAD
2025-01-22,22,00:52,EST,NW  6,10.0,Overcast,OVC250,16.0,3.9,19.0,15.1,59%,8.0,,30.48,1032.8,,,,2025-01-25,1,2025,0,KIAD
2025-01-22,22,01:52,EST,NW  8,10.0,Partly Cloudy,SCT250,16.0,1.9,,,54%,6.0,,30.49,1033.1,,,,2025-01-25,1,2025,1,KIAD
2025-01-22,22,02:52,EST,NW  7,10.0,Partly Cloudy,SCT250,14.0,1.9,,,58%,5.0,,30.5,1033.3,,,,2025-01-25,1,2025,2,KIAD
2025-01-22,22,03:52,EST,N  7,10.0,Partly Cloudy,SCT250,15.1,1.0,,,53%,6.0,,30.48,1032.8,,,,2025-01-25,1,2025,3,KIAD
2025-01-22,22,04:52,EST,N  15,10.0,Mostly Cloudy,BKN250,14.0,-0.0,,,53%,0.0,,30.5,1033.3,,,,2025-01-25,1,2025,4,KIAD
2025-01-22,22,05:52,EST,N  10,10.0,Partly Cloudy,SCT250,12.0,-2.0,,,53%,0.0,,30.51,1033.6,,,,2025-01-25,1,2025,5,KIAD
2025-01-22,22,06:52,EST,N  9,10.0,Mostly Cloudy,BKN250,10.9,-2.9,17.1,10.9,53%,-1.0,,30.52,1033.9,,,,2025-01-25,1,2025,6,KIAD
2025-01-22,22,07:59,EST,S  13  G 17,10.0,Partly Cloudy,SCT120,-0.4,-9.4,,,65%,-17.0,,30.41,0.0,,,,2025-01-25,1,2025,7,KIAD
2025-01-22,22,08:52,EST,NW  10,10.0,A Few Clouds,FEW250,10.0,-2.0,,,58%,-3.0,,30.54,1034.6,,,,2025-01-25,1,2025,8,KIAD
2025-01-22,22,09:52,EST,N  12,10.0,A Few Clouds,FEW250,12.0,-2.0,,,53%,-1.0,,30.55,1035.1,,,,2025-01-25,1,2025,9,KIAD
2025-01-22,22,10:52,EST,NW  5,10.0,A Few Clouds,FEW250,14.0,-5.1,,,42%,7.0,,30.58,1035.9,,,,2025-01-25,1,2025,10,KIAD
2025-01-22,22,11:52,EST,NW  6,10.0,Fair,CLR,15.1,-5.1,,,40%,7.0,,30.57,1035.9,,,,2025-01-25,1,2025,11,KIAD
2025-01-22,22,12:52,EST,Vrbl  5,10.0,Fair,CLR,17.1,-7.1,17.1,9.0,33%,11.0,,30.53,1034.4,,,,2025-01-25,1,2025,12,KIAD
2025-01-22,22,13:52,EST,Vrbl  5,10.0,A Few Clouds,FEW250,19.0,-6.0,,,32%,13.0,,30.52,1034.0,,,,2025-01-25,1,2025,13,KIAD
2025-01-22,22,14:52,EST,Vrbl  5,10.0,A Few Clouds,FEW250,19.0,-7.1,,,31%,13.0,,30.48,1032.7,,,,2025-01-25,1,2025,14,KIAD
2025-01-22,22,15:52,EST,Calm,10.0,Mostly Cloudy,BKN250,18.0,-8.0,,,31%,,,30.48,1032.5,,,,2025-01-25,1,2025,15,KIAD
2025-01-22,22,16:52,EST,NW  6,10.0,Mostly Cloudy,BKN250,19.0,-8.0,,,29%,12.0,,30.47,1032.2,,,,2025-01-25,1,2025,16,KIAD
2025-01-22,22,17:52,EST,Calm,10.0,Partly Cloudy,SCT250,17.1,-6.0,,,35%,,,30.48,1032.8,,,,2025-01-25,1,2025,17,KIAD
2025-01-22,22,18:52,EST,E  5,10.0,A Few Clouds,FEW250,14.0,-4.0,19.9,14.0,44%,7.0,,30.47,1032.3,,,,2025-01-25,1,2025,18,KIAD
2025-01-22,22,19:52,EST,Calm,10.0,A Few Clouds,FEW250,12.0,-2.0,,,53%,,,30.47,1032.4,,,,2025-01-25,1,2025,19,KIAD
2025-01-22,22,20:52,EST,Calm,10.0,A Few Clouds,FEW250,10.0,-2.0,,,58%,,,30.47,1032.3,,,,2025-01-25,1,2025,20,KIAD
2025-01-22,22,21:52,EST,E  3,10.0,A Few Clouds,FEW250,9.0,-0.0,,,66%,,,30.44,1031.5,,,,2025-01-25,1,2025,21,KIAD
2025-01-22,22,22:52,EST,Calm,10.0,A Few Clouds,FEW250,10.0,-0.9,,,61%,,,30.44,1031.3,,,,2025-01-25,1,2025,22,KIAD
2025-01-22,22,23:52,EST,Calm,10.0,A Few Clouds,FEW250,10.0,1.9,,,69%,,,30.42,1030.7,,,,2025-01-25,1,2025,23,KIAD
2025-01-23,23,00:52,EST,Calm,10.0,Fair,CLR,9.0,1.0,15.1,8.1,70%,,,30.43,1030.9,,,,2025-01-26,1,2025,0,KIAD
2025-01-23,23,01:52,EST,Calm,10.0,Fair,CLR,9.0,1.0,,,70%,,,30.4,1030.0,,,,2025-01-26,1,2025,1,KIAD
2025-01-23,23,02:52,EST,SE  3,10.0,Partly Cloudy,SCT250,8.1,1.0,,,73%,,,30.37,1029.0,,,,2025-01-26,1,2025,2,KIAD
2025-01-23,23,03:52,EST,SE  5,10.0,Fair,CLR,7.0,1.0,,,76%,-1.0,,30.35,1028.5,,,,2025-01-26,1,2025,3,KIAD
2025-01-23,23,04:52,EST,Calm,10.0,Fair,CLR,6.1,-0.0,,,76%,,,30.33,1027.7,,,,2025-01-26,1,2025,4,KIAD
2025-01-23,23,05:52,EST,Calm,10.0,Fair,CLR,5.0,-0.0,,,79%,,,30.34,1027.9,,,,2025-01-26,1,2025,5,KIAD
2025-01-23,23,06:52,EST,SW  3,10.0,A Few Clouds,FEW250,5.0,-0.0,9.0,3.9,79%,,,30.33,1027.8,,,,2025-01-26,1,2025,6,KIAD
2025-01-23,23,07:52,EST,Calm,10.0,A Few Clouds,FEW025,3.9,-0.9,,,80%,,,30.33,1027.5,,,,2025-01-26,1,2025,7,KIAD
2025-01-23,23,08:52,EST,Calm,10.0,Mostly Cloudy,BKN250,12.0,3.9,,,70%,,,30.33,1027.5,,,,2025-01-26,1,2025,8,KIAD
2025-01-23,23,09:52,EST,Calm,10.0,Mostly Cloudy,BKN250,15.1,6.1,,,67%,,,30.31,1027.0,,,,2025-01-26,1,2025,9,KIAD
2025-01-23,23,10:52,EST,S  6,10.0,Mostly Cloudy,BKN250,19.0,6.1,,,57%,12.0,,30.29,1026.3,,,,2025-01-26,1,2025,10,KIAD
2025-01-23,23,11:52,EST,S  9,10.0,Mostly Cloudy,BKN250,21.9,9.0,,,57%,13.0,,30.26,1025.1,,,,2025-01-26,1,2025,11,KIAD
2025-01-23,23,12:52,EST,S  7,10.0,Mostly Cloudy,BKN250,24.1,8.1,24.1,3.9,50%,17.0,,30.22,1024.0,,,,2025-01-26,1,2025,12,KIAD
2025-01-23,23,13:52,EST,S  7,10.0,Mostly Cloudy,BKN250,26.1,9.0,,,48%,19.0,,30.2,1023.1,,,,2025-01-26,1,2025,13,KIAD
2025-01-23,23,14:52,EST,S  6,10.0,Mostly Cloudy,FEW140 BKN250,27.0,9.0,,,46%,21.0,,30.17,1022.1,,,,2025-01-26,1,2025,14,KIAD
2025-01-23,23,15:52,EST,S  6,10.0,Partly Cloudy,FEW140 SCT250,28.0,9.0,,,44%,22.0,,30.16,1022.0,,,,2025-01-26,1,2025,15,KIAD
2025-01-23,23,16:52,EST,S  6,10.0,Partly Cloudy,FEW140 SCT250,28.0,9.0,,,44%,22.0,,30.17,1022.2,,,,2025-01-26,1,2025,16,KIAD
2025-01-23,23,17:52,EST,S  5,10.0,A Few Clouds,FEW250,26.1,9.0,,,48%,21.0,,30.17,1022.2,,,,2025-01-26,1,2025,17,KIAD
2025-01-23,23,19:52,EST,Calm,10.0,A Few Clouds,FEW250,19.9,9.0,,,62%,,,30.19,1022.8,,,,2025-01-26,1,2025,19,KIAD
2025-01-23,23,20:52,EST,Calm,10.0,Fair,CLR,18.0,9.0,,,68%,,,30.19,1022.9,,,,2025-01-26,1,2025,20,KIAD
2025-01-23,23,21:52,EST,Calm,10.0,Fair,CLR,17.1,8.1,,,68%,,,30.19,1022.9,,,,2025-01-26,1,2025,21,KIAD
2025-01-23,23,22:52,EST,Calm,10.0,Fair,CLR,16.0,8.1,,,71%,,,30.2,1023.0,,,,2025-01-26,1,2025,22,KIAD
2025-01-23,23,23:52,EST,Calm,10.0,Fair,CLR,15.1,8.1,,,74%,,,30.2,1023.0,,,,2025-01-26,1,2025,23,KIAD
2025-01-24,24,00:52,EST,Calm,10.0,Fair,CLR,12.9,8.1,24.1,12.9,81%,,,30.2,1023.2,,,,2025-01-27,1,2025,0,KIAD
2025-01-24,24,01:52,EST,SE  3,10.0,Partly Cloudy,SCT044,16.0,9.0,,,74%,,,30.2,1022.9,,,,2025-01-27,1,2025,1,KIAD
2025-01-24,24,02:52,EST,Calm,10.0,Mostly Cloudy,SCT050 BKN060,14.0,8.1,,,77%,,,30.2,1023.0,,,,2025-01-27,1,2025,2,KIAD
2025-01-24,24,03:52,EST,S  3,10.0,Overcast,OVC060,17.1,12.0,,,80%,,,30.19,1022.7,,,,2025-01-27,1,2025,3,KIAD
2025-01-24,24,04:52,EST,Calm,10.0,Overcast,OVC060,18.0,12.0,,,77%,,,30.19,1022.8,,,,2025-01-27,1,2025,4,KIAD
2025-01-24,24,05:52,EST,S  5,10.0,Overcast,OVC060,19.9,12.9,,,74%,14.0,,30.21,1023.4,,,,2025-01-27,1,2025,5,KIAD
2025-01-24,24,06:52,EST,S  3,10.0,Overcast,OVC050,21.0,12.9,21.0,12.9,71%,,,30.22,1023.9,,,,2025-01-27,1,2025,6,KIAD
2025-01-24,24,07:52,EST,Calm,10.0,Mostly Cloudy,BKN060 BKN120,21.9,15.1,,,75%,,,30.23,1024.2,,,,2025-01-27,1,2025,7,KIAD
2025-01-24,24,08:52,EST,S  5,10.0,Mostly Cloudy,BKN060,25.0,16.0,,,69%,20.0,,30.25,1024.7,,,,2025-01-27,1,2025,8,KIAD
2025-01-24,24,10:52,EST,W  8,10.0,Mostly Cloudy,BKN050 BKN150,35.1,16.0,,,46%,29.0,,30.26,1025.2,,,,2025-01-27,1,2025,10,KIAD
2025-01-24,24,11:52,EST,NW  10,10.0,Overcast,OVC050,35.1,15.1,,,44%,28.0,,30.24,1024.6,,,,2025-01-27,1,2025,11,KIAD
2025-01-24,24,12:52,EST,W  7,10.0,Mostly Cloudy,SCT038 BKN055,36.0,15.1,36.0,21.0,42%,31.0,,30.2,1023.2,,,,2025-01-27,1,2025,12,KIAD
2025-01-24,24,13:52,EST,N  9,10.0,Mostly Cloudy,SCT038 BKN055,36.0,16.0,,,44%,30.0,,30.18,1022.4,,,,2025-01-27,1,2025,13,KIAD
2025-01-24,24,14:52,EST,NW  7,10.0,Overcast,BKN040 OVC075,35.1,15.1,,,44%,30.0,,30.19,1022.7,,,,2025-01-27,1,2025,14,KIAD
2025-01-25,25,22:52,EST,S  7,10.0,Mostly Cloudy,FEW170 BKN250,32.0,12.9,,,45%,26.0,,30.23,1024.0,,,,2025-01-27,1,2025,22,KIAD
2025-01-24,24,15:52,EST,Calm,10.0,Overcast,OVC065,35.1,14.0,,,42%,,,30.19,1022.8,,,,2025-01-27,1,2025,15,KIAD
2025-01-24,24,16:52,EST,N  5,10.0,Mostly Cloudy,BKN055,34.0,15.1,,,46%,30.0,,30.21,1023.5,,,,2025-01-27,1,2025,16,KIAD
2025-01-24,24,17:52,EST,E  6,10.0,Mostly Cloudy,BKN060,30.0,17.1,,,58%,25.0,,30.22,1023.8,,,,2025-01-27,1,2025,17,KIAD
2025-01-24,24,18:52,EST,E  5,10.0,A Few Clouds,FEW070,28.9,16.0,37.0,28.0,58%,25.0,,30.24,1024.3,,,,2025-01-27,1,2025,18,KIAD
2025-01-24,24,19:52,EST,Calm,10.0,Fair,CLR,25.0,15.1,,,66%,,,30.25,1024.8,,,,2025-01-27,1,2025,19,KIAD
2025-01-24,24,20:52,EST,NW  3,10.0,Overcast,OVC065,27.0,17.1,,,66%,,,30.28,1025.7,,,,2025-01-27,1,2025,20,KIAD
2025-01-24,24,21:52,EST,N  3,10.0,Partly Cloudy,SCT070,25.0,15.1,,,66%,,,30.3,1026.2,,,,2025-01-27,1,2025,21,KIAD
2025-01-24,24,22:52,EST,Calm,10.0,A Few Clouds,FEW070,23.0,14.0,,,68%,,,30.31,1026.8,,,,2025-01-27,1,2025,22,KIAD
2025-01-24,24,23:52,EST,Calm,10.0,Fair,CLR,21.0,12.9,,,71%,,,30.32,1026.9,,,,2025-01-27,1,2025,23,KIAD
2025-01-25,25,00:52,EST,Calm,10.0,A Few Clouds,FEW050,19.0,12.0,28.9,18.0,74%,,,30.33,1027.4,,,,2025-01-28,1,2025,0,KIAD
2025-01-25,25,02:52,EST,Calm,10.0,Fair,CLR,16.0,10.9,,,80%,,,30.34,1027.8,,,,2025-01-28,1,2025,2,KIAD
2025-01-25,25,03:52,EST,Calm,10.0,Fair,CLR,14.0,10.0,,,84%,,,30.34,1027.9,,,,2025-01-28,1,2025,3,KIAD
2025-01-25,25,04:52,EST,Calm,10.0,Fair,CLR,12.9,9.0,,,84%,,,30.36,1028.5,,,,2025-01-28,1,2025,4,KIAD
2025-01-25,25,05:52,EST,Calm,10.0,Fair,CLR,12.9,8.1,,,81%,,,30.38,1029.1,,,,2025-01-28,1,2025,5,KIAD
2025-01-25,25,06:52,EST,Calm,10.0,Fair,CLR,12.0,8.1,19.0,12.0,84%,,,30.39,1029.5,,,,2025-01-28,1,2025,6,KIAD
2025-01-25,25,07:52,EST,Calm,9.0,A Few Clouds,FEW250,12.9,10.0,,,88%,,,30.42,1030.6,,,,2025-01-28,1,2025,7,KIAD
2025-01-25,25,08:52,EST,S  5,10.0,Partly Cloudy,FEW120 SCT250,21.9,16.0,,,78%,16.0,,30.42,1030.6,,,,2025-01-28,1,2025,8,KIAD
2025-01-25,25,09:52,EST,SW  7,10.0,A Few Clouds,FEW120,27.0,17.1,,,66%,20.0,,30.41,1030.1,,,,2025-01-28,1,2025,9,KIAD
2025-01-25,25,10:52,EST,S  10,10.0,A Few Clouds,FEW250,30.0,16.0,,,56%,22.0,,30.41,1030.0,,,,2025-01-28,1,2025,10,KIAD
2025-01-25,25,11:52,EST,S  10,10.0,Partly Cloudy,FEW120 SCT250,33.1,17.1,,,52%,26.0,,30.38,1029.1,,,,2025-01-28,1,2025,11,KIAD
2025-01-25,25,12:52,EST,SW  15,10.0,Mostly Cloudy,FEW015 BKN250,35.1,15.1,35.1,10.9,44%,26.0,,30.34,1027.7,,,,2025-01-28,1,2025,12,KIAD
2025-01-25,25,13:52,EST,SW  12,10.0,Mostly Cloudy,FEW120 SCT170 BKN250,36.0,15.1,,,42%,29.0,,30.32,1026.9,,,,2025-01-28,1,2025,13,KIAD
2025-01-25,25,14:52,EST,SW  13,10.0,Mostly Cloudy,SCT150 BKN250,37.9,16.0,,,41%,31.0,,30.29,1025.9,,,,2025-01-28,1,2025,14,KIAD
2025-01-25,25,15:52,EST,S  8,10.0,Mostly Cloudy,SCT180 BKN250,37.9,15.1,,,39%,33.0,,30.28,1025.8,,,,2025-01-28,1,2025,15,KIAD
2025-01-25,25,16:52,EST,S  10,10.0,Mostly Cloudy,SCT170 BKN250,39.0,15.1,,,38%,33.0,,30.28,1025.6,,,,2025-01-28,1,2025,16,KIAD
2025-01-25,25,17:52,EST,S  5,10.0,Mostly Cloudy,FEW140 BKN250,37.0,12.9,,,37%,34.0,,30.26,1025.3,,,,2025-01-28,1,2025,17,KIAD
2025-01-25,25,18:52,EST,S  5,10.0,A Few Clouds,FEW250,34.0,12.9,39.9,34.0,42%,30.0,,30.26,1025.1,,,,2025-01-28,1,2025,18,KIAD
2025-01-25,25,19:52,EST,S  8,10.0,Partly Cloudy,SCT250,36.0,14.0,,,40%,30.0,,30.25,1024.8,,,,2025-01-28,1,2025,19,KIAD
2025-01-25,25,20:52,EST,S  8,10.0,Partly Cloudy,FEW160 SCT250,33.1,14.0,,,45%,27.0,,30.24,1024.4,,,,2025-01-28,1,2025,20,KIAD
2025-01-25,25,21:52,EST,S  8,10.0,Mostly Cloudy,FEW170 BKN250,34.0,14.0,,,44%,28.0,,30.24,1024.2,,,,2025-01-28,1,2025,21,KIAD
2025-01-25,25,23:52,EST,S  9,10.0,Partly Cloudy,SCT250,33.1,12.9,,,43%,26.0,,30.22,1023.7,,,,2025-01-28,1,2025,23,KIAD
2025-01-26,26,00:52,EST,S  9,10.0,Mostly Cloudy,BKN180 BKN250,33.1,12.9,36.0,30.9,43%,26.0,,30.22,1023.4,,,,2025-01-29,1,2025,0,KIAD
2025-01-26,26,01:52,EST,S  9,10.0,Overcast,BKN170 OVC250,33.1,14.0,,,45%,26.0,,30.21,1023.2,,,,2025-01-29,1,2025,1,KIAD
2025-01-26,26,02:52,EST,S  9,10.0,Overcast,OVC170,33.1,15.1,,,48%,26.0,,30.2,1022.8,,,,2025-01-29,1,2025,2,KIAD
2025-01-26,26,03:52,EST,S  12,10.0,Mostly Cloudy,BKN170,34.0,15.1,,,46%,26.0,,30.19,1022.5,,,,2025-01-29,1,2025,3,KIAD
2025-01-26,26,04:52,EST,S  10,10.0,Mostly Cloudy,BKN160,34.0,15.1,,,46%,27.0,,30.18,1022.2,,,,2025-01-29,1,2025,4,KIAD
2025-01-26,26,05:52,EST,S  9,10.0,Mostly Cloudy,BKN150 BKN250,33.1,15.1,,,48%,26.0,,30.19,1022.4,,,,2025-01-29,1,2025,5,KIAD
2025-01-26,26,06:52,EST,S  10,10.0,Mostly Cloudy,FEW120 BKN190 BKN250,33.1,16.0,34.0,32.0,49%,26.0,,30.2,1022.8,,,,2025-01-29,1,2025,6,KIAD
2025-01-26,26,07:52,EST,S  8,10.0,Mostly Cloudy,FEW120 SCT190 BKN250,34.0,16.0,,,48%,28.0,,30.21,1023.2,,,,2025-01-29,1,2025,7,KIAD
2025-01-26,26,08:52,EST,S  3,10.0,Mostly Cloudy,BKN190 BKN250,35.1,17.1,,,48%,,,30.23,1023.8,,,,2025-01-29,1,2025,8,KIAD
2025-01-26,26,09:52,EST,S  5,10.0,Mostly Cloudy,BKN190 BKN250,36.0,18.0,,,48%,33.0,,30.23,1023.8,,,,2025-01-29,1,2025,9,KIAD
2025-01-26,26,10:52,EST,SW  6,10.0,Mostly Cloudy,FEW065 BKN190 BKN250,39.9,19.0,,,43%,36.0,,30.23,1024.0,,,,2025-01-29,1,2025,10,KIAD
2025-01-26,26,11:52,EST,NW  5,10.0,Mostly Cloudy,FEW050 BKN190 BKN250,44.1,21.0,,,40%,42.0,,30.22,1023.6,,,,2025-01-29,1,2025,11,KIAD
2025-01-26,26,12:52,EST,E  3,10.0,Mostly Cloudy,FEW050 SCT180 BKN250,45.0,21.9,46.0,33.1,40%,,,30.2,1022.9,,,,2025-01-29,1,2025,12,KIAD
2025-01-26,26,13:52,EST,NW  15  G 26,10.0,Mostly Cloudy,FEW070 SCT160 BKN250,48.0,21.0,,,34%,43.0,,30.18,1022.0,,,,2025-01-29,1,2025,13,KIAD
2025-01-26,26,14:52,EST,NW  17,10.0,Mostly Cloudy,BKN200 BKN250,46.0,21.0,,,37%,40.0,,30.18,1022.1,,,,2025-01-29,1,2025,14,KIAD
2025-01-26,26,15:52,EST,NW  8,10.0,Mostly Cloudy,BKN250,48.0,19.9,,,33%,45.0,,30.18,1022.0,,,,2025-01-29,1,2025,15,KIAD
2025-01-26,26,16:52,EST,NW  6,10.0,Partly Cloudy,FEW120 SCT250,45.0,18.0,,,34%,42.0,,30.18,1022.2,,,,2025-01-29,1,2025,16,KIAD
2025-01-26,26,17:52,EST,NW  3,10.0,Partly Cloudy,FEW120 SCT250,39.9,17.1,,,40%,,,30.19,1022.5,,,,2025-01-29,1,2025,17,KIAD
2025-01-26,26,18:52,EST,SW  3,10.0,A Few Clouds,FEW250,33.1,17.1,48.9,32.0,52%,,,30.19,1022.8,,,,2025-01-29,1,2025,18,KIAD
2025-01-26,26,19:52,EST,S  3,10.0,A Few Clouds,FEW250,30.0,16.0,,,56%,,,30.19,1022.5,,,,2025-01-29,1,2025,19,KIAD
2025-01-26,26,20:52,EST,SW  3,10.0,A Few Clouds,FEW250,28.9,16.0,,,58%,,,30.18,1022.3,,,,2025-01-29,1,2025,20,KIAD
2025-01-26,26,21:52,EST,Calm,10.0,Partly Cloudy,SCT250,28.0,16.0,,,60%,,,30.17,1021.9,,,,2025-01-29,1,2025,21,KIAD
2025-01-26,26,22:52,EST,Calm,10.0,A Few Clouds,FEW250,26.1,16.0,,,66%,,,30.17,1021.9,,,,2025-01-29,1,2025,22,KIAD
2025-01-26,26,23:52,EST,Calm,10.0,Fair,CLR,27.0,17.1,,,66%,,,30.15,1021.0,,,,2025-01-29,1,2025,23,KIAD
2025-01-27,27,00:52,EST,S  5,10.0,Fair,CLR,24.1,16.0,35.1,24.1,71%,19.0,,30.14,1020.8,,,,2025-01-30,1,2025,0,KIAD
2025-01-27,27,01:52,EST,Calm,10.0,A Few Clouds,FEW070,24.1,16.0,,,71%,,,30.12,1020.2,,,,2025-01-30,1,2025,1,KIAD
2025-01-27,27,02:52,EST,NW  3,10.0,A Few Clouds,FEW070,21.9,15.1,,,75%,,,30.12,1020.2,,,,2025-01-30,1,2025,2,KIAD
2025-01-27,27,03:52,EST,S  3,10.0,A Few Clouds,FEW070,21.0,15.1,,,78%,,,30.11,1019.7,,,,2025-01-30,1,2025,3,KIAD
2025-01-27,27,04:52,EST,Calm,10.0,Fair,CLR,21.0,15.1,,,78%,,,30.1,1019.5,,,,2025-01-30,1,2025,4,KIAD
2025-01-27,27,05:52,EST,E  5,10.0,Fair,CLR,19.9,15.1,,,81%,14.0,,30.09,1019.2,,,,2025-01-30,1,2025,5,KIAD
2025-01-27,27,06:52,EST,E  3,10.0,A Few Clouds,FEW100,23.0,15.1,25.0,19.9,72%,,,30.1,1019.6,,,,2025-01-30,1,2025,6,KIAD
2025-01-27,27,07:52,EST,Calm,10.0,A Few Clouds,FEW150,21.9,16.0,,,78%,,,30.12,1020.3,,,,2025-01-30,1,2025,7,KIAD
2025-01-27,27,08:52,EST,Calm,10.0,A Few Clouds,FEW150,35.1,21.9,,,59%,,,30.13,1020.5,,,,2025-01-30,1,2025,8,KIAD
2025-01-27,27,09:52,EST,N  8,10.0,Fair,CLR,39.0,14.0,,,36%,34.0,,30.12,1020.2,,,,2025-01-30,1,2025,9,KIAD
2025-01-27,27,10:52,EST,Calm,10.0,Fair,CLR,43.0,16.0,,,34%,,,30.11,1019.7,,,,2025-01-30,1,2025,10,KIAD
2025-01-27,27,11:52,EST,S  7,10.0,Fair,CLR,44.1,17.1,,,34%,41.0,,30.06,1018.0,,,,2025-01-30,1,2025,11,KIAD
2025-01-27,27,12:52,EST,SW  9,10.0,Fair,CLR,46.0,19.9,46.0,21.0,35%,42.0,,30.0,1016.2,,,,2025-01-30,1,2025,12,KIAD
2025-01-27,27,13:52,EST,SW  13  G 21,10.0,Fair,CLR,46.9,21.0,,,36%,42.0,,29.96,1014.8,,,,2025-01-30,1,2025,13,KIAD
2025-01-27,27,14:52,EST,SW  12,10.0,Fair,CLR,48.0,21.0,,,34%,44.0,,29.92,1013.4,,,,2025-01-30,1,2025,14,KIAD
2025-01-27,27,15:52,EST,SW  8,10.0,Fair,CLR,48.9,21.9,,,35%,46.0,,29.89,1012.5,,,,2025-01-30,1,2025,15,KIAD
2025-01-27,27,16:52,EST,S  10,10.0,Fair,CLR,46.9,19.0,,,33%,43.0,,29.86,1011.5,,,,2025-01-30,1,2025,16,KIAD
2025-01-27,27,18:52,EST,SW  5,10.0,Fair,CLR,39.0,18.0,48.9,37.9,43%,36.0,,29.83,1010.5,,,,2025-01-30,1,2025,18,KIAD
2025-01-27,27,19:52,EST,S  5,10.0,Fair,CLR,35.1,19.0,,,52%,32.0,,29.82,1010.0,,,,2025-01-30,1,2025,19,KIAD
2025-01-27,27,20:52,EST,S  6,10.0,Fair,CLR,34.0,19.0,,,54%,29.0,,29.8,1009.1,,,,2025-01-30,1,2025,20,KIAD
2025-01-27,27,21:52,EST,SW  5,10.0,Fair,CLR,37.0,18.0,,,46%,34.0,,29.78,1008.5,,,,2025-01-30,1,2025,21,KIAD
2025-01-27,27,22:52,EST,SW  7,10.0,Fair,CLR,34.0,18.0,,,52%,29.0,,29.76,1008.0,,,,2025-01-30,1,2025,22,KIAD
2025-01-27,27,23:52,EST,SW  6,10.0,Fair,CLR,35.1,17.1,,,48%,31.0,,29.73,1007.0,,,,2025-01-30,1,2025,23,KIAD
2025-01-28,28,00:52,EST,S  6,10.0,Mostly Cloudy,BKN230,32.0,17.1,39.0,30.0,54%,27.0,,29.71,1006.2,,,,2025-01-31,1,2025,0,KIAD
2025-01-28,28,01:52,EST,S  6,10.0,Partly Cloudy,SCT190,33.1,18.0,,,54%,28.0,,29.7,1005.9,,,,2025-01-31,1,2025,1,KIAD
2025-01-28,28,02:52,EST,S  6,10.0,Partly Cloudy,SCT130,30.9,17.1,,,56%,26.0,,29.68,1005.3,,,,2025-01-31,1,2025,2,KIAD
2025-01-28,28,03:52,EST,W  7,10.0,A Few Clouds,FEW130,37.0,12.0,,,36%,32.0,,29.68,1005.1,,,,2025-01-31,1,2025,3,KIAD
2025-01-28,28,04:52,EST,W  8,10.0,Fair,CLR,37.0,10.0,,,33%,32.0,,29.69,1005.5,,,,2025-01-31,1,2025,4,KIAD
2025-01-28,28,05:52,EST,W  6,10.0,Fair,CLR,36.0,10.0,,,34%,32.0,,29.69,1005.6,,,,2025-01-31,1,2025,5,KIAD
2025-01-28,28,06:52,EST,SW  3,10.0,A Few Clouds,FEW250,32.0,10.9,37.9,28.9,41%,,,29.7,1005.9,,,,2025-01-31,1,2025,6,KIAD
2025-01-28,28,07:52,EST,Calm,10.0,A Few Clouds,FEW060 FEW250,34.0,10.9,,,38%,,,29.72,1006.4,,,,2025-01-31,1,2025,7,KIAD
2025-01-28,28,08:52,EST,Calm,10.0,A Few Clouds,FEW060 FEW220,42.1,14.0,,,32%,,,29.74,1007.2,,,,2025-01-31,1,2025,8,KIAD
2025-01-28,28,09:52,EST,Calm,10.0,A Few Clouds,FEW060 FEW220,44.1,18.0,,,35%,,,29.76,1007.9,,,,2025-01-31,1,2025,9,KIAD
2025-01-28,28,10:52,EST,NW  20  G 26,10.0,Partly Cloudy,FEW060 SCT250,46.9,24.1,,,41%,40.0,,29.78,1008.3,,,,2025-01-31,1,2025,10,KIAD
2025-01-28,28,11:52,EST,NW  20  G 31,10.0,A Few Clouds,FEW060,46.9,24.1,,,41%,40.0,,29.77,1008.1,,,,2025-01-31,1,2025,11,KIAD
2025-01-28,28,12:52,EST,NW  14  G 28,10.0,A Few Clouds,FEW060 FEW250,48.9,24.1,48.9,28.0,38%,44.0,,29.75,1007.5,,,,2025-01-31,1,2025,12,KIAD
2025-01-28,28,13:52,EST,W  14,10.0,A Few Clouds,FEW060 FEW250,50.0,24.1,,,36%,45.0,,29.73,1006.9,,,,2025-01-31,1,2025,13,KIAD
2025-01-28,28,14:52,EST,NW  9,10.0,A Few Clouds,FEW060 FEW250,51.1,24.1,,,35%,,,29.72,1006.4,,,,2025-01-31,1,2025,14,KIAD
2025-01-28,28,15:52,EST,S  8,10.0,Partly Cloudy,FEW044 SCT250,50.0,23.0,,,35%,47.0,,29.71,1006.1,,,,2025-01-31,1,2025,15,KIAD
2025-01-28,28,16:52,EST,S  7,10.0,Partly Cloudy,FEW045 SCT250,48.0,23.0,,,37%,45.0,,29.71,1006.1,,,,2025-01-31,1,2025,16,KIAD
2025-01-28,28,17:52,EST,Calm,10.0,Partly Cloudy,SCT250,41.0,21.9,,,47%,,,29.71,1006.2,,,,2025-01-31,1,2025,17,KIAD
2025-01-28,28,18:52,EST,SE  3,10.0,Fair,CLR,37.0,21.9,52.0,34.0,54%,,,29.71,1006.1,,,,2025-01-31,1,2025,18,KIAD
2025-01-28,28,19:52,EST,S  3,10.0,A Few Clouds,FEW250,34.0,21.0,,,59%,,,29.69,1005.5,,,,2025-01-31,1,2025,19,KIAD
2025-01-28,28,20:52,EST,S  5,10.0,Fair,CLR,36.0,21.9,,,57%,33.0,,29.68,1005.1,,,,2025-01-31,1,2025,20,KIAD
2025-01-28,28,21:52,EST,S  9,10.0,Fair,CLR,37.9,23.0,,,55%,32.0,,29.64,1003.9,,,,2025-01-31,1,2025,21,KIAD
2025-01-28,28,22:52,EST,SW  7,10.0,Fair,CLR,39.9,23.0,,,51%,36.0,,29.64,1003.9,,,,2025-01-31,1,2025,22,KIAD
2025-01-28,28,23:52,EST,S  12,10.0,Fair,CLR,44.1,23.0,,,43%,39.0,,29.61,1002.7,,,,2025-01-31,1,2025,23,KIAD
2025-01-29,29,00:52,EST,SW  10,10.0,Fair,CLR,44.1,23.0,45.0,32.0,43%,39.0,,29.59,1002.0,,,,2025-02-01,1,2025,0,KIAD
2025-01-29,29,01:52,EST,SW  13,10.0,Fair,CLR,43.0,23.0,,,45%,37.0,,29.57,1001.5,,,,2025-02-01,1,2025,1,KIAD
2025-01-29,29,02:52,EST,SW  9,10.0,Fair,CLR,42.1,23.0,,,47%,37.0,,29.58,1001.9,,,,2025-02-01,1,2025,2,KIAD
2025-01-29,29,03:52,EST,SW  9,10.0,Fair,CLR,39.9,23.0,,,51%,34.0,,29.57,1001.4,,,,2025-02-01,1,2025,3,KIAD
2025-01-29,29,04:52,EST,S  9,10.0,Fair,CLR,39.0,23.0,,,53%,33.0,,29.57,1001.2,,,,2025-02-01,1,2025,4,KIAD
2025-01-29,29,05:52,EST,S  7,10.0,Fair,CLR,37.0,23.0,,,57%,32.0,,29.57,1001.5,,,,2025-02-01,1,2025,5,KIAD
2025-01-29,29,06:52,EST,S  9,10.0,Fair,CLR,36.0,23.0,44.1,35.1,59%,30.0,,29.57,1001.3,,,,2025-02-01,1,2025,6,KIAD
2025-01-29,29,07:52,EST,S  8,10.0,Fair,CLR,36.0,24.1,,,62%,30.0,,29.58,1001.8,,,,2025-02-01,1,2025,7,KIAD
2025-01-29,29,08:52,EST,SW  9,10.0,Fair,CLR,43.0,25.0,,,49%,38.0,,29.59,1002.3,,,,2025-02-01,1,2025,8,KIAD
2025-01-29,29,09:52,EST,S  9,10.0,Fair,CLR,48.9,26.1,,,41%,45.0,,29.6,1002.3,,,,2025-02-01,1,2025,9,KIAD
2025-01-29,29,10:52,EST,SW  9,10.0,Fair,CLR,53.1,27.0,,,37%,,,29.6,1002.5,,,,2025-02-01,1,2025,10,KIAD
2025-01-29,29,11:52,EST,Vrbl  7,10.0,Fair,CLR,57.0,26.1,,,30%,,,29.6,1002.3,,,,2025-02-01,1,2025,11,KIAD
2025-01-29,29,12:52,EST,W  24  G 38,10.0,A Few Clouds and Breezy,FEW060 FEW250,57.9,19.9,59.0,33.1,23%,,,29.58,1001.8,,,,2025-02-01,1,2025,12,KIAD
2025-01-29,29,13:52,EST,NW  22  G 31,10.0,A Few Clouds and Breezy,FEW060 FEW250,57.0,25.0,,,29%,,,29.62,1002.9,,,,2025-02-01,1,2025,13,KIAD
2025-01-29,29,14:52,EST,NW  25  G 33,10.0,A Few Clouds and Breezy,FEW050,55.0,25.0,,,31%,,,29.64,1003.8,,,,2025-02-01,1,2025,14,KIAD
2025-01-29,29,15:52,EST,NW  22  G 31,10.0,A Few Clouds and Breezy,FEW050,53.1,23.0,,,31%,,,29.7,1005.8,,,,2025-02-01,1,2025,15,KIAD
2025-01-29,29,16:52,EST,NW  20  G 28,10.0,Fair,CLR,51.1,21.9,,,32%,,,29.75,1007.4,,,,2025-02-01,1,2025,16,KIAD
2025-01-29,29,17:52,EST,W  7,10.0,Fair,CLR,46.9,21.9,,,37%,44.0,,29.79,1008.9,,,,2025-02-01,1,2025,17,KIAD
2025-01-29,29,18:52,EST,W  9  G 17,10.0,Fair,CLR,46.0,19.9,59.0,46.0,35%,42.0,,29.84,1010.4,,,,2025-02-01,1,2025,18,KIAD
2025-01-29,29,19:52,EST,NW  14,10.0,Fair,CLR,46.0,19.9,,,35%,40.0,,29.87,1011.7,,,,2025-02-01,1,2025,19,KIAD
2025-01-29,29,20:52,EST,NW  12  G 24,10.0,Fair,CLR,44.1,21.0,,,40%,39.0,,29.91,1013.0,,,,2025-02-01,1,2025,20,KIAD
2025-01-29,29,21:52,EST,NW  12  G 23,10.0,Fair,CLR,44.1,21.0,,,40%,39.0,,29.94,1013.9,,,,2025-02-01,1,2025,21,KIAD
2025-01-29,29,22:52,EST,W  13,10.0,Fair,CLR,43.0,21.9,,,43%,37.0,,29.96,1014.7,,,,2025-02-01,1,2025,22,KIAD
2025-01-29,29,23:52,EST,W  6,10.0,Fair,CLR,43.0,21.0,,,42%,40.0,,29.99,1015.7,,,,2025-02-01,1,2025,23,KIAD
2025-01-30,30,00:52,EST,NW  16,10.0,Fair,CLR,42.1,21.9,46.9,41.0,45%,35.0,,30.02,1016.6,,,,2025-02-02,1,2025,0,KIAD
2025-01-30,30,01:52,EST,NW  17  G 26,10.0,Fair,CLR,41.0,23.0,,,49%,33.0,,30.03,1016.7,,,,2025-02-02,1,2025,1,KIAD
2025-01-30,30,02:52,EST,NW  18,10.0,Fair,CLR,39.9,23.0,,,51%,31.0,,30.05,1017.7,,,,2025-02-02,1,2025,2,KIAD
2025-01-30,30,03:52,EST,W  12,10.0,Fair,CLR,39.9,23.0,,,51%,34.0,,30.09,1018.9,,,,2025-02-02,1,2025,3,KIAD
2025-01-30,30,04:52,EST,W  7,10.0,Fair,CLR,39.0,21.9,,,50%,35.0,,30.11,1019.7,,,,2025-02-02,1,2025,4,KIAD
2025-01-30,30,05:52,EST,S  5,10.0,Fair,CLR,33.1,21.0,,,61%,29.0,,30.14,1020.9,,,,2025-02-02,1,2025,5,KIAD
2025-01-30,30,06:52,EST,Calm,10.0,A Few Clouds,FEW040,28.9,19.9,42.1,28.0,69%,,,30.19,1022.4,,,,2025-02-02,1,2025,6,KIAD
2025-01-30,30,07:52,EST,W  5,10.0,A Few Clouds,FEW050,36.0,21.0,,,55%,33.0,,30.22,1023.5,,,,2025-02-02,1,2025,7,KIAD
2025-01-30,30,08:52,EST,E  5,10.0,A Few Clouds,FEW055 FEW250,42.1,24.1,,,49%,40.0,,30.23,1023.8,,,,2025-02-02,1,2025,8,KIAD
2025-01-30,30,09:52,EST,Calm,10.0,A Few Clouds,FEW250,44.1,21.9,,,41%,,,30.24,1024.1,,,,2025-02-02,1,2025,9,KIAD
2025-01-30,30,10:52,EST,S  8,10.0,Partly Cloudy,FEW110 SCT250,46.9,21.9,,,37%,44.0,,30.26,1024.7,,,,2025-02-02,1,2025,10,KIAD
2025-01-30,30,11:52,EST,S  13  G 18,10.0,Mostly Cloudy,FEW110 FEW200 BKN250,48.0,21.0,,,34%,43.0,,30.25,1024.3,,,,2025-02-02,1,2025,11,KIAD
2025-01-30,30,12:52,EST,SW  10,10.0,Mostly Cloudy,FEW110 SCT200 BKN250,51.1,21.0,51.1,30.0,31%,,,30.2,1022.9,,,,2025-02-02,1,2025,12,KIAD
2025-01-30,30,13:52,EST,SW  8,10.0,Mostly Cloudy,FEW100 FEW200 BKN250,51.1,21.0,,,31%,,,30.19,1022.4,,,,2025-02-02,1,2025,13,KIAD
2025-01-30,30,14:52,EST,S  10,10.0,Overcast,SCT100 OVC200,52.0,21.0,,,30%,,,30.16,1021.4,,,,2025-02-02,1,2025,14,KIAD
2025-01-30,30,15:52,EST,S  10,10.0,Mostly Cloudy,BKN100 BKN200,53.1,19.9,,,27%,,,30.16,1021.4,,,,2025-02-02,1,2025,15,KIAD
2025-01-30,30,16:52,EST,S  9,10.0,Overcast,BKN140 OVC200,51.1,19.9,,,29%,,,30.17,1021.8,,,,2025-02-02,1,2025,16,KIAD
2025-01-30,30,17:52,EST,SE  5,10.0,Mostly Cloudy,SCT140 BKN200,48.0,19.0,,,32%,47.0,,30.16,1021.6,,,,2025-02-02,1,2025,17,KIAD
2025-01-30,30,18:52,EST,SE  7,10.0,Overcast,BKN140 OVC200,46.0,21.9,54.0,46.0,38%,43.0,,30.18,1022.1,,,,2025-02-02,1,2025,18,KIAD
2025-01-30,30,19:52,EST,SE  9,10.0,Overcast,OVC120,46.0,24.1,,,42%,42.0,,30.19,1022.3,,,,2025-02-02,1,2025,19,KIAD
2025-01-30,30,20:52,EST,SE  7,10.0,Overcast,OVC120,45.0,25.0,,,46%,42.0,,30.16,1021.3,,,,2025-02-02,1,2025,20,KIAD
2025-01-30,30,21:52,EST,S  5,10.0,Overcast,OVC120,45.0,26.1,,,48%,43.0,,30.15,1021.1,,,,2025-02-02,1,2025,21,KIAD
2025-01-30,30,22:52,EST,SE  3,10.0,Overcast,OVC100,44.1,26.1,,,49%,,,30.13,1020.5,,,,2025-02-02,1,2025,22,KIAD
2025-01-30,30,23:52,EST,S  7,10.0,Light Rain,BKN065 OVC080,42.1,32.0,,,68%,38.0,,30.12,1020.0,,,,2025-02-02,1,2025,23,KIAD
2025-01-31,31,00:52,EST,S  8,10.0,Light Rain,OVC070,43.0,36.0,46.9,42.1,76%,39.0,,30.1,1019.2,0.03,,0.03,2025-02-03,1,2025,0,KIAD
2025-01-31,31,01:52,EST,S  7,10.0,Light Rain,OVC070,42.1,37.0,,,82%,38.0,,30.09,1018.9,0.02,,,2025-02-03,1,2025,1,KIAD
2025-01-31,31,02:52,EST,S  6,10.0,Light Rain,OVC075,42.1,37.9,,,85%,39.0,,30.06,1018.1,0.02,,,2025-02-03,1,2025,2,KIAD
2025-01-31,31,03:52,EST,S  12,10.0,Light Rain,OVC065,41.0,37.0,,,86%,35.0,,30.02,1016.6,0.01,0.05,,2025-02-03,1,2025,3,KIAD
2025-01-31,31,04:52,EST,S  7,10.0,Overcast,OVC065,43.0,36.0,,,76%,39.0,,29.98,1015.4,,,,2025-02-03,1,2025,4,KIAD
2025-01-31,31,05:52,EST,Calm,10.0,Overcast,FEW075 OVC095,42.1,37.0,,,82%,,,29.98,1015.1,,,,2025-02-03,1,2025,5,KIAD
2025-01-31,31,06:52,EST,S  9,10.0,Overcast,SCT045 OVC055,44.1,37.9,44.1,41.0,79%,40.0,,29.95,1014.2,,,0.05,2025-02-03,1,2025,6,KIAD
2025-01-31,31,07:52,EST,SW  8,10.0,Overcast,SCT050 BKN055 OVC070,44.1,39.9,,,85%,40.0,,29.95,1014.3,,,,2025-02-03,1,2025,7,KIAD
2025-01-31,31,08:52,EST,SW  5,7.0,Light Rain,SCT011 OVC060,44.1,41.0,,,89%,42.0,,29.94,1013.9,0.02,,,2025-02-03,1,2025,8,KIAD
2025-01-31,31,09:52,EST,SW  8,4.0,Light Rain Fog/Mist,BKN010 OVC050,45.0,43.0,,,93%,41.0,,29.93,1013.6,0.05,0.07,,2025-02-03,1,2025,9,KIAD
2025-01-31,31,10:52,EST,S  17  G 25,3.0,Rain Fog/Mist,BKN007 BKN050 OVC070,46.0,44.1,,,93%,40.0,,29.89,1012.2,0.1,,,2025-02-03,1,2025,10,KIAD
2025-01-31,31,11:52,EST,S  16  G 33,4.0,Light Rain Fog/Mist,BKN007 BKN050 OVC075,48.0,45.0,,,89%,42.0,,29.85,1010.8,0.11,,,2025-02-03,1,2025,11,KIAD
2025-01-31,31,12:52,EST,S  13  G 23,3.0,Light Rain Fog/Mist,BKN007 OVC050,48.9,46.0,48.9,44.1,90%,44.0,,29.83,1010.2,0.13,,0.41,2025-02-03,1,2025,12,KIAD
2025-01-31,31,13:52,EST,S  14,4.0,Light Rain Fog/Mist,BKN006 OVC048,48.9,46.9,,,93%,44.0,,29.75,1007.5,0.08,,,2025-02-03,1,2025,13,KIAD
2025-01-31,31,14:52,EST,SW  12,10.0,Light Rain,FEW007 BKN040 OVC120,48.9,46.9,,,93%,45.0,,29.78,1008.5,0.01,,,2025-02-03,1,2025,14,KIAD
2025-01-31,31,15:52,EST,S  6,10.0,Light Rain,FEW009 BKN090 OVC120,50.0,46.0,,,86%,48.0,,29.76,1007.9,0.01,0.1,,2025-02-03,1,2025,15,KIAD
2025-01-31,31,16:52,EST,S  7,10.0,Light Rain,SCT060 OVC085,48.9,46.9,,,93%,46.0,,29.78,1008.5,0.01,,,2025-02-03,1,2025,16,KIAD
2025-01-31,31,17:52,EST,S  13,10.0,Light Rain,OVC090,50.0,46.9,,,89%,46.0,,29.76,1008.0,0.03,,,2025-02-03,1,2025,17,KIAD
2025-01-31,31,18:52,EST,S  13,7.0,Light Rain,OVC085,50.0,48.0,50.0,48.9,93%,46.0,,29.76,1007.7,0.06,,0.2,2025-02-03,1,2025,18,KIAD
2025-01-31,31,19:52,EST,S  14,9.0,Light Rain,OVC090,50.0,48.0,,,93%,45.0,,29.71,1006.1,0.06,,,2025-02-03,1,2025,19,KIAD
2025-01-31,31,20:52,EST,SW  8,10.0,Light Rain,FEW008 OVC090,51.1,48.9,,,92%,,,29.69,1005.4,0.03,,,2025-02-03,1,2025,20,KIAD
2025-01-31,31,21:52,EST,S  7,7.0,Light Rain,FEW008 BKN060 OVC075,50.0,48.9,,,96%,48.0,,29.7,1005.7,0.04,0.13,,2025-02-03,1,2025,21,KIAD
2025-01-31,31,22:52,EST,Vrbl  5,9.0,Light Rain,FEW008 BKN060 OVC080,50.0,48.9,,,96%,49.0,,29.71,1005.9,0.03,,,2025-02-03,1,2025,22,KIAD
2025-01-31,31,23:52,EST,Calm,6.0,Fog/Mist,FEW004 BKN050 OVC110,50.0,48.0,,,93%,,,29.68,1005.1,,,,2025-02-03,1,2025,23,KIAD
2025-02-01,1,00:52,EST,Calm,6.0,Fog/Mist,BKN050 BKN150,48.9,46.9,51.1,48.0,93%,,,29.68,1005.0,,,0.16,2025-02-04,2,2025,0,KIAD
2025-02-01,1,01:52,EST,Calm,6.0,Fog/Mist,SCT047 BKN060,48.9,48.0,,,97%,,,29.68,1004.9,,,,2025-02-04,2,2025,1,KIAD
2025-02-01,1,02:52,EST,NW  12,10.0,Partly Cloudy,SCT070,46.0,43.0,,,89%,41.0,,29.7,1005.7,,,,2025-02-04,2,2025,2,KIAD
2025-02-01,1,03:52,EST,W  7,10.0,Partly Cloudy,SCT060,48.0,39.9,,,74%,45.0,,29.71,1006.0,,,,2025-02-04,2,2025,3,KIAD
2025-02-01,1,04:52,EST,NW  17  G 28,10.0,Partly Cloudy,FEW030 SCT060,50.0,39.9,,,68%,45.0,,29.74,1007.0,,,,2025-02-04,2,2025,4,KIAD
2025-02-01,1,05:52,EST,N  18  G 33,10.0,Overcast,SCT030 OVC038,50.0,39.9,,,68%,44.0,,29.82,1009.7,,,,2025-02-04,2,2025,5,KIAD
2025-02-01,1,06:52,EST,N  17  G 23,10.0,Overcast,BKN030 OVC043,46.9,37.0,51.1,46.0,69%,41.0,,29.9,1012.6,,,,2025-02-04,2,2025,6,KIAD
2025-02-01,1,07:52,EST,NW  18  G 32,10.0,Overcast,OVC028,45.0,35.1,,,68%,38.0,,29.98,1015.3,,,,2025-02-04,2,2025,7,KIAD
2025-02-01,1,08:52,EST,NW  21  G 31,10.0,Mostly Cloudy and Breezy,BKN038,43.0,30.9,,,63%,35.0,,30.04,1017.4,,,,2025-02-04,2,2025,8,KIAD
2025-02-01,1,09:52,EST,NW  17  G 32,10.0,Mostly Cloudy,BKN036,42.1,27.0,,,55%,34.0,,30.11,1019.5,,,,2025-02-04,2,2025,9,KIAD
2025-02-01,1,10:52,EST,NW  17  G 28,10.0,Mostly Cloudy,BKN040,43.0,26.1,,,51%,36.0,,30.15,1021.0,,,,2025-02-04,2,2025,10,KIAD
2025-02-01,1,11:52,EST,NW  16  G 26,10.0,Mostly Cloudy,BKN045,44.1,26.1,,,49%,37.0,,30.18,1022.2,,,,2025-02-04,2,2025,11,KIAD
2025-02-01,1,12:52,EST,NW  18  G 26,10.0,Partly Cloudy,SCT050,44.1,21.9,46.9,42.1,41%,37.0,,30.2,1022.7,,,,2025-02-04,2,2025,12,KIAD
2025-02-01,1,13:52,EST,NW  15  G 24,10.0,A Few Clouds,FEW060 FEW250,45.0,21.0,,,39%,39.0,,30.23,1023.8,,,,2025-02-04,2,2025,13,KIAD
2025-02-01,1,14:52,EST,NW  12  G 24,10.0,Partly Cloudy,FEW060 SCT250,45.0,17.1,,,33%,40.0,,30.26,1024.8,,,,2025-02-04,2,2025,14,KIAD
2025-02-01,1,15:52,EST,N  14  G 17,10.0,A Few Clouds,FEW060 FEW250,45.0,12.9,,,27%,39.0,,30.29,1025.9,,,,2025-02-04,2,2025,15,KIAD
2025-02-01,1,16:52,EST,N  13,10.0,A Few Clouds,FEW250,42.1,10.9,,,28%,36.0,,30.31,1026.6,,,,2025-02-04,2,2025,16,KIAD
2025-02-01,1,17:52,EST,N  8,10.0,A Few Clouds,FEW250,39.9,10.0,,,29%,35.0,,30.33,1027.3,,,,2025-02-04,2,2025,17,KIAD
2025-02-01,1,18:52,EST,N  8,10.0,Fair,CLR,37.9,10.0,46.0,37.9,31%,33.0,,30.37,1028.6,,,,2025-02-04,2,2025,18,KIAD
2025-02-01,1,19:52,EST,N  9,10.0,Fair,CLR,37.0,7.0,,,28%,31.0,,30.39,1029.1,,,,2025-02-04,2,2025,19,KIAD
2025-02-01,1,20:52,EST,N  8,10.0,Fair,CLR,36.0,7.0,,,30%,30.0,,30.42,1030.3,,,,2025-02-04,2,2025,20,KIAD
2025-02-01,1,21:52,EST,N  9,10.0,Fair,CLR,34.0,8.1,,,34%,27.0,,30.44,1030.9,,,,2025-02-04,2,2025,21,KIAD
2025-02-01,1,22:52,EST,NE  8,10.0,Fair,CLR,30.0,10.9,,,45%,23.0,,30.45,1031.4,,,,2025-02-04,2,2025,22,KIAD
2025-02-01,1,23:52,EST,NE  8,10.0,A Few Clouds,FEW250,28.9,12.0,,,49%,22.0,,30.47,1032.1,,,,2025-02-04,2,2025,23,KIAD
2025-02-02,2,00:52,EST,NE  6,10.0,Fair,CLR,28.0,10.0,37.9,27.0,47%,22.0,,30.47,1032.2,,,,2025-02-05,2,2025,0,KIAD
2025-02-02,2,01:52,EST,NE  3,10.0,Fair,CLR,27.0,10.0,,,49%,,,30.48,1032.3,,,,2025-02-05,2,2025,1,KIAD
2025-02-02,2,02:52,EST,Calm,10.0,Fair,CLR,25.0,12.0,,,58%,,,30.49,1032.6,,,,2025-02-05,2,2025,2,KIAD
2025-02-02,2,03:52,EST,E  3,10.0,Fair,CLR,24.1,10.9,,,57%,,,30.5,1033.1,,,,2025-02-05,2,2025,3,KIAD
2025-02-02,2,04:52,EST,E  5,10.0,Fair,CLR,24.1,10.9,,,57%,19.0,,30.51,1033.4,,,,2025-02-05,2,2025,4,KIAD
2025-02-02,2,05:52,EST,E  5,10.0,Fair,CLR,23.0,9.0,,,55%,18.0,,30.51,1033.5,,,,2025-02-05,2,2025,5,KIAD
2025-02-02,2,06:52,EST,E  6,10.0,Mostly Cloudy,BKN046,25.0,10.9,28.0,21.9,55%,19.0,,30.51,1033.5,,,,2025-02-05,2,2025,6,KIAD
2025-02-02,2,07:52,EST,E  6,10.0,Mostly Cloudy,SCT046 BKN250,25.0,10.0,,,53%,19.0,,30.52,1033.9,,,,2025-02-05,2,2025,7,KIAD
2025-02-02,2,08:52,EST,SE  8,10.0,Mostly Cloudy,BKN049 BKN260,28.0,10.9,,,49%,21.0,,30.51,1033.5,,,,2025-02-05,2,2025,8,KIAD
2025-02-02,2,09:52,EST,SE  7,10.0,Mostly Cloudy,FEW050 BKN250,30.9,12.0,,,45%,25.0,,30.5,1033.0,,,,2025-02-05,2,2025,9,KIAD
2025-02-02,2,10:52,EST,SE  7,10.0,Overcast,BKN048 OVC250,30.9,14.0,,,49%,25.0,,30.48,1032.3,,,,2025-02-05,2,2025,10,KIAD
2025-02-02,2,11:52,EST,SE  9,10.0,Overcast,OVC044,33.1,16.0,,,49%,26.0,,30.43,1030.9,,,,2025-02-05,2,2025,11,KIAD
2025-02-02,2,12:52,EST,S  7,10.0,Overcast,OVC043,34.0,17.1,34.0,24.1,50%,29.0,,30.38,1029.1,,,,2025-02-05,2,2025,12,KIAD
2025-02-02,2,13:52,EST,S  7,10.0,Overcast,OVC040,35.1,19.9,,,54%,30.0,,30.34,1027.8,,,,2025-02-05,2,2025,13,KIAD
2025-02-02,2,14:52,EST,SE  12,10.0,Overcast,OVC040,35.1,21.0,,,57%,28.0,,30.3,1026.4,,,,2025-02-05,2,2025,14,KIAD
2025-02-02,2,15:52,EST,S  9,10.0,Overcast,BKN039 OVC080,36.0,21.9,,,57%,30.0,,30.27,1025.5,,,,2025-02-05,2,2025,15,KIAD
2025-02-02,2,16:52,EST,SE  9,10.0,Overcast,BKN037 OVC080,36.0,23.0,,,59%,30.0,,30.27,1025.4,,,,2025-02-05,2,2025,16,KIAD
2025-02-02,2,17:52,EST,SE  10,10.0,Mostly Cloudy,BKN031 BKN080,36.0,24.1,,,62%,29.0,,30.25,1024.7,,,,2025-02-05,2,2025,17,KIAD
2025-02-02,2,18:52,EST,S  5,10.0,Mostly Cloudy,FEW031 BKN075,36.0,24.1,37.0,34.0,62%,33.0,,30.28,1025.5,,,,2025-02-05,2,2025,18,KIAD
2025-02-02,2,19:52,EST,S  6,10.0,Overcast,OVC070,36.0,25.0,,,64%,32.0,,30.27,1025.3,,,,2025-02-05,2,2025,19,KIAD
2025-02-02,2,20:52,EST,S  8,10.0,Mostly Cloudy,BKN070 BKN250,36.0,25.0,,,64%,30.0,,30.23,1024.0,,,,2025-02-05,2,2025,20,KIAD
2025-02-02,2,21:52,EST,S  7,10.0,Mostly Cloudy,BKN110 BKN250,36.0,25.0,,,64%,31.0,,30.21,1023.3,,,,2025-02-05,2,2025,21,KIAD
2025-02-02,2,22:52,EST,S  5,10.0,Mostly Cloudy,SCT110 BKN250,35.1,26.1,,,70%,32.0,,30.21,1023.2,,,,2025-02-05,2,2025,22,KIAD
2025-02-02,2,23:52,EST,S  6,10.0,Mostly Cloudy,BKN075 BKN250,36.0,26.1,,,67%,32.0,,30.19,1022.5,,,,2025-02-06,2,2025,23,KIAD
2025-02-03,3,00:52,EST,S  5,10.0,Mostly Cloudy,SCT080 BKN250,35.1,26.1,36.0,35.1,70%,32.0,,30.18,1022.0,,,,2025-02-06,2,2025,0,KIAD
2025-02-03,3,01:52,EST,SE  3,10.0,Mostly Cloudy,FEW080 BKN250,32.0,25.0,,,75%,,,30.16,1021.6,,,,2025-02-06,2,2025,1,KIAD
2025-02-03,3,02:52,EST,S  3,10.0,Mostly Cloudy,BKN250,35.1,26.1,,,70%,,,30.16,1021.5,,,,2025-02-06,2,2025,2,KIAD
2025-02-03,3,03:52,EST,Calm,10.0,Fair,CLR,32.0,25.0,,,75%,,,30.15,1021.1,,,,2025-02-06,2,2025,3,KIAD
2025-02-03,3,04:52,EST,SE  3,10.0,Fair,CLR,28.0,24.1,,,85%,,,30.15,1021.2,,,,2025-02-06,2,2025,4,KIAD
2025-02-03,3,05:52,EST,Calm,10.0,Fair,CLR,30.0,25.0,,,82%,,,30.15,1021.3,,,,2025-02-06,2,2025,5,KIAD
2025-02-03,3,06:52,EST,Calm,10.0,Mostly Cloudy,BKN220,28.9,25.0,36.0,28.0,85%,,,30.16,1021.7,,,,2025-02-06,2,2025,6,KIAD
2025-02-03,3,07:52,EST,Calm,10.0,Mostly Cloudy,BKN110 BKN220,32.0,27.0,,,82%,,,30.17,1022.0,,,,2025-02-06,2,2025,7,KIAD
2025-02-03,3,08:52,EST,Calm,10.0,Overcast,BKN110 OVC210,34.0,28.9,,,82%,,,30.16,1021.4,,,,2025-02-06,2,2025,8,KIAD
2025-02-03,3,09:52,EST,Vrbl  3,10.0,Overcast,BKN110 OVC160,37.9,28.9,,,70%,,,30.14,1021.0,,,,2025-02-06,2,2025,9,KIAD
2025-02-03,3,10:52,EST,SW  5,10.0,Mostly Cloudy,FEW110 BKN140,39.0,30.0,,,70%,36.0,,30.14,1020.9,,,,2025-02-06,2,2025,10,KIAD
2025-02-03,3,11:52,EST,S  5,10.0,Mostly Cloudy,FEW070 BKN110 BKN250,41.0,30.0,,,65%,38.0,,30.12,1020.2,,,,2025-02-06,2,2025,11,KIAD
2025-02-03,3,12:52,EST,S  5,10.0,Mostly Cloudy,SCT090 BKN110 BKN150,45.0,30.9,45.0,28.0,58%,43.0,,30.07,1018.3,,,,2025-02-06,2,2025,12,KIAD
2025-02-03,3,13:52,EST,S  8,10.0,Mostly Cloudy,FEW090 BKN110 BKN150,46.0,32.0,,,58%,42.0,,30.03,1016.9,,,,2025-02-06,2,2025,13,KIAD
2025-02-03,3,14:52,EST,S  8,10.0,Mostly Cloudy,SCT120 BKN160,50.0,35.1,,,57%,47.0,,29.99,1015.6,,,,2025-02-06,2,2025,14,KIAD
2025-02-03,3,15:52,EST,S  7,10.0,Mostly Cloudy,FEW120 BKN150 BKN200,53.1,37.9,,,57%,,,29.96,1014.7,,,,2025-02-06,2,2025,15,KIAD
2025-02-03,3,16:52,EST,SW  5,10.0,Mostly Cloudy,BKN140 BKN190,52.0,37.9,,,59%,,,29.94,1013.9,,,,2025-02-06,2,2025,16,KIAD
2025-02-03,3,17:52,EST,Calm,10.0,Mostly Cloudy,BKN140 BKN180 BKN250,51.1,39.0,,,64%,,,29.93,1013.4,,,,2025-02-06,2,2025,17,KIAD
2025-02-03,3,18:52,EST,Calm,10.0,Mostly Cloudy,SCT140 BKN180,48.0,39.0,53.1,44.1,71%,,,29.92,1013.2,,,,2025-02-06,2,2025,18,KIAD
2025-02-03,3,19:52,EST,S  5,10.0,Mostly Cloudy,SCT180 BKN220,45.0,37.9,,,77%,43.0,,29.9,1012.7,,,,2025-02-06,2,2025,19,KIAD
2025-02-03,3,20:52,EST,Calm,10.0,Partly Cloudy,SCT220,42.1,37.0,,,82%,,,29.88,1012.1,,,,2025-02-06,2,2025,20,KIAD
2025-02-03,3,21:52,EST,Calm,10.0,Partly Cloudy,SCT220,39.9,37.0,,,89%,,,29.87,1011.5,,,,2025-02-06,2,2025,21,KIAD
2025-02-03,3,22:52,EST,S  8,10.0,Partly Cloudy,SCT220,42.1,37.0,,,82%,38.0,,29.84,1010.6,,,,2025-02-06,2,2025,22,KIAD
2025-02-03,3,23:52,EST,S  9,10.0,Partly Cloudy,SCT220,48.0,39.0,,,71%,44.0,,29.84,1010.4,,,,2025-02-07,2,2025,23,KIAD
2025-02-04,4,00:52,EST,S  10,10.0,Mostly Cloudy,BKN200,50.0,39.9,50.0,39.0,68%,46.0,,29.83,1010.1,,,,2025-02-07,2,2025,0,KIAD
2025-02-04,4,01:52,EST,S  12,10.0,Overcast,OVC190,53.1,41.0,,,64%,,,29.81,1009.3,,,,2025-02-07,2,2025,1,KIAD
2025-02-04,4,02:52,EST,S  10,10.0,Overcast,OVC190,52.0,41.0,,,66%,,,29.8,1009.1,,,,2025-02-07,2,2025,2,KIAD
2025-02-04,4,03:52,EST,S  8,10.0,Mostly Cloudy,BKN190,51.1,39.9,,,66%,,,29.8,1009.0,,,,2025-02-07,2,2025,3,KIAD
2025-02-04,4,04:52,EST,S  5,10.0,Partly Cloudy,SCT190,50.0,39.9,,,68%,49.0,,29.81,1009.4,,,,2025-02-07,2,2025,4,KIAD
2025-02-04,4,05:52,EST,Calm,10.0,Partly Cloudy,SCT070,48.0,39.9,,,74%,,,29.82,1009.7,,,,2025-02-07,2,2025,5,KIAD
2025-02-04,4,06:52,EST,Calm,10.0,Partly Cloudy,FEW070 SCT250,41.0,37.0,53.1,41.0,86%,,,29.85,1010.7,,,,2025-02-07,2,2025,6,KIAD
2025-02-04,4,07:52,EST,NE  6,10.0,Mostly Cloudy,SCT070 BKN250,46.9,42.1,,,83%,45.0,,29.9,1012.4,,,,2025-02-07,2,2025,7,KIAD
2025-02-04,4,08:52,EST,N  5,10.0,Mostly Cloudy,SCT070 BKN250,55.9,43.0,,,62%,,,29.93,1013.6,,,,2025-02-07,2,2025,8,KIAD
2025-02-04,4,09:52,EST,NW  16  G 24,10.0,A Few Clouds,FEW065,60.1,45.0,,,58%,,,29.96,1014.6,,,,2025-02-07,2,2025,9,KIAD
2025-02-04,4,10:52,EST,NW  20  G 32,10.0,A Few Clouds,FEW038 FEW055,59.0,42.1,,,54%,,,30.0,1016.0,,,,2025-02-07,2,2025,10,KIAD
2025-02-04,4,11:52,EST,NW  28  G 43,10.0,Partly Cloudy and Windy,SCT042,57.0,39.0,,,51%,,,30.02,1016.5,,,,2025-02-07,2,2025,11,KIAD
2025-02-04,4,12:52,EST,N  14  G 28,10.0,Partly Cloudy,SCT044,55.0,35.1,60.1,41.0,47%,,,30.05,1017.7,,,,2025-02-07,2,2025,12,KIAD
2025-02-04,4,13:52,EST,N  20  G 30,10.0,A Few Clouds,FEW044,53.1,30.9,,,43%,,,30.09,1018.8,,,,2025-02-07,2,2025,13,KIAD
2025-02-04,4,14:52,EST,NW  17  G 31,10.0,A Few Clouds,FEW044 FEW200,52.0,27.0,,,38%,,,30.1,1019.2,,,,2025-02-07,2,2025,14,KIAD
2025-02-04,4,15:52,EST,N  17  G 26,10.0,A Few Clouds,FEW045 FEW200,50.0,26.1,,,39%,45.0,,30.14,1020.6,,,,2025-02-07,2,2025,15,KIAD
2025-02-04,4,16:52,EST,NW  12,10.0,Fair,CLR,48.0,23.0,,,37%,44.0,,30.17,1021.5,,,,2025-02-07,2,2025,16,KIAD
2025-02-04,4,17:52,EST,NW  12  G 20,10.0,Partly Cloudy,FEW050 SCT200,45.0,19.9,,,37%,40.0,,30.21,1023.2,,,,2025-02-07,2,2025,17,KIAD
2025-02-04,4,18:52,EST,NW  9,10.0,Fair,CLR,41.0,21.0,55.0,41.0,45%,36.0,,30.25,1024.4,,,,2025-02-07,2,2025,18,KIAD
2025-02-04,4,19:52,EST,NW  7,10.0,Fair,CLR,39.0,19.9,,,46%,35.0,,30.26,1024.9,,,,2025-02-07,2,2025,19,KIAD
2025-02-04,4,20:52,EST,NW  3,10.0,Fair,CLR,39.0,17.1,,,41%,,,30.28,1025.4,,,,2025-02-07,2,2025,20,KIAD
2025-02-04,4,21:52,EST,NW  3,10.0,A Few Clouds,FEW100,37.0,16.0,,,42%,,,30.29,1025.8,,,,2025-02-07,2,2025,21,KIAD
2025-02-04,4,22:52,EST,N  3,10.0,A Few Clouds,FEW100,35.1,17.1,,,48%,,,30.32,1026.7,,,,2025-02-07,2,2025,22,KIAD
2025-02-04,4,23:52,EST,NW  7,10.0,Mostly Cloudy,SCT160 BKN230,36.0,17.1,,,46%,31.0,,30.33,1027.1,,,,2025-02-07,2,2025,23,KIAD
2025-02-05,5,00:52,EST,N  12,10.0,Overcast,OVC160,37.9,17.1,42.1,34.0,43%,31.0,,30.31,1026.5,,,,2025-02-08,2,2025,0,KIAD
2025-02-05,5,01:52,EST,N  16  G 22,10.0,Overcast,OVC170,36.0,18.0,,,48%,27.0,,30.3,1026.2,,,,2025-02-08,2,2025,1,KIAD
2025-02-05,5,03:52,EST,NW  7,10.0,Overcast,OVC160,35.1,18.0,,,50%,30.0,,30.32,1026.9,,,,2025-02-08,2,2025,3,KIAD
2025-02-05,5,04:52,EST,NW  5,10.0,Overcast,OVC150,34.0,19.0,,,54%,30.0,,30.34,1027.6,,,,2025-02-08,2,2025,4,KIAD
2025-02-05,5,05:52,EST,N  7,10.0,Overcast,OVC130,34.0,18.0,,,52%,29.0,,30.36,1028.3,,,,2025-02-08,2,2025,5,KIAD
2025-02-05,5,06:52,EST,NW  7,10.0,Overcast,OVC110,34.0,18.0,37.0,34.0,52%,29.0,,30.38,1028.8,,,,2025-02-08,2,2025,6,KIAD
2025-02-05,5,07:52,EST,N  8,10.0,Overcast,BKN085 OVC110,35.1,18.0,,,50%,29.0,,30.39,1029.3,,,,2025-02-08,2,2025,7,KIAD
2025-02-05,5,08:52,EST,NE  5,10.0,Overcast,OVC080,35.1,18.0,,,50%,32.0,,30.41,1030.0,,,,2025-02-08,2,2025,8,KIAD
2025-02-05,5,09:52,EST,NE  6,10.0,Overcast,SCT047 OVC075,36.0,19.0,,,50%,32.0,,30.42,1030.5,,,,2025-02-08,2,2025,9,KIAD
2025-02-05,5,10:52,EST,Vrbl  3,10.0,Overcast,OVC075,36.0,17.1,,,46%,,,30.43,1030.6,,,,2025-02-08,2,2025,10,KIAD
2025-02-05,5,11:52,EST,Vrbl  3,10.0,Mostly Cloudy,FEW050 BKN075,37.0,17.1,,,44%,,,30.4,1029.7,,,,2025-02-08,2,2025,11,KIAD
2025-02-05,5,12:52,EST,Calm,10.0,Overcast,SCT070 OVC095,39.0,18.0,39.0,34.0,43%,,,30.38,1028.8,,,,2025-02-08,2,2025,12,KIAD
2025-02-05,5,13:52,EST,SE  5,10.0,Overcast,OVC080,37.9,17.1,,,43%,35.0,,30.36,1028.2,,,,2025-02-08,2,2025,13,KIAD
2025-02-05,5,14:52,EST,Calm,10.0,Overcast,SCT048 OVC080,37.9,15.1,,,39%,,,30.33,1027.4,,,,2025-02-08,2,2025,14,KIAD
2025-02-05,5,15:52,EST,S  3,10.0,Overcast,SCT046 OVC070,37.9,15.1,,,39%,,,30.34,1027.5,,,,2025-02-08,2,2025,15,KIAD
2025-02-05,5,16:52,EST,SE  3,10.0,Overcast,BKN046 OVC065,37.9,15.1,,,39%,,,30.33,1027.1,,,,2025-02-08,2,2025,16,KIAD
2025-02-05,5,17:52,EST,SE  8,10.0,Overcast,BKN043 OVC060,37.9,18.0,,,44%,33.0,,30.32,1026.8,,,,2025-02-08,2,2025,17,KIAD
2025-02-05,5,18:52,EST,SE  6,10.0,Overcast,OVC039,37.0,18.0,39.0,37.0,46%,33.0,,30.31,1026.7,,,,2025-02-08,2,2025,18,KIAD
2025-02-05,5,19:52,EST,SE  7,10.0,Overcast,OVC035,36.0,21.0,,,55%,31.0,,30.32,1026.9,,,,2025-02-08,2,2025,19,KIAD
2025-02-05,5,20:52,EST,S  8,10.0,Overcast,OVC035,34.0,25.0,,,70%,28.0,,30.32,1027.0,,,,2025-02-08,2,2025,20,KIAD
2025-02-05,5,21:52,EST,SE  6,10.0,Overcast,FEW024 OVC035,32.0,27.0,,,82%,27.0,,30.32,1026.8,,,,2025-02-08,2,2025,21,KIAD
2025-02-05,5,22:52,EST,S  3,8.0,Light Freezing Rain,BKN028 OVC042,32.0,27.0,,,82%,,,30.3,1026.2,0.01,,,2025-02-08,2,2025,22,KIAD
2025-02-05,5,23:52,EST,S  6,8.0,Light Freezing Rain,BKN022 OVC042,32.0,28.0,,,85%,27.0,,30.29,1025.8,0.02,,,2025-02-08,2,2025,23,KIAD
2025-02-06,6,00:52,EST,SE  7,8.0,Light Freezing Rain,FEW011 BKN022 OVC039,32.0,28.0,37.0,32.0,85%,26.0,,30.26,1024.7,0.01,,0.04,2025-02-09,2,2025,0,KIAD
2025-02-06,6,01:52,EST,SE  7,5.0,Light Freezing Rain Fog/Mist,SCT007 BKN012 OVC028,32.0,28.9,,,88%,26.0,,30.23,1023.8,0.08,,,2025-02-09,2,2025,1,KIAD
2025-02-06,6,02:52,EST,SE  6,7.0,Light Rain,SCT007 BKN012 OVC028,33.1,30.0,,,89%,28.0,,30.19,1022.5,0.08,,,2025-02-09,2,2025,2,KIAD
2025-02-06,6,03:52,EST,SE  6,9.0,Light Rain,OVC009,33.1,30.0,,,89%,28.0,,30.15,1021.3,0.04,0.2,,2025-02-09,2,2025,3,KIAD
2025-02-06,6,04:52,EST,S  3,8.0,Light Rain,BKN009 BKN017 OVC070,33.1,30.9,,,92%,,,30.14,1020.7,0.11,,,2025-02-09,2,2025,4,KIAD
2025-02-06,6,05:52,EST,SE  13  G 18,9.0,Light Rain,BKN009 BKN011 OVC022,33.1,30.0,,,89%,25.0,,30.06,1018.2,0.07,,,2025-02-09,2,2025,5,KIAD
2025-02-06,6,06:52,EST,S  6,10.0,Light Rain,BKN008 OVC020,33.1,30.9,33.1,32.0,92%,28.0,,30.07,1018.4,0.07,,0.45,2025-02-09,2,2025,6,KIAD
2025-02-06,6,07:52,EST,SE  6,10.0,Light Rain,OVC007,33.1,30.9,,,92%,28.0,,30.04,1017.4,0.03,,,2025-02-09,2,2025,7,KIAD
2025-02-06,6,08:52,EST,S  8,8.0,Light Rain,BKN009 OVC015,33.1,30.9,,,92%,27.0,,30.01,1016.5,0.02,,,2025-02-09,2,2025,8,KIAD
2025-02-06,6,09:52,EST,S  10,1.5,Heavy Rain Fog/Mist,BKN008 OVC018,33.1,30.9,,,92%,26.0,,29.99,1015.8,0.11,0.16,,2025-02-09,2,2025,9,KIAD
2025-02-06,6,10:52,EST,S  8,4.0,Light Rain Fog/Mist,BKN008 OVC025,35.1,32.0,,,89%,29.0,,29.98,1015.3,0.04,,,2025-02-09,2,2025,10,KIAD
2025-02-06,6,11:52,EST,S  9,10.0,Overcast,OVC006,36.0,33.1,,,89%,30.0,,29.93,1013.5,,,,2025-02-09,2,2025,11,KIAD
2025-02-06,6,12:52,EST,S  8,7.0,Overcast,OVC006,37.9,35.1,37.9,33.1,89%,33.0,,29.87,1011.6,,,0.2,2025-02-09,2,2025,12,KIAD
2025-02-06,6,13:52,EST,SW  9,7.0,Overcast,OVC007,39.9,37.0,,,89%,34.0,,29.85,1011.1,,,,2025-02-09,2,2025,13,KIAD
2025-02-06,6,15:52,EST,Vrbl  7,10.0,Overcast,OVC008,45.0,41.0,,,86%,42.0,,29.84,1010.5,,,,2025-02-09,2,2025,15,KIAD
2025-02-06,6,16:52,EST,SW  6,10.0,Mostly Cloudy,SCT010 SCT027 BKN250,46.0,42.1,,,86%,44.0,,29.82,1010.0,,,,2025-02-09,2,2025,16,KIAD
2025-02-06,6,17:52,EST,SW  3,10.0,A Few Clouds,FEW028,43.0,39.9,,,89%,,,29.84,1010.5,,,,2025-02-09,2,2025,17,KIAD
2025-02-06,6,18:52,EST,Calm,10.0,Fair,CLR,39.9,39.0,46.9,37.9,97%,,,29.85,1010.8,,,,2025-02-09,2,2025,18,KIAD
2025-02-06,6,19:52,EST,Calm,7.0,Patches Fog,CLR,37.0,36.0,,,96%,,,29.84,1010.8,,,,2025-02-09,2,2025,19,KIAD
2025-02-06,6,20:52,EST,Calm,10.0,Fair,CLR,35.1,34.0,,,96%,,,29.83,1010.4,,,,2025-02-09,2,2025,20,KIAD
2025-02-06,6,21:52,EST,Calm,2.0,Patches Fog,SCT000,35.1,33.1,,,93%,,,29.84,1010.5,,,,2025-02-09,2,2025,21,KIAD
2025-02-06,6,22:52,EST,Calm,1.5,Fog/Mist,BKN004,35.1,33.1,,,93%,,,29.82,1009.9,,,,2025-02-09,2,2025,22,KIAD
2025-02-06,6,23:52,EST,Calm,1.5,Fog/Mist,SCT002 BKN160 OVC240,35.1,33.1,,,93%,,,29.81,1009.7,,,,2025-02-09,2,2025,23,KIAD
2025-02-07,7,00:52,EST,N  8,6.0,Fog/Mist,FEW075 SCT095 BKN110,37.9,36.0,41.0,33.1,93%,33.0,,29.83,1010.2,,,,2025-02-10,2,2025,0,KIAD
2025-02-07,7,01:52,EST,NW  8,10.0,Mostly Cloudy,SCT060 BKN130,39.0,37.0,,,93%,34.0,,29.85,1010.8,,,,2025-02-10,2,2025,1,KIAD
2025-02-07,7,02:52,EST,NW  5,10.0,Mostly Cloudy,BKN120,43.0,39.0,,,86%,41.0,,29.84,1010.4,,,,2025-02-10,2,2025,2,KIAD
2025-02-07,7,03:52,EST,W  7,10.0,A Few Clouds,FEW120,44.1,36.0,,,73%,41.0,,29.84,1010.5,,,,2025-02-10,2,2025,3,KIAD
2025-02-07,7,04:52,EST,NW  12,10.0,Fair,CLR,46.0,36.0,,,68%,41.0,,29.86,1011.2,,,,2025-02-10,2,2025,4,KIAD
2025-02-07,7,05:52,EST,NW  10,10.0,Fair,CLR,44.1,25.0,,,47%,39.0,,29.9,1012.6,,,,2025-02-10,2,2025,5,KIAD
2025-02-07,7,07:52,EST,NW  10,10.0,Fair,CLR,42.1,21.9,,,45%,37.0,,29.99,1015.7,,,,2025-02-10,2,2025,7,KIAD
2025-02-07,7,08:52,EST,NW  14  G 22,10.0,Fair,CLR,44.1,21.0,,,40%,38.0,,30.02,1016.8,,,,2025-02-10,2,2025,8,KIAD
2025-02-07,7,09:52,EST,NW  16  G 28,10.0,Mostly Cloudy,BKN250,45.0,21.0,,,39%,38.0,,30.04,1017.6,,,,2025-02-10,2,2025,9,KIAD
2025-02-07,7,10:52,EST,NW  14  G 26,10.0,Mostly Cloudy,BKN250,44.1,23.0,,,43%,38.0,,30.06,1018.2,,,,2025-02-10,2,2025,10,KIAD
2025-02-07,7,11:52,EST,NW  18  G 29,10.0,Mostly Cloudy,BKN250,46.9,21.9,,,37%,40.0,,30.07,1018.4,,,,2025-02-10,2,2025,11,KIAD
2025-02-07,7,12:52,EST,NW  16  G 28,10.0,Mostly Cloudy,SCT100 BKN250,48.0,21.9,48.0,42.1,36%,42.0,,30.08,1018.7,,,,2025-02-10,2,2025,12,KIAD
2025-02-07,7,13:52,EST,NW  17  G 28,10.0,Mostly Cloudy,FEW065 BKN250,50.0,19.9,,,30%,45.0,,30.08,1018.7,,,,2025-02-10,2,2025,13,KIAD
2025-02-07,7,14:52,EST,N  17  G 28,10.0,Fair,CLR,51.1,19.0,,,28%,,,30.08,1018.7,,,,2025-02-10,2,2025,14,KIAD
2025-02-07,7,15:52,EST,NW  14  G 23,10.0,Partly Cloudy,FEW150 SCT250,50.0,19.0,,,29%,45.0,,30.09,1019.0,,,,2025-02-10,2,2025,15,KIAD
2025-02-07,7,16:52,EST,N  12,10.0,A Few Clouds,FEW150 FEW250,48.9,19.0,,,31%,45.0,,30.12,1020.0,,,,2025-02-10,2,2025,16,KIAD
2025-02-07,7,17:52,EST,N  13,10.0,A Few Clouds,FEW150 FEW250,46.0,19.9,,,35%,41.0,,30.15,1021.0,,,,2025-02-10,2,2025,17,KIAD
2025-02-07,7,18:52,EST,N  10,10.0,A Few Clouds,FEW250,44.1,18.0,52.0,44.1,35%,39.0,,30.19,1022.3,,,,2025-02-10,2,2025,18,KIAD
2025-02-07,7,19:52,EST,N  12,10.0,Fair,CLR,43.0,17.1,,,35%,37.0,,30.2,1022.6,,,,2025-02-10,2,2025,19,KIAD
2025-02-07,7,20:52,EST,N  10,10.0,Fair,CLR,41.0,18.0,,,39%,35.0,,30.22,1023.4,,,,2025-02-10,2,2025,20,KIAD
2025-02-07,7,21:52,EST,N  9,10.0,Fair,CLR,39.0,17.1,,,41%,33.0,,30.24,1024.2,,,,2025-02-10,2,2025,21,KIAD
2025-02-07,7,22:52,EST,N  5,10.0,Partly Cloudy,FEW080 SCT180,37.9,17.1,,,43%,35.0,,30.26,1024.9,,,,2025-02-10,2,2025,22,KIAD
2025-02-07,7,23:52,EST,Calm,10.0,Mostly Cloudy,FEW120 BKN200,30.9,19.9,,,64%,,,30.27,1025.1,,,,2025-02-10,2,2025,23,KIAD
2025-02-08,8,00:52,EST,Calm,10.0,Mostly Cloudy,FEW120 BKN200,30.9,19.9,44.1,28.9,64%,,,30.26,1025.0,,,,2025-02-11,2,2025,0,KIAD
2025-02-08,8,01:52,EST,Calm,10.0,Mostly Cloudy,SCT120 BKN250,28.9,21.0,,,72%,,,30.27,1025.3,,,,2025-02-11,2,2025,1,KIAD
2025-02-08,8,02:52,EST,Calm,10.0,Overcast,BKN120 OVC250,30.0,21.0,,,69%,,,30.29,1025.7,,,,2025-02-11,2,2025,2,KIAD
2025-02-08,8,03:52,EST,Calm,10.0,Overcast,BKN110 OVC250,30.0,24.1,,,79%,,,30.26,1025.0,,,,2025-02-11,2,2025,3,KIAD
2025-02-08,8,04:52,EST,E  3,10.0,Overcast,OVC110,33.1,24.1,,,70%,,,30.27,1025.1,,,,2025-02-11,2,2025,4,KIAD
2025-02-08,8,05:52,EST,E  3,10.0,Overcast,OVC095,34.0,21.9,,,61%,,,30.28,1025.5,,,,2025-02-11,2,2025,5,KIAD
2025-02-08,8,06:52,EST,SE  5,10.0,Overcast,OVC085,35.1,21.9,35.1,28.9,59%,32.0,,30.31,1026.7,,,,2025-02-11,2,2025,6,KIAD
2025-02-08,8,07:52,EST,S  5,10.0,Overcast,FEW050 OVC070,35.1,21.0,,,57%,32.0,,30.31,1026.5,,,,2025-02-11,2,2025,7,KIAD
2025-02-08,8,08:52,EST,S  5,10.0,Overcast,OVC045,35.1,23.0,,,61%,32.0,,30.32,1026.9,,,,2025-02-11,2,2025,8,KIAD
2025-02-08,8,09:52,EST,S  6,5.0,Light Snow,BKN028 OVC044,34.0,25.0,,,70%,29.0,,30.32,1026.8,,,,2025-02-11,2,2025,9,KIAD
2025-02-08,8,10:52,EST,S  5,7.0,Overcast,OVC018,33.1,27.0,,,78%,29.0,,30.31,1026.7,0.01,,,2025-02-11,2,2025,10,KIAD
2025-02-08,8,11:52,EST,E  7,7.0,Overcast,SCT015 BKN024 OVC050,34.0,27.0,,,76%,29.0,,30.26,1025.0,,,,2025-02-11,2,2025,11,KIAD
2025-02-08,8,12:52,EST,SE  5,7.0,Overcast,BKN018 OVC040,34.0,26.1,35.1,33.1,73%,30.0,,30.22,1023.5,,,0.01,2025-02-11,2,2025,12,KIAD
2025-02-08,8,13:52,EST,S  9,10.0,Overcast,BKN020 OVC040,34.0,25.0,,,70%,27.0,,30.19,1022.7,,,,2025-02-11,2,2025,13,KIAD
2025-02-08,8,14:52,EST,SE  8,10.0,Overcast,BKN022 OVC029,34.0,25.0,,,70%,28.0,,30.15,1021.4,,,,2025-02-11,2,2025,14,KIAD
2025-02-08,8,15:52,EST,SE  13,10.0,Overcast,OVC024,33.1,25.0,,,72%,25.0,,30.12,1020.2,,,,2025-02-11,2,2025,15,KIAD
2025-02-08,8,16:52,EST,S  9,9.0,Light Freezing Rain,OVC017,30.9,26.1,,,82%,24.0,,30.1,1019.6,,,,2025-02-11,2,2025,16,KIAD
2025-02-08,8,17:52,EST,S  7,10.0,Overcast,OVC013,30.9,27.0,,,85%,25.0,,30.08,1018.7,0.03,,,2025-02-11,2,2025,17,KIAD
2025-02-08,8,18:52,EST,S  12  G 20,8.0,Overcast,OVC009,30.9,28.0,34.0,30.9,89%,22.0,,30.01,1016.6,,,0.03,2025-02-11,2,2025,18,KIAD
2025-02-08,8,19:52,EST,S  8,3.0,Overcast,OVC004,30.9,28.9,,,92%,24.0,,29.98,1015.6,,,,2025-02-11,2,2025,19,KIAD
2025-02-08,8,20:52,EST,S  9,9.0,Overcast,OVC004,32.0,30.0,,,92%,25.0,,29.94,1014.1,,,,2025-02-11,2,2025,20,KIAD
2025-02-08,8,21:52,EST,S  9  G 20,10.0,Overcast,OVC006,33.1,30.0,,,89%,26.0,,29.88,1012.0,,,,2025-02-11,2,2025,21,KIAD
2025-02-08,8,22:52,EST,S  9,10.0,Overcast,OVC005,33.1,30.9,,,92%,26.0,,29.85,1011.0,,,,2025-02-11,2,2025,22,KIAD
2025-02-08,8,23:52,EST,S  9,10.0,Overcast,OVC005,34.0,30.9,,,89%,27.0,,29.82,1010.0,,,,2025-02-11,2,2025,23,KIAD
2025-02-09,9,00:52,EST,S  6,9.0,Overcast,OVC004,34.0,32.0,34.0,30.9,92%,29.0,,29.81,1009.6,,,,2025-02-12,2,2025,0,KIAD
2025-02-09,9,01:52,EST,S  7,6.0,Fog/Mist,OVC003,34.0,32.0,,,92%,29.0,,29.79,1009.0,,,,2025-02-12,2,2025,1,KIAD
2025-02-09,9,02:52,EST,SW  3,6.0,Fog/Mist,OVC003,35.1,33.1,,,93%,,,29.81,1009.6,,,,2025-02-12,2,2025,2,KIAD
2025-02-09,9,03:52,EST,Calm,4.0,Fog/Mist,OVC003,35.1,33.1,,,93%,,,29.82,1010.1,,,,2025-02-12,2,2025,3,KIAD
2025-02-09,9,04:52,EST,Calm,0.5,Fog,VV002,34.0,32.0,,,92%,,,29.85,1011.0,,,,2025-02-12,2,2025,4,KIAD
2025-02-09,9,05:52,EST,Calm,0.25,Fog,VV001,32.0,30.9,,,96%,,,29.89,1012.6,,,,2025-02-12,2,2025,5,KIAD
2025-02-09,9,06:52,EST,Calm,10.0,Mostly Cloudy,FEW001 SCT042 BKN250,30.9,30.0,35.1,30.9,96%,,,29.95,1014.6,,,,2025-02-12,2,2025,6,KIAD
2025-02-09,9,07:52,EST,NW  14  G 25,10.0,Mostly Cloudy,FEW035 SCT042 BKN250,41.0,32.0,,,70%,34.0,,30.01,1016.2,,,,2025-02-12,2,2025,7,KIAD
2025-02-09,9,08:52,EST,NW  15,10.0,Mostly Cloudy,FEW035 BKN046 BKN250,42.1,30.9,,,65%,35.0,,30.06,1018.1,,,,2025-02-12,2,2025,8,KIAD
2025-02-09,9,09:52,EST,NW  15  G 32,10.0,Mostly Cloudy,FEW026 BKN033,41.0,28.9,,,62%,34.0,,30.11,1019.7,,,,2025-02-12,2,2025,9,KIAD
2025-02-09,9,10:52,EST,NW  10  G 23,10.0,Mostly Cloudy,BKN037 BKN250,41.0,28.0,,,60%,35.0,,30.15,1021.3,,,,2025-02-12,2,2025,10,KIAD
2025-02-09,9,11:52,EST,NW  15  G 23,10.0,Mostly Cloudy,BKN036 BKN250,44.1,28.0,,,53%,38.0,,30.16,1021.4,,,,2025-02-12,2,2025,11,KIAD
2025-02-09,9,12:52,EST,NW  20  G 25,10.0,Mostly Cloudy,BKN039 BKN250,44.1,26.1,45.0,30.9,49%,37.0,,30.16,1021.6,,,,2025-02-12,2,2025,12,KIAD
2025-02-09,9,13:52,EST,NW  10,10.0,Mostly Cloudy,SCT043 BKN250,43.0,26.1,,,51%,38.0,,30.17,1021.9,,,,2025-02-12,2,2025,13,KIAD
2025-02-09,9,14:52,EST,NW  13  G 21,10.0,Mostly Cloudy,SCT043 BKN250,44.1,25.0,,,47%,38.0,,30.18,1022.2,,,,2025-02-12,2,2025,14,KIAD
2025-02-09,9,15:52,EST,NW  14,10.0,Partly Cloudy,FEW043 SCT250,43.0,25.0,,,49%,37.0,,30.2,1022.9,,,,2025-02-12,2,2025,15,KIAD
2025-02-09,9,16:52,EST,NW  9,10.0,Mostly Cloudy,FEW043 SCT150 BKN250,41.0,24.1,,,51%,36.0,,30.21,1023.1,,,,2025-02-12,2,2025,16,KIAD
2025-02-09,9,17:52,EST,NW  7,10.0,Mostly Cloudy,FEW035 BKN130 BKN250,39.9,24.1,,,53%,36.0,,30.25,1024.5,,,,2025-02-12,2,2025,17,KIAD
2025-02-09,9,18:52,EST,N  14,10.0,Mostly Cloudy,BKN130 BKN230,39.0,23.0,45.0,39.0,53%,32.0,,30.27,1025.2,,,,2025-02-12,2,2025,18,KIAD
2025-02-09,9,19:52,EST,N  14,10.0,Mostly Cloudy,BKN130 BKN230,37.9,23.0,,,55%,30.0,,30.28,1025.7,,,,2025-02-12,2,2025,19,KIAD
2025-02-09,9,20:52,EST,N  12,10.0,Overcast,OVC130,37.0,21.9,,,54%,30.0,,30.3,1026.2,,,,2025-02-12,2,2025,20,KIAD
2025-02-09,9,21:52,EST,N  8,10.0,Overcast,OVC130,37.0,21.9,,,54%,32.0,,30.31,1026.5,,,,2025-02-12,2,2025,21,KIAD
2025-02-09,9,22:52,EST,N  6,10.0,Overcast,OVC120,36.0,23.0,,,59%,32.0,,30.32,1026.9,,,,2025-02-12,2,2025,22,KIAD
2025-02-09,9,23:52,EST,N  9,10.0,Overcast,OVC130,36.0,23.0,,,59%,30.0,,30.32,1026.9,,,,2025-02-12,2,2025,23,KIAD
2025-02-10,10,00:52,EST,NE  6,10.0,Overcast,OVC130,35.1,23.0,39.0,35.1,61%,31.0,,30.33,1027.3,,,,2025-02-13,2,2025,0,KIAD
2025-02-10,10,01:52,EST,N  5,10.0,Overcast,OVC130,35.1,23.0,,,61%,32.0,,30.32,1026.9,,,,2025-02-13,2,2025,1,KIAD
2025-02-10,10,02:52,EST,NW  6,10.0,Overcast,FEW038 OVC130,35.1,23.0,,,61%,31.0,,30.35,1027.9,,,,2025-02-13,2,2025,2,KIAD
2025-02-10,10,03:52,EST,NW  6,10.0,Overcast,BKN038 OVC120,35.1,21.9,,,59%,31.0,,30.35,1028.1,,,,2025-02-13,2,2025,3,KIAD
2025-02-10,10,04:52,EST,N  7,10.0,Overcast,OVC040,35.1,21.9,,,59%,30.0,,30.36,1028.4,,,,2025-02-13,2,2025,4,KIAD
2025-02-10,10,05:52,EST,N  7,10.0,Overcast,OVC041,35.1,21.0,,,57%,30.0,,30.38,1028.8,,,,2025-02-13,2,2025,5,KIAD
2025-02-10,10,06:52,EST,N  5,10.0,Mostly Cloudy,SCT040 BKN120 BKN250,34.0,21.0,36.0,34.0,59%,30.0,,30.39,1029.4,,,,2025-02-13,2,2025,6,KIAD
2025-02-10,10,07:52,EST,N  7,10.0,Mostly Cloudy,BKN038 BKN120,35.1,21.0,,,57%,30.0,,30.42,1030.2,,,,2025-02-13,2,2025,7,KIAD
2025-02-10,10,08:52,EST,N  10,10.0,Mostly Cloudy,BKN039 BKN120,35.1,19.9,,,54%,28.0,,30.43,1030.6,,,,2025-02-13,2,2025,8,KIAD
2025-02-10,10,09:52,EST,N  9,10.0,Mostly Cloudy,SCT040 BKN250,36.0,19.0,,,50%,30.0,,30.43,1030.7,,,,2025-02-13,2,2025,9,KIAD
2025-02-10,10,10:52,EST,NW  9,10.0,Partly Cloudy,FEW045 SCT250,39.0,19.9,,,46%,33.0,,30.43,1030.6,,,,2025-02-13,2,2025,10,KIAD
2025-02-10,10,11:52,EST,NW  13  G 18,10.0,Mostly Cloudy,FEW045 BKN250,39.9,19.9,,,45%,33.0,,30.41,1030.1,,,,2025-02-13,2,2025,11,KIAD
2025-02-10,10,12:52,EST,Vrbl  5,10.0,A Few Clouds,FEW045 FEW250,42.1,19.9,42.1,34.0,41%,40.0,,30.38,1029.1,,,,2025-02-13,2,2025,12,KIAD
2025-02-10,10,13:52,EST,NW  9  G 18,10.0,A Few Clouds,FEW045 FEW250,44.1,19.9,,,38%,40.0,,30.36,1028.4,,,,2025-02-13,2,2025,13,KIAD
2025-02-10,10,14:52,EST,N  12,10.0,Partly Cloudy,FEW050 SCT250,44.1,18.0,,,35%,39.0,,30.36,1028.4,,,,2025-02-13,2,2025,14,KIAD
2025-02-10,10,15:52,EST,N  12  G 17,10.0,Partly Cloudy,FEW050 SCT250,45.0,18.0,,,34%,40.0,,30.36,1028.2,,,,2025-02-13,2,2025,15,KIAD
2025-02-10,10,16:52,EST,N  12  G 17,10.0,A Few Clouds,FEW050 FEW250,44.1,17.1,,,34%,39.0,,30.37,1028.7,,,,2025-02-13,2,2025,16,KIAD
2025-02-10,10,17:52,EST,N  10,10.0,A Few Clouds,FEW250,41.0,17.1,,,38%,35.0,,30.38,1029.1,,,,2025-02-13,2,2025,17,KIAD
2025-02-10,10,18:52,EST,N  9,10.0,Fair,CLR,37.9,17.1,45.0,37.9,43%,32.0,,30.41,1029.8,,,,2025-02-13,2,2025,18,KIAD
2025-02-10,10,19:52,EST,N  8,10.0,Fair,CLR,36.0,17.1,,,46%,30.0,,30.42,1030.3,,,,2025-02-13,2,2025,19,KIAD
2025-02-10,10,20:52,EST,N  8,10.0,Fair,CLR,36.0,16.0,,,44%,30.0,,30.44,1030.9,,,,2025-02-13,2,2025,20,KIAD
2025-02-10,10,21:52,EST,N  10,10.0,Fair,CLR,36.0,16.0,,,44%,29.0,,30.45,1031.2,,,,2025-02-13,2,2025,21,KIAD
2025-02-10,10,22:52,EST,N  6,10.0,Overcast,OVC150,35.1,17.1,,,48%,31.0,,30.44,1031.2,,,,2025-02-13,2,2025,22,KIAD
2025-02-10,10,23:52,EST,Calm,10.0,Overcast,OVC180,32.0,18.0,,,56%,,,30.44,1030.8,,,,2025-02-14,2,2025,23,KIAD
2025-02-11,11,00:52,EST,Calm,10.0,Mostly Cloudy,BKN140,28.9,18.0,39.0,28.9,63%,,,30.43,1030.5,,,,2025-02-14,2,2025,0,KIAD
2025-02-11,11,01:52,EST,S  3,10.0,Overcast,OVC150,28.0,19.9,,,72%,,,30.44,1030.8,,,,2025-02-14,2,2025,1,KIAD
2025-02-11,11,02:52,EST,Calm,10.0,Overcast,BKN150 OVC230,28.0,19.0,,,69%,,,30.44,1030.9,,,,2025-02-14,2,2025,2,KIAD
2025-02-11,11,03:52,EST,Calm,10.0,Overcast,SCT120 BKN150 OVC180,28.9,19.0,,,66%,,,30.43,1030.8,,,,2025-02-14,2,2025,3,KIAD
2025-02-11,11,04:52,EST,NE  5,10.0,Overcast,OVC130,30.0,19.0,,,64%,26.0,,30.42,1030.5,,,,2025-02-14,2,2025,4,KIAD
2025-02-11,11,05:52,EST,E  3,10.0,Overcast,BKN130 OVC220,30.9,17.1,,,56%,,,30.44,1031.0,,,,2025-02-14,2,2025,5,KIAD
2025-02-11,11,06:52,EST,E  6,10.0,Overcast,BKN120 OVC200,30.9,17.1,30.9,27.0,56%,26.0,,30.43,1030.7,,,,2025-02-14,2,2025,6,KIAD
2025-02-11,11,07:52,EST,SE  5,10.0,Overcast,BKN130 OVC200,32.0,15.1,,,50%,28.0,,30.43,1030.8,,,,2025-02-14,2,2025,7,KIAD
2025-02-11,11,08:52,EST,E  5,10.0,Overcast,OVC110,33.1,15.1,,,48%,29.0,,30.43,1030.7,,,,2025-02-14,2,2025,8,KIAD
2025-02-11,11,09:52,EST,SE  5,10.0,Overcast,BKN070 OVC090,34.0,15.1,,,46%,30.0,,30.43,1030.7,,,,2025-02-14,2,2025,9,KIAD
2025-02-11,11,10:52,EST,SE  5,10.0,Overcast,SCT048 OVC140,35.1,16.0,,,46%,32.0,,30.4,1029.8,,,,2025-02-14,2,2025,10,KIAD
2025-02-11,11,11:52,EST,SE  8,7.0,Overcast,BKN065 OVC090,36.0,16.0,,,44%,30.0,,30.36,1028.3,,,,2025-02-14,2,2025,11,KIAD
2025-02-11,11,12:52,EST,Vrbl  6,7.0,Light Snow,OVC038,35.1,18.0,36.0,30.9,50%,31.0,,30.32,1026.9,,,,2025-02-14,2,2025,12,KIAD
2025-02-11,11,13:52,EST,S  7,2.0,Light Snow,OVC032,33.1,23.0,,,66%,28.0,,30.3,1026.3,,,,2025-02-14,2,2025,13,KIAD
2025-02-11,11,14:52,EST,S  5,0.75,Light Snow Fog/Mist,BKN025 OVC034,30.9,27.0,,,85%,27.0,,30.28,1025.7,0.01,,,2025-02-14,2,2025,14,KIAD
2025-02-11,11,15:52,EST,E  3,0.75,Light Snow Fog/Mist,BKN007 OVC020,30.9,27.0,,,85%,,,30.26,1024.9,0.01,0.02,,2025-02-14,2,2025,15,KIAD
2025-02-11,11,16:52,EST,E  6,0.75,Light Snow Fog/Mist,OVC007,30.0,28.0,,,92%,25.0,,30.26,1024.9,0.05,,,2025-02-14,2,2025,16,KIAD
2025-02-11,11,17:52,EST,E  5,0.5,Snow Freezing Fog,OVC008,30.0,28.0,,,92%,26.0,,30.25,1024.5,0.08,,,2025-02-14,2,2025,17,KIAD
2025-02-11,11,18:52,EST,E  5,0.75,Light Snow Fog/Mist,VV006,30.0,27.0,36.0,30.0,88%,26.0,,30.25,1024.7,0.09,,0.24,2025-02-14,2,2025,18,KIAD
2025-02-11,11,19:52,EST,E  5,0.75,Light Snow Fog/Mist,VV006,30.0,27.0,,,88%,26.0,,30.23,1023.8,0.09,,,2025-02-14,2,2025,19,KIAD
2025-02-11,11,20:52,EST,NE  3,0.75,Light Snow Fog/Mist,VV007,30.0,27.0,,,88%,,,30.22,1023.5,0.06,,,2025-02-14,2,2025,20,KIAD
2025-02-11,11,21:52,EST,NE  5,0.75,Light Snow Fog/Mist,BKN007 OVC014,30.0,27.0,,,88%,26.0,,30.21,1023.3,0.05,0.2,,2025-02-14,2,2025,21,KIAD
2025-02-11,11,22:52,EST,NE  7,0.75,Light Snow Fog/Mist,BKN008 BKN028 OVC040,30.0,27.0,,,88%,24.0,,30.19,1022.7,0.03,,,2025-02-14,2,2025,22,KIAD
2025-02-11,11,23:52,EST,NE  8,0.75,Light Snow Fog/Mist,SCT008 BKN025 OVC037,30.0,26.1,,,85%,23.0,,30.16,1021.8,0.02,,,2025-02-14,2,2025,23,KIAD
2025-02-12,12,00:52,EST,NE  7,1.0,Light Snow Fog/Mist,SCT010 BKN028 OVC038,30.0,26.1,30.0,30.0,85%,24.0,,30.17,1022.0,0.02,,0.27,2025-02-15,2,2025,0,KIAD
2025-02-12,12,01:52,EST,N  6,6.0,Light Snow Fog/Mist,SCT010 BKN030 OVC043,30.0,26.1,,,85%,25.0,,30.16,1021.8,0.01,,,2025-02-15,2,2025,1,KIAD
2025-02-12,12,02:52,EST,N  6,6.0,Light Snow Fog/Mist,OVC009,30.0,26.1,,,85%,25.0,,30.15,1021.4,,,,2025-02-15,2,2025,2,KIAD
2025-02-12,12,03:52,EST,N  8,7.0,Light Snow,OVC010,30.0,26.1,,,85%,23.0,,30.16,1021.5,,0.01,,2025-02-15,2,2025,3,KIAD
2025-02-12,12,04:52,EST,N  6,8.0,Overcast,BKN011 OVC025,30.0,26.1,,,85%,25.0,,30.16,1021.5,,,,2025-02-15,2,2025,4,KIAD
2025-02-12,12,05:52,EST,NE  6,7.0,Overcast,OVC011,30.0,26.1,,,85%,25.0,,30.16,1021.6,,,,2025-02-15,2,2025,5,KIAD
2025-02-12,12,06:52,EST,N  8,7.0,Overcast,OVC010,30.0,26.1,30.0,30.0,85%,23.0,,30.18,1022.3,,,0.01,2025-02-15,2,2025,6,KIAD
2025-02-12,12,07:52,EST,N  7,4.0,Fog/Mist,BKN008 OVC012,30.9,26.1,,,82%,25.0,,30.2,1022.9,,,,2025-02-15,2,2025,7,KIAD
2025-02-12,12,08:52,EST,NE  5,3.0,Light Snow Fog/Mist,OVC009,30.9,27.0,,,85%,27.0,,30.21,1023.2,,,,2025-02-15,2,2025,8,KIAD
2025-02-12,12,09:52,EST,NE  7,4.0,Overcast with Haze,OVC008,32.0,27.0,,,82%,26.0,,30.21,1023.4,,,,2025-02-15,2,2025,9,KIAD
2025-02-12,12,10:52,EST,NE  5,4.0,Fog/Mist,OVC007,32.0,28.0,,,85%,28.0,,30.21,1023.2,,,,2025-02-15,2,2025,10,KIAD
2025-02-12,12,11:52,EST,E  5,5.0,Fog/Mist,OVC007,33.1,28.9,,,85%,29.0,,30.19,1022.5,,,,2025-02-15,2,2025,11,KIAD
2025-02-12,12,12:52,EST,NE  5,1.25,Fog/Mist,OVC006,33.1,30.0,34.0,30.0,89%,29.0,,30.18,1022.3,,,,2025-02-15,2,2025,12,KIAD
2025-02-12,12,13:52,EST,NE  5,1.5,Fog/Mist,OVC006,34.0,30.9,,,89%,30.0,,30.17,1021.9,,,,2025-02-15,2,2025,13,KIAD
2025-02-12,12,14:52,EST,NE  5,2.0,Light Drizzle,OVC004,34.0,30.9,,,89%,30.0,,30.17,1021.8,,,,2025-02-15,2,2025,14,KIAD
2025-02-12,12,15:52,EST,Calm,1.75,Light Drizzle,OVC005,34.0,32.0,,,92%,,,30.16,1021.7,,,,2025-02-15,2,2025,15,KIAD
2025-02-12,12,16:52,EST,E  5,1.25,Light Drizzle,OVC004,34.0,32.0,,,92%,30.0,,30.17,1022.0,0.01,,,2025-02-15,2,2025,16,KIAD
2025-02-12,12,17:52,EST,E  3,2.5,Light Rain Fog/Mist,BKN004 OVC009,34.0,32.0,,,92%,,,30.15,1021.3,0.04,,,2025-02-15,2,2025,17,KIAD
2025-02-12,12,18:52,EST,Calm,3.0,Light Rain Fog/Mist,BKN004 OVC012,34.0,32.0,34.0,33.1,92%,,,30.15,1021.2,0.04,,0.09,2025-02-15,2,2025,18,KIAD
2025-02-12,12,19:52,EST,Calm,4.0,Light Rain Fog/Mist,FEW003 OVC005,34.0,33.1,,,97%,,,30.13,1020.5,0.05,,,2025-02-15,2,2025,19,KIAD
2025-02-12,12,20:52,EST,NW  3,4.0,Light Rain Fog/Mist,OVC005,34.0,32.0,,,92%,,,30.13,1020.7,0.02,,,2025-02-15,2,2025,20,KIAD
2025-02-12,12,21:52,EST,Calm,1.25,Light Rain Fog/Mist,FEW003 BKN006 OVC013,34.0,32.0,,,92%,,,30.12,1020.1,0.02,0.09,,2025-02-15,2,2025,21,KIAD
2025-02-12,12,22:52,EST,Calm,1.0,Light Rain Fog/Mist,OVC004,34.0,32.0,,,92%,,,30.09,1019.3,0.01,,,2025-02-15,2,2025,22,KIAD
2025-02-12,12,23:52,EST,Calm,1.0,Light Drizzle Fog/Mist,VV006,34.0,32.0,,,92%,,,30.07,1018.3,0.01,,,2025-02-16,2,2025,23,KIAD
2025-02-13,13,00:52,EST,Calm,1.0,Light Drizzle Fog/Mist,VV005,34.0,32.0,35.1,33.1,92%,,,30.05,1017.6,,,0.11,2025-02-16,2,2025,0,KIAD
2025-02-13,13,01:52,EST,SE  5,0.75,Light Rain Fog/Mist,VV006,33.1,32.0,,,96%,29.0,,29.99,1015.7,0.03,,,2025-02-16,2,2025,1,KIAD
2025-02-13,13,02:52,EST,W  3,1.75,Light Rain Fog/Mist,FEW002 OVC004,34.0,32.0,,,92%,,,29.99,1015.7,0.04,,,2025-02-16,2,2025,2,KIAD
2025-02-13,13,03:52,EST,Calm,1.0,Light Drizzle Fog/Mist,BKN003 OVC008,33.1,33.1,,,100%,,,29.92,1013.4,0.01,0.08,,2025-02-16,2,2025,3,KIAD
2025-02-13,13,04:52,EST,Calm,0.5,Light Drizzle Fog,BKN004 OVC010,33.1,32.0,,,96%,,,29.9,1012.7,,,,2025-02-16,2,2025,4,KIAD
2025-02-13,13,06:52,EST,SE  5,0.5,Fog,VV003,34.0,32.0,35.1,33.1,92%,30.0,,29.85,1011.1,,,0.08,2025-02-16,2,2025,6,KIAD
2025-02-13,13,07:52,EST,S  6,0.75,Light Rain Fog/Mist,OVC003,34.0,33.1,,,97%,29.0,,29.84,1010.8,,,,2025-02-16,2,2025,7,KIAD
2025-02-13,13,08:52,EST,S  7,0.5,Fog,OVC004,35.1,33.1,,,93%,30.0,,29.84,1010.7,,,,2025-02-16,2,2025,8,KIAD
2025-02-13,13,09:52,EST,SW  8,4.0,Fog/Mist,OVC005,36.0,34.0,,,93%,30.0,,29.83,1010.2,,,,2025-02-16,2,2025,9,KIAD
2025-02-13,13,10:52,EST,SW  6,6.0,Fog/Mist,OVC006,37.0,35.1,,,93%,33.0,,29.85,1010.9,,,,2025-02-16,2,2025,10,KIAD
2025-02-13,13,11:52,EST,SW  6,10.0,Overcast,OVC007,39.9,36.0,,,86%,36.0,,29.85,1011.1,,,,2025-02-16,2,2025,11,KIAD
2025-02-13,13,12:52,EST,S  5,10.0,Mostly Cloudy,SCT008 BKN050 BKN220,42.1,37.9,42.1,34.0,85%,40.0,,29.85,1010.9,,,,2025-02-16,2,2025,12,KIAD
2025-02-13,13,13:52,EST,N  5,10.0,Mostly Cloudy,FEW008 FEW045 BKN220,48.0,39.9,,,74%,47.0,,29.86,1011.2,,,,2025-02-16,2,2025,13,KIAD
2025-02-13,13,14:52,EST,W  6,10.0,Mostly Cloudy,FEW015 FEW045 BKN250,53.1,42.1,,,66%,,,29.89,1012.2,,,,2025-02-16,2,2025,14,KIAD
2025-02-13,13,15:52,EST,NW  21  G 31,10.0,Mostly Cloudy and Breezy,FEW022 FEW045 BKN250,52.0,34.0,,,50%,,,29.94,1013.9,,,,2025-02-16,2,2025,15,KIAD
2025-02-13,13,16:52,EST,NW  35  G 48,10.0,Mostly Cloudy and Windy,FEW045 BKN250,46.0,28.9,,,51%,37.0,,30.0,1016.0,,,,2025-02-16,2,2025,16,KIAD
2025-02-13,13,17:52,EST,NW  35  G 53,10.0,Mostly Cloudy and Windy,FEW045 BKN250,43.0,26.1,,,51%,33.0,,30.08,1018.6,,,,2025-02-16,2,2025,17,KIAD
2025-02-13,13,18:52,EST,NW  23  G 37,10.0,Mostly Cloudy and Breezy,FEW045 BKN250,41.0,25.0,54.0,41.0,53%,32.0,,30.18,1022.1,,,,2025-02-16,2,2025,18,KIAD
2025-02-13,13,19:52,EST,NW  26  G 37,10.0,Mostly Cloudy and Windy,FEW045 BKN250,39.0,21.9,,,50%,28.0,,30.24,1024.1,,,,2025-02-16,2,2025,19,KIAD
2025-02-13,13,20:52,EST,NW  18  G 30,10.0,Mostly Cloudy,FEW043 BKN250,37.0,23.0,,,57%,28.0,,30.28,1025.5,,,,2025-02-16,2,2025,20,KIAD
2025-02-13,13,21:52,EST,NW  15  G 31,10.0,A Few Clouds,FEW043 FEW250,36.0,19.9,,,52%,27.0,,30.29,1025.9,,,,2025-02-16,2,2025,21,KIAD
2025-02-13,13,22:52,EST,NW  24  G 33,10.0,A Few Clouds and Breezy,FEW040 FEW250,36.0,19.9,,,52%,25.0,,30.31,1026.6,,,,2025-02-16,2,2025,22,KIAD
2025-02-13,13,23:52,EST,NW  13,10.0,Fair,CLR,35.1,19.9,,,54%,27.0,,30.34,1027.7,,,,2025-02-16,2,2025,23,KIAD
2025-02-14,14,00:52,EST,NW  12,10.0,Fair,CLR,34.0,19.9,41.0,34.0,56%,26.0,,30.37,1028.7,,,,2025-02-17,2,2025,0,KIAD
2025-02-14,14,01:52,EST,NW  16  G 26,10.0,Fair,CLR,35.1,18.0,,,50%,26.0,,30.39,1029.3,,,,2025-02-17,2,2025,1,KIAD
2025-02-14,14,02:52,EST,NW  17  G 26,10.0,A Few Clouds,FEW050,34.0,15.1,,,46%,24.0,,30.43,1030.5,,,,2025-02-17,2,2025,2,KIAD
2025-02-14,14,03:52,EST,NW  12  G 21,10.0,A Few Clouds,FEW050,32.0,14.0,,,47%,24.0,,30.46,1031.4,,,,2025-02-17,2,2025,3,KIAD
2025-02-14,14,04:52,EST,NW  10  G 22,10.0,A Few Clouds,FEW050,32.0,14.0,,,47%,24.0,,30.49,1032.6,,,,2025-02-17,2,2025,4,KIAD
2025-02-14,14,05:52,EST,W  8,10.0,Fair,CLR,30.9,10.0,,,42%,24.0,,30.53,1034.1,,,,2025-02-17,2,2025,5,KIAD
2025-02-14,14,06:52,EST,NW  12,10.0,Fair,CLR,28.9,10.9,36.0,28.9,47%,20.0,,30.56,1035.2,,,,2025-02-17,2,2025,6,KIAD
2025-02-14,14,07:52,EST,NW  7,10.0,Fair,CLR,30.0,10.9,,,45%,24.0,,30.62,1037.1,,,,2025-02-17,2,2025,7,KIAD
2025-02-14,14,08:52,EST,NW  13  G 22,10.0,Fair,CLR,32.0,8.1,,,36%,23.0,,30.64,1037.8,,,,2025-02-17,2,2025,8,KIAD
2025-02-14,14,09:52,EST,NW  17  G 28,10.0,Fair,CLR,33.1,6.1,,,32%,23.0,,30.66,1038.4,,,,2025-02-17,2,2025,9,KIAD
2025-02-14,14,10:52,EST,NW  14  G 22,10.0,Fair,CLR,35.1,7.0,,,31%,27.0,,30.65,1038.2,,,,2025-02-17,2,2025,10,KIAD
2025-02-14,14,11:52,EST,N  17  G 25,10.0,Fair,CLR,37.0,8.1,,,30%,28.0,,30.63,1037.3,,,,2025-02-17,2,2025,11,KIAD
2025-02-14,14,12:52,EST,N  10  G 21,10.0,Fair,CLR,39.0,10.0,39.0,28.9,30%,33.0,,30.61,1036.8,,,,2025-02-17,2,2025,12,KIAD
2025-02-14,14,13:52,EST,NW  13  G 17,10.0,A Few Clouds,FEW250,41.0,9.0,,,27%,34.0,,30.6,1036.5,,,,2025-02-17,2,2025,13,KIAD
2025-02-14,14,14:52,EST,N  12  G 17,10.0,A Few Clouds,FEW250,42.1,9.0,,,25%,36.0,,30.58,1035.6,,,,2025-02-17,2,2025,14,KIAD
2025-02-14,14,15:52,EST,NW  8,10.0,A Few Clouds,FEW250,42.1,8.1,,,24%,38.0,,30.57,1035.6,,,,2025-02-17,2,2025,15,KIAD
2025-02-14,14,16:52,EST,N  7,10.0,A Few Clouds,FEW100 FEW250,41.0,8.1,,,25%,37.0,,30.56,1035.0,,,,2025-02-17,2,2025,16,KIAD
2025-02-14,14,17:52,EST,Calm,10.0,A Few Clouds,FEW100 FEW250,39.0,6.1,,,25%,,,30.55,1034.9,,,,2025-02-17,2,2025,17,KIAD
2025-02-14,14,18:52,EST,Calm,10.0,A Few Clouds,FEW120,35.1,9.0,42.1,33.1,34%,,,30.58,1035.8,,,,2025-02-17,2,2025,18,KIAD
2025-02-14,14,19:52,EST,SE  3,10.0,A Few Clouds,FEW120,30.0,12.9,,,49%,,,30.58,1036.0,,,,2025-02-17,2,2025,19,KIAD
2025-02-14,14,20:52,EST,E  5,10.0,Partly Cloudy,SCT120,30.0,16.0,,,56%,26.0,,30.58,1035.9,,,,2025-02-17,2,2025,20,KIAD
2025-02-14,14,21:52,EST,SE  3,10.0,Mostly Cloudy,BKN140,34.0,12.0,,,40%,,,30.56,1035.2,,,,2025-02-17,2,2025,21,KIAD
2025-02-14,14,22:52,EST,SE  5,10.0,Mostly Cloudy,BKN200,34.0,10.9,,,38%,30.0,,30.53,1034.1,,,,2025-02-17,2,2025,22,KIAD
2025-02-14,14,23:52,EST,SE  3,10.0,Mostly Cloudy,BKN150,33.1,10.9,,,40%,,,30.52,1033.9,,,,2025-02-18,2,2025,23,KIAD
2025-02-15,15,00:52,EST,SE  6,10.0,Overcast,OVC130,34.0,12.9,35.1,28.0,42%,29.0,,30.51,1033.3,,,,2025-02-18,2,2025,0,KIAD
2025-02-15,15,02:52,EST,SE  5,10.0,Overcast,OVC100,34.0,18.0,,,52%,30.0,,30.48,1032.5,,,,2025-02-18,2,2025,2,KIAD
2025-02-15,15,03:52,EST,SE  5,10.0,Overcast,OVC100,34.0,18.0,,,52%,30.0,,30.46,1031.7,,,,2025-02-18,2,2025,3,KIAD
2025-02-15,15,04:52,EST,SE  5,10.0,Overcast,OVC110,34.0,18.0,,,52%,30.0,,30.46,1031.8,,,,2025-02-18,2,2025,4,KIAD
2025-02-15,15,05:52,EST,S  6,10.0,Overcast,OVC110,34.0,19.0,,,54%,29.0,,30.44,1030.9,,,,2025-02-18,2,2025,5,KIAD
2025-02-15,15,06:52,EST,SE  7,10.0,Overcast,OVC100,34.0,19.9,34.0,34.0,56%,29.0,,30.42,1030.2,,,,2025-02-18,2,2025,6,KIAD
2025-02-15,15,07:52,EST,S  8,10.0,Overcast,OVC100,34.0,21.0,,,59%,28.0,,30.4,1029.7,,,,2025-02-18,2,2025,7,KIAD
2025-02-15,15,08:52,EST,S  9,10.0,Overcast,BKN070 OVC090,36.0,21.0,,,55%,30.0,,30.39,1029.5,,,,2025-02-18,2,2025,8,KIAD
2025-02-15,15,09:52,EST,S  7,10.0,Overcast,OVC075,37.0,21.0,,,52%,32.0,,30.38,1029.1,,,,2025-02-18,2,2025,9,KIAD
2025-02-15,15,10:52,EST,S  8,10.0,Overcast,OVC100,37.9,21.9,,,52%,33.0,,30.34,1027.7,,,,2025-02-18,2,2025,10,KIAD
2025-02-15,15,11:52,EST,S  8,10.0,Overcast,OVC090,39.0,21.9,,,50%,34.0,,30.3,1026.2,,,,2025-02-18,2,2025,11,KIAD
2025-02-15,15,12:52,EST,S  12,10.0,Overcast,OVC075,39.9,23.0,39.9,34.0,51%,34.0,,30.24,1024.2,,,,2025-02-18,2,2025,12,KIAD
2025-02-15,15,13:52,EST,S  9  G 18,6.0,Light Rain,FEW040 BKN055 OVC075,36.0,30.0,,,79%,30.0,,30.18,1022.1,0.03,,,2025-02-18,2,2025,13,KIAD
2025-02-15,15,15:52,EST,S  8,6.0,Light Rain Fog/Mist,BKN010 BKN026 OVC040,35.1,32.0,,,89%,29.0,,30.12,1020.2,0.07,0.17,,2025-02-18,2,2025,15,KIAD
2025-02-15,15,16:52,EST,S  10,5.0,Light Rain Fog/Mist,BKN008 BKN038 OVC070,34.0,32.0,,,92%,27.0,,30.08,1018.8,0.07,,,2025-02-18,2,2025,16,KIAD
2025-02-15,15,17:52,EST,S  12,9.0,Light Rain,OVC007,35.1,32.0,,,89%,28.0,,30.03,1017.1,0.06,,,2025-02-18,2,2025,17,KIAD
2025-02-15,15,18:52,EST,S  7,10.0,Light Rain,OVC005,35.1,33.1,39.9,34.0,93%,30.0,,30.01,1016.5,0.03,,0.33,2025-02-18,2,2025,18,KIAD
2025-02-15,15,19:52,EST,Calm,10.0,Overcast,BKN008 OVC012,35.1,32.0,,,89%,,,30.01,1016.3,,,,2025-02-18,2,2025,19,KIAD
2025-02-15,15,20:52,EST,S  5,9.0,Light Rain,SCT007 OVC011,35.1,33.1,,,93%,32.0,,29.96,1014.7,0.02,,,2025-02-18,2,2025,20,KIAD
2025-02-15,15,21:52,EST,S  6,5.0,Light Rain Fog/Mist,BKN012 BKN030 OVC070,36.0,34.0,,,93%,32.0,,29.93,1013.7,0.05,0.07,,2025-02-18,2,2025,21,KIAD
2025-02-15,15,22:52,EST,S  5,9.0,Light Rain,BKN010 OVC017,36.0,34.0,,,93%,33.0,,29.89,1012.4,0.07,,,2025-02-18,2,2025,22,KIAD
2025-02-15,15,23:52,EST,S  5,10.0,Overcast,OVC006,36.0,34.0,,,93%,33.0,,29.86,1011.2,,,,2025-02-19,2,2025,23,KIAD
2025-02-16,16,00:52,EST,S  3,6.0,Light Rain Fog/Mist,OVC005,36.0,34.0,37.0,35.1,93%,,,29.82,1009.8,0.03,,0.17,2025-02-19,2,2025,0,KIAD
2025-02-16,16,01:52,EST,SE  3,9.0,Overcast,OVC004,36.0,35.1,,,97%,,,29.77,1008.1,0.03,,,2025-02-19,2,2025,1,KIAD
2025-02-16,16,02:52,EST,S  6,4.0,Fog/Mist,OVC004,37.9,36.0,,,93%,34.0,,29.71,1006.2,,,,2025-02-19,2,2025,2,KIAD
2025-02-16,16,03:52,EST,S  7,8.0,Overcast,OVC003,37.9,37.0,,,97%,33.0,,29.66,1004.4,,0.03,,2025-02-19,2,2025,3,KIAD
2025-02-16,16,04:52,EST,S  7,2.5,Fog/Mist,OVC002,39.0,37.9,,,96%,35.0,,29.6,1002.3,,,,2025-02-19,2,2025,4,KIAD
2025-02-16,16,05:52,EST,S  8,1.0,Fog/Mist,OVC002,39.9,37.9,,,93%,35.0,,29.56,1001.1,,,,2025-02-19,2,2025,5,KIAD
2025-02-16,16,06:52,EST,S  6,1.0,Light Drizzle Fog/Mist,OVC002,41.0,39.0,41.0,36.0,93%,38.0,,29.5,999.1,,,0.03,2025-02-19,2,2025,6,KIAD
2025-02-16,16,07:52,EST,S  10,2.0,Light Drizzle Fog/Mist,OVC003,42.1,41.0,,,96%,37.0,,29.46,997.7,,,,2025-02-19,2,2025,7,KIAD
2025-02-16,16,08:52,EST,S  16,2.0,Light Drizzle Fog/Mist,OVC004,44.1,43.0,,,96%,37.0,,29.43,996.8,,,,2025-02-19,2,2025,8,KIAD
2025-02-16,16,09:52,EST,S  9,2.0,Heavy Rain Fog/Mist,BKN004 OVC007,46.0,44.1,,,93%,42.0,,29.38,994.9,0.15,0.15,,2025-02-19,2,2025,9,KIAD
2025-02-16,16,10:52,EST,SE  16  G 22,7.0,Overcast,BKN005 BKN020 OVC034,46.9,45.0,,,93%,41.0,,29.21,989.3,0.21,,,2025-02-19,2,2025,10,KIAD
2025-02-16,16,11:52,EST,SW  12,10.0,Overcast,BKN005 OVC022,50.0,48.0,,,93%,46.0,,29.21,989.1,,,,2025-02-19,2,2025,11,KIAD
2025-02-16,16,12:52,EST,S  21  G 32,10.0,Overcast and Breezy,BKN010 OVC120,52.0,48.9,52.0,41.0,89%,,,29.16,987.4,,,0.36,2025-02-19,2,2025,12,KIAD
2025-02-16,16,13:52,EST,SW  15  G 35,10.0,Mostly Cloudy,FEW012 BKN140 BKN250,57.0,50.0,,,78%,,,29.13,986.3,,,,2025-02-19,2,2025,13,KIAD
2025-02-16,16,14:52,EST,SW  21  G 33,10.0,Mostly Cloudy and Breezy,FEW030 SCT055 BKN110 BKN140 BKN250,61.0,51.1,,,70%,,,29.12,986.2,,,,2025-02-19,2,2025,14,KIAD
2025-02-16,16,15:52,EST,W  32  G 62,10.0,Mostly Cloudy and Windy,SCT034CB SCT060 BKN140 BKN250,57.9,39.0,,,50%,,,29.26,990.6,,,,2025-02-19,2,2025,15,KIAD
2025-02-16,16,16:52,EST,W  25  G 48,10.0,A Few Clouds and Breezy,FEW043 FEW055,50.0,30.0,,,46%,43.0,,29.36,994.1,,,,2025-02-19,2,2025,16,KIAD
2025-02-16,16,17:52,EST,NW  33  G 51,10.0,Mostly Cloudy and Windy,BKN065,46.0,26.1,,,46%,37.0,,29.47,997.9,,,,2025-02-19,2,2025,17,KIAD
2025-02-16,16,18:52,EST,W  23  G 37,10.0,Mostly Cloudy and Breezy,BKN055 BKN070,43.0,24.1,62.1,43.0,47%,34.0,,29.53,1000.0,,,,2025-02-19,2,2025,18,KIAD
2025-02-16,16,19:52,EST,W  30  G 45,10.0,Partly Cloudy and Windy,SCT048,41.0,21.9,,,47%,31.0,,29.58,1001.7,,,,2025-02-19,2,2025,19,KIAD
2025-02-16,16,20:52,EST,W  25  G 45,10.0,Partly Cloudy and Breezy,SCT049,39.0,21.0,,,48%,29.0,,29.63,1003.4,,,,2025-02-19,2,2025,20,KIAD
2025-02-16,16,21:52,EST,W  30  G 48,10.0,Partly Cloudy and Windy,SCT050,37.9,19.9,,,48%,26.0,,29.66,1004.5,,,,2025-02-19,2,2025,21,KIAD
2025-02-16,16,22:52,EST,W  25  G 43,10.0,A Few Clouds and Breezy,FEW050,37.0,19.0,,,48%,26.0,,29.68,1005.2,,,,2025-02-19,2,2025,22,KIAD
2025-02-16,16,23:52,EST,W  22  G 35,10.0,A Few Clouds and Breezy,FEW050,36.0,19.0,,,50%,25.0,,29.73,1006.7,,,,2025-02-20,2,2025,23,KIAD
2025-02-17,17,00:52,EST,W  23  G 33,10.0,Partly Cloudy and Breezy,SCT048 SCT060,35.1,18.0,43.0,35.1,50%,24.0,,29.76,1007.9,,,,2025-02-20,2,2025,0,KIAD
2025-02-17,17,01:52,EST,NW  15  G 26,10.0,Overcast,FEW049 OVC065,33.1,23.0,,,66%,24.0,,29.81,1009.7,,,,2025-02-20,2,2025,1,KIAD
2025-02-17,17,02:52,EST,W  12,10.0,Partly Cloudy,FEW008 SCT050,32.0,21.9,,,66%,24.0,,29.83,1010.1,,,,2025-02-20,2,2025,2,KIAD
2025-02-17,17,03:52,EST,W  26  G 48,10.0,A Few Clouds and Windy,FEW050,34.0,12.9,,,42%,22.0,,29.86,1011.4,,,,2025-02-20,2,2025,3,KIAD
2025-02-17,17,04:52,EST,NW  21  G 32,10.0,A Few Clouds and Breezy,FEW060,32.0,12.9,,,45%,21.0,,29.9,1012.4,,,,2025-02-20,2,2025,4,KIAD
2025-02-17,17,05:52,EST,NW  25  G 41,10.0,A Few Clouds and Breezy,FEW060,30.9,12.9,,,47%,18.0,,29.93,1013.6,,,,2025-02-20,2,2025,5,KIAD
2025-02-17,17,06:52,EST,NW  23  G 41,10.0,Mostly Cloudy and Breezy,BKN050,30.0,12.0,35.1,30.0,47%,17.0,,29.96,1014.5,,,,2025-02-20,2,2025,6,KIAD
2025-02-17,17,07:52,EST,NW  15  G 26,10.0,Partly Cloudy,SCT050,30.9,10.9,,,43%,21.0,,30.01,1016.2,,,,2025-02-20,2,2025,7,KIAD
2025-02-17,17,08:52,EST,NW  25  G 33,10.0,A Few Clouds and Breezy,FEW050,33.1,14.0,,,45%,21.0,,30.02,1016.7,,,,2025-02-20,2,2025,8,KIAD
2025-02-17,17,09:52,EST,NW  29  G 41,10.0,A Few Clouds and Windy,FEW055,34.0,12.0,,,40%,21.0,,30.04,1017.5,,,,2025-02-20,2,2025,9,KIAD
2025-02-17,17,10:52,EST,W  24  G 36,10.0,A Few Clouds and Breezy,FEW055,35.1,12.0,,,38%,24.0,,30.05,1017.8,,,,2025-02-20,2,2025,10,KIAD
2025-02-17,17,11:52,EST,NW  23  G 37,10.0,A Few Clouds and Breezy,FEW055,37.0,10.9,,,34%,27.0,,30.04,1017.4,,,,2025-02-20,2,2025,11,KIAD
2025-02-17,17,12:52,EST,NW  16  G 25,10.0,A Few Clouds,FEW050,39.0,14.0,39.0,30.0,36%,31.0,,30.04,1017.4,,,,2025-02-20,2,2025,12,KIAD
2025-02-17,17,13:52,EST,NW  16  G 31,10.0,A Few Clouds,FEW050,39.9,12.9,,,33%,32.0,,30.03,1017.1,,,,2025-02-20,2,2025,13,KIAD
2025-02-17,17,14:52,EST,NW  16  G 30,10.0,A Few Clouds,FEW050 FEW250,39.9,12.0,,,32%,32.0,,30.03,1017.2,,,,2025-02-20,2,2025,14,KIAD
2025-02-17,17,15:52,EST,NW  12  G 32,10.0,A Few Clouds,FEW060 FEW250,39.0,10.0,,,30%,32.0,,30.04,1017.4,,,,2025-02-20,2,2025,15,KIAD
2025-02-17,17,16:52,EST,NW  14  G 23,10.0,A Few Clouds,FEW050 FEW250,37.9,10.9,,,33%,30.0,,30.05,1017.8,,,,2025-02-20,2,2025,16,KIAD
2025-02-17,17,17:52,EST,NW  12  G 22,10.0,A Few Clouds,FEW050 FEW250,35.1,10.0,,,35%,28.0,,30.07,1018.7,,,,2025-02-20,2,2025,17,KIAD
2025-02-17,17,18:52,EST,W  6,10.0,Fair,CLR,33.1,9.0,39.9,33.1,36%,28.0,,30.09,1019.2,,,,2025-02-20,2,2025,18,KIAD
2025-02-17,17,19:52,EST,N  6,10.0,Fair,CLR,32.0,7.0,,,35%,27.0,,30.1,1019.6,,,,2025-02-20,2,2025,19,KIAD
2025-02-17,17,20:52,EST,NW  9,10.0,Fair,CLR,30.9,9.0,,,40%,24.0,,30.12,1020.2,,,,2025-02-20,2,2025,20,KIAD
2025-02-17,17,21:52,EST,NW  6,10.0,A Few Clouds,FEW250,30.0,9.0,,,41%,25.0,,30.13,1020.5,,,,2025-02-20,2,2025,21,KIAD
2025-02-17,17,22:52,EST,NW  5,10.0,Mostly Cloudy,BKN250,30.0,8.1,,,39%,26.0,,30.14,1020.9,,,,2025-02-20,2,2025,22,KIAD
2025-02-17,17,23:52,EST,NW  7,10.0,Mostly Cloudy,BKN250,28.9,7.0,,,39%,23.0,,30.15,1021.3,,,,2025-02-20,2,2025,23,KIAD
2025-02-18,18,00:52,EST,NW  7,10.0,A Few Clouds,FEW250,28.0,7.0,33.1,28.0,41%,22.0,,30.16,1021.6,,,,2025-02-21,2,2025,0,KIAD
2025-02-18,18,01:52,EST,NW  10,10.0,Fair,CLR,28.0,8.1,,,43%,19.0,,30.17,1021.9,,,,2025-02-21,2,2025,1,KIAD
2025-02-18,18,02:52,EST,NW  17,10.0,Partly Cloudy,FEW140 SCT250,27.0,7.0,,,43%,15.0,,30.17,1022.0,,,,2025-02-21,2,2025,2,KIAD
2025-02-18,18,03:52,EST,NW  10,10.0,Partly Cloudy,SCT250,26.1,5.0,,,40%,17.0,,30.17,1022.0,,,,2025-02-21,2,2025,3,KIAD
2025-02-18,18,04:52,EST,NW  6,10.0,Partly Cloudy,SCT250,26.1,5.0,,,40%,20.0,,30.21,1023.3,,,,2025-02-21,2,2025,4,KIAD
2025-02-18,18,05:52,EST,N  10,10.0,Partly Cloudy,SCT250,25.0,3.0,,,39%,16.0,,30.22,1023.5,,,,2025-02-21,2,2025,5,KIAD
2025-02-18,18,06:52,EST,NW  10,10.0,Partly Cloudy,SCT250,24.1,1.0,28.0,24.1,36%,15.0,,30.24,1024.3,,,,2025-02-21,2,2025,6,KIAD
2025-02-18,18,07:52,EST,NW  18  G 25,10.0,Partly Cloudy,SCT250,24.1,-2.0,,,32%,11.0,,30.27,1025.4,,,,2025-02-21,2,2025,7,KIAD
2025-02-18,18,08:52,EST,NW  14  G 28,10.0,Mostly Cloudy,BKN250,25.0,-2.0,,,30%,14.0,,30.29,1025.9,,,,2025-02-21,2,2025,8,KIAD
2025-02-18,18,09:52,EST,N  15  G 23,10.0,Mostly Cloudy,BKN250,26.1,-0.9,,,31%,15.0,,30.3,1026.5,,,,2025-02-21,2,2025,9,KIAD
2025-02-18,18,10:52,EST,NW  15  G 20,10.0,Mostly Cloudy,SCT150 BKN240,28.0,-0.0,,,29%,17.0,,30.32,1026.9,,,,2025-02-21,2,2025,10,KIAD
2025-02-18,18,11:52,EST,NW  13,10.0,Mostly Cloudy,BKN250,27.0,-0.0,,,31%,17.0,,30.31,1026.6,,,,2025-02-21,2,2025,11,KIAD
2025-02-18,18,12:52,EST,NW  15  G 28,10.0,Mostly Cloudy,BKN250,33.1,3.0,33.1,24.1,28%,24.0,,30.28,1025.5,,,,2025-02-21,2,2025,12,KIAD
2025-02-18,18,13:52,EST,NW  14  G 26,10.0,Mostly Cloudy,BKN250,33.1,1.9,,,26%,24.0,,30.25,1024.7,,,,2025-02-21,2,2025,13,KIAD
2025-02-18,18,14:52,EST,NW  13  G 23,10.0,Mostly Cloudy,FEW070 BKN150 BKN250,35.1,1.9,,,24%,27.0,,30.24,1024.3,,,,2025-02-21,2,2025,14,KIAD
2025-02-18,18,15:52,EST,NW  14,10.0,Partly Cloudy,FEW075 SCT150 SCT250,35.1,1.0,,,23%,27.0,,30.24,1024.4,,,,2025-02-21,2,2025,15,KIAD
2025-02-18,18,16:52,EST,NW  14  G 23,10.0,Mostly Cloudy,FEW075 SCT150 BKN250,34.0,1.0,,,24%,25.0,,30.26,1025.0,,,,2025-02-21,2,2025,16,KIAD
2025-02-18,18,17:52,EST,NW  10  G 20,10.0,Mostly Cloudy,FEW080 SCT150 BKN250,30.9,-0.0,,,26%,23.0,,30.28,1025.5,,,,2025-02-21,2,2025,17,KIAD
2025-02-18,18,18:52,EST,N  9,10.0,Partly Cloudy,FEW150 SCT250,28.9,1.0,36.0,28.9,30%,21.0,,30.3,1026.4,,,,2025-02-21,2,2025,18,KIAD
2025-02-18,18,19:52,EST,N  12,10.0,A Few Clouds,FEW250,26.1,1.9,,,35%,16.0,,30.33,1027.5,,,,2025-02-21,2,2025,19,KIAD
2025-02-18,18,20:52,EST,N  12,10.0,Fair,CLR,24.1,1.9,,,38%,14.0,,30.36,1028.4,,,,2025-02-21,2,2025,20,KIAD
2025-02-18,18,21:52,EST,N  13  G 21,10.0,Fair,CLR,23.0,1.9,,,40%,12.0,,30.38,1029.2,,,,2025-02-21,2,2025,21,KIAD
2025-02-18,18,22:52,EST,N  17  G 24,10.0,Fair,CLR,21.9,1.0,,,40%,9.0,,30.39,1029.4,,,,2025-02-21,2,2025,22,KIAD
2025-02-18,18,23:52,EST,N  16  G 25,10.0,Fair,CLR,19.9,1.0,,,43%,7.0,,30.37,1028.9,,,,2025-02-21,2,2025,23,KIAD
2025-02-19,19,00:52,EST,N  15  G 25,10.0,Fair,CLR,19.9,1.0,28.9,19.9,43%,7.0,,30.41,1030.0,,,,2025-02-22,2,2025,0,KIAD
2025-02-19,19,01:52,EST,N  16,10.0,Partly Cloudy,SCT180,19.0,1.0,,,45%,5.0,,30.41,1030.3,,,,2025-02-22,2,2025,1,KIAD
2025-02-19,19,02:52,EST,N  13,10.0,Partly Cloudy,SCT180,19.0,-0.0,,,43%,7.0,,30.42,1030.3,,,,2025-02-22,2,2025,2,KIAD
2025-02-19,19,03:52,EST,N  12,10.0,Overcast,OVC150,19.0,-0.0,,,43%,8.0,,30.43,1030.6,,,,2025-02-22,2,2025,3,KIAD
2025-02-19,19,04:52,EST,N  12,10.0,Overcast,OVC130,19.0,-0.9,,,41%,8.0,,30.43,1030.6,,,,2025-02-22,2,2025,4,KIAD
2025-02-19,19,06:52,EST,NW  8,10.0,Overcast,OVC070,18.0,1.0,19.9,18.0,47%,9.0,,30.43,1031.0,,,,2025-02-22,2,2025,6,KIAD
2025-02-19,19,07:52,EST,NW  8,10.0,Overcast,OVC060,19.0,1.0,,,45%,10.0,,30.43,1031.0,,,,2025-02-22,2,2025,7,KIAD
2025-02-19,19,08:52,EST,NW  8,10.0,Overcast,FEW060 OVC075,19.9,1.0,,,43%,11.0,,30.45,1031.5,,,,2025-02-22,2,2025,8,KIAD
2025-02-19,19,09:52,EST,NW  8,10.0,Overcast,OVC060,19.9,-0.0,,,41%,11.0,,30.45,1031.6,,,,2025-02-22,2,2025,9,KIAD
2025-02-19,19,10:52,EST,NW  9,9.0,Overcast,BKN040 OVC050,19.9,1.9,,,45%,10.0,,30.45,1031.4,,,,2025-02-22,2,2025,10,KIAD
2025-02-19,19,11:52,EST,NW  10,5.0,Overcast with Haze,BKN012 OVC036,21.0,3.9,,,47%,11.0,,30.41,1030.0,,,,2025-02-22,2,2025,11,KIAD
2025-02-19,19,12:52,EST,N  5,9.0,Overcast,BKN012 OVC040,21.0,5.0,21.9,18.0,50%,15.0,,30.37,1028.8,,,,2025-02-22,2,2025,12,KIAD
2025-02-19,19,13:52,EST,Calm,7.0,Light Snow,BKN012 BKN036 BKN041,21.0,8.1,,,57%,,,30.33,1027.5,,,,2025-02-22,2,2025,13,KIAD
2025-02-19,19,14:52,EST,Vrbl  5,9.0,Mostly Cloudy,FEW012 BKN046 BKN110 BKN220,23.0,9.0,,,55%,18.0,,30.3,1026.4,,,,2025-02-22,2,2025,14,KIAD
2025-02-19,19,15:52,EST,Calm,10.0,Overcast,BKN060 BKN100 OVC200,24.1,7.0,,,48%,,,30.28,1025.6,,,,2025-02-22,2,2025,15,KIAD
2025-02-19,19,16:52,EST,Calm,10.0,Mostly Cloudy,BKN065 BKN110,25.0,7.0,,,46%,,,30.25,1024.7,,,,2025-02-22,2,2025,16,KIAD
2025-02-19,19,17:52,EST,SW  3,10.0,Mostly Cloudy,BKN110,25.0,8.1,,,48%,,,30.25,1024.8,,,,2025-02-22,2,2025,17,KIAD
2025-02-19,19,18:52,EST,SW  5,10.0,Partly Cloudy,SCT110,23.0,7.0,25.0,19.9,50%,18.0,,30.26,1025.0,,,,2025-02-22,2,2025,18,KIAD
2025-02-19,19,19:52,EST,NW  6,10.0,Partly Cloudy,SCT085 SCT250,25.0,5.0,,,42%,19.0,,30.25,1024.6,,,,2025-02-22,2,2025,19,KIAD
2025-02-19,19,20:52,EST,S  3,10.0,Mostly Cloudy,BKN080 BKN250,19.9,9.0,,,62%,,,30.25,1024.7,,,,2025-02-22,2,2025,20,KIAD
2025-02-19,19,21:52,EST,Calm,10.0,Mostly Cloudy,BKN080 BKN250,21.0,12.0,,,68%,,,30.23,1024.1,,,,2025-02-22,2,2025,21,KIAD
2025-02-19,19,22:52,EST,N  7,10.0,Mostly Cloudy,BKN070,24.1,6.1,,,46%,17.0,,30.21,1023.3,,,,2025-02-22,2,2025,22,KIAD
2025-02-19,19,23:52,EST,NW  6,10.0,Mostly Cloudy,BKN065,23.0,6.1,,,48%,17.0,,30.18,1022.4,,,,2025-02-22,2,2025,23,KIAD
2025-02-20,20,00:52,EST,NW  8,10.0,Overcast,OVC060,23.0,7.0,25.0,19.9,50%,15.0,,30.17,1021.9,,,,2025-02-23,2,2025,0,KIAD
2025-02-20,20,01:52,EST,NW  7,10.0,Overcast,OVC060,24.1,7.0,,,48%,17.0,,30.16,1021.6,,,,2025-02-23,2,2025,1,KIAD
2025-02-20,20,02:52,EST,N  8,10.0,Overcast,OVC055,23.0,7.0,,,50%,15.0,,30.13,1020.8,,,,2025-02-23,2,2025,2,KIAD
2025-02-20,20,03:52,EST,N  7,10.0,Overcast,OVC050,24.1,7.0,,,48%,17.0,,30.12,1020.2,,,,2025-02-23,2,2025,3,KIAD
2025-02-20,20,04:52,EST,N  8  G 20,10.0,Overcast,OVC050,23.0,7.0,,,50%,15.0,,30.1,1019.8,,,,2025-02-23,2,2025,4,KIAD
2025-02-20,20,05:52,EST,N  9,10.0,Overcast,OVC050,23.0,7.0,,,50%,14.0,,30.1,1019.8,,,,2025-02-23,2,2025,5,KIAD
2025-02-20,20,06:52,EST,NW  10,10.0,Mostly Cloudy,BKN050,21.9,7.0,24.1,21.9,52%,12.0,,30.11,1019.9,,,,2025-02-23,2,2025,6,KIAD
2025-02-20,20,07:52,EST,N  12,10.0,Mostly Cloudy,BKN055,21.9,7.0,,,52%,11.0,,30.1,1019.7,,,,2025-02-23,2,2025,7,KIAD
2025-02-20,20,08:52,EST,NW  14,10.0,Mostly Cloudy,BKN065,21.9,7.0,,,52%,10.0,,30.12,1020.2,,,,2025-02-23,2,2025,8,KIAD
2025-02-20,20,09:52,EST,NW  18,5.0,Light Snow,SCT029 BKN055 OVC070,23.0,8.1,,,53%,10.0,,30.12,1020.4,,,,2025-02-23,2,2025,9,KIAD
2025-02-20,20,10:52,EST,NW  17  G 26,9.0,Mostly Cloudy,BKN026 BKN032 BKN080 BKN250,23.0,10.9,,,60%,10.0,,30.11,1020.0,,,,2025-02-23,2,2025,10,KIAD
2025-02-20,20,11:52,EST,NW  22  G 31,9.0,Mostly Cloudy and Breezy,BKN036 BKN080 BKN250,27.0,9.0,,,46%,14.0,,30.1,1019.5,,,,2025-02-23,2,2025,11,KIAD
2025-02-20,20,12:52,EST,NW  18  G 30,10.0,Mostly Cloudy,BKN038 BKN080 BKN250,25.0,8.1,28.0,21.9,48%,12.0,,30.08,1019.0,,,,2025-02-23,2,2025,12,KIAD
2025-02-20,20,13:52,EST,W  24  G 35,10.0,Mostly Cloudy and Breezy,BKN041 BKN080 BKN250,28.9,9.0,,,43%,16.0,,30.05,1018.0,,,,2025-02-23,2,2025,13,KIAD
2025-02-20,20,14:52,EST,W  24  G 33,10.0,Mostly Cloudy and Breezy,BKN048,28.0,8.1,,,43%,14.0,,30.06,1018.2,,,,2025-02-23,2,2025,14,KIAD
2025-02-20,20,15:52,EST,NW  26  G 37,10.0,Mostly Cloudy and Windy,BKN055,27.0,6.1,,,41%,12.0,,30.07,1018.6,,,,2025-02-23,2,2025,15,KIAD
2025-02-20,20,16:52,EST,NW  32  G 40,10.0,Mostly Cloudy and Windy,BKN055,27.0,5.0,,,39%,11.0,,30.09,1019.3,,,,2025-02-23,2,2025,16,KIAD
2025-02-20,20,17:52,EST,NW  23  G 32,10.0,Mostly Cloudy and Breezy,BKN055,26.1,5.0,,,40%,12.0,,30.12,1020.5,,,,2025-02-23,2,2025,17,KIAD
2025-02-20,20,18:52,EST,NW  14  G 23,10.0,Mostly Cloudy,BKN060,25.0,3.9,30.0,25.0,40%,14.0,,30.15,1021.2,,,,2025-02-23,2,2025,18,KIAD
2025-02-20,20,19:52,EST,NW  17  G 28,10.0,Partly Cloudy,SCT055,25.0,5.0,,,42%,13.0,,30.16,1021.7,,,,2025-02-23,2,2025,19,KIAD
2025-02-20,20,20:52,EST,NW  24  G 35,10.0,A Few Clouds and Breezy,FEW055,24.1,5.0,,,44%,9.0,,30.16,1021.8,,,,2025-02-23,2,2025,20,KIAD
2025-02-20,20,21:52,EST,NW  26  G 37,10.0,A Few Clouds and Windy,FEW055,24.1,5.0,,,44%,9.0,,30.17,1022.0,,,,2025-02-23,2,2025,21,KIAD
2025-02-20,20,22:52,EST,NW  25  G 32,10.0,Partly Cloudy and Breezy,SCT055,25.0,6.1,,,44%,10.0,,30.2,1022.9,,,,2025-02-23,2,2025,22,KIAD
2025-02-20,20,23:52,EST,NW  23,10.0,Mostly Cloudy and Breezy,BKN047,25.0,8.1,,,48%,11.0,,30.2,1023.1,,,,2025-02-23,2,2025,23,KIAD
2025-02-21,21,00:52,EST,NW  25  G 40,10.0,Mostly Cloudy and Breezy,FEW044 BKN065,25.0,8.1,25.0,24.1,48%,10.0,,30.23,1023.9,,,,2025-02-24,2,2025,0,KIAD
2025-02-21,21,01:52,EST,NW  18  G 24,10.0,Overcast,OVC043,25.0,8.1,,,48%,12.0,,30.25,1024.6,,,,2025-02-24,2,2025,1,KIAD
2025-02-21,21,02:52,EST,NW  17  G 30,10.0,Partly Cloudy,SCT043,24.1,8.1,,,50%,11.0,,30.25,1024.8,,,,2025-02-24,2,2025,2,KIAD
2025-02-21,21,03:52,EST,NW  14  G 25,10.0,Mostly Cloudy,BKN042,25.0,9.0,,,50%,14.0,,30.27,1025.4,,,,2025-02-24,2,2025,3,KIAD
2025-02-21,21,04:52,EST,NW  17  G 31,10.0,A Few Clouds,FEW040,25.0,9.0,,,50%,13.0,,30.28,1025.7,,,,2025-02-24,2,2025,4,KIAD
2025-02-21,21,05:52,EST,NW  8  G 21,10.0,Partly Cloudy,SCT041,24.1,9.0,,,52%,16.0,,30.32,1027.1,,,,2025-02-24,2,2025,5,KIAD
2025-02-21,21,06:52,EST,NW  18  G 25,10.0,Partly Cloudy,SCT044,25.0,10.0,25.0,24.1,53%,12.0,,30.33,1027.5,,,,2025-02-24,2,2025,6,KIAD
2025-02-21,21,07:52,EST,NW  9,10.0,Overcast,OVC042,27.0,10.0,,,49%,19.0,,30.36,1028.6,,,,2025-02-24,2,2025,7,KIAD
2025-02-21,21,08:52,EST,NW  17  G 30,10.0,Mostly Cloudy,BKN045,30.0,10.0,,,43%,19.0,,30.38,1029.0,,,,2025-02-24,2,2025,8,KIAD
2025-02-21,21,09:52,EST,NW  22  G 37,10.0,Partly Cloudy and Breezy,SCT044,30.9,10.0,,,42%,19.0,,30.38,1028.9,,,,2025-02-24,2,2025,9,KIAD
2025-02-21,21,10:52,EST,NW  25  G 40,10.0,A Few Clouds and Breezy,FEW040,33.1,10.9,,,40%,21.0,,30.38,1029.1,,,,2025-02-24,2,2025,10,KIAD
2025-02-21,21,11:52,EST,NW  18  G 33,10.0,A Few Clouds,FEW040,35.1,10.9,,,37%,25.0,,30.38,1029.1,,,,2025-02-24,2,2025,11,KIAD
2025-02-21,21,12:52,EST,NW  21  G 32,10.0,A Few Clouds and Breezy,FEW040,36.0,10.0,36.0,24.1,34%,26.0,,30.36,1028.5,,,,2025-02-24,2,2025,12,KIAD
2025-02-21,21,13:52,EST,NW  17  G 31,10.0,Fair,CLR,37.0,9.0,,,31%,28.0,,30.36,1028.3,,,,2025-02-24,2,2025,13,KIAD
2025-02-21,21,14:52,EST,NW  21  G 32,10.0,A Few Clouds and Breezy,FEW080,37.0,10.0,,,33%,27.0,,30.36,1028.3,,,,2025-02-24,2,2025,14,KIAD
2025-02-21,21,15:52,EST,NW  24  G 31,10.0,A Few Clouds and Breezy,FEW080,36.0,9.0,,,32%,25.0,,30.37,1028.8,,,,2025-02-24,2,2025,15,KIAD
2025-02-21,21,16:52,EST,NW  17,10.0,Fair,CLR,35.1,9.0,,,34%,26.0,,30.39,1029.5,,,,2025-02-24,2,2025,16,KIAD
2025-02-21,21,17:52,EST,NW  15,10.0,Fair,CLR,32.0,10.9,,,41%,22.0,,30.4,1029.6,,,,2025-02-24,2,2025,17,KIAD
2025-02-21,21,18:52,EST,W  14,10.0,Fair,CLR,30.9,12.0,37.9,30.9,45%,21.0,,30.42,1030.6,,,,2025-02-24,2,2025,18,KIAD
2025-02-21,21,19:52,EST,NW  13,10.0,Fair,CLR,28.9,12.0,,,49%,19.0,,30.44,1031.2,,,,2025-02-24,2,2025,19,KIAD
2025-02-21,21,20:52,EST,NW  8,10.0,Fair,CLR,28.0,12.0,,,51%,21.0,,30.45,1031.5,,,,2025-02-24,2,2025,20,KIAD
2025-02-21,21,21:52,EST,NW  8,10.0,Fair,CLR,27.0,12.0,,,53%,19.0,,30.46,1031.8,,,,2025-02-24,2,2025,21,KIAD
2025-02-21,21,22:52,EST,NW  9,10.0,Fair,CLR,25.0,10.9,,,55%,16.0,,30.46,1031.9,,,,2025-02-24,2,2025,22,KIAD
2025-02-21,21,23:52,EST,NW  7,10.0,Fair,CLR,24.1,12.0,,,60%,17.0,,30.46,1031.9,,,,2025-02-24,2,2025,23,KIAD
2025-02-22,22,00:52,EST,NW  5,10.0,Fair,CLR,25.0,12.0,30.9,24.1,58%,20.0,,30.47,1031.9,,,,2025-02-25,2,2025,0,KIAD
2025-02-22,22,01:52,EST,Calm,10.0,Fair,CLR,21.9,12.0,,,66%,,,30.47,1032.0,,,,2025-02-25,2,2025,1,KIAD
2025-02-22,22,02:52,EST,Calm,10.0,Fair,CLR,21.0,12.0,,,68%,,,30.47,1032.0,,,,2025-02-25,2,2025,2,KIAD
2025-02-22,22,03:52,EST,NW  6,10.0,Fair,CLR,24.1,12.9,,,62%,18.0,,30.46,1031.8,,,,2025-02-25,2,2025,3,KIAD
2025-02-22,22,04:52,EST,NW  8,10.0,Fair,CLR,24.1,12.9,,,62%,16.0,,30.46,1031.7,,,,2025-02-25,2,2025,4,KIAD
2025-02-22,22,05:52,EST,NW  8,10.0,Fair,CLR,24.1,12.0,,,60%,16.0,,30.46,1031.6,,,,2025-02-25,2,2025,5,KIAD
2025-02-22,22,06:52,EST,SW  3,10.0,Fair,CLR,21.0,10.9,25.0,19.0,65%,,,30.46,1031.7,,,,2025-02-25,2,2025,6,KIAD
2025-02-22,22,08:52,EST,NW  9,10.0,Fair,CLR,30.0,12.9,,,49%,22.0,,30.45,1031.3,,,,2025-02-25,2,2025,8,KIAD
2025-02-22,22,09:52,EST,W  9,10.0,A Few Clouds,FEW250,33.1,12.9,,,43%,26.0,,30.44,1031.1,,,,2025-02-25,2,2025,9,KIAD
2025-02-22,22,10:52,EST,Vrbl  5,10.0,A Few Clouds,FEW250,35.1,12.9,,,40%,32.0,,30.42,1030.5,,,,2025-02-25,2,2025,10,KIAD
2025-02-22,22,11:52,EST,S  10,10.0,Partly Cloudy,SCT250,37.9,14.0,,,37%,32.0,,30.38,1029.2,,,,2025-02-25,2,2025,11,KIAD
2025-02-22,22,12:52,EST,S  8,10.0,Mostly Cloudy,BKN250,39.9,15.1,39.9,19.0,36%,35.0,,30.34,1027.7,,,,2025-02-25,2,2025,12,KIAD
2025-02-22,22,13:52,EST,S  10,10.0,Mostly Cloudy,BKN250,42.1,14.0,,,32%,37.0,,30.3,1026.5,,,,2025-02-25,2,2025,13,KIAD
2025-02-22,22,14:52,EST,S  6,10.0,Mostly Cloudy,SCT140 BKN190 BKN250,41.0,15.1,,,35%,38.0,,30.28,1025.5,,,,2025-02-25,2,2025,14,KIAD
2025-02-22,22,15:52,EST,SW  7,10.0,Mostly Cloudy,BKN140 BKN190 BKN250,39.9,15.1,,,36%,36.0,,30.26,1024.9,,,,2025-02-25,2,2025,15,KIAD
2025-02-22,22,16:52,EST,S  6,10.0,Overcast,SCT110 BKN160 OVC200,39.9,16.0,,,38%,36.0,,30.25,1024.5,,,,2025-02-25,2,2025,16,KIAD
2025-02-22,22,17:52,EST,SW  5,10.0,Mostly Cloudy,SCT120 BKN160 BKN250,37.9,16.0,,,41%,35.0,,30.25,1024.6,,,,2025-02-25,2,2025,17,KIAD
2025-02-22,22,18:52,EST,S  5,10.0,Mostly Cloudy,BKN120 BKN150 BKN200,34.0,15.1,42.1,34.0,46%,30.0,,30.25,1024.7,,,,2025-02-25,2,2025,18,KIAD
2025-02-22,22,19:52,EST,SE  5,10.0,Mostly Cloudy,SCT120 BKN250,30.0,16.0,,,56%,26.0,,30.24,1024.5,,,,2025-02-25,2,2025,19,KIAD
2025-02-22,22,20:52,EST,S  6,10.0,Partly Cloudy,SCT110 SCT250,35.1,15.1,,,44%,31.0,,30.23,1023.9,,,,2025-02-25,2,2025,20,KIAD
2025-02-22,22,21:52,EST,S  6,10.0,A Few Clouds,FEW110 FEW250,33.1,15.1,,,48%,28.0,,30.23,1023.8,,,,2025-02-25,2,2025,21,KIAD
2025-02-22,22,22:52,EST,S  3,10.0,Partly Cloudy,FEW110 SCT250,30.9,15.1,,,52%,,,30.22,1023.6,,,,2025-02-25,2,2025,22,KIAD
2025-02-22,22,23:52,EST,S  5,10.0,Mostly Cloudy,BKN250,30.9,16.0,,,54%,27.0,,30.2,1022.7,,,,2025-02-25,2,2025,23,KIAD
2025-02-23,23,00:52,EST,Calm,10.0,Partly Cloudy,SCT250,28.0,15.1,36.0,26.1,58%,,,30.19,1022.6,,,,2025-02-26,2,2025,0,KIAD
2025-02-23,23,01:52,EST,Calm,10.0,A Few Clouds,FEW250,25.0,15.1,,,66%,,,30.19,1022.5,,,,2025-02-26,2,2025,1,KIAD
2025-02-23,23,02:52,EST,Calm,10.0,A Few Clouds,FEW100 FEW250,23.0,15.1,,,72%,,,30.18,1022.1,,,,2025-02-26,2,2025,2,KIAD
2025-02-23,23,03:52,EST,Calm,10.0,A Few Clouds,FEW120 FEW250,21.9,15.1,,,75%,,,30.17,1022.0,,,,2025-02-26,2,2025,3,KIAD
2025-02-23,23,04:52,EST,Calm,10.0,A Few Clouds,FEW120 FEW250,21.9,15.1,,,75%,,,30.18,1022.2,,,,2025-02-26,2,2025,4,KIAD
2025-02-23,23,05:52,EST,W  5,10.0,A Few Clouds,FEW250,25.0,15.1,,,66%,20.0,,30.18,1022.4,,,,2025-02-26,2,2025,5,KIAD
2025-02-23,23,06:52,EST,W  6,10.0,A Few Clouds,FEW250,27.0,15.1,28.0,19.9,61%,21.0,,30.2,1022.8,,,,2025-02-26,2,2025,6,KIAD
2025-02-23,23,07:52,EST,S  3,10.0,A Few Clouds,FEW080 FEW250,32.0,21.0,,,64%,,,30.22,1023.6,,,,2025-02-26,2,2025,7,KIAD
2025-02-23,23,15:52,EST,NW  5,10.0,Partly Cloudy,FEW100 SCT250,52.0,14.0,,,22%,,,30.08,1018.6,,,,2025-02-26,2,2025,15,KIAD
2025-02-24,24,07:52,EST,Calm,9.0,Fair,CLR,35.1,21.0,,,57%,,,30.12,1020.2,,,,2025-02-26,2,2025,7,KIAD
2025-02-24,24,16:52,EST,S  8,10.0,Mostly Cloudy,BKN150,55.9,23.0,,,28%,,,29.92,1013.4,,,,2025-02-26,2,2025,16,KIAD
2025-02-23,23,09:52,EST,NW  10  G 21,10.0,A Few Clouds,FEW250,41.0,17.1,,,38%,35.0,,30.23,1023.8,,,,2025-02-26,2,2025,9,KIAD
2025-02-23,23,10:52,EST,NW  9,10.0,A Few Clouds,FEW250,43.0,17.1,,,35%,38.0,,30.21,1023.2,,,,2025-02-26,2,2025,10,KIAD
2025-02-23,23,11:52,EST,NW  9,10.0,A Few Clouds,FEW250,45.0,17.1,,,33%,41.0,,30.19,1022.5,,,,2025-02-26,2,2025,11,KIAD
2025-02-23,23,12:52,EST,NW  6,10.0,A Few Clouds,FEW250,46.9,16.0,46.9,25.0,29%,45.0,,30.15,1021.3,,,,2025-02-26,2,2025,12,KIAD
2025-02-23,23,13:52,EST,N  9,10.0,A Few Clouds,FEW250,50.0,16.0,,,26%,47.0,,30.11,1020.0,,,,2025-02-26,2,2025,13,KIAD
2025-02-23,23,14:52,EST,W  8,10.0,A Few Clouds,FEW100 FEW250,50.0,15.1,,,25%,47.0,,30.09,1019.2,,,,2025-02-26,2,2025,14,KIAD
2025-02-23,23,16:52,EST,W  9,10.0,A Few Clouds,FEW100 FEW250,51.1,16.0,,,25%,,,30.07,1018.4,,,,2025-02-26,2,2025,16,KIAD
2025-02-23,23,17:52,EST,Calm,10.0,Partly Cloudy,SCT150,45.0,15.1,,,30%,,,30.07,1018.4,,,,2025-02-26,2,2025,17,KIAD
2025-02-23,23,18:52,EST,S  5,10.0,Partly Cloudy,SCT150 SCT250,43.0,15.1,52.0,39.0,32%,41.0,,30.09,1019.2,,,,2025-02-26,2,2025,18,KIAD
2025-02-23,23,19:52,EST,Calm,10.0,Mostly Cloudy,SCT150 BKN250,35.1,16.0,,,46%,,,30.11,1019.7,,,,2025-02-26,2,2025,19,KIAD
2025-02-23,23,20:52,EST,Calm,10.0,Mostly Cloudy,BKN150 BKN250,35.1,17.1,,,48%,,,30.1,1019.6,,,,2025-02-26,2,2025,20,KIAD
2025-02-23,23,21:52,EST,Calm,10.0,Mostly Cloudy,BKN150 BKN250,32.0,17.1,,,54%,,,30.11,1019.9,,,,2025-02-26,2,2025,21,KIAD
2025-02-23,23,22:52,EST,Calm,10.0,Mostly Cloudy,BKN170,33.1,18.0,,,54%,,,30.11,1019.9,,,,2025-02-26,2,2025,22,KIAD
2025-02-23,23,23:52,EST,Calm,10.0,Mostly Cloudy,BKN140,30.0,19.0,,,64%,,,30.1,1019.6,,,,2025-02-26,2,2025,23,KIAD
2025-02-24,24,00:52,EST,NW  3,10.0,Overcast,BKN120 OVC190,32.0,19.0,45.0,30.0,59%,,,30.1,1019.6,,,,2025-02-27,2,2025,0,KIAD
2025-02-24,24,01:52,EST,NE  6,10.0,Overcast,BKN120 OVC150,39.0,19.0,,,45%,35.0,,30.09,1019.2,,,,2025-02-27,2,2025,1,KIAD
2025-02-24,24,02:52,EST,NE  3,10.0,Fair,CLR,37.9,18.0,,,44%,,,30.09,1018.9,,,,2025-02-27,2,2025,2,KIAD
2025-02-24,24,03:52,EST,NE  3,10.0,Overcast,OVC120,34.0,19.0,,,54%,,,30.09,1018.9,,,,2025-02-27,2,2025,3,KIAD
2025-02-24,24,04:52,EST,NW  3,10.0,Overcast,OVC120,33.1,21.0,,,61%,,,30.09,1019.1,,,,2025-02-27,2,2025,4,KIAD
2025-02-24,24,05:52,EST,Calm,10.0,A Few Clouds,FEW110,30.0,19.0,,,64%,,,30.1,1019.3,,,,2025-02-27,2,2025,5,KIAD
2025-02-24,24,06:52,EST,Calm,10.0,A Few Clouds,FEW110,28.0,18.0,39.0,28.0,66%,,,30.1,1019.5,,,,2025-02-27,2,2025,6,KIAD
2025-02-24,24,08:52,EST,NW  3,10.0,Fair,CLR,42.1,21.0,,,43%,,,30.13,1020.5,,,,2025-02-27,2,2025,8,KIAD
2025-02-24,24,09:52,EST,Calm,10.0,A Few Clouds,FEW250,45.0,19.0,,,35%,,,30.11,1020.0,,,,2025-02-27,2,2025,9,KIAD
2025-02-24,24,10:52,EST,Vrbl  5,10.0,A Few Clouds,FEW250,48.9,19.0,,,31%,48.0,,30.1,1019.2,,,,2025-02-27,2,2025,10,KIAD
2025-02-24,24,11:52,EST,S  10,10.0,A Few Clouds,FEW250,52.0,21.9,,,31%,,,30.05,1017.6,,,,2025-02-27,2,2025,11,KIAD
2025-02-24,24,12:52,EST,SW  9,10.0,A Few Clouds,FEW250,54.0,23.0,54.0,27.0,30%,,,30.02,1016.6,,,,2025-02-27,2,2025,12,KIAD
2025-02-24,24,13:52,EST,S  13  G 20,10.0,Partly Cloudy,FEW100 SCT250,55.0,23.0,,,29%,,,29.99,1015.5,,,,2025-02-27,2,2025,13,KIAD
2025-02-24,24,14:52,EST,S  12  G 20,10.0,Mostly Cloudy,BKN250,57.0,25.0,,,29%,,,29.95,1014.3,,,,2025-02-27,2,2025,14,KIAD
2025-02-24,24,15:52,EST,S  14  G 21,10.0,Mostly Cloudy,BKN150 BKN250,57.9,24.1,,,27%,,,29.93,1013.7,,,,2025-02-27,2,2025,15,KIAD
2025-02-24,24,17:52,EST,S  6,10.0,Fair,CLR,54.0,21.9,,,29%,,,29.92,1013.2,,,,2025-02-27,2,2025,17,KIAD
2025-02-24,24,18:52,EST,S  7,10.0,Mostly Cloudy,BKN150,54.0,21.9,57.9,53.1,29%,,,29.91,1013.1,,,,2025-02-27,2,2025,18,KIAD
2025-02-24,24,19:52,EST,S  9,10.0,Mostly Cloudy,BKN150,54.0,21.9,,,29%,,,29.91,1012.8,,,,2025-02-27,2,2025,19,KIAD
2025-02-24,24,20:52,EST,S  9,10.0,Mostly Cloudy,BKN150,53.1,23.0,,,31%,,,29.9,1012.6,,,,2025-02-27,2,2025,20,KIAD
2025-02-24,24,21:52,EST,S  7,10.0,Partly Cloudy,SCT150,52.0,24.1,,,34%,,,29.91,1012.8,,,,2025-02-27,2,2025,21,KIAD
2025-02-24,24,22:52,EST,S  8,10.0,Mostly Cloudy,BKN170,51.1,24.1,,,35%,,,29.9,1012.4,,,,2025-02-27,2,2025,22,KIAD
2025-02-24,24,23:52,EST,S  9,10.0,A Few Clouds,FEW180,48.9,24.1,,,38%,45.0,,29.88,1011.8,,,,2025-02-27,2,2025,23,KIAD
2025-02-25,25,00:52,EST,S  10,10.0,Mostly Cloudy,BKN160,48.0,25.0,54.0,48.0,41%,44.0,,29.87,1011.4,,,,2025-02-28,2,2025,0,KIAD
2025-02-25,25,01:52,EST,S  7,10.0,A Few Clouds,FEW160,45.0,25.0,,,46%,42.0,,29.86,1011.1,,,,2025-02-28,2,2025,1,KIAD
2025-02-25,25,02:52,EST,Calm,10.0,A Few Clouds,FEW160,42.1,25.0,,,51%,,,29.84,1010.6,,,,2025-02-28,2,2025,2,KIAD
2025-02-25,25,03:52,EST,S  3,10.0,A Few Clouds,FEW160,43.0,25.0,,,49%,,,29.83,1010.2,,,,2025-02-28,2,2025,3,KIAD
2025-02-25,25,04:52,EST,S  7,10.0,A Few Clouds,FEW160,44.1,26.1,,,49%,41.0,,29.83,1010.3,,,,2025-02-28,2,2025,4,KIAD
2025-02-25,25,05:52,EST,Calm,10.0,Partly Cloudy,SCT230,43.0,26.1,,,51%,,,29.83,1010.0,,,,2025-02-28,2,2025,5,KIAD
2025-02-25,25,06:52,EST,SE  3,10.0,Partly Cloudy,SCT220,36.0,25.0,48.9,36.0,64%,,,29.81,1009.6,,,,2025-02-28,2,2025,6,KIAD
2025-02-25,25,07:52,EST,Calm,10.0,Mostly Cloudy,BKN250,45.0,28.9,,,54%,,,29.82,1009.9,,,,2025-02-28,2,2025,7,KIAD
2025-02-25,25,08:52,EST,S  6,10.0,Mostly Cloudy,BKN090 BKN250,48.9,28.0,,,44%,47.0,,29.82,1009.8,,,,2025-02-28,2,2025,8,KIAD
2025-02-25,25,09:52,EST,SE  5,10.0,Mostly Cloudy,SCT100 BKN250,51.1,28.9,,,43%,,,29.81,1009.6,,,,2025-02-28,2,2025,9,KIAD
2025-02-25,25,10:52,EST,S  7,10.0,Overcast,BKN120 OVC250,55.0,30.0,,,38%,,,29.78,1008.4,,,,2025-02-28,2,2025,10,KIAD
2025-02-25,25,11:52,EST,S  7,10.0,Mostly Cloudy,SCT080 BKN120 BKN220,57.0,30.0,,,36%,,,29.75,1007.5,,,,2025-02-28,2,2025,11,KIAD
2025-02-25,25,12:52,EST,SW  6,10.0,Mostly Cloudy,BKN070 BKN085,57.9,30.9,57.9,35.1,36%,,,29.76,1007.6,,,,2025-02-28,2,2025,12,KIAD
2025-02-25,25,13:52,EST,Calm,10.0,Partly Cloudy,FEW080 SCT150 SCT250,63.0,30.9,,,30%,,,29.74,1006.9,,,,2025-02-28,2,2025,13,KIAD
2025-02-25,25,14:52,EST,NW  12,10.0,A Few Clouds,FEW080 FEW140,66.0,30.9,,,27%,,,29.72,1006.5,,,,2025-02-28,2,2025,14,KIAD
2025-02-25,25,15:52,EST,NW  10,10.0,A Few Clouds,FEW080,66.0,32.0,,,28%,,,29.72,1006.3,,,,2025-02-28,2,2025,15,KIAD
2025-02-25,25,16:52,EST,W  10  G 20,10.0,A Few Clouds,FEW080,64.0,33.1,,,32%,,,29.74,1007.0,,,,2025-02-28,2,2025,16,KIAD
2025-02-25,25,17:52,EST,NW  9,10.0,A Few Clouds,FEW100,61.0,30.9,,,32%,,,29.76,1007.6,,,,2025-02-28,2,2025,17,KIAD
2025-02-25,25,18:52,EST,NW  7,10.0,A Few Clouds,FEW100,57.0,32.0,66.9,57.0,39%,,,29.78,1008.6,,,,2025-02-28,2,2025,18,KIAD
2025-02-25,25,19:52,EST,Calm,10.0,A Few Clouds,FEW100,46.9,30.9,,,54%,,,29.81,1009.6,,,,2025-02-28,2,2025,19,KIAD
2025-02-25,25,20:52,EST,NW  5,10.0,A Few Clouds,FEW100,48.9,32.0,,,52%,48.0,,29.83,1010.0,,,,2025-02-28,2,2025,20,KIAD
2025-02-25,25,21:52,EST,NW  6,10.0,A Few Clouds,FEW200,52.0,33.1,,,49%,,,29.84,1010.4,,,,2025-02-28,2,2025,21,KIAD
2025-02-25,25,22:52,EST,SE  5,10.0,A Few Clouds,FEW070,42.1,32.0,,,68%,40.0,,29.84,1010.4,,,,2025-02-28,2,2025,22,KIAD
2025-02-25,25,23:52,EST,Calm,10.0,A Few Clouds,FEW070,39.0,30.9,,,73%,,,29.84,1010.4,,,,2025-03-01,2,2025,23,KIAD
2025-02-26,26,00:52,EST,Calm,10.0,A Few Clouds,FEW065,41.0,32.0,57.0,36.0,70%,,,29.85,1010.9,,,,2025-03-01,2,2025,0,KIAD
2025-02-26,26,01:52,EST,Calm,10.0,A Few Clouds,FEW065,37.0,30.0,,,76%,,,29.86,1011.1,,,,2025-03-01,2,2025,1,KIAD
2025-02-26,26,02:52,EST,Calm,10.0,Fair,CLR,36.0,30.0,,,79%,,,29.86,1011.2,,,,2025-03-01,2,2025,2,KIAD
2025-02-26,26,03:52,EST,N  5,10.0,Fair,CLR,34.0,28.9,,,82%,30.0,,29.87,1011.4,,,,2025-03-01,2,2025,3,KIAD
2025-02-26,26,04:52,EST,Calm,10.0,Fair,CLR,34.0,30.0,,,85%,,,29.88,1011.9,,,,2025-03-01,2,2025,4,KIAD
2025-02-26,26,05:52,EST,N  9,10.0,Fair,CLR,37.0,30.9,,,79%,31.0,,29.9,1012.6,,,,2025-03-01,2,2025,5,KIAD
2025-02-26,26,06:52,EST,SW  3,10.0,Fair,CLR,36.0,30.9,41.0,32.0,82%,,,29.92,1013.4,,,,2025-03-01,2,2025,6,KIAD
2025-02-26,26,07:52,EST,S  5,10.0,A Few Clouds,FEW250,39.9,34.0,,,79%,37.0,,29.95,1014.4,,,,2025-03-01,2,2025,7,KIAD
2025-02-26,26,08:52,EST,Vrbl  6,10.0,A Few Clouds,FEW250,50.0,37.0,,,61%,48.0,,29.98,1015.2,,,,2025-03-01,2,2025,8,KIAD
2025-02-26,26,09:52,EST,Calm,10.0,A Few Clouds,FEW250,55.9,39.0,,,53%,,,29.99,1015.7,,,,2025-03-01,2,2025,9,KIAD
2025-02-26,26,10:52,EST,W  10,10.0,Partly Cloudy,SCT250,59.0,36.0,,,42%,,,29.99,1015.6,,,,2025-03-01,2,2025,10,KIAD
2025-02-26,26,11:52,EST,SW  8,10.0,Mostly Cloudy,FEW050 BKN250,61.0,32.0,,,34%,,,29.98,1015.2,,,,2025-03-01,2,2025,11,KIAD
2025-02-26,26,12:52,EST,SW  6,10.0,Partly Cloudy,FEW060 FEW120 SCT250,63.0,35.1,63.0,34.0,35%,,,29.96,1014.5,,,,2025-03-01,2,2025,12,KIAD
2025-02-26,26,13:52,EST,Vrbl  6,10.0,A Few Clouds,FEW060 FEW250,64.0,33.1,,,32%,,,29.93,1013.5,,,,2025-03-01,2,2025,13,KIAD
2025-02-26,26,14:52,EST,S  7,10.0,Mostly Cloudy,FEW070 SCT150 BKN250,64.9,32.0,,,29%,,,29.93,1013.4,,,,2025-03-01,2,2025,14,KIAD
2025-02-26,26,15:52,EST,SW  9,10.0,Mostly Cloudy,FEW070 SCT150 BKN250,64.9,32.0,,,29%,,,29.92,1013.0,,,,2025-03-01,2,2025,15,KIAD
2025-02-26,26,16:52,EST,S  12,10.0,Mostly Cloudy,FEW100 BKN200,64.0,33.1,,,32%,,,29.91,1012.8,,,,2025-03-01,2,2025,16,KIAD
2025-02-26,26,17:52,EST,S  7,10.0,Partly Cloudy,FEW150 SCT250,62.1,33.1,,,34%,,,29.9,1012.4,,,,2025-03-01,2,2025,17,KIAD
2025-02-26,26,18:52,EST,SE  7,10.0,Fair,CLR,57.9,32.0,66.0,57.0,38%,,,29.91,1012.8,,,,2025-03-01,2,2025,18,KIAD
2025-02-26,26,19:52,EST,SE  10,10.0,A Few Clouds,FEW200,57.9,33.1,,,39%,,,29.9,1012.4,,,,2025-03-01,2,2025,19,KIAD
2025-02-26,26,20:52,EST,SE  8,10.0,A Few Clouds,FEW200,55.9,33.1,,,42%,,,29.89,1012.3,,,,2025-03-01,2,2025,20,KIAD
2025-02-26,26,21:52,EST,SE  5,10.0,Mostly Cloudy,BKN250,54.0,34.0,,,47%,,,29.91,1012.7,,,,2025-03-01,2,2025,21,KIAD
2025-02-26,26,22:52,EST,E  5,10.0,Mostly Cloudy,BKN240,52.0,36.0,,,55%,,,29.92,1013.0,,,,2025-03-01,2,2025,22,KIAD
2025-02-26,26,23:52,EST,E  6,10.0,Mostly Cloudy,BKN180,46.9,36.0,,,66%,45.0,,29.89,1012.3,,,,2025-03-01,2,2025,23,KIAD
2025-02-27,27,00:52,EST,SE  7,10.0,Overcast,OVC180,46.9,36.0,57.9,46.0,66%,44.0,,29.86,1011.0,,,,2025-03-02,2,2025,0,KIAD
2025-02-27,27,01:52,EST,SE  7,10.0,A Few Clouds,FEW180,50.0,36.0,,,59%,48.0,,29.83,1010.0,,,,2025-03-02,2,2025,1,KIAD
2025-02-27,27,02:52,EST,S  7,10.0,Fair,CLR,50.0,37.4,,,62%,48.0,,29.79,1008.8,,,,2025-03-02,2,2025,2,KIAD
2025-02-27,27,03:52,EST,S  12,10.0,Mostly Cloudy,BKN180,50.0,37.0,,,61%,46.0,,29.76,1007.7,,,,2025-03-02,2,2025,3,KIAD
2025-02-27,27,04:52,EST,S  6,10.0,Overcast,OVC130,52.0,37.0,,,57%,,,29.75,1007.3,,,,2025-03-02,2,2025,4,KIAD
2025-02-27,27,05:52,EST,W  3,10.0,Overcast,OVC110,52.0,37.0,,,57%,,,29.75,1007.2,,,,2025-03-02,2,2025,5,KIAD
2025-02-27,27,06:52,EST,Calm,10.0,Mostly Cloudy,FEW050 SCT095 BKN120,48.9,37.0,52.0,48.9,64%,,,29.76,1007.6,,,,2025-03-02,2,2025,6,KIAD
2025-02-27,27,07:52,EST,NW  3,6.0,Overcast with Haze,BKN080 OVC110,48.0,37.0,,,66%,,,29.76,1007.6,,,,2025-03-02,2,2025,7,KIAD
2025-02-27,27,08:52,EST,NW  5,10.0,Overcast,BKN080 OVC100,48.9,39.0,,,69%,48.0,,29.75,1007.4,,,,2025-03-02,2,2025,8,KIAD
2025-02-27,27,09:52,EST,Calm,10.0,Overcast,SCT070 OVC090,52.0,41.0,,,66%,,,29.73,1006.7,,,,2025-03-02,2,2025,9,KIAD
2025-02-27,27,10:52,EST,Calm,10.0,Overcast,OVC090,54.0,41.0,,,62%,,,29.72,1006.4,,,,2025-03-02,2,2025,10,KIAD
2025-02-27,27,11:52,EST,SW  7,10.0,Overcast,BKN075 OVC110,57.0,37.9,,,49%,,,29.69,1005.3,,,,2025-03-02,2,2025,11,KIAD
2025-02-27,27,12:52,EST,W  8,10.0,Overcast,BKN075 BKN090 OVC140,61.0,39.0,61.0,46.9,44%,,,29.67,1004.6,,,,2025-03-02,2,2025,12,KIAD
2025-02-27,27,13:52,EST,Calm,10.0,Overcast,BKN075 BKN090 OVC130,59.0,37.9,,,46%,,,29.64,1003.5,,,,2025-03-02,2,2025,13,KIAD
2025-02-27,27,14:52,EST,Calm,10.0,Mostly Cloudy,SCT070 SCT095 BKN130 BKN250,60.1,39.0,,,46%,,,29.62,1003.0,,,,2025-03-02,2,2025,14,KIAD
2025-02-27,27,15:52,EST,NW  8,10.0,Mostly Cloudy,BKN070 BKN090 BKN140 BKN250,62.1,39.0,,,43%,,,29.64,1003.4,,,,2025-03-02,2,2025,15,KIAD
2025-02-27,27,16:52,EST,NW  17  G 26,10.0,Mostly Cloudy,SCT085 BKN140 BKN190 BKN250,62.1,36.0,,,38%,,,29.64,1003.5,,,,2025-03-02,2,2025,16,KIAD
2025-02-27,27,17:52,EST,NW  23  G 35,10.0,Mostly Cloudy and Breezy,BKN075TCU BKN140 BKN250,57.9,35.1,,,42%,,,29.68,1004.9,,,,2025-03-02,2,2025,17,KIAD
2025-02-27,27,18:52,EST,NW  20  G 30,10.0,Partly Cloudy,FEW080 SCT140 SCT250,54.0,33.1,64.0,54.0,45%,,,29.72,1006.2,,,,2025-03-02,2,2025,18,KIAD
2025-02-27,27,19:52,EST,NW  18  G 29,10.0,A Few Clouds,FEW080 FEW250,53.1,32.0,,,45%,,,29.72,1006.4,,,,2025-03-02,2,2025,19,KIAD
2025-02-27,27,20:52,EST,NW  12,10.0,A Few Clouds,FEW250,48.9,32.0,,,52%,45.0,,29.73,1006.8,,,,2025-03-02,2,2025,20,KIAD
2025-02-27,27,21:52,EST,W  3,10.0,Mostly Cloudy,BKN190,48.9,30.0,,,48%,,,29.75,1007.3,,,,2025-03-02,2,2025,21,KIAD
2025-02-27,27,22:52,EST,Calm,10.0,A Few Clouds,FEW200,42.1,30.0,,,62%,,,29.74,1006.9,,,,2025-03-02,2,2025,22,KIAD
2025-02-27,27,23:52,EST,W  7,10.0,Fair,CLR,45.0,30.0,,,56%,42.0,,29.72,1006.3,,,,2025-03-02,2,2025,23,KIAD
2025-02-28,28,00:52,EST,Calm,10.0,A Few Clouds,FEW200,39.9,28.9,55.0,37.9,65%,,,29.73,1006.5,,,,2025-03-03,2,2025,0,KIAD
2025-02-28,28,01:52,EST,W  5,10.0,Partly Cloudy,SCT055,45.0,30.0,,,56%,43.0,,29.73,1006.7,,,,2025-03-03,2,2025,1,KIAD
2025-02-28,28,02:52,EST,W  15  G 26,10.0,A Few Clouds,FEW045,46.0,32.0,,,58%,40.0,,29.74,1007.2,,,,2025-03-03,2,2025,2,KIAD
2025-02-28,28,03:52,EST,W  7,10.0,Overcast,OVC039,46.0,32.0,,,58%,43.0,,29.76,1007.6,,,,2025-03-03,2,2025,3,KIAD
2025-02-28,28,04:52,EST,NW  16  G 23,10.0,A Few Clouds,FEW043 FEW055,45.0,28.9,,,54%,38.0,,29.78,1008.5,,,,2025-03-03,2,2025,4,KIAD
2025-02-28,28,05:52,EST,NW  13  G 24,10.0,A Few Clouds,FEW050,43.0,26.1,,,51%,37.0,,29.81,1009.5,,,,2025-03-03,2,2025,5,KIAD
2025-02-28,28,06:52,EST,W  14,10.0,A Few Clouds,FEW050,42.1,24.1,46.9,39.0,49%,35.0,,29.83,1010.1,,,,2025-03-03,2,2025,6,KIAD
2025-02-28,28,07:52,EST,NW  18  G 25,10.0,Mostly Cloudy,BKN055,43.0,27.0,,,53%,35.0,,29.86,1011.1,,,,2025-03-03,2,2025,7,KIAD
2025-02-28,28,08:52,EST,NW  21  G 30,10.0,Mostly Cloudy and Breezy,BKN060,44.1,24.1,,,45%,36.0,,29.89,1012.2,,,,2025-03-03,2,2025,8,KIAD
2025-02-28,28,09:52,EST,NW  18  G 29,10.0,Partly Cloudy,SCT055,48.0,23.0,,,37%,42.0,,29.9,1012.5,,,,2025-03-03,2,2025,9,KIAD
2025-02-28,28,10:52,EST,W  10  G 24,10.0,Partly Cloudy,SCT055,48.0,23.0,,,37%,44.0,,29.89,1012.3,,,,2025-03-03,2,2025,10,KIAD
2025-02-28,28,11:52,EST,W  14  G 23,10.0,Mostly Cloudy,BKN060,51.1,23.0,,,33%,,,29.87,1011.5,,,,2025-03-03,2,2025,11,KIAD
2025-02-28,28,12:52,EST,W  9  G 21,10.0,Partly Cloudy,FEW065 SCT250,52.0,21.0,53.1,42.1,30%,,,29.84,1010.5,,,,2025-03-03,2,2025,12,KIAD
2025-02-28,28,13:52,EST,W  10  G 21,10.0,Partly Cloudy,FEW065 SCT250,54.0,21.9,,,29%,,,29.81,1009.3,,,,2025-03-03,2,2025,13,KIAD
2025-02-28,28,14:52,EST,SW  13  G 20,10.0,Partly Cloudy,FEW065 SCT250,55.0,21.9,,,28%,,,29.78,1008.5,,,,2025-03-03,2,2025,14,KIAD
2025-02-28,28,15:52,EST,SW  13,10.0,Partly Cloudy,FEW065 SCT250,55.0,21.0,,,26%,,,29.75,1007.4,,,,2025-03-03,2,2025,15,KIAD
2025-02-28,28,16:52,EST,S  13  G 21,10.0,A Few Clouds,FEW150 FEW250,55.0,21.0,,,26%,,,29.73,1006.7,,,,2025-03-03,2,2025,16,KIAD
2025-02-28,28,17:52,EST,S  10,10.0,A Few Clouds,FEW150 FEW250,53.1,21.0,,,28%,,,29.72,1006.5,,,,2025-03-03,2,2025,17,KIAD
2025-02-28,28,18:52,EST,S  9,10.0,A Few Clouds,FEW250,51.1,21.9,55.9,50.0,32%,,,29.72,1006.4,,,,2025-03-03,2,2025,18,KIAD
2025-02-28,28,19:52,EST,S  9  G 21,10.0,Fair,CLR,51.1,21.0,,,31%,,,29.7,1005.8,,,,2025-03-03,2,2025,19,KIAD
2025-02-28,28,20:52,EST,S  9,10.0,Fair,CLR,50.0,19.9,,,30%,47.0,,29.69,1005.4,,,,2025-03-03,2,2025,20,KIAD
2025-02-28,28,21:52,EST,S  8,10.0,Fair,CLR,48.9,19.9,,,32%,46.0,,29.68,1005.1,,,,2025-03-03,2,2025,21,KIAD
2025-02-28,28,22:52,EST,S  8,10.0,Fair,CLR,48.0,21.0,,,34%,45.0,,29.68,1004.8,,,,2025-03-03,2,2025,22,KIAD
2025-02-28,28,23:52,EST,S  14,10.0,Fair,CLR,48.0,21.9,,,36%,43.0,,29.65,1003.8,,,,2025-03-03,2,2025,23,KIAD
2025-03-01,1,00:52,EST,S  13,10.0,Fair,CLR,48.0,23.0,52.0,48.0,37%,43.0,,29.62,1003.1,,,,2025-03-04,3,2025,0,KIAD
2025-03-01,1,01:52,EST,S  13,10.0,Fair,CLR,46.9,24.1,,,41%,42.0,,29.6,1002.3,,,,2025-03-04,3,2025,1,KIAD
2025-03-01,1,02:52,EST,S  14,10.0,A Few Clouds,FEW250,46.9,25.0,,,42%,42.0,,29.57,1001.4,,,,2025-03-04,3,2025,2,KIAD
2025-03-01,1,03:52,EST,S  13,10.0,A Few Clouds,FEW250,46.9,25.0,,,42%,42.0,,29.56,1001.0,,,,2025-03-04,3,2025,3,KIAD
2025-03-01,1,04:52,EST,S  12,10.0,Mostly Cloudy,BKN250,46.0,25.0,,,44%,41.0,,29.55,1000.5,,,,2025-03-04,3,2025,4,KIAD
2025-03-01,1,05:52,EST,S  13,10.0,Partly Cloudy,FEW140 SCT250,45.0,25.0,,,46%,39.0,,29.54,1000.4,,,,2025-03-04,3,2025,5,KIAD
2025-03-01,1,06:52,EST,S  9,10.0,Mostly Cloudy,FEW140 BKN250,45.0,25.0,48.0,45.0,46%,41.0,,29.54,1000.4,,,,2025-03-04,3,2025,6,KIAD
2025-03-01,1,07:52,EST,S  10,10.0,Mostly Cloudy,FEW140 BKN250,46.9,26.1,,,44%,43.0,,29.55,1000.6,,,,2025-03-04,3,2025,7,KIAD
2025-03-01,1,08:52,EST,S  14,10.0,Mostly Cloudy,FEW050 BKN180 BKN250,52.0,27.0,,,38%,,,29.56,1000.8,,,,2025-03-04,3,2025,8,KIAD
2025-03-01,1,09:52,EST,SW  13,10.0,Mostly Cloudy,FEW050 BKN180 BKN250,59.0,28.9,,,32%,,,29.54,1000.3,,,,2025-03-04,3,2025,9,KIAD
2025-03-01,1,10:52,EST,W  22  G 30,10.0,Mostly Cloudy and Breezy,SCT080 BKN190,60.1,28.9,,,31%,,,29.54,1000.3,,,,2025-03-04,3,2025,10,KIAD
2025-03-01,1,11:52,EST,NW  26  G 43,10.0,Mostly Cloudy and Windy,FEW050 SCT085 BKN180 BKN250,61.0,25.0,,,25%,,,29.56,1000.7,,,,2025-03-04,3,2025,11,KIAD
2025-03-01,1,12:52,EST,W  26  G 40,10.0,Partly Cloudy and Windy,FEW050 SCT085,60.1,24.1,64.0,45.0,25%,,,29.57,1001.3,,,,2025-03-04,3,2025,12,KIAD
2025-03-01,1,13:52,EST,NW  29  G 44,10.0,Partly Cloudy and Windy,FEW050 FEW085 SCT250,57.9,23.0,,,26%,,,29.57,1001.4,,,,2025-03-04,3,2025,13,KIAD
2025-03-01,1,14:52,EST,NW  28  G 38,10.0,Mostly Cloudy and Windy,FEW085 SCT110 BKN250,55.0,24.1,,,30%,,,29.61,1002.7,,,,2025-03-04,3,2025,14,KIAD
2025-03-01,1,15:52,EST,NW  29  G 45,10.0,Mostly Cloudy and Windy,SCT085 SCT120 BKN250,52.0,19.9,,,28%,,,29.66,1004.2,,,,2025-03-04,3,2025,15,KIAD
2025-03-01,1,16:52,EST,NW  28  G 38,10.0,Mostly Cloudy and Windy,BKN110 BKN250,46.9,19.0,,,33%,39.0,,29.7,1006.0,,,,2025-03-04,3,2025,16,KIAD
2025-03-01,1,17:52,EST,N  23  G 36,10.0,Mostly Cloudy and Breezy,BKN100 BKN250,41.0,19.9,,,43%,32.0,,29.76,1007.8,,,,2025-03-04,3,2025,17,KIAD
2025-03-01,1,18:52,EST,NW  31  G 44,10.0,A Few Clouds and Windy,FEW110 FEW250,37.9,17.1,60.1,37.9,43%,26.0,,29.81,1009.6,,,,2025-03-04,3,2025,18,KIAD
2025-03-01,1,19:52,EST,NW  21  G 32,10.0,A Few Clouds and Breezy,FEW110,35.1,15.1,,,44%,25.0,,29.88,1011.8,,,,2025-03-04,3,2025,19,KIAD
2025-03-01,1,20:52,EST,NW  23  G 39,10.0,Fair and Breezy,CLR,33.1,12.0,,,42%,21.0,,29.9,1012.5,,,,2025-03-04,3,2025,20,KIAD
2025-03-01,1,21:52,EST,NW  18  G 31,10.0,Fair,CLR,30.9,10.0,,,42%,20.0,,29.94,1013.9,,,,2025-03-04,3,2025,21,KIAD
2025-03-01,1,22:52,EST,NW  22  G 35,10.0,Fair and Breezy,CLR,30.0,9.0,,,41%,18.0,,29.96,1014.5,,,,2025-03-04,3,2025,22,KIAD
2025-03-01,1,23:52,EST,NW  22  G 37,10.0,Fair and Breezy,CLR,28.0,7.0,,,41%,15.0,,30.0,1016.0,,,,2025-03-04,3,2025,23,KIAD
2025-03-02,2,00:52,EST,N  13,10.0,Fair,CLR,26.1,5.0,37.9,26.1,40%,16.0,,30.05,1017.7,,,,2025-03-05,3,2025,0,KIAD
2025-03-02,2,01:52,EST,NW  16  G 24,10.0,A Few Clouds,FEW050,25.0,3.0,,,39%,13.0,,30.08,1018.6,,,,2025-03-05,3,2025,1,KIAD
2025-03-02,2,02:52,EST,NW  13,10.0,Fair,CLR,23.0,3.0,,,42%,12.0,,30.1,1019.4,,,,2025-03-05,3,2025,2,KIAD
2025-03-02,2,03:52,EST,N  18  G 24,10.0,A Few Clouds,FEW250,23.0,1.9,,,40%,10.0,,30.12,1020.1,,,,2025-03-05,3,2025,3,KIAD
2025-03-02,2,04:52,EST,NW  18  G 26,10.0,A Few Clouds,FEW250,21.9,1.9,,,42%,8.0,,30.15,1021.1,,,,2025-03-05,3,2025,4,KIAD
2025-03-02,2,05:52,EST,NW  17  G 25,10.0,Fair,CLR,21.0,1.9,,,43%,8.0,,30.17,1021.8,,,,2025-03-05,3,2025,5,KIAD
2025-03-02,2,06:52,EST,NW  14  G 21,10.0,A Few Clouds,FEW050,21.0,1.9,26.1,21.0,43%,9.0,,30.18,1022.3,,,,2025-03-05,3,2025,6,KIAD
2025-03-02,2,07:52,EST,NW  12,10.0,Fair,CLR,23.0,3.0,,,42%,13.0,,30.2,1023.1,,,,2025-03-05,3,2025,7,KIAD
2025-03-02,2,08:52,EST,NW  15  G 26,10.0,Fair,CLR,26.1,3.9,,,38%,15.0,,30.22,1023.8,,,,2025-03-05,3,2025,8,KIAD
2025-03-02,2,09:52,EST,N  13  G 24,10.0,Fair,CLR,28.0,5.0,,,37%,18.0,,30.23,1024.0,,,,2025-03-05,3,2025,9,KIAD
2025-03-02,2,10:52,EST,NW  13  G 22,10.0,Fair,CLR,30.9,5.0,,,33%,22.0,,30.22,1023.8,,,,2025-03-05,3,2025,10,KIAD
2025-03-02,2,11:52,EST,NW  14,10.0,A Few Clouds,FEW120,33.1,6.1,,,32%,24.0,,30.21,1023.3,,,,2025-03-05,3,2025,11,KIAD
2025-03-02,2,12:52,EST,NW  12  G 20,10.0,Mostly Cloudy,SCT120 BKN250,35.1,7.0,36.0,21.0,31%,28.0,,30.19,1022.5,,,,2025-03-05,3,2025,12,KIAD
2025-03-02,2,13:52,EST,NW  7,10.0,Mostly Cloudy,BKN250,36.0,7.0,,,30%,31.0,,30.17,1021.9,,,,2025-03-05,3,2025,13,KIAD
2025-03-02,2,14:52,EST,NW  9  G 20,10.0,Mostly Cloudy,BKN250,37.9,7.0,,,27%,32.0,,30.15,1021.2,,,,2025-03-05,3,2025,14,KIAD
2025-03-02,2,15:52,EST,NW  10,10.0,A Few Clouds,FEW250,39.0,6.1,,,25%,33.0,,30.14,1021.1,,,,2025-03-05,3,2025,15,KIAD
2025-03-02,2,16:52,EST,NW  8,10.0,A Few Clouds,FEW250,37.9,6.1,,,26%,33.0,,30.14,1020.9,,,,2025-03-05,3,2025,16,KIAD
2025-03-02,2,17:52,EST,NW  8,10.0,Partly Cloudy,SCT250,37.0,6.1,,,27%,32.0,,30.14,1021.0,,,,2025-03-05,3,2025,17,KIAD
2025-03-02,2,18:52,EST,N  6,10.0,Fair,CLR,35.1,7.0,39.9,34.0,31%,31.0,,30.16,1021.5,,,,2025-03-05,3,2025,18,KIAD
2025-03-02,2,19:52,EST,N  5,10.0,Fair,CLR,34.0,7.0,,,32%,30.0,,30.17,1021.9,,,,2025-03-05,3,2025,19,KIAD
2025-03-02,2,20:52,EST,N  9,10.0,Fair,CLR,34.0,8.1,,,34%,27.0,,30.2,1022.8,,,,2025-03-05,3,2025,20,KIAD
2025-03-02,2,21:52,EST,N  9,10.0,Fair,CLR,33.1,9.0,,,36%,26.0,,30.22,1023.7,,,,2025-03-05,3,2025,21,KIAD
2025-03-02,2,22:52,EST,N  6,10.0,Fair,CLR,32.0,9.0,,,38%,27.0,,30.23,1024.0,,,,2025-03-05,3,2025,22,KIAD
2025-03-02,2,23:52,EST,NE  5,10.0,Fair,CLR,28.0,9.0,,,44%,24.0,,30.23,1024.1,,,,2025-03-05,3,2025,23,KIAD
2025-03-03,3,00:52,EST,Calm,10.0,Fair,CLR,23.0,10.0,35.1,23.0,57%,,,30.24,1024.2,,,,2025-03-06,3,2025,0,KIAD
2025-03-03,3,01:52,EST,Calm,10.0,Fair,CLR,23.0,10.9,,,60%,,,30.25,1024.6,,,,2025-03-06,3,2025,1,KIAD
2025-03-03,3,02:52,EST,Calm,10.0,Mostly Cloudy,BKN140,23.0,12.9,,,65%,,,30.25,1024.8,,,,2025-03-06,3,2025,2,KIAD
2025-03-03,3,03:52,EST,Calm,10.0,Mostly Cloudy,BKN120,24.1,12.0,,,60%,,,30.26,1025.1,,,,2025-03-06,3,2025,3,KIAD
2025-03-03,3,04:52,EST,W  3,10.0,Overcast,OVC120,21.9,10.9,,,63%,,,30.28,1025.6,,,,2025-03-06,3,2025,4,KIAD
2025-03-03,3,05:52,EST,Calm,10.0,Mostly Cloudy,BKN110,21.9,12.0,,,66%,,,30.29,1025.9,,,,2025-03-06,3,2025,5,KIAD
2025-03-03,3,06:52,EST,Calm,10.0,Overcast,OVC100,23.0,12.0,26.1,19.9,63%,,,30.3,1026.2,,,,2025-03-06,3,2025,6,KIAD
2025-03-03,3,07:52,EST,NW  7,10.0,Mostly Cloudy,BKN100,28.0,14.0,,,56%,22.0,,30.31,1026.7,,,,2025-03-06,3,2025,7,KIAD
2025-03-03,3,08:52,EST,N  10,10.0,A Few Clouds,FEW100,32.0,10.9,,,41%,24.0,,30.32,1027.2,,,,2025-03-06,3,2025,8,KIAD
2025-03-03,3,09:52,EST,NE  6,10.0,Fair,CLR,34.0,12.0,,,40%,29.0,,30.33,1027.3,,,,2025-03-06,3,2025,9,KIAD
2025-03-03,3,10:52,EST,Calm,10.0,A Few Clouds,FEW200,36.0,12.0,,,37%,,,30.33,1027.1,,,,2025-03-06,3,2025,10,KIAD
2025-03-03,3,11:52,EST,Vrbl  7,10.0,A Few Clouds,FEW250,39.0,12.9,,,34%,35.0,,30.32,1026.8,,,,2025-03-06,3,2025,11,KIAD
2025-03-03,3,12:52,EST,NW  7,10.0,A Few Clouds,FEW250,39.9,12.9,41.0,21.9,33%,36.0,,30.29,1025.9,,,,2025-03-06,3,2025,12,KIAD
2025-03-03,3,13:52,EST,Vrbl  5,10.0,A Few Clouds,FEW250,43.0,12.0,,,28%,41.0,,30.25,1024.8,,,,2025-03-06,3,2025,13,KIAD
2025-03-03,3,14:52,EST,Vrbl  3,10.0,A Few Clouds,FEW250,44.1,12.0,,,27%,,,30.24,1024.2,,,,2025-03-06,3,2025,14,KIAD
2025-03-03,3,15:52,EST,Vrbl  5,10.0,A Few Clouds,FEW250,45.0,10.0,,,24%,43.0,,30.22,1023.6,,,,2025-03-06,3,2025,15,KIAD
2025-03-03,3,16:52,EST,S  6,10.0,A Few Clouds,FEW250,45.0,10.9,,,25%,42.0,,30.22,1023.4,,,,2025-03-06,3,2025,16,KIAD
2025-03-03,3,17:52,EST,S  5,10.0,A Few Clouds,FEW250,42.1,12.0,,,29%,40.0,,30.22,1023.7,,,,2025-03-06,3,2025,17,KIAD
2025-03-03,3,18:52,EST,SE  5,10.0,A Few Clouds,FEW250,39.0,12.0,46.0,39.0,33%,36.0,,30.23,1024.1,,,,2025-03-06,3,2025,18,KIAD
2025-03-03,3,19:52,EST,SE  6,10.0,Fair,CLR,37.9,12.0,,,34%,34.0,,30.24,1024.2,,,,2025-03-06,3,2025,19,KIAD
2025-03-03,3,20:52,EST,SE  6,10.0,Fair,CLR,37.0,12.9,,,37%,33.0,,30.23,1023.9,,,,2025-03-06,3,2025,20,KIAD
2025-03-03,3,21:52,EST,S  6,10.0,Fair,CLR,37.0,12.9,,,37%,33.0,,30.23,1023.9,,,,2025-03-06,3,2025,21,KIAD
2025-03-03,3,22:52,EST,S  6,10.0,Fair,CLR,36.0,16.0,,,44%,32.0,,30.23,1023.7,,,,2025-03-06,3,2025,22,KIAD
2025-03-03,3,23:52,EST,S  5,10.0,Fair,CLR,34.0,18.0,,,52%,30.0,,30.23,1023.8,,,,2025-03-06,3,2025,23,KIAD
2025-03-04,4,00:52,EST,S  5,10.0,Overcast,OVC090,34.0,19.9,39.0,32.0,56%,30.0,,30.23,1023.9,,,,2025-03-07,3,2025,0,KIAD
2025-03-04,4,01:52,EST,S  3,10.0,Overcast,OVC095,36.0,21.9,,,57%,,,30.23,1023.8,,,,2025-03-07,3,2025,1,KIAD
2025-03-04,4,02:52,EST,S  8,10.0,Overcast,OVC080,36.0,21.9,,,57%,30.0,,30.21,1023.1,,,,2025-03-07,3,2025,2,KIAD
2025-03-04,4,03:52,EST,S  6,10.0,Overcast,OVC070,37.0,21.9,,,54%,33.0,,30.21,1023.0,,,,2025-03-07,3,2025,3,KIAD
2025-03-04,4,04:52,EST,S  6,10.0,Overcast,BKN075 OVC110,37.0,21.9,,,54%,33.0,,30.19,1022.3,,,,2025-03-07,3,2025,4,KIAD
2025-03-04,4,05:52,EST,S  3,10.0,Mostly Cloudy,FEW070 BKN110,36.0,21.9,,,57%,,,30.19,1022.7,,,,2025-03-07,3,2025,5,KIAD
2025-03-04,4,06:52,EST,S  5,10.0,Mostly Cloudy,FEW070 SCT110 BKN250,34.0,21.9,37.9,34.0,61%,30.0,,30.19,1022.5,,,,2025-03-07,3,2025,6,KIAD
2025-03-04,4,07:52,EST,S  6,10.0,Mostly Cloudy,FEW070 BKN110 BKN250,39.0,24.1,,,55%,35.0,,30.21,1023.2,,,,2025-03-07,3,2025,7,KIAD
2025-03-04,4,08:52,EST,SW  9,10.0,Mostly Cloudy,SCT110 BKN250,42.1,23.0,,,47%,37.0,,30.2,1022.9,,,,2025-03-07,3,2025,8,KIAD
2025-03-04,4,09:52,EST,S  9,10.0,Mostly Cloudy,BKN080 BKN250,44.1,21.9,,,41%,40.0,,30.2,1022.8,,,,2025-03-07,3,2025,9,KIAD
2025-03-04,4,10:52,EST,S  10,10.0,Mostly Cloudy,BKN080 BKN250,48.0,23.0,,,37%,44.0,,30.19,1022.4,,,,2025-03-07,3,2025,10,KIAD
2025-03-04,4,11:52,EST,S  12,10.0,Mostly Cloudy,FEW080 BKN250,55.0,24.1,,,30%,,,30.16,1021.4,,,,2025-03-07,3,2025,11,KIAD
2025-03-04,4,12:52,EST,S  17  G 28,10.0,Mostly Cloudy,FEW080 BKN250,60.1,23.0,61.0,34.0,24%,,,30.12,1019.9,,,,2025-03-07,3,2025,12,KIAD
2025-03-04,4,13:52,EST,S  17  G 25,10.0,Mostly Cloudy,BKN180 BKN250,60.1,24.1,,,25%,,,30.09,1018.9,,,,2025-03-07,3,2025,13,KIAD
2025-03-04,4,14:52,EST,S  20  G 29,10.0,Mostly Cloudy,SCT150 BKN250,62.1,26.1,,,25%,,,30.05,1017.4,,,,2025-03-07,3,2025,14,KIAD
2025-03-04,4,15:52,EST,S  14  G 25,10.0,Mostly Cloudy,SCT150 BKN250,62.1,25.0,,,24%,,,30.04,1017.1,,,,2025-03-07,3,2025,15,KIAD
2025-03-04,4,16:52,EST,S  14  G 23,10.0,Partly Cloudy,FEW150 SCT250,62.1,26.1,,,25%,,,30.03,1016.9,,,,2025-03-07,3,2025,16,KIAD
2025-03-04,4,17:52,EST,S  12,10.0,A Few Clouds,FEW140 FEW200,60.1,25.0,,,26%,,,30.02,1016.4,,,,2025-03-07,3,2025,17,KIAD
2025-03-04,4,18:52,EST,S  8,10.0,A Few Clouds,FEW140,59.0,24.1,64.0,57.9,26%,,,30.01,1016.4,,,,2025-03-07,3,2025,18,KIAD
2025-03-04,4,19:52,EST,S  10,10.0,Fair,CLR,57.0,25.0,,,29%,,,29.99,1015.4,,,,2025-03-07,3,2025,19,KIAD
2025-03-04,4,20:52,EST,S  9,10.0,Fair,CLR,57.9,30.9,,,36%,,,29.98,1015.1,,,,2025-03-07,3,2025,20,KIAD
2025-03-04,4,21:52,EST,S  10  G 18,10.0,A Few Clouds,FEW140,57.0,34.0,,,42%,,,29.95,1014.2,,,,2025-03-07,3,2025,21,KIAD
2025-03-04,4,22:52,EST,S  8,10.0,Mostly Cloudy,BKN060,57.0,37.0,,,47%,,,29.94,1013.7,,,,2025-03-07,3,2025,22,KIAD
2025-03-04,4,23:52,EST,S  10  G 22,10.0,Overcast,OVC070,57.0,41.0,,,55%,,,29.92,1013.1,,,,2025-03-08,3,2025,23,KIAD
2025-03-05,5,00:52,EST,S  10,10.0,Overcast,BKN055 OVC070,57.0,42.1,59.0,55.9,58%,,,29.89,1012.0,,,,2025-03-08,3,2025,0,KIAD
2025-03-05,5,01:52,EST,S  12,10.0,Overcast,OVC048,57.0,44.1,,,62%,,,29.85,1010.7,,,,2025-03-08,3,2025,1,KIAD
2025-03-05,5,02:52,EST,S  16  G 24,10.0,Overcast,BKN030 OVC049,57.9,46.9,,,67%,,,29.82,1009.7,,,,2025-03-08,3,2025,2,KIAD
2025-03-05,5,03:52,EST,S  14  G 26,10.0,Overcast,OVC029,57.9,46.9,,,67%,,,29.8,1009.0,,,,2025-03-08,3,2025,3,KIAD
2025-03-05,5,04:52,EST,S  14  G 26,10.0,Overcast,BKN037 OVC060,57.9,48.0,,,70%,,,29.78,1008.3,,,,2025-03-08,3,2025,4,KIAD
2025-03-05,5,05:52,EST,S  14  G 28,10.0,Overcast,BKN028 BKN060 OVC170,57.9,48.0,,,70%,,,29.76,1007.8,,,,2025-03-08,3,2025,5,KIAD
2025-03-05,5,07:52,EST,SE  15  G 25,10.0,Mostly Cloudy,FEW040 BKN048 BKN080,57.9,48.9,,,72%,,,29.7,1005.7,,,,2025-03-08,3,2025,7,KIAD
2025-03-05,5,08:52,EST,SE  16  G 28,10.0,Overcast,SCT025 BKN030 OVC044,59.0,48.9,,,69%,,,29.65,1004.0,,,,2025-03-08,3,2025,8,KIAD
2025-03-05,5,09:52,EST,SE  21  G 36,10.0,Overcast and Breezy,BKN028 OVC040,59.0,51.1,,,75%,,,29.61,1002.5,,,,2025-03-08,3,2025,9,KIAD
2025-03-05,5,10:52,EST,SE  21  G 38,10.0,Overcast and Breezy,BKN022 OVC040,60.1,51.1,,,72%,,,29.56,1000.7,,,,2025-03-08,3,2025,10,KIAD
2025-03-05,5,11:52,EST,S  17  G 35,6.0,Light Rain,OVC024,57.9,53.1,,,84%,,,29.49,998.6,0.01,,,2025-03-08,3,2025,11,KIAD
2025-03-05,5,12:52,EST,S  15  G 25,1.5,Rain Fog/Mist,SCT015 BKN030 OVC065,57.9,55.0,60.1,57.0,90%,,,29.48,998.1,0.16,,0.17,2025-03-08,3,2025,12,KIAD
2025-03-05,5,13:52,EST,SE  14  G 25,3.0,Light Rain Fog/Mist,OVC070,59.0,55.0,,,87%,,,29.4,995.5,0.09,,,2025-03-08,3,2025,13,KIAD
2025-03-05,5,14:52,EST,SE  15  G 23,10.0,Light Rain,BKN050CB BKN090 OVC200,57.9,55.0,,,90%,,,29.34,993.5,0.09,,,2025-03-08,3,2025,14,KIAD
2025-03-05,5,15:52,EST,SE  14  G 23,10.0,Overcast,BKN025 OVC037CB,57.9,55.0,,,90%,,,29.34,993.5,,0.18,,2025-03-08,3,2025,15,KIAD
2025-03-05,5,16:52,EST,SE  14  G 24,8.0,Light Rain,FEW010 BKN020CB OVC055,57.9,55.0,,,90%,,,29.26,990.6,,,,2025-03-08,3,2025,16,KIAD
2025-03-05,5,17:52,EST,S  12  G 18,10.0,Overcast,BKN010 OVC026CB,57.9,55.0,,,90%,,,29.26,990.6,,,,2025-03-08,3,2025,17,KIAD
2025-03-05,5,18:52,EST,S  6,10.0,Overcast,OVC012,57.9,55.0,60.1,57.9,90%,,,29.27,991.1,,,0.18,2025-03-08,3,2025,18,KIAD
2025-03-05,5,19:52,EST,S  5,10.0,Overcast,BKN008 OVC014,57.9,55.0,,,90%,,,29.27,991.0,,,,2025-03-08,3,2025,19,KIAD
2025-03-05,5,20:52,EST,W  6,4.0,Heavy Rain Fog/Mist,BKN007 BKN015 OVC040,57.0,55.0,,,93%,,,29.28,991.2,0.09,,,2025-03-08,3,2025,20,KIAD
2025-03-05,5,21:52,EST,Vrbl  5,10.0,Light Rain,FEW033 OVC070,54.0,51.1,,,90%,,,29.25,990.2,0.03,0.12,,2025-03-08,3,2025,21,KIAD
2025-03-05,5,22:52,EST,W  7,10.0,Overcast,BKN090 OVC100,54.0,51.1,,,90%,,,29.26,990.5,0.01,,,2025-03-08,3,2025,22,KIAD
2025-03-05,5,23:52,EST,NW  7,10.0,Overcast,BKN038 OVC046,54.0,48.0,,,80%,,,29.27,991.0,,,,2025-03-09,3,2025,23,KIAD
2025-03-06,6,00:52,EST,NW  8,10.0,Overcast,BKN055 BKN080 OVC110,51.1,42.1,57.9,51.1,71%,,,29.3,991.9,,,0.13,2025-03-09,3,2025,0,KIAD
2025-03-06,6,01:52,EST,NW  14  G 25,10.0,Overcast,OVC060,50.0,36.0,,,59%,45.0,,29.32,992.6,,,,2025-03-09,3,2025,1,KIAD
2025-03-06,6,02:52,EDT,NW  10,10.0,A Few Clouds,FEW065 FEW110,46.0,34.0,,,63%,42.0,,29.32,992.9,,,,2025-03-09,3,2025,2,KIAD
2025-03-06,6,03:52,EDT,NW  13  G 25,10.0,Overcast,OVC100,46.0,30.9,,,56%,41.0,,29.35,993.9,,,,2025-03-09,3,2025,3,KIAD
2025-03-06,6,04:52,EDT,NW  14  G 26,10.0,Mostly Cloudy,BKN100,43.0,28.0,,,56%,37.0,,29.38,995.0,,,,2025-03-09,3,2025,4,KIAD
2025-03-06,6,05:52,EDT,NW  15,10.0,Mostly Cloudy,BKN110,42.1,27.0,,,55%,35.0,,29.41,995.8,,,,2025-03-09,3,2025,5,KIAD
2025-03-06,6,06:52,EDT,NW  14,10.0,Mostly Cloudy,FEW038 BKN110,39.9,27.0,51.1,39.9,60%,33.0,,29.43,996.7,,,,2025-03-09,3,2025,6,KIAD
2025-03-06,6,07:52,EDT,NW  20  G 30,10.0,Mostly Cloudy,BKN040 BKN110,42.1,28.0,,,58%,34.0,,29.46,997.6,,,,2025-03-09,3,2025,7,KIAD
2025-03-06,6,08:52,EDT,NW  17  G 32,10.0,Mostly Cloudy,BKN040 BKN110,44.1,28.0,,,53%,37.0,,29.48,998.2,,,,2025-03-09,3,2025,8,KIAD
2025-03-06,6,09:52,EDT,NW  24  G 36,10.0,Mostly Cloudy and Breezy,BKN045 BKN120,46.0,28.9,,,51%,38.0,,29.48,998.3,,,,2025-03-09,3,2025,9,KIAD
2025-03-06,6,10:52,EDT,NW  18  G 28,10.0,Overcast,SCT046 OVC100,44.1,27.0,,,51%,37.0,,29.5,998.8,,,,2025-03-09,3,2025,10,KIAD
2025-03-06,6,11:52,EDT,NW  22  G 32,10.0,Overcast and Breezy,OVC048,44.1,27.0,,,51%,36.0,,29.52,999.7,,,,2025-03-09,3,2025,11,KIAD
2025-03-06,6,12:52,EDT,NW  25  G 39,10.0,Overcast and Breezy,OVC048,44.1,26.1,46.0,39.9,49%,35.0,,29.53,999.9,,,,2025-03-09,3,2025,12,KIAD
2025-03-06,6,13:52,EDT,NW  22  G 36,10.0,Overcast and Breezy,OVC049,42.1,25.0,,,51%,33.0,,29.55,1000.7,,,,2025-03-09,3,2025,13,KIAD
2025-03-06,6,14:52,EDT,NW  26  G 39,10.0,Mostly Cloudy and Windy,BKN043,39.9,24.1,,,53%,30.0,,29.57,1001.4,,,,2025-03-09,3,2025,14,KIAD
2025-03-06,6,15:52,EDT,W  23  G 40,10.0,Mostly Cloudy and Breezy,BKN040,39.0,24.1,,,55%,29.0,,29.61,1002.6,,,,2025-03-09,3,2025,15,KIAD
2025-03-06,6,16:52,EDT,NW  28  G 41,10.0,Mostly Cloudy and Windy,BKN045,39.0,24.1,,,55%,28.0,,29.62,1003.1,,,,2025-03-09,3,2025,16,KIAD
2025-03-06,6,17:52,EDT,NW  28  G 39,10.0,Mostly Cloudy and Windy,BKN042,39.0,23.0,,,53%,28.0,,29.65,1004.2,,,,2025-03-09,3,2025,17,KIAD
2025-03-06,6,18:52,EDT,NW  17  G 25,10.0,Mostly Cloudy,BKN050,39.0,23.0,44.1,39.0,53%,31.0,,29.69,1005.7,,,,2025-03-09,3,2025,18,KIAD
2025-03-06,6,19:52,EDT,NW  26  G 43,10.0,Mostly Cloudy and Windy,BKN050,39.0,21.9,,,50%,28.0,,29.7,1005.8,,,,2025-03-09,3,2025,19,KIAD
2025-03-06,6,20:52,EDT,NW  17  G 36,10.0,Mostly Cloudy,BKN055,37.9,21.0,,,51%,29.0,,29.74,1007.1,,,,2025-03-09,3,2025,20,KIAD
2025-03-06,6,21:52,EDT,NW  16,10.0,Mostly Cloudy,BKN055,37.9,21.0,,,51%,30.0,,29.76,1008.0,,,,2025-03-09,3,2025,21,KIAD
2025-03-06,6,22:52,EDT,NW  14  G 28,10.0,Mostly Cloudy,BKN055,37.9,19.0,,,46%,30.0,,29.78,1008.4,,,,2025-03-09,3,2025,22,KIAD
2025-03-06,6,23:52,EDT,NW  13,10.0,Mostly Cloudy,BKN055,37.9,19.0,,,46%,31.0,,29.78,1008.6,,,,2025-03-10,3,2025,23,KIAD
2025-03-07,7,00:52,EDT,NW  16  G 28,10.0,A Few Clouds,FEW050,37.0,19.0,39.0,37.0,48%,28.0,,29.79,1009.0,,,,2025-03-10,3,2025,0,KIAD
2025-03-07,7,01:52,EDT,NW  16  G 25,10.0,Fair,CLR,37.0,17.1,,,44%,28.0,,29.81,1009.6,,,,2025-03-10,3,2025,1,KIAD
2025-03-07,7,02:52,EDT,NW  21  G 36,10.0,Fair and Breezy,CLR,36.0,18.0,,,48%,26.0,,29.81,1009.5,,,,2025-03-10,3,2025,2,KIAD
2025-03-07,7,03:52,EDT,NW  25  G 32,10.0,Fair and Breezy,CLR,36.0,18.0,,,48%,25.0,,29.81,1009.5,,,,2025-03-10,3,2025,3,KIAD
2025-03-07,7,04:52,EDT,NW  23  G 32,10.0,A Few Clouds and Breezy,FEW050,36.0,18.0,,,48%,25.0,,29.82,1009.9,,,,2025-03-10,3,2025,4,KIAD
2025-03-07,7,05:52,EDT,W  13  G 25,10.0,Partly Cloudy,SCT080,36.0,18.0,,,48%,28.0,,29.86,1011.2,,,,2025-03-10,3,2025,5,KIAD
2025-03-07,7,06:52,EDT,SW  7,10.0,Mostly Cloudy,SCT110 BKN250,35.1,17.1,37.0,35.1,48%,30.0,,29.89,1012.3,,,,2025-03-10,3,2025,6,KIAD
2025-03-07,7,07:52,EDT,W  7,10.0,Mostly Cloudy,BKN150 BKN250,37.0,17.1,,,44%,32.0,,29.91,1013.0,,,,2025-03-10,3,2025,7,KIAD
2025-03-07,7,08:52,EDT,W  10,10.0,Mostly Cloudy,BKN150 BKN250,39.9,17.1,,,40%,34.0,,29.93,1013.6,,,,2025-03-10,3,2025,8,KIAD
2025-03-07,7,09:52,EDT,W  13  G 23,10.0,Mostly Cloudy,FEW070 BKN250,44.1,16.0,,,32%,38.0,,29.91,1013.1,,,,2025-03-10,3,2025,9,KIAD
2025-03-07,7,10:52,EDT,W  17  G 29,10.0,A Few Clouds,FEW250,46.0,16.0,,,30%,40.0,,29.89,1012.1,,,,2025-03-10,3,2025,10,KIAD
2025-03-07,7,11:52,EDT,W  17  G 26,10.0,A Few Clouds,FEW250,48.9,17.1,,,28%,43.0,,29.87,1011.5,,,,2025-03-10,3,2025,11,KIAD
2025-03-07,7,12:52,EDT,W  14  G 36,10.0,A Few Clouds,FEW170,52.0,17.1,52.0,33.1,25%,,,29.84,1010.7,,,,2025-03-10,3,2025,12,KIAD
2025-03-07,7,13:52,EDT,W  13  G 26,10.0,A Few Clouds,FEW220,53.1,17.1,,,24%,,,29.81,1009.4,,,,2025-03-10,3,2025,13,KIAD
2025-03-07,7,14:52,EDT,W  12  G 24,10.0,A Few Clouds,FEW150,55.0,17.1,,,22%,,,29.78,1008.6,,,,2025-03-10,3,2025,14,KIAD
2025-03-07,7,15:52,EDT,W  10,10.0,A Few Clouds,FEW150,55.0,17.1,,,22%,,,29.76,1007.8,,,,2025-03-10,3,2025,15,KIAD
2025-03-07,7,16:52,EDT,SW  6,10.0,Mostly Cloudy,BKN110 BKN200,53.1,18.0,,,25%,,,29.76,1007.9,,,,2025-03-10,3,2025,16,KIAD
2025-03-07,7,17:52,EDT,SW  10,10.0,Overcast,OVC090,52.0,21.0,,,30%,,,29.77,1008.0,,,,2025-03-10,3,2025,17,KIAD
2025-03-07,7,18:52,EDT,SW  7,10.0,Overcast,OVC075,51.1,21.0,55.9,51.1,31%,,,29.77,1008.2,,,,2025-03-10,3,2025,18,KIAD
2025-03-07,7,19:52,EDT,SW  3,10.0,Overcast,BKN070 OVC085,50.0,21.9,,,33%,,,29.77,1008.2,,,,2025-03-10,3,2025,19,KIAD
2025-03-07,7,20:52,EDT,S  8,10.0,Overcast,OVC100,48.9,24.1,,,38%,46.0,,29.76,1007.9,,,,2025-03-10,3,2025,20,KIAD
2025-03-07,7,21:52,EDT,W  8,10.0,Overcast,BKN070 OVC080,50.0,23.0,,,35%,47.0,,29.75,1007.6,,,,2025-03-10,3,2025,21,KIAD
2025-03-07,7,22:52,EDT,S  3,10.0,Mostly Cloudy,FEW075 BKN110,46.9,24.1,,,41%,,,29.73,1006.9,,,,2025-03-10,3,2025,22,KIAD
2025-03-07,7,23:52,EDT,Calm,10.0,Mostly Cloudy,FEW085 BKN110,39.0,26.1,,,60%,,,29.71,1006.3,,,,2025-03-11,3,2025,23,KIAD
2025-03-08,8,00:52,EDT,Calm,10.0,Mostly Cloudy,BKN080 BKN110,39.0,27.0,52.0,36.0,62%,,,29.69,1005.6,,,,2025-03-11,3,2025,0,KIAD
2025-03-08,8,01:52,EDT,Calm,10.0,Mostly Cloudy,BKN080 BKN110,39.9,28.9,,,65%,,,29.67,1004.9,,,,2025-03-11,3,2025,1,KIAD
2025-03-08,8,02:52,EDT,Calm,10.0,Mostly Cloudy,BKN060,39.0,28.9,,,67%,,,29.66,1004.5,,,,2025-03-11,3,2025,2,KIAD
2025-03-08,8,03:52,EDT,Calm,10.0,Mostly Cloudy,BKN060,37.0,30.0,,,76%,,,29.66,1004.6,,,,2025-03-11,3,2025,3,KIAD
2025-03-08,8,04:52,EDT,Vrbl  3,10.0,Mostly Cloudy,BKN055,41.0,30.9,,,67%,,,29.67,1004.6,,,,2025-03-11,3,2025,4,KIAD
2025-03-08,8,05:52,EDT,NW  6,10.0,Mostly Cloudy,BKN090,43.0,30.9,,,63%,40.0,,29.68,1005.0,,,,2025-03-11,3,2025,5,KIAD
2025-03-08,8,06:52,EDT,W  9,10.0,Mostly Cloudy,BKN050 BKN085,42.1,30.9,44.1,37.0,65%,37.0,,29.71,1006.2,,,,2025-03-11,3,2025,6,KIAD
2025-03-08,8,07:52,EDT,W  16  G 24,10.0,Mostly Cloudy,BKN048 BKN080,46.0,30.9,,,56%,40.0,,29.73,1006.6,,,,2025-03-11,3,2025,7,KIAD
2025-03-08,8,08:52,EDT,NW  21  G 32,10.0,Mostly Cloudy and Breezy,BKN041,48.0,30.0,,,50%,41.0,,29.75,1007.3,,,,2025-03-11,3,2025,8,KIAD
2025-03-08,8,09:52,EDT,NW  18  G 28,10.0,Mostly Cloudy,BKN040,46.0,28.9,,,51%,39.0,,29.77,1008.1,,,,2025-03-11,3,2025,9,KIAD
2025-03-08,8,10:52,EDT,NW  21  G 32,10.0,Mostly Cloudy and Breezy,BKN042,46.0,28.0,,,50%,39.0,,29.79,1008.7,,,,2025-03-11,3,2025,10,KIAD
2025-03-08,8,11:52,EDT,NW  15  G 26,10.0,Mostly Cloudy,BKN048,46.0,24.1,,,42%,40.0,,29.79,1009.0,,,,2025-03-11,3,2025,11,KIAD
2025-03-08,8,12:52,EDT,NW  20  G 36,10.0,Mostly Cloudy,BKN060,48.9,21.9,50.0,42.1,35%,43.0,,29.8,1009.3,,,,2025-03-11,3,2025,12,KIAD
2025-03-08,8,13:52,EDT,NW  18  G 32,10.0,A Few Clouds,FEW065,48.9,19.9,,,32%,43.0,,29.81,1009.4,,,,2025-03-11,3,2025,13,KIAD
2025-03-08,8,14:52,EDT,NW  23  G 36,10.0,A Few Clouds and Breezy,FEW070,48.9,19.0,,,31%,42.0,,29.82,1009.7,,,,2025-03-11,3,2025,14,KIAD
2025-03-08,8,15:52,EDT,NW  26  G 32,10.0,A Few Clouds and Windy,FEW070,48.9,19.9,,,32%,42.0,,29.84,1010.4,,,,2025-03-11,3,2025,15,KIAD
2025-03-08,8,16:52,EDT,NW  17  G 30,10.0,A Few Clouds,FEW070,48.0,18.0,,,30%,42.0,,29.87,1011.7,,,,2025-03-11,3,2025,16,KIAD
2025-03-08,8,17:52,EDT,NW  12,10.0,A Few Clouds,FEW070,45.0,18.0,,,34%,40.0,,29.91,1012.8,,,,2025-03-11,3,2025,17,KIAD
2025-03-08,8,19:52,EDT,N  15  G 23,10.0,A Few Clouds,FEW070,42.1,18.0,,,38%,35.0,,29.95,1014.4,,,,2025-03-11,3,2025,19,KIAD
2025-03-08,8,20:52,EDT,N  12,10.0,Fair,CLR,41.0,18.0,,,39%,35.0,,29.98,1015.2,,,,2025-03-11,3,2025,20,KIAD
2025-03-08,8,21:52,EDT,NW  7,10.0,Fair,CLR,39.0,18.0,,,43%,35.0,,29.99,1015.7,,,,2025-03-11,3,2025,21,KIAD
2025-03-08,8,22:52,EDT,NW  5,10.0,Fair,CLR,37.0,18.0,,,46%,34.0,,30.0,1016.1,,,,2025-03-11,3,2025,22,KIAD
2025-03-08,8,23:52,EDT,NW  6,10.0,Fair,CLR,36.0,18.0,,,48%,32.0,,30.0,1016.1,,,,2025-03-12,3,2025,23,KIAD
2025-03-09,9,01:52,EDT,Calm,10.0,Fair,CLR,30.9,18.0,,,59%,,,30.01,1016.3,,,,2025-03-12,3,2025,1,KIAD
2025-03-09,9,03:52,EDT,S  3,10.0,Partly Cloudy,SCT250,28.0,18.0,,,66%,,,30.03,1016.9,,,,2025-03-12,3,2025,3,KIAD
2025-03-09,9,04:52,EDT,W  5,10.0,A Few Clouds,FEW250,30.9,19.0,,,61%,27.0,,30.03,1016.9,,,,2025-03-12,3,2025,4,KIAD
2025-03-09,9,05:52,EDT,S  3,10.0,A Few Clouds,FEW250,30.9,19.0,,,61%,,,30.04,1017.5,,,,2025-03-12,3,2025,5,KIAD
2025-03-09,9,06:52,EDT,S  7,10.0,Partly Cloudy,SCT250,28.0,19.0,,,69%,22.0,,30.05,1017.6,,,,2025-03-12,3,2025,6,KIAD
2025-03-09,9,07:52,EDT,S  9,10.0,Mostly Cloudy,BKN250,30.9,19.9,37.0,26.1,64%,24.0,,30.06,1018.0,,,,2025-03-12,3,2025,7,KIAD
2025-03-09,9,08:52,EDT,S  9,10.0,Mostly Cloudy,BKN250,34.0,21.9,,,61%,27.0,,30.06,1018.2,,,,2025-03-12,3,2025,8,KIAD
2025-03-09,9,09:52,EDT,S  13,10.0,Mostly Cloudy,BKN250,39.9,21.9,,,49%,33.0,,30.06,1018.1,,,,2025-03-12,3,2025,9,KIAD
2025-03-09,9,10:52,EDT,SW  12,10.0,Mostly Cloudy,FEW080 BKN250,48.0,21.9,,,36%,44.0,,30.05,1017.7,,,,2025-03-12,3,2025,10,KIAD
2025-03-09,9,11:52,EDT,SW  12  G 28,10.0,Mostly Cloudy,FEW040 FEW080 BKN250,51.1,24.1,,,35%,,,30.02,1016.6,,,,2025-03-12,3,2025,11,KIAD
2025-03-09,9,12:52,EDT,W  15  G 25,10.0,Mostly Cloudy,FEW060 FEW090 BKN250,55.0,25.0,,,31%,,,29.99,1015.7,,,,2025-03-12,3,2025,12,KIAD
2025-03-09,9,13:52,EDT,W  14  G 26,10.0,Mostly Cloudy,SCT080 BKN250,55.9,25.0,55.9,30.9,30%,,,29.98,1015.3,,,,2025-03-12,3,2025,13,KIAD
2025-03-09,9,14:52,EDT,W  17  G 26,10.0,Mostly Cloudy,BKN075,59.0,26.1,,,28%,,,29.95,1014.4,,,,2025-03-12,3,2025,14,KIAD
2025-03-09,9,15:52,EDT,W  14  G 25,10.0,A Few Clouds,FEW075,59.0,24.1,,,26%,,,29.93,1013.5,,,,2025-03-12,3,2025,15,KIAD
2025-03-09,9,16:52,EDT,W  13,10.0,A Few Clouds,FEW075,59.0,23.0,,,25%,,,29.91,1012.9,,,,2025-03-12,3,2025,16,KIAD
2025-03-09,9,17:52,EDT,W  9,10.0,A Few Clouds,FEW075 FEW250,60.1,23.0,,,24%,,,29.92,1013.4,,,,2025-03-12,3,2025,17,KIAD
2025-03-09,9,18:52,EDT,W  7,10.0,A Few Clouds,FEW250,57.0,21.9,,,26%,,,29.93,1013.6,,,,2025-03-12,3,2025,18,KIAD
2025-03-09,9,19:52,EDT,S  3,10.0,A Few Clouds,FEW250,46.9,24.1,60.1,46.9,41%,,,29.94,1014.2,,,,2025-03-12,3,2025,19,KIAD
2025-03-09,9,20:52,EDT,S  3,10.0,A Few Clouds,FEW250,50.0,25.0,,,38%,,,29.95,1014.1,,,,2025-03-12,3,2025,20,KIAD
2025-03-09,9,21:52,EDT,S  6,10.0,A Few Clouds,FEW250,44.1,26.1,,,49%,41.0,,29.96,1014.6,,,,2025-03-12,3,2025,21,KIAD
2025-03-09,9,22:52,EDT,S  5,10.0,Fair,CLR,39.9,26.1,,,58%,37.0,,29.96,1014.5,,,,2025-03-12,3,2025,22,KIAD
2025-03-09,9,23:52,EDT,S  5,10.0,Fair,CLR,36.0,26.1,,,67%,33.0,,29.94,1014.0,,,,2025-03-13,3,2025,23,KIAD
2025-03-10,10,01:52,EDT,S  3,10.0,Fair,CLR,37.0,25.0,52.0,35.1,62%,,,29.94,1014.0,,,,2025-03-13,3,2025,1,KIAD
2025-03-10,10,02:52,EDT,S  3,10.0,Fair,CLR,39.9,25.0,,,55%,,,29.95,1014.1,,,,2025-03-13,3,2025,2,KIAD
2025-03-10,10,03:52,EDT,S  7,10.0,Fair,CLR,37.9,26.1,,,62%,33.0,,29.94,1013.9,,,,2025-03-13,3,2025,3,KIAD
2025-03-10,10,04:52,EDT,S  7,10.0,Fair,CLR,37.9,25.0,,,60%,33.0,,29.94,1013.8,,,,2025-03-13,3,2025,4,KIAD
2025-03-10,10,05:52,EDT,S  5,10.0,Fair,CLR,37.0,25.0,,,62%,34.0,,29.95,1014.1,,,,2025-03-13,3,2025,5,KIAD
2025-03-10,10,06:52,EDT,Vrbl  5,10.0,A Few Clouds,FEW250,34.0,25.0,,,70%,30.0,,29.94,1014.0,,,,2025-03-13,3,2025,6,KIAD
2025-03-10,10,07:52,EDT,Calm,10.0,Partly Cloudy,SCT250,32.0,25.0,41.0,28.9,75%,,,29.94,1014.1,,,,2025-03-13,3,2025,7,KIAD
2025-03-10,10,08:52,EDT,S  5,10.0,Partly Cloudy,SCT250,41.0,28.9,,,62%,38.0,,29.94,1014.1,,,,2025-03-13,3,2025,8,KIAD
2025-03-10,10,09:52,EDT,SW  3,10.0,Partly Cloudy,SCT250,50.0,28.0,,,43%,,,29.95,1014.2,,,,2025-03-13,3,2025,9,KIAD
2025-03-10,10,10:52,EDT,W  5,10.0,Partly Cloudy,SCT250,57.9,27.0,,,31%,,,29.95,1014.3,,,,2025-03-13,3,2025,10,KIAD
2025-03-10,10,11:52,EDT,Vrbl  5,10.0,Partly Cloudy,SCT250,61.0,28.0,,,29%,,,29.93,1013.6,,,,2025-03-13,3,2025,11,KIAD
2025-03-10,10,12:52,EDT,SW  5,10.0,Partly Cloudy,FEW001 SCT250,63.0,28.9,,,28%,,,29.92,1013.1,,,,2025-03-13,3,2025,12,KIAD
2025-03-10,10,13:52,EDT,Vrbl  5,10.0,Partly Cloudy,SCT250,64.0,28.0,64.0,32.0,26%,,,29.89,1012.1,,,,2025-03-13,3,2025,13,KIAD
2025-03-10,10,14:52,EDT,E  5,10.0,A Few Clouds,FEW250,64.0,27.0,,,25%,,,29.87,1011.4,,,,2025-03-13,3,2025,14,KIAD
2025-03-10,10,15:52,EDT,S  7,10.0,A Few Clouds,FEW150 FEW250,66.0,28.9,,,25%,,,29.84,1010.6,,,,2025-03-13,3,2025,15,KIAD
2025-03-10,10,16:52,EDT,Vrbl  6,10.0,A Few Clouds,FEW150,66.0,27.0,,,23%,,,29.83,1010.0,,,,2025-03-13,3,2025,16,KIAD
2025-03-10,10,17:52,EDT,S  5,10.0,A Few Clouds,FEW150,64.9,26.1,,,23%,,,29.82,1009.7,,,,2025-03-13,3,2025,17,KIAD
2025-03-10,10,18:52,EDT,SW  3,10.0,A Few Clouds,FEW150 FEW250,62.1,26.1,,,25%,,,29.82,1009.8,,,,2025-03-13,3,2025,18,KIAD
2025-03-10,10,19:52,EDT,S  5,10.0,A Few Clouds,FEW150,57.0,26.1,66.0,55.0,30%,,,29.83,1010.2,,,,2025-03-13,3,2025,19,KIAD
2025-03-10,10,20:52,EDT,S  7,10.0,A Few Clouds,FEW200,54.0,27.0,,,35%,,,29.84,1010.3,,,,2025-03-13,3,2025,20,KIAD
2025-03-10,10,21:52,EDT,S  5,10.0,Fair,CLR,51.1,28.0,,,41%,,,29.84,1010.5,,,,2025-03-13,3,2025,21,KIAD
2025-03-10,10,22:52,EDT,S  7,10.0,Fair,CLR,50.0,28.0,,,43%,48.0,,29.84,1010.4,,,,2025-03-13,3,2025,22,KIAD
2025-03-10,10,23:52,EDT,S  3,10.0,Fair,CLR,44.1,28.0,,,53%,,,29.83,1010.1,,,,2025-03-13,3,2025,23,KIAD
2025-03-11,11,00:52,EDT,Calm,10.0,Fair,CLR,39.0,28.0,,,65%,,,29.82,1009.7,,,,2025-03-14,3,2025,0,KIAD
2025-03-11,11,01:52,EDT,Calm,10.0,Fair,CLR,39.0,28.0,57.0,37.0,65%,,,29.81,1009.5,,,,2025-03-14,3,2025,1,KIAD
2025-03-11,11,02:52,EDT,Calm,10.0,Fair,CLR,37.0,28.0,,,70%,,,29.8,1009.1,,,,2025-03-14,3,2025,2,KIAD
2025-03-11,11,03:52,EDT,NW  5,10.0,Fair,CLR,34.0,27.0,,,76%,30.0,,29.8,1009.0,,,,2025-03-14,3,2025,3,KIAD
2025-03-11,11,04:52,EDT,Calm,10.0,Fair,CLR,33.1,27.0,,,78%,,,29.79,1008.7,,,,2025-03-14,3,2025,4,KIAD
2025-03-11,11,05:52,EDT,Calm,10.0,Fair,CLR,32.0,26.1,,,79%,,,29.79,1008.9,,,,2025-03-14,3,2025,5,KIAD
2025-03-11,11,06:52,EDT,Calm,10.0,Fair,CLR,30.0,26.1,,,85%,,,29.81,1009.7,,,,2025-03-14,3,2025,6,KIAD
2025-03-11,11,07:52,EDT,Calm,10.0,A Few Clouds,FEW120,32.0,27.0,39.0,30.0,82%,,,29.83,1010.0,,,,2025-03-14,3,2025,7,KIAD
2025-03-11,11,08:52,EDT,S  3,10.0,Fair,CLR,42.1,32.0,,,68%,,,29.84,1010.5,,,,2025-03-14,3,2025,8,KIAD
2025-03-11,11,09:52,EDT,Vrbl  3,10.0,Fair,CLR,52.0,33.1,,,49%,,,29.84,1010.3,,,,2025-03-14,3,2025,9,KIAD
2025-03-11,11,10:52,EDT,SW  5,10.0,Fair,CLR,57.0,33.1,,,41%,,,29.83,1010.2,,,,2025-03-14,3,2025,10,KIAD
2025-03-11,11,11:52,EDT,S  9,10.0,Fair,CLR,64.0,30.0,,,28%,,,29.81,1009.6,,,,2025-03-14,3,2025,11,KIAD
2025-03-11,11,12:52,EDT,S  8,10.0,Fair,CLR,66.9,30.9,,,26%,,,29.8,1009.0,,,,2025-03-14,3,2025,12,KIAD
2025-03-11,11,13:52,EDT,S  9,10.0,Fair,CLR,70.0,30.9,70.0,32.0,23%,,,29.77,1007.9,,,,2025-03-14,3,2025,13,KIAD
2025-03-11,11,14:52,EDT,Vrbl  5,10.0,Fair,CLR,71.1,30.9,,,23%,,,29.73,1006.8,,,,2025-03-14,3,2025,14,KIAD
2025-03-11,11,15:52,EDT,SW  10  G 18,10.0,A Few Clouds,FEW250,73.0,30.9,,,21%,,,29.71,1006.1,,,,2025-03-14,3,2025,15,KIAD
2025-03-11,11,16:52,EDT,SW  13  G 22,10.0,Fair,CLR,73.0,30.9,,,21%,,,29.7,1005.8,,,,2025-03-14,3,2025,16,KIAD
2025-03-11,11,17:52,EDT,SW  12,10.0,Fair,CLR,72.0,30.9,,,22%,,,29.7,1005.6,,,,2025-03-14,3,2025,17,KIAD
2025-03-11,11,18:52,EDT,S  10,10.0,Fair,CLR,70.0,30.0,,,23%,,,29.7,1005.9,,,,2025-03-14,3,2025,18,KIAD
2025-03-11,11,19:52,EDT,S  8,10.0,Fair,CLR,66.0,30.9,73.0,64.9,27%,,,29.72,1006.4,,,,2025-03-14,3,2025,19,KIAD
2025-03-11,11,20:52,EDT,S  8,10.0,Fair,CLR,64.0,30.0,,,28%,,,29.73,1006.7,,,,2025-03-14,3,2025,20,KIAD
2025-03-11,11,21:52,EDT,SW  3,10.0,Fair,CLR,60.1,30.0,,,32%,,,29.75,1007.3,,,,2025-03-14,3,2025,21,KIAD
2025-03-11,11,22:52,EDT,S  6,10.0,Fair,CLR,54.0,32.0,,,43%,,,29.76,1007.7,,,,2025-03-14,3,2025,22,KIAD
2025-03-11,11,23:52,EDT,S  6,10.0,Fair,CLR,55.9,30.9,,,39%,,,29.76,1007.7,,,,2025-03-14,3,2025,23,KIAD
2025-03-12,12,00:52,EDT,S  5,10.0,Fair,CLR,54.0,30.9,,,42%,,,29.77,1007.9,,,,2025-03-15,3,2025,0,KIAD
2025-03-12,12,01:52,EDT,Calm,10.0,Fair,CLR,53.1,30.9,66.0,53.1,43%,,,29.79,1008.6,,,,2025-03-15,3,2025,1,KIAD
2025-03-12,12,02:52,EDT,Calm,10.0,Fair,CLR,48.9,30.9,,,50%,,,29.81,1009.2,,,,2025-03-15,3,2025,2,KIAD
2025-03-12,12,03:52,EDT,NW  9,10.0,Fair,CLR,43.0,32.0,,,65%,38.0,,29.82,1009.7,,,,2025-03-15,3,2025,3,KIAD
2025-03-12,12,04:52,EDT,N  5,10.0,Fair,CLR,52.0,33.1,,,49%,,,29.84,1010.4,,,,2025-03-15,3,2025,4,KIAD
2025-03-12,12,05:52,EDT,N  7,10.0,Fair,CLR,51.1,34.0,,,52%,,,29.88,1011.6,,,,2025-03-15,3,2025,5,KIAD
2025-03-12,12,06:52,EDT,N  8,10.0,A Few Clouds,FEW120 FEW250,51.1,35.1,,,54%,,,29.91,1012.7,,,,2025-03-15,3,2025,6,KIAD
2025-03-12,12,07:52,EDT,N  10,10.0,Mostly Cloudy,FEW120 BKN250,51.1,35.1,55.0,43.0,54%,,,29.93,1013.4,,,,2025-03-15,3,2025,7,KIAD
2025-03-12,12,08:52,EDT,NE  12,10.0,Mostly Cloudy,BKN250,52.0,35.1,,,53%,,,29.96,1014.3,,,,2025-03-15,3,2025,8,KIAD
2025-03-12,12,09:52,EDT,NE  7,10.0,Mostly Cloudy,BKN250,54.0,33.1,,,45%,,,29.97,1014.8,,,,2025-03-15,3,2025,9,KIAD
2025-03-12,12,10:52,EDT,Calm,10.0,Mostly Cloudy,FEW160 BKN250,57.0,30.0,,,36%,,,29.97,1014.9,,,,2025-03-15,3,2025,10,KIAD
2025-03-12,12,11:52,EDT,E  7,10.0,Mostly Cloudy,BKN250,60.1,23.0,,,24%,,,29.95,1014.2,,,,2025-03-15,3,2025,11,KIAD
2025-03-12,12,12:52,EDT,Vrbl  6,10.0,Mostly Cloudy,BKN250,61.0,19.9,,,20%,,,29.93,1013.5,,,,2025-03-15,3,2025,12,KIAD
2025-03-12,12,13:52,EDT,Vrbl  3,10.0,Mostly Cloudy,BKN250,63.0,21.0,64.0,50.0,20%,,,29.9,1012.4,,,,2025-03-15,3,2025,13,KIAD
2025-03-12,12,14:52,EDT,E  8,10.0,Partly Cloudy,SCT250,66.0,24.1,,,20%,,,29.87,1011.4,,,,2025-03-15,3,2025,14,KIAD
2025-03-12,12,15:52,EDT,E  9  G 21,10.0,A Few Clouds,FEW250,66.9,23.0,,,19%,,,29.84,1010.5,,,,2025-03-15,3,2025,15,KIAD
2025-03-12,12,16:52,EDT,SE  8  G 18,10.0,A Few Clouds,FEW250,66.9,24.1,,,20%,,,29.82,1009.8,,,,2025-03-15,3,2025,16,KIAD
2025-03-12,12,17:52,EDT,SE  12,10.0,A Few Clouds,FEW250,66.0,28.9,,,25%,,,29.83,1010.0,,,,2025-03-15,3,2025,17,KIAD
2025-03-12,12,18:52,EDT,S  7  G 16,10.0,Mostly Cloudy,BKN250,63.0,30.9,,,30%,,,29.84,1010.4,,,,2025-03-15,3,2025,18,KIAD
2025-03-12,12,19:52,EDT,SE  8,10.0,Partly Cloudy,SCT250,60.1,33.1,68.0,59.0,36%,,,29.85,1010.5,,,,2025-03-15,3,2025,19,KIAD
2025-03-12,12,20:52,EDT,E  7,10.0,A Few Clouds,FEW250,55.9,30.0,,,37%,,,29.86,1011.3,,,,2025-03-15,3,2025,20,KIAD
2025-03-12,12,21:52,EDT,SE  8,10.0,A Few Clouds,FEW250,53.1,28.9,,,40%,,,29.89,1012.2,,,,2025-03-15,3,2025,21,KIAD
2025-03-12,12,22:52,EDT,E  10,10.0,Partly Cloudy,SCT250,51.1,24.1,,,35%,,,29.91,1012.9,,,,2025-03-15,3,2025,22,KIAD
2025-03-12,12,23:52,EDT,E  8,10.0,Partly Cloudy,SCT250,48.0,27.0,,,44%,45.0,,29.93,1013.4,,,,2025-03-16,3,2025,23,KIAD
2025-03-13,13,00:52,EDT,E  6,10.0,Partly Cloudy,SCT250,46.0,30.0,,,54%,44.0,,29.94,1013.7,,,,2025-03-16,3,2025,0,KIAD
2025-03-13,13,01:52,EDT,E  6,10.0,Mostly Cloudy,BKN250,43.0,33.1,60.1,43.0,68%,40.0,,29.93,1013.6,,,,2025-03-16,3,2025,1,KIAD
2025-03-13,13,02:52,EDT,E  9,10.0,Mostly Cloudy,BKN014,43.0,36.0,,,76%,38.0,,29.94,1013.6,,,,2025-03-16,3,2025,2,KIAD
2025-03-13,13,03:52,EDT,E  5,10.0,Overcast,OVC013,43.0,37.0,,,80%,41.0,,29.93,1013.5,,,,2025-03-16,3,2025,3,KIAD
2025-03-13,13,04:52,EDT,NE  9,10.0,Overcast,OVC012,43.0,37.0,,,80%,38.0,,29.94,1013.9,,,,2025-03-16,3,2025,4,KIAD
2025-03-13,13,05:52,EDT,NE  8,10.0,Overcast,OVC011,43.0,37.9,,,82%,39.0,,29.96,1014.5,,,,2025-03-16,3,2025,5,KIAD
2025-03-13,13,06:52,EDT,NE  7,7.0,Overcast,OVC009,44.1,39.0,,,83%,41.0,,29.97,1014.8,,,,2025-03-16,3,2025,6,KIAD
2025-03-13,13,07:52,EDT,NE  8,7.0,Overcast,OVC009,44.1,39.0,44.1,42.1,83%,40.0,,29.98,1015.2,,,,2025-03-16,3,2025,7,KIAD
2025-03-13,13,08:52,EDT,E  7,10.0,Overcast,OVC009,44.1,39.0,,,83%,41.0,,30.0,1015.7,,,,2025-03-16,3,2025,8,KIAD
2025-03-13,13,09:52,EDT,E  7,7.0,Overcast,OVC009,44.1,39.0,,,83%,41.0,,30.01,1016.3,,,,2025-03-16,3,2025,9,KIAD
2025-03-13,13,10:52,EDT,NE  7,7.0,Overcast,OVC010,45.0,39.0,,,80%,42.0,,30.03,1016.7,,,,2025-03-16,3,2025,10,KIAD
2025-03-13,13,11:52,EDT,E  5,7.0,Overcast,OVC012,45.0,39.0,,,80%,43.0,,30.03,1016.8,,,,2025-03-16,3,2025,11,KIAD
2025-03-13,13,12:52,EDT,E  6,7.0,Overcast,OVC012,46.0,39.0,,,77%,44.0,,30.03,1017.1,,,,2025-03-16,3,2025,12,KIAD
2025-03-13,13,13:52,EDT,NE  5,7.0,Overcast,OVC014,46.0,39.0,46.9,44.1,77%,44.0,,30.03,1017.0,,,,2025-03-16,3,2025,13,KIAD
2025-03-13,13,14:52,EDT,E  3,7.0,Overcast,OVC017,48.0,39.0,,,71%,,,30.01,1016.5,,,,2025-03-16,3,2025,14,KIAD
2025-03-13,13,15:52,EDT,NE  6,10.0,Overcast,BKN020 OVC150,50.0,39.0,,,66%,48.0,,30.0,1015.9,,,,2025-03-16,3,2025,15,KIAD
2025-03-13,13,16:52,EDT,E  6,10.0,Mostly Cloudy,FEW021 BKN150,52.0,39.0,,,61%,,,29.99,1015.4,,,,2025-03-16,3,2025,16,KIAD
2025-03-13,13,17:52,EDT,E  8,10.0,A Few Clouds,FEW150,52.0,39.0,,,61%,,,29.99,1015.4,,,,2025-03-16,3,2025,17,KIAD
2025-03-13,13,18:52,EDT,E  3,10.0,Partly Cloudy,SCT120,50.0,39.0,,,66%,,,30.0,1015.9,,,,2025-03-16,3,2025,18,KIAD
2025-03-13,13,19:52,EDT,E  6,10.0,Mostly Cloudy,BKN120,48.0,37.9,53.1,46.0,68%,46.0,,30.02,1016.7,,,,2025-03-16,3,2025,19,KIAD
2025-03-13,13,20:52,EDT,Calm,10.0,Partly Cloudy,SCT120,46.0,37.9,,,73%,,,30.04,1017.3,,,,2025-03-16,3,2025,20,KIAD
2025-03-13,13,21:52,EDT,Calm,10.0,Partly Cloudy,SCT120,42.1,37.0,,,82%,,,30.05,1017.6,,,,2025-03-16,3,2025,21,KIAD
2025-03-13,13,22:52,EDT,Calm,10.0,A Few Clouds,FEW120,39.9,36.0,,,86%,,,30.06,1017.9,,,,2025-03-16,3,2025,22,KIAD
2025-03-13,13,23:52,EDT,Calm,10.0,Fair,CLR,37.9,35.1,,,89%,,,30.06,1018.2,,,,2025-03-17,3,2025,23,KIAD
2025-03-14,14,00:52,EDT,SE  3,10.0,Fair,CLR,37.0,34.0,,,89%,,,30.07,1018.4,,,,2025-03-17,3,2025,0,KIAD
2025-03-14,14,01:52,EDT,E  3,10.0,Fair,CLR,39.9,37.0,48.0,37.0,89%,,,30.07,1018.5,,,,2025-03-17,3,2025,1,KIAD
2025-03-14,14,02:52,EDT,Calm,10.0,Fair,CLR,37.9,36.0,,,93%,,,30.08,1018.6,,,,2025-03-17,3,2025,2,KIAD
2025-03-14,14,03:52,EDT,Calm,10.0,Partly Cloudy,FEW012 FEW018 SCT023,34.0,32.0,,,92%,,,30.09,1018.9,,,,2025-03-17,3,2025,3,KIAD
2025-03-14,14,04:52,EDT,Calm,10.0,Mostly Cloudy,BKN012 BKN023,37.0,34.0,,,89%,,,30.09,1019.1,,,,2025-03-17,3,2025,4,KIAD
2025-03-14,14,05:52,EDT,Calm,10.0,Overcast,OVC009,37.9,36.0,,,93%,,,30.1,1019.3,,,,2025-03-17,3,2025,5,KIAD
2025-03-14,14,06:52,EDT,Calm,7.0,Overcast,OVC008,41.0,37.9,,,89%,,,30.11,1019.8,,,,2025-03-17,3,2025,6,KIAD
2025-03-14,14,07:52,EDT,Calm,6.0,Fog/Mist,OVC008,41.0,37.9,42.1,34.0,89%,,,30.12,1020.2,,,,2025-03-17,3,2025,7,KIAD
2025-03-14,14,09:52,EDT,NE  5,4.0,Fog/Mist,OVC007,42.1,37.9,,,85%,40.0,,30.16,1021.4,,,,2025-03-17,3,2025,9,KIAD
2025-03-14,14,10:52,EDT,E  3,5.0,Overcast with Haze,OVC008,43.0,37.9,,,82%,,,30.16,1021.5,,,,2025-03-17,3,2025,10,KIAD
2025-03-14,14,11:52,EDT,Calm,5.0,Overcast with Haze,OVC009,44.1,37.9,,,79%,,,30.17,1021.7,,,,2025-03-17,3,2025,11,KIAD
2025-03-14,14,12:52,EDT,SE  5,5.0,Overcast with Haze,OVC014,46.9,39.0,,,74%,45.0,,30.15,1021.0,,,,2025-03-17,3,2025,12,KIAD
2025-03-14,14,13:52,EDT,SE  6,7.0,Mostly Cloudy,SCT017 BKN040,50.0,39.9,51.1,41.0,68%,48.0,,30.14,1020.6,,,,2025-03-17,3,2025,13,KIAD
2025-03-14,14,14:52,EDT,SE  9,10.0,Mostly Cloudy,FEW027 BKN250,53.1,39.9,,,61%,,,30.12,1019.9,,,,2025-03-17,3,2025,14,KIAD
2025-03-14,14,15:52,EDT,SE  9,10.0,A Few Clouds,FEW250,54.0,39.9,,,59%,,,30.09,1019.2,,,,2025-03-17,3,2025,15,KIAD
2025-03-14,14,16:52,EDT,SE  10,10.0,A Few Clouds,FEW120 FEW250,55.0,39.9,,,57%,,,30.08,1018.8,,,,2025-03-17,3,2025,16,KIAD
2025-03-14,14,17:52,EDT,SE  10,10.0,Mostly Cloudy,FEW120 BKN250,52.0,39.9,,,64%,,,30.08,1018.8,,,,2025-03-17,3,2025,17,KIAD
2025-03-14,14,18:52,EDT,SE  9,10.0,Mostly Cloudy,FEW100 BKN250,48.9,39.0,,,69%,45.0,,30.09,1019.1,,,,2025-03-17,3,2025,18,KIAD
2025-03-14,14,19:52,EDT,S  12,10.0,Overcast,BKN019 OVC250,46.9,39.0,55.0,46.9,74%,42.0,,30.1,1019.4,,,,2025-03-17,3,2025,19,KIAD
2025-03-14,14,20:52,EDT,S  8,10.0,Overcast,OVC014,45.0,39.0,,,80%,41.0,,30.1,1019.5,,,,2025-03-17,3,2025,20,KIAD
2025-03-14,14,21:52,EDT,SE  12,10.0,Overcast,OVC013,45.0,39.0,,,80%,40.0,,30.1,1019.3,,,,2025-03-17,3,2025,21,KIAD
2025-03-14,14,22:52,EDT,SE  8,10.0,Overcast,OVC012,45.0,39.0,,,80%,41.0,,30.09,1019.1,,,,2025-03-17,3,2025,22,KIAD
2025-03-14,14,23:52,EDT,S  7,10.0,Overcast,OVC012,45.0,39.9,,,83%,42.0,,30.09,1018.9,,,,2025-03-17,3,2025,23,KIAD
2025-03-15,15,00:52,EDT,S  6,10.0,Overcast,OVC011,45.0,39.9,,,83%,42.0,,30.06,1018.0,,,,2025-03-18,3,2025,0,KIAD
2025-03-15,15,01:52,EDT,S  9,10.0,Overcast,OVC011,45.0,39.9,46.9,45.0,83%,41.0,,30.06,1017.9,,,,2025-03-18,3,2025,1,KIAD
2025-03-15,15,02:52,EDT,SE  8,10.0,Overcast,OVC010,45.0,39.9,,,83%,41.0,,30.06,1017.8,,,,2025-03-18,3,2025,2,KIAD
2025-03-15,15,03:52,EDT,S  7,10.0,Overcast,OVC010,45.0,39.9,,,83%,42.0,,30.05,1017.5,,,,2025-03-18,3,2025,3,KIAD
2025-03-15,15,04:52,EDT,Vrbl  7,10.0,Overcast,OVC008,45.0,39.9,,,83%,42.0,,30.05,1017.6,,,,2025-03-18,3,2025,4,KIAD
2025-03-15,15,05:52,EDT,S  7,10.0,Overcast,OVC008,45.0,41.0,,,86%,42.0,,30.07,1018.3,,,,2025-03-18,3,2025,5,KIAD
2025-03-15,15,06:52,EDT,S  5,10.0,Overcast,OVC008,45.0,41.0,,,86%,43.0,,30.08,1018.8,,,,2025-03-18,3,2025,6,KIAD
2025-03-15,15,07:52,EDT,SE  7,5.0,Fog/Mist,OVC007,44.1,41.0,45.0,44.1,89%,41.0,,30.07,1018.4,,,,2025-03-18,3,2025,7,KIAD
2025-03-15,15,08:52,EDT,S  7,6.0,Fog/Mist,OVC006,45.0,42.1,,,90%,42.0,,30.1,1019.4,,,,2025-03-18,3,2025,8,KIAD
2025-03-15,15,09:52,EDT,S  9,5.0,Fog/Mist,OVC005,46.0,43.0,,,89%,42.0,,30.08,1018.7,,,,2025-03-18,3,2025,9,KIAD
2025-03-15,15,10:52,EDT,S  8,9.0,Overcast,OVC006,46.9,43.0,,,86%,44.0,,30.1,1019.2,,,,2025-03-18,3,2025,10,KIAD
2025-03-15,15,11:52,EDT,SE  9,10.0,Overcast,OVC007,48.0,43.0,,,83%,44.0,,30.08,1018.8,,,,2025-03-18,3,2025,11,KIAD
2025-03-15,15,12:52,EDT,S  8,10.0,Overcast,OVC009,50.0,44.1,,,80%,47.0,,30.07,1018.2,,,,2025-03-18,3,2025,12,KIAD
2025-03-15,15,13:52,EDT,S  9,10.0,Overcast,OVC011,50.0,44.1,51.1,44.1,80%,47.0,,30.06,1017.9,,,,2025-03-18,3,2025,13,KIAD
2025-03-15,15,14:52,EDT,SE  9,10.0,Overcast,OVC013,51.1,45.0,,,80%,,,30.03,1017.0,,,,2025-03-18,3,2025,14,KIAD
2025-03-15,15,15:52,EDT,S  10,10.0,Mostly Cloudy,BKN022 BKN250,55.9,46.0,,,70%,,,29.99,1015.6,,,,2025-03-18,3,2025,15,KIAD
2025-03-15,15,16:52,EDT,S  9,10.0,Mostly Cloudy,SCT026 BKN250,60.1,46.9,,,62%,,,29.97,1014.8,,,,2025-03-18,3,2025,16,KIAD
2025-03-15,15,17:52,EDT,SE  10,10.0,Mostly Cloudy,BKN031 BKN250,60.1,48.0,,,65%,,,29.94,1013.9,,,,2025-03-18,3,2025,17,KIAD
2025-03-15,15,18:52,EDT,SE  14  G 21,10.0,Mostly Cloudy,BKN024,57.0,48.0,,,72%,,,29.96,1014.6,,,,2025-03-18,3,2025,18,KIAD
2025-03-15,15,19:52,EDT,SE  9,10.0,Overcast,SCT017 OVC026,55.9,48.9,61.0,50.0,77%,,,29.96,1014.6,,,,2025-03-18,3,2025,19,KIAD
2025-03-15,15,20:52,EDT,S  7,10.0,Overcast,BKN034 OVC047,57.0,48.9,,,74%,,,29.97,1014.8,,,,2025-03-18,3,2025,20,KIAD
2025-03-15,15,21:52,EDT,Vrbl  6,10.0,Mostly Cloudy,BKN036 BKN048 BKN060,55.9,48.0,,,75%,,,29.96,1014.6,,,,2025-03-18,3,2025,21,KIAD
2025-03-15,15,22:52,EDT,SE  8,10.0,Mostly Cloudy,BKN055 BKN080,55.0,48.0,,,77%,,,29.97,1014.7,,,,2025-03-18,3,2025,22,KIAD
2025-03-15,15,23:52,EDT,S  9,10.0,Overcast,FEW041 OVC075,55.0,48.9,,,80%,,,29.95,1014.0,,,,2025-03-18,3,2025,23,KIAD
2025-03-16,16,00:52,EDT,S  7,10.0,Partly Cloudy,FEW017 FEW055 SCT190,57.0,52.0,,,83%,,,29.92,1013.1,,,,2025-03-19,3,2025,0,KIAD
2025-03-16,16,01:52,EDT,S  15  G 24,10.0,Partly Cloudy,SCT016 SCT030,60.1,55.0,60.1,55.0,84%,,,29.9,1012.3,,,,2025-03-19,3,2025,1,KIAD
2025-03-16,16,02:52,EDT,S  10  G 20,10.0,Mostly Cloudy,SCT014 BKN070 BKN250,60.1,55.0,,,84%,,,29.88,1011.6,,,,2025-03-19,3,2025,2,KIAD
2025-03-16,16,03:52,EDT,S  13  G 24,10.0,Overcast,BKN016 BKN070 OVC220,60.1,55.9,,,86%,,,29.86,1011.2,,,,2025-03-19,3,2025,3,KIAD
2025-03-16,16,04:52,EDT,S  14  G 23,10.0,Overcast,SCT027 OVC200,60.1,55.9,,,86%,,,29.85,1010.6,,,,2025-03-19,3,2025,4,KIAD
2025-03-16,16,05:52,EDT,SE  15  G 24,10.0,Light Rain,OVC018,62.1,57.0,,,84%,,,29.85,1010.7,,,,2025-03-19,3,2025,5,KIAD
2025-03-16,16,06:52,EDT,SE  14  G 26,10.0,Overcast,SCT019 BKN046 OVC080,62.1,57.9,,,86%,,,29.84,1010.5,,,,2025-03-19,3,2025,6,KIAD
2025-03-16,16,07:52,EDT,SE  14,10.0,Overcast,BKN021 OVC040,63.0,57.9,63.0,60.1,84%,,,29.84,1010.2,,,,2025-03-19,3,2025,7,KIAD
2025-03-16,16,08:52,EDT,S  12  G 25,10.0,Overcast,BKN018 OVC025,64.0,59.0,,,84%,,,29.82,1009.6,,,,2025-03-19,3,2025,8,KIAD
2025-03-16,16,09:52,EDT,S  18  G 28,10.0,Overcast,BKN019 BKN026 OVC033,66.0,59.0,,,78%,,,29.81,1009.3,,,,2025-03-19,3,2025,9,KIAD
2025-03-16,16,10:52,EDT,S  13  G 33,10.0,Overcast,BKN026 BKN035 OVC042,66.9,59.0,,,76%,,,29.8,1009.2,,,,2025-03-19,3,2025,10,KIAD
2025-03-16,16,11:52,EDT,S  15  G 30,10.0,Overcast,BKN026 OVC034,68.0,59.0,,,73%,,,29.8,1008.9,,,,2025-03-19,3,2025,11,KIAD
2025-03-16,16,12:52,EDT,S  24  G 47,10.0,Overcast and Breezy,SCT026 BKN033 BKN042 BKN130 OVC180,70.0,59.0,,,68%,,,29.74,1007.0,,,,2025-03-19,3,2025,12,KIAD
2025-03-16,16,13:52,EDT,S  17  G 33,10.0,Overcast,FEW029 BKN042 BKN110 BKN180 OVC220,70.0,61.0,71.1,63.0,73%,,,29.72,1006.1,0.01,,0.01,2025-03-19,3,2025,13,KIAD
2025-03-16,16,14:52,EDT,S  30  G 44,10.0,Overcast and Windy,FEW030 BKN036 BKN180 OVC220,73.0,59.0,,,62%,,,29.69,1005.1,,,,2025-03-19,3,2025,14,KIAD
2025-03-16,16,15:52,EDT,S  26  G 46,10.0,Mostly Cloudy and Windy,BKN040 BKN180 BKN250,75.0,57.9,,,55%,,78.0,29.68,1004.8,,,,2025-03-19,3,2025,15,KIAD
2025-03-16,16,16:52,EDT,S  18  G 43,10.0,Mostly Cloudy,BKN041 BKN180,73.9,59.0,,,60%,,,29.67,1004.4,,,,2025-03-19,3,2025,16,KIAD
2025-03-16,16,17:52,EDT,S  22  G 39,10.0,Mostly Cloudy and Breezy,BKN038 BKN180,73.0,59.0,,,62%,,,29.68,1004.9,,,,2025-03-19,3,2025,17,KIAD
2025-03-16,16,18:52,EDT,S  16  G 24,10.0,Mostly Cloudy,BKN034 BKN180,70.0,60.1,,,71%,,,29.67,1004.5,,,,2025-03-19,3,2025,18,KIAD
2025-03-16,16,19:52,EDT,S  10  G 22,10.0,Mostly Cloudy,BKN030 BKN180,70.0,59.0,75.0,70.0,68%,,,29.69,1005.1,,,,2025-03-19,3,2025,19,KIAD
2025-03-16,16,20:52,EDT,S  12  G 23,10.0,Overcast,BKN026 OVC035,69.1,60.1,,,73%,,,29.71,1005.9,,,,2025-03-19,3,2025,20,KIAD
2025-03-16,16,21:52,EDT,S  9,10.0,Mostly Cloudy,BKN029 BKN060 BKN250,69.1,60.1,,,73%,,,29.71,1006.0,,,,2025-03-19,3,2025,21,KIAD
2025-03-16,16,22:52,EDT,Calm,7.0,Light Rain,BKN055 BKN080 OVC100,57.9,54.0,,,87%,,,29.76,1007.4,0.12,0.12,,2025-03-19,3,2025,22,KIAD
2025-03-16,16,23:52,EDT,Calm,10.0,Overcast,BKN055 BKN065 OVC130,57.0,55.0,,,93%,,,29.76,1007.4,0.02,,,2025-03-19,3,2025,23,KIAD
2025-03-17,17,00:52,EDT,N  6,10.0,Mostly Cloudy,BKN080 BKN110,57.9,55.0,,,90%,,,29.75,1007.1,,,,2025-03-20,3,2025,0,KIAD
2025-03-17,17,01:52,EDT,N  5,10.0,Light Rain,SCT080 OVC100,57.9,55.0,70.0,57.0,90%,,,29.78,1008.2,,,0.14,2025-03-20,3,2025,1,KIAD
2025-03-17,17,02:52,EDT,N  10,10.0,Light Rain,FEW080 OVC095,57.9,53.1,,,84%,,,29.78,1008.4,0.01,,,2025-03-20,3,2025,2,KIAD
2025-03-17,17,03:52,EDT,N  10,10.0,Mostly Cloudy,SCT070 BKN120,57.9,51.1,,,78%,,,29.78,1008.4,,,,2025-03-20,3,2025,3,KIAD
2025-03-17,17,04:52,EDT,NW  10,10.0,Partly Cloudy,FEW120 SCT140,55.9,48.9,,,77%,,,29.83,1010.0,,0.01,,2025-03-20,3,2025,4,KIAD
2025-03-17,17,05:52,EDT,N  10,10.0,Mostly Cloudy,BKN030 BKN045,55.0,46.0,,,72%,,,29.84,1010.2,,,,2025-03-20,3,2025,5,KIAD
2025-03-17,17,06:52,EDT,NW  12,10.0,Mostly Cloudy,SCT029 BKN045 BKN180,52.0,41.0,,,66%,,,29.87,1011.5,,,,2025-03-20,3,2025,6,KIAD
2025-03-17,17,07:52,EDT,NW  16  G 23,10.0,Mostly Cloudy,FEW029 SCT045 BKN180,51.1,39.0,57.9,51.1,64%,,,29.9,1012.5,,,0.01,2025-03-20,3,2025,7,KIAD
2025-03-17,17,08:52,EDT,NW  17  G 31,10.0,Mostly Cloudy,FEW045 BKN110 BKN180,50.0,36.0,,,59%,45.0,,29.94,1013.6,,,,2025-03-20,3,2025,8,KIAD
2025-03-17,17,09:52,EDT,NW  20  G 30,10.0,Mostly Cloudy,FEW038 SCT110 BKN180,51.1,34.0,,,52%,,,29.96,1014.3,,,,2025-03-20,3,2025,9,KIAD
2025-03-17,17,10:52,EDT,NW  21  G 31,10.0,Mostly Cloudy and Breezy,FEW044 SCT110 BKN180,53.1,34.0,,,48%,,,29.96,1014.3,,,,2025-03-20,3,2025,10,KIAD
2025-03-17,17,11:52,EDT,NW  21  G 30,10.0,Mostly Cloudy and Breezy,SCT043 BKN110 BKN180,52.0,33.1,,,49%,,,29.97,1014.7,,,,2025-03-20,3,2025,11,KIAD
2025-03-17,17,12:52,EDT,NW  21  G 32,10.0,Mostly Cloudy and Breezy,BKN044 BKN110,52.0,32.0,,,47%,,,29.98,1014.9,,,,2025-03-20,3,2025,12,KIAD
2025-03-17,17,13:52,EDT,NW  25  G 36,10.0,Mostly Cloudy and Breezy,BKN044,53.1,30.9,54.0,50.0,43%,,,29.96,1014.4,,,,2025-03-20,3,2025,13,KIAD
2025-03-17,17,14:52,EDT,NW  24  G 36,10.0,Partly Cloudy and Breezy,SCT047 SCT120,53.1,30.9,,,43%,,,29.96,1014.3,,,,2025-03-20,3,2025,14,KIAD
2025-03-17,17,15:52,EDT,NW  21  G 32,10.0,Partly Cloudy and Breezy,SCT047 SCT120,53.1,30.9,,,43%,,,29.96,1014.4,,,,2025-03-20,3,2025,15,KIAD
2025-03-17,17,16:52,EDT,NW  20,10.0,Mostly Cloudy,FEW032 BKN047 BKN120,52.0,30.0,,,43%,,,29.97,1015.0,,,,2025-03-20,3,2025,16,KIAD
2025-03-17,17,17:52,EDT,NW  17  G 28,10.0,A Few Clouds,FEW049 FEW120,50.0,28.0,,,43%,45.0,,29.98,1015.4,,,,2025-03-20,3,2025,17,KIAD
2025-03-17,17,18:52,EDT,N  24  G 33,10.0,A Few Clouds and Breezy,FEW050 FEW120,46.9,25.0,,,42%,39.0,,30.01,1016.2,,,,2025-03-20,3,2025,18,KIAD
2025-03-17,17,19:52,EDT,N  15  G 25,10.0,A Few Clouds,FEW120,45.0,26.1,54.0,45.0,48%,39.0,,30.02,1016.6,,,,2025-03-20,3,2025,19,KIAD
2025-03-17,17,20:52,EDT,NW  14  G 25,10.0,A Few Clouds,FEW048,44.1,24.1,,,45%,38.0,,30.04,1017.2,,,,2025-03-20,3,2025,20,KIAD
2025-03-17,17,21:52,EDT,N  13  G 25,10.0,Fair,CLR,42.1,25.0,,,51%,36.0,,30.07,1018.2,,,,2025-03-20,3,2025,21,KIAD
2025-03-17,17,22:52,EDT,NW  13  G 25,10.0,Fair,CLR,41.0,24.1,,,51%,34.0,,30.09,1019.0,,,,2025-03-20,3,2025,22,KIAD
2025-03-17,17,23:52,EDT,NW  12,10.0,Fair,CLR,39.9,21.9,,,49%,34.0,,30.08,1018.8,,,,2025-03-20,3,2025,23,KIAD
2025-03-18,18,00:52,EDT,NW  12,10.0,Fair,CLR,39.9,21.9,,,49%,34.0,,30.09,1019.1,,,,2025-03-21,3,2025,0,KIAD
2025-03-18,18,01:52,EDT,NW  12,10.0,Fair,CLR,39.0,21.0,45.0,39.0,48%,32.0,,30.09,1019.2,,,,2025-03-21,3,2025,1,KIAD
2025-03-18,18,02:52,EDT,NW  12,10.0,Fair,CLR,39.0,19.9,,,46%,32.0,,30.1,1019.2,,,,2025-03-21,3,2025,2,KIAD
2025-03-18,18,03:52,EDT,N  10,10.0,Fair,CLR,39.0,19.9,,,46%,33.0,,30.1,1019.3,,,,2025-03-21,3,2025,3,KIAD
2025-03-18,18,04:52,EDT,N  8,10.0,Fair,CLR,39.0,19.9,,,46%,34.0,,30.11,1019.8,,,,2025-03-21,3,2025,4,KIAD
2025-03-18,18,05:52,EDT,NW  12,10.0,Fair,CLR,39.0,19.9,,,46%,32.0,,30.13,1020.3,,,,2025-03-21,3,2025,5,KIAD
2025-03-18,18,06:52,EDT,NW  13,10.0,Fair,CLR,39.0,21.0,,,48%,32.0,,30.14,1020.8,,,,2025-03-21,3,2025,6,KIAD
2025-03-18,18,07:52,EDT,NW  10,10.0,Fair,CLR,39.9,21.0,39.9,39.0,47%,34.0,,30.16,1021.2,,,,2025-03-21,3,2025,7,KIAD
2025-03-18,18,08:52,EDT,N  12,10.0,Fair,CLR,43.0,21.0,,,42%,37.0,,30.17,1021.7,,,,2025-03-21,3,2025,8,KIAD
2025-03-18,18,09:52,EDT,N  9,10.0,Fair,CLR,46.9,21.0,,,36%,43.0,,30.18,1021.9,,,,2025-03-21,3,2025,9,KIAD
2025-03-18,18,10:52,EDT,NW  13  G 20,10.0,Fair,CLR,51.1,21.9,,,32%,,,30.17,1021.7,,,,2025-03-21,3,2025,10,KIAD
2025-03-18,18,11:52,EDT,N  10,10.0,Fair,CLR,55.0,21.0,,,26%,,,30.15,1021.0,,,,2025-03-21,3,2025,11,KIAD
2025-03-18,18,12:52,EDT,N  6,10.0,Fair,CLR,57.9,21.9,,,25%,,,30.14,1020.5,,,,2025-03-21,3,2025,12,KIAD
2025-03-18,18,13:52,EDT,NW  7,10.0,Fair,CLR,61.0,23.0,61.0,39.9,23%,,,30.1,1019.2,,,,2025-03-21,3,2025,13,KIAD
2025-03-18,18,14:52,EDT,Calm,10.0,Fair,CLR,62.1,23.0,,,22%,,,30.07,1018.2,,,,2025-03-21,3,2025,14,KIAD
2025-03-18,18,15:52,EDT,N  6,10.0,Fair,CLR,64.9,21.0,,,19%,,,30.05,1017.6,,,,2025-03-21,3,2025,15,KIAD
2025-03-18,18,16:52,EDT,Vrbl  3,10.0,Fair,CLR,66.0,21.9,,,19%,,,30.04,1017.2,,,,2025-03-21,3,2025,16,KIAD
2025-03-18,18,17:52,EDT,S  6,10.0,Fair,CLR,64.9,21.9,,,19%,,,30.03,1016.9,,,,2025-03-21,3,2025,17,KIAD
2025-03-18,18,18:52,EDT,Calm,10.0,Fair,CLR,62.1,23.0,,,22%,,,30.03,1016.9,,,,2025-03-21,3,2025,18,KIAD
2025-03-18,18,19:52,EDT,S  3,10.0,A Few Clouds,FEW100,52.0,26.1,66.9,52.0,37%,,,30.03,1017.1,,,,2025-03-21,3,2025,19,KIAD
2025-03-18,18,20:52,EDT,SE  5,10.0,Fair,CLR,48.9,27.0,,,43%,48.0,,30.04,1017.3,,,,2025-03-21,3,2025,20,KIAD
2025-03-18,18,21:52,EDT,SE  5,10.0,Fair,CLR,54.0,21.0,,,28%,,,30.06,1017.8,,,,2025-03-21,3,2025,21,KIAD
2025-03-18,18,22:52,EDT,Calm,10.0,Fair,CLR,45.0,26.1,,,48%,,,30.05,1017.6,,,,2025-03-21,3,2025,22,KIAD
2025-03-18,18,23:52,EDT,Calm,10.0,Fair,CLR,43.0,25.0,,,49%,,,30.05,1017.5,,,,2025-03-21,3,2025,23,KIAD
2025-03-19,19,00:52,EDT,Calm,10.0,Fair,CLR,39.9,27.0,,,60%,,,30.05,1017.6,,,,2025-03-22,3,2025,0,KIAD
2025-03-19,19,01:52,EDT,SE  3,10.0,Fair,CLR,39.0,27.0,55.0,37.9,62%,,,30.03,1017.0,,,,2025-03-22,3,2025,1,KIAD
2025-03-19,19,02:52,EDT,Calm,10.0,Fair,CLR,39.0,27.0,,,62%,,,30.03,1017.0,,,,2025-03-22,3,2025,2,KIAD
2025-03-19,19,03:52,EDT,W  3,10.0,Fair,CLR,36.0,27.0,,,70%,,,30.03,1016.8,,,,2025-03-22,3,2025,3,KIAD
2025-03-19,19,04:52,EDT,Calm,10.0,Fair,CLR,35.1,26.1,,,70%,,,30.03,1016.8,,,,2025-03-22,3,2025,4,KIAD
2025-03-19,19,05:52,EDT,Calm,10.0,Fair,CLR,36.0,27.0,,,70%,,,30.04,1017.1,,,,2025-03-22,3,2025,5,KIAD
2025-03-19,19,06:52,EDT,Calm,10.0,Fair,CLR,33.1,26.1,,,75%,,,30.05,1017.4,,,,2025-03-22,3,2025,6,KIAD
2025-03-19,19,07:52,EDT,Calm,8.0,A Few Clouds,FEW250,36.0,28.0,39.9,32.0,73%,,,30.07,1018.2,,,,2025-03-22,3,2025,7,KIAD
2025-03-19,19,08:52,EDT,S  6,10.0,A Few Clouds,FEW250,51.1,34.0,,,52%,,,30.06,1017.9,,,,2025-03-22,3,2025,8,KIAD
2025-03-19,19,09:52,EDT,S  9,10.0,A Few Clouds,FEW250,55.9,30.9,,,39%,,,30.07,1018.1,,,,2025-03-22,3,2025,9,KIAD
2025-03-19,19,10:52,EDT,SW  6,10.0,Mostly Cloudy,FEW090 BKN250,62.1,32.0,,,32%,,,30.05,1017.7,,,,2025-03-22,3,2025,10,KIAD
2025-03-19,19,11:52,EDT,SE  12  G 18,10.0,Mostly Cloudy,SCT150 BKN250,66.9,30.9,,,26%,,,30.03,1016.9,,,,2025-03-22,3,2025,11,KIAD
2025-03-19,19,12:52,EDT,S  13,10.0,Mostly Cloudy,SCT150 BKN250,69.1,28.9,,,22%,,,30.01,1016.1,,,,2025-03-22,3,2025,12,KIAD
2025-03-19,19,13:52,EDT,SE  13  G 21,10.0,Mostly Cloudy,SCT150 BKN250,71.1,30.9,71.1,35.1,23%,,,29.97,1014.9,,,,2025-03-22,3,2025,13,KIAD
2025-03-19,19,14:52,EDT,SE  15  G 23,10.0,Overcast,FEW150 OVC250,73.0,33.1,,,23%,,,29.94,1013.9,,,,2025-03-22,3,2025,14,KIAD
2025-03-19,19,15:52,EDT,SE  13,10.0,Mostly Cloudy,FEW150 BKN250,73.0,33.1,,,23%,,,29.92,1013.1,,,,2025-03-22,3,2025,15,KIAD
2025-03-19,19,16:52,EDT,S  12,10.0,Overcast,BKN150 OVC250,73.0,34.0,,,24%,,,29.89,1012.2,,,,2025-03-22,3,2025,16,KIAD
2025-03-19,19,17:52,EDT,SE  13  G 23,10.0,Overcast,SCT150 OVC250,71.1,33.1,,,25%,,,29.88,1011.8,,,,2025-03-22,3,2025,17,KIAD
2025-03-19,19,18:52,EDT,SE  15,10.0,Overcast,BKN150 OVC250,69.1,33.1,,,26%,,,29.88,1011.8,,,,2025-03-22,3,2025,18,KIAD
2025-03-19,19,19:52,EDT,SE  12  G 22,10.0,Mostly Cloudy,BKN150,66.0,33.1,73.9,66.0,29%,,,29.88,1011.8,,,,2025-03-22,3,2025,19,KIAD
2025-03-19,19,20:52,EDT,SE  12  G 20,10.0,Mostly Cloudy,BKN150,63.0,34.0,,,34%,,,29.88,1011.8,,,,2025-03-22,3,2025,20,KIAD
2025-03-19,19,21:52,EDT,S  15  G 24,10.0,Mostly Cloudy,BKN150,62.1,33.1,,,34%,,,29.86,1011.1,,,,2025-03-22,3,2025,21,KIAD
2025-03-19,19,22:52,EDT,S  12  G 21,10.0,Overcast,OVC250,60.1,30.9,,,33%,,,29.88,1011.6,,,,2025-03-22,3,2025,22,KIAD
2025-03-19,19,23:52,EDT,SE  13  G 22,10.0,Overcast,OVC250,57.0,28.0,,,33%,,,29.86,1011.0,,,,2025-03-23,3,2025,23,KIAD
2025-03-20,20,00:52,EDT,S  12  G 22,10.0,Overcast,OVC220,55.0,28.0,,,36%,,,29.84,1010.3,,,,2025-03-23,3,2025,0,KIAD
2025-03-20,20,01:52,EDT,SE  14  G 22,10.0,Mostly Cloudy,BKN200,54.0,27.0,66.0,54.0,35%,,,29.82,1009.5,,,,2025-03-23,3,2025,1,KIAD
2025-03-20,20,02:52,EDT,S  8,10.0,Overcast,OVC240,53.1,26.1,,,35%,,,29.81,1009.1,,,,2025-03-23,3,2025,2,KIAD
2025-03-20,20,03:52,EDT,S  6,10.0,Partly Cloudy,SCT240,51.1,25.0,,,36%,,,29.79,1008.7,,,,2025-03-23,3,2025,3,KIAD
2025-03-20,20,04:52,EDT,SE  7,10.0,A Few Clouds,FEW240,48.0,25.0,,,41%,45.0,,29.77,1008.1,,,,2025-03-23,3,2025,4,KIAD
2025-03-20,20,05:52,EDT,SE  7,10.0,A Few Clouds,FEW240,48.0,27.0,,,44%,45.0,,29.76,1007.8,,,,2025-03-23,3,2025,5,KIAD
2025-03-20,20,06:52,EDT,SE  7,10.0,A Few Clouds,FEW220,46.9,28.0,,,48%,44.0,,29.74,1007.0,,,,2025-03-23,3,2025,6,KIAD
2025-03-20,20,07:52,EDT,SE  5,10.0,A Few Clouds,FEW160,46.9,28.0,54.0,44.1,48%,45.0,,29.73,1006.7,,,,2025-03-23,3,2025,7,KIAD
2025-03-20,20,08:52,EDT,S  6,10.0,Partly Cloudy,FEW090 SCT120,53.1,33.1,,,47%,,,29.71,1006.1,,,,2025-03-23,3,2025,8,KIAD
2025-03-20,20,09:52,EDT,S  12,10.0,Partly Cloudy,FEW120 SCT220,57.9,36.0,,,44%,,,29.69,1005.4,,,,2025-03-23,3,2025,9,KIAD
2025-03-20,20,10:52,EDT,S  13  G 23,10.0,Partly Cloudy,SCT130 SCT220,61.0,37.9,,,43%,,,29.67,1004.5,,,,2025-03-23,3,2025,10,KIAD
2025-03-20,20,11:52,EDT,S  10,10.0,Mostly Cloudy,SCT140 BKN220,64.9,39.9,,,40%,,,29.63,1003.4,,,,2025-03-23,3,2025,11,KIAD
2025-03-20,20,12:52,EDT,S  13,10.0,Mostly Cloudy,FEW140 BKN220,70.0,39.9,,,34%,,,29.58,1001.3,,,,2025-03-23,3,2025,12,KIAD
2025-03-20,20,13:52,EDT,S  13  G 23,10.0,Mostly Cloudy,FEW080 SCT130 BKN220,73.0,39.9,73.0,46.9,30%,,,29.54,1000.0,,,,2025-03-23,3,2025,13,KIAD
2025-03-20,20,14:52,EDT,S  12  G 20,10.0,Mostly Cloudy,SCT090 BKN200,73.9,43.0,,,33%,,,29.5,998.6,,,,2025-03-23,3,2025,14,KIAD
2025-03-20,20,15:52,EDT,SW  13  G 24,10.0,Mostly Cloudy,BKN070 BKN140 BKN200,75.0,46.0,,,36%,,77.0,29.48,998.0,,,,2025-03-23,3,2025,15,KIAD
2025-03-20,20,16:52,EDT,SW  9,10.0,Mostly Cloudy,SCT040CB BKN070,73.9,46.0,,,37%,,,29.43,996.5,,,,2025-03-23,3,2025,16,KIAD
2025-03-20,20,17:52,EDT,NW  17  G 35,10.0,Light Rain,BKN040CB OVC075,64.9,44.1,,,47%,,,29.47,997.9,,,,2025-03-23,3,2025,17,KIAD
2025-03-20,20,18:52,EDT,NW  22  G 29,6.0,Rain and Breezy,FEW036 SCT050 OVC070,57.0,50.0,,,78%,,,29.55,1000.7,0.05,,,2025-03-23,3,2025,18,KIAD
2025-03-20,20,19:52,EDT,N  14,7.0,Light Rain,BKN021 OVC034CB,52.0,45.0,77.0,52.0,77%,,,29.55,1000.8,0.09,,0.14,2025-03-23,3,2025,19,KIAD
2025-03-20,20,20:52,EDT,NW  9,10.0,Overcast,SCT037 OVC065,53.1,45.0,,,74%,,,29.58,1001.5,,,,2025-03-23,3,2025,20,KIAD
2025-03-20,20,21:52,EDT,NW  20  G 28,10.0,Overcast,OVC065,53.1,36.0,,,52%,,,29.62,1002.9,,,,2025-03-23,3,2025,21,KIAD
2025-03-20,20,22:52,EDT,NW  18  G 30,10.0,A Few Clouds,FEW080,51.1,34.0,,,52%,,,29.62,1002.9,,,,2025-03-23,3,2025,22,KIAD
2025-03-20,20,23:52,EDT,NW  23  G 36,10.0,Mostly Cloudy and Breezy,BKN060,50.0,33.1,,,52%,44.0,,29.66,1004.3,,,,2025-03-23,3,2025,23,KIAD
2025-03-21,21,00:52,EDT,NW  15  G 25,10.0,Mostly Cloudy,SCT049 BKN065,46.9,30.9,,,54%,41.0,,29.68,1004.9,,,,2025-03-24,3,2025,0,KIAD
2025-03-21,21,01:52,EDT,NW  26  G 37,10.0,Mostly Cloudy and Windy,BKN047 BKN060,46.0,30.0,53.1,46.0,54%,38.0,,29.7,1005.6,,,,2025-03-24,3,2025,1,KIAD
2025-03-21,21,02:52,EDT,NW  30  G 38,10.0,Overcast and Windy,OVC049,44.1,26.1,,,49%,35.0,,29.71,1005.9,,,,2025-03-24,3,2025,2,KIAD
2025-03-21,21,03:52,EDT,NW  20  G 31,10.0,Overcast,OVC049,44.1,26.1,,,49%,37.0,,29.73,1006.6,,,,2025-03-24,3,2025,3,KIAD
2025-03-21,21,04:52,EDT,NW  20  G 30,10.0,Mostly Cloudy,BKN048,41.0,25.0,,,53%,33.0,,29.78,1008.2,,,,2025-03-24,3,2025,4,KIAD
2025-03-21,21,05:52,EDT,NW  16  G 25,10.0,Mostly Cloudy,BKN042,39.9,23.0,,,51%,32.0,,29.81,1009.4,,,,2025-03-24,3,2025,5,KIAD
2025-03-21,21,06:52,EDT,NW  15  G 29,10.0,A Few Clouds,FEW045,37.9,21.0,,,51%,30.0,,29.85,1010.9,,,,2025-03-24,3,2025,6,KIAD
2025-03-21,21,07:52,EDT,NW  18  G 28,10.0,A Few Clouds,FEW045,39.0,21.0,46.0,37.0,48%,30.0,,29.88,1011.7,,,,2025-03-24,3,2025,7,KIAD
2025-03-21,21,08:52,EDT,NW  16  G 26,10.0,A Few Clouds,FEW040,42.1,21.9,,,45%,35.0,,29.9,1012.5,,,,2025-03-24,3,2025,8,KIAD
2025-03-21,21,09:52,EDT,NW  24  G 37,10.0,A Few Clouds and Breezy,FEW040,44.1,21.9,,,41%,36.0,,29.9,1012.5,,,,2025-03-24,3,2025,9,KIAD
2025-03-21,21,10:52,EDT,NW  25  G 35,10.0,A Few Clouds and Breezy,FEW040,46.9,21.9,,,37%,39.0,,29.9,1012.6,,,,2025-03-24,3,2025,10,KIAD
2025-03-21,21,11:52,EDT,NW  21  G 32,10.0,Fair and Breezy,CLR,48.9,21.9,,,35%,43.0,,29.92,1013.3,,,,2025-03-24,3,2025,11,KIAD
2025-03-21,21,12:52,EDT,NW  17  G 30,10.0,Fair,CLR,51.1,21.0,,,31%,,,29.92,1013.1,,,,2025-03-24,3,2025,12,KIAD
2025-03-21,21,13:52,EDT,NW  14  G 29,10.0,Fair,CLR,53.1,19.0,54.0,39.0,26%,,,29.9,1012.6,,,,2025-03-24,3,2025,13,KIAD
2025-03-21,21,14:52,EDT,W  18  G 28,10.0,A Few Clouds,FEW250,55.0,19.9,,,25%,,,29.9,1012.4,,,,2025-03-24,3,2025,14,KIAD
2025-03-21,21,15:52,EDT,NW  17  G 26,10.0,A Few Clouds,FEW250,57.0,19.0,,,23%,,,29.89,1012.3,,,,2025-03-24,3,2025,15,KIAD
2025-03-21,21,16:52,EDT,NW  13  G 23,10.0,A Few Clouds,FEW250,57.9,19.0,,,22%,,,29.88,1011.7,,,,2025-03-24,3,2025,16,KIAD
2025-03-21,21,17:52,EDT,W  13,10.0,Mostly Cloudy,FEW200 BKN250,57.9,21.9,,,25%,,,29.88,1011.7,,,,2025-03-24,3,2025,17,KIAD
2025-03-21,21,18:52,EDT,W  10,10.0,Mostly Cloudy,BKN250,55.9,21.9,,,27%,,,29.89,1012.4,,,,2025-03-24,3,2025,18,KIAD
2025-03-21,21,19:52,EDT,W  5,10.0,Mostly Cloudy,BKN250,50.0,23.0,59.0,50.0,35%,49.0,,29.91,1012.8,,,,2025-03-24,3,2025,19,KIAD
2025-03-21,21,20:52,EDT,Calm,10.0,Partly Cloudy,SCT250,43.0,24.1,,,47%,,,29.91,1013.0,,,,2025-03-24,3,2025,20,KIAD
2025-03-21,21,21:52,EDT,S  5,10.0,Mostly Cloudy,BKN190,43.0,26.1,,,51%,41.0,,29.93,1013.5,,,,2025-03-24,3,2025,21,KIAD
2025-03-21,21,22:52,EDT,W  3,10.0,Mostly Cloudy,BKN190,50.0,23.0,,,35%,,,29.91,1013.0,,,,2025-03-24,3,2025,22,KIAD
2025-03-21,21,23:52,EDT,N  3,10.0,Overcast,OVC200,46.9,25.0,,,42%,,,29.91,1012.7,,,,2025-03-24,3,2025,23,KIAD
2025-03-22,22,00:52,EDT,S  7,10.0,Overcast,OVC200,45.0,25.0,,,46%,42.0,,29.92,1013.3,,,,2025-03-25,3,2025,0,KIAD
2025-03-22,22,01:52,EDT,SE  5,10.0,Overcast,OVC200,39.9,27.0,52.0,39.9,60%,37.0,,29.9,1012.7,,,,2025-03-25,3,2025,1,KIAD
2025-03-22,22,02:52,EDT,SE  6,10.0,Overcast,OVC200,39.9,26.1,,,58%,36.0,,29.87,1011.5,,,,2025-03-25,3,2025,2,KIAD
2025-03-22,22,03:52,EDT,S  6,10.0,Overcast,OVC200,45.0,24.1,,,44%,42.0,,29.85,1010.7,,,,2025-03-25,3,2025,3,KIAD
2025-03-22,22,04:52,EDT,S  7,10.0,Mostly Cloudy,BKN200,43.0,24.1,,,47%,39.0,,29.83,1009.9,,,,2025-03-25,3,2025,4,KIAD
2025-03-22,22,05:52,EDT,S  3,10.0,Mostly Cloudy,BKN200,39.9,24.1,,,53%,,,29.83,1010.2,,,,2025-03-25,3,2025,5,KIAD
2025-03-22,22,06:52,EDT,S  8,10.0,Mostly Cloudy,BKN200,43.0,25.0,,,49%,39.0,,29.82,1009.9,,,,2025-03-25,3,2025,6,KIAD
2025-03-22,22,07:52,EDT,S  9,10.0,Mostly Cloudy,SCT120 BKN200,44.1,25.0,46.0,39.9,47%,40.0,,29.81,1009.5,,,,2025-03-25,3,2025,7,KIAD
2025-03-22,22,08:52,EDT,S  10,10.0,Mostly Cloudy,BKN160 BKN220,46.0,25.0,,,44%,42.0,,29.79,1008.9,,,,2025-03-25,3,2025,8,KIAD
2025-03-22,22,09:52,EDT,S  10,10.0,Mostly Cloudy,BKN160 BKN240,48.0,26.1,,,42%,44.0,,29.79,1008.7,,,,2025-03-25,3,2025,9,KIAD
2025-03-22,22,10:52,EDT,S  13,10.0,Mostly Cloudy,BKN120 BKN240,55.9,26.1,,,32%,,,29.77,1008.0,,,,2025-03-25,3,2025,10,KIAD
2025-03-22,22,11:52,EDT,S  12,10.0,Mostly Cloudy,BKN160,61.0,27.0,,,27%,,,29.75,1007.3,,,,2025-03-25,3,2025,11,KIAD
2025-03-22,22,12:52,EDT,W  14  G 25,10.0,Overcast,BKN090 OVC110,61.0,28.0,,,29%,,,29.75,1007.5,,,,2025-03-25,3,2025,12,KIAD
2025-03-22,22,13:52,EDT,W  15  G 25,10.0,Mostly Cloudy,SCT065 BKN090 BKN100,66.0,30.0,66.0,44.1,26%,,,29.74,1007.1,,,,2025-03-25,3,2025,13,KIAD
2025-03-22,22,14:52,EDT,W  21  G 38,10.0,Mostly Cloudy and Breezy,BKN085 BKN110,64.9,28.0,,,25%,,,29.75,1007.3,,,,2025-03-25,3,2025,14,KIAD
2025-03-22,22,15:52,EDT,W  18  G 32,10.0,Mostly Cloudy,BKN090,66.0,28.0,,,24%,,,29.75,1007.4,,,,2025-03-25,3,2025,15,KIAD
2025-03-22,22,16:52,EDT,NW  26  G 41,10.0,Partly Cloudy and Windy,SCT090,64.9,28.0,,,25%,,,29.77,1008.1,,,,2025-03-25,3,2025,16,KIAD
2025-03-22,22,17:52,EDT,W  20  G 35,10.0,Partly Cloudy,SCT100,62.1,28.0,,,28%,,,29.81,1009.5,,,,2025-03-25,3,2025,17,KIAD
2025-03-22,22,18:52,EDT,NW  16  G 26,10.0,Partly Cloudy,SCT090,59.0,30.9,,,35%,,,29.85,1010.8,,,,2025-03-25,3,2025,18,KIAD
2025-03-22,22,19:52,EDT,NW  21  G 35,10.0,A Few Clouds and Breezy,FEW090,55.0,33.1,66.9,55.0,44%,,,29.9,1012.5,,,,2025-03-25,3,2025,19,KIAD
2025-03-22,22,20:52,EDT,NW  16  G 24,10.0,A Few Clouds,FEW085,54.0,30.9,,,42%,,,29.93,1013.4,,,,2025-03-25,3,2025,20,KIAD
2025-03-22,22,21:52,EDT,NW  9,10.0,Mostly Cloudy,BKN080,51.1,35.1,,,54%,,,29.97,1014.8,,,,2025-03-25,3,2025,21,KIAD
2025-03-22,22,22:52,EDT,NW  12,10.0,Mostly Cloudy,BKN075,50.0,33.1,,,52%,46.0,,29.99,1015.4,,,,2025-03-25,3,2025,22,KIAD
2025-03-22,22,23:52,EDT,NW  12  G 18,10.0,Mostly Cloudy,BKN075,48.9,32.0,,,52%,45.0,,30.0,1015.9,,,,2025-03-25,3,2025,23,KIAD
2025-03-23,23,00:52,EDT,N  12,10.0,Partly Cloudy,SCT070,48.0,30.9,,,52%,44.0,,30.02,1016.6,,,,2025-03-26,3,2025,0,KIAD
2025-03-23,23,01:52,EDT,N  10,10.0,Partly Cloudy,SCT070,46.0,30.0,55.0,46.0,54%,42.0,,30.05,1017.3,,,,2025-03-26,3,2025,1,KIAD
2025-03-23,23,02:52,EDT,N  13,10.0,A Few Clouds,FEW070,44.1,28.0,,,53%,38.0,,30.07,1018.2,,,,2025-03-26,3,2025,2,KIAD
2025-03-23,23,03:52,EDT,N  14  G 18,10.0,Fair,CLR,43.0,27.0,,,53%,37.0,,30.08,1018.6,,,,2025-03-26,3,2025,3,KIAD
2025-03-23,23,04:52,EDT,NE  9,10.0,Fair,CLR,39.9,26.1,,,58%,34.0,,30.11,1019.7,,,,2025-03-26,3,2025,4,KIAD
2025-03-23,23,05:52,EDT,N  9,10.0,Fair,CLR,39.0,23.0,,,53%,33.0,,30.14,1020.5,,,,2025-03-26,3,2025,5,KIAD
2025-03-23,23,06:52,EDT,N  7,10.0,A Few Clouds,FEW250,37.9,21.9,,,52%,33.0,,30.16,1021.3,,,,2025-03-26,3,2025,6,KIAD
2025-03-23,23,07:52,EDT,N  8,10.0,Partly Cloudy,SCT250,37.9,21.9,46.0,36.0,52%,33.0,,30.19,1022.4,,,,2025-03-26,3,2025,7,KIAD
2025-03-23,23,08:52,EDT,N  12,10.0,A Few Clouds,FEW250,39.9,21.0,,,47%,34.0,,30.2,1022.7,,,,2025-03-26,3,2025,8,KIAD
2025-03-23,23,09:52,EDT,NE  7,10.0,Partly Cloudy,SCT250,43.0,23.0,,,45%,39.0,,30.21,1023.1,,,,2025-03-26,3,2025,9,KIAD
2025-03-23,23,10:52,EDT,NW  7,10.0,Mostly Cloudy,FEW080 BKN250,44.1,23.0,,,43%,41.0,,30.21,1023.0,,,,2025-03-26,3,2025,10,KIAD
2025-03-23,23,11:52,EDT,N  7,10.0,Mostly Cloudy,FEW120 BKN250,46.9,24.1,,,41%,44.0,,30.2,1022.6,,,,2025-03-26,3,2025,11,KIAD
2025-03-23,23,12:52,EDT,Vrbl  6,10.0,Mostly Cloudy,FEW120 BKN250,50.0,24.1,,,36%,48.0,,30.18,1022.1,,,,2025-03-26,3,2025,12,KIAD
2025-03-25,25,07:52,EDT,W  6,10.0,A Few Clouds,FEW200,48.9,24.1,55.9,41.0,38%,47.0,,29.97,1014.7,,,,2025-03-26,3,2025,7,KIAD
2025-03-23,23,13:52,EDT,Vrbl  5,10.0,Mostly Cloudy,FEW110 BKN250,52.0,26.1,53.1,37.9,37%,,,30.16,1021.2,,,,2025-03-26,3,2025,13,KIAD
2025-03-23,23,14:52,EDT,E  6,10.0,Partly Cloudy,FEW120 SCT250,55.0,27.0,,,34%,,,30.11,1019.6,,,,2025-03-26,3,2025,14,KIAD
2025-03-23,23,15:52,EDT,Vrbl  5,10.0,Partly Cloudy,FEW120 SCT250,55.9,27.0,,,33%,,,30.1,1019.1,,,,2025-03-26,3,2025,15,KIAD
2025-03-23,23,16:52,EDT,E  5,10.0,Mostly Cloudy,BKN120 BKN250,57.0,28.0,,,33%,,,30.08,1018.6,,,,2025-03-26,3,2025,16,KIAD
2025-03-23,23,17:52,EDT,SE  7,10.0,Mostly Cloudy,BKN120 BKN250,57.0,28.9,,,34%,,,30.08,1018.6,,,,2025-03-26,3,2025,17,KIAD
2025-03-23,23,18:52,EDT,SE  8,10.0,Mostly Cloudy,BKN120,55.9,28.0,,,34%,,,30.06,1018.1,,,,2025-03-26,3,2025,18,KIAD
2025-03-23,23,19:52,EDT,SE  14  G 20,10.0,Overcast,BKN110 OVC200,55.9,28.9,57.9,52.0,36%,,,30.03,1017.0,,,,2025-03-26,3,2025,19,KIAD
2025-03-23,23,20:52,EDT,SE  9,10.0,Overcast,BKN120 OVC200,51.1,28.9,,,43%,,,30.05,1017.7,,,,2025-03-26,3,2025,20,KIAD
2025-03-23,23,21:52,EDT,SE  9,10.0,Overcast,OVC100,50.0,30.0,,,46%,47.0,,30.04,1017.3,,,,2025-03-26,3,2025,21,KIAD
2025-03-23,23,22:52,EDT,SE  10,10.0,Mostly Cloudy,BKN110,50.0,33.1,,,52%,46.0,,30.02,1016.6,,,,2025-03-26,3,2025,22,KIAD
2025-03-23,23,23:52,EDT,SE  10,10.0,Overcast,OVC100,50.0,35.1,,,57%,46.0,,30.0,1016.0,,,,2025-03-26,3,2025,23,KIAD
2025-03-24,24,00:52,EDT,SE  9,10.0,Overcast,OVC100,48.9,37.0,,,64%,45.0,,29.97,1014.9,,,,2025-03-27,3,2025,0,KIAD
2025-03-24,24,01:52,EDT,SE  9,10.0,Overcast,OVC020,48.9,39.0,55.9,48.9,69%,45.0,,29.96,1014.5,,,,2025-03-27,3,2025,1,KIAD
2025-03-24,24,02:52,EDT,S  7,10.0,Overcast,OVC019,50.0,39.9,,,68%,48.0,,29.94,1013.9,,,,2025-03-27,3,2025,2,KIAD
2025-03-24,24,03:52,EDT,SE  10  G 21,10.0,Overcast,OVC018,48.9,42.1,,,77%,45.0,,29.89,1012.3,,,,2025-03-27,3,2025,3,KIAD
2025-03-24,24,04:52,EDT,SE  10,10.0,Overcast,OVC017,48.9,42.1,,,77%,45.0,,29.87,1011.4,,,,2025-03-27,3,2025,4,KIAD
2025-03-24,24,05:52,EDT,S  9,10.0,Overcast,OVC016,48.9,42.1,,,77%,45.0,,29.86,1011.2,,,,2025-03-27,3,2025,5,KIAD
2025-03-24,24,06:52,EDT,SE  9,10.0,Overcast,OVC015,48.9,43.0,,,80%,45.0,,29.83,1010.2,,,,2025-03-27,3,2025,6,KIAD
2025-03-24,24,07:52,EDT,S  5,10.0,Overcast,OVC014,48.9,43.0,50.0,48.0,80%,48.0,,29.84,1010.6,,,,2025-03-27,3,2025,7,KIAD
2025-03-24,24,08:52,EDT,S  7,10.0,Overcast,OVC012,48.9,44.1,,,83%,46.0,,29.83,1010.0,,,,2025-03-27,3,2025,8,KIAD
2025-03-24,24,09:52,EDT,S  10,10.0,Overcast,OVC011,50.0,45.0,,,83%,46.0,,29.81,1009.5,,,,2025-03-27,3,2025,9,KIAD
2025-03-24,24,10:52,EDT,S  6,9.0,Light Rain,SCT012 BKN037 OVC080,51.1,46.9,,,86%,,,29.8,1009.2,0.01,0.01,,2025-03-27,3,2025,10,KIAD
2025-03-24,24,11:52,EDT,Vrbl  5,10.0,Overcast,BKN013 OVC049,52.0,46.9,,,83%,,,29.79,1008.6,,,,2025-03-27,3,2025,11,KIAD
2025-03-24,24,12:52,EDT,Vrbl  6,10.0,Overcast,FEW014 BKN045 OVC070,54.0,46.0,,,75%,,,29.77,1007.9,,,,2025-03-27,3,2025,12,KIAD
2025-03-24,24,13:52,EDT,S  7,10.0,Overcast,FEW018 BKN040 OVC080,55.9,46.9,57.0,48.9,72%,,,29.75,1007.5,,,0.01,2025-03-27,3,2025,13,KIAD
2025-03-24,24,14:52,EDT,SE  7,10.0,Mostly Cloudy,FEW027 BKN050 BKN250,55.0,48.9,,,80%,,,29.73,1006.7,,,,2025-03-27,3,2025,14,KIAD
2025-03-24,24,15:52,EDT,SE  9,10.0,Mostly Cloudy,FEW033 SCT055 BKN250,59.0,48.0,,,67%,,,29.71,1006.1,,,,2025-03-27,3,2025,15,KIAD
2025-03-24,24,16:52,EDT,S  9,10.0,Partly Cloudy,FEW029 SCT048 SCT250,62.1,48.9,,,62%,,,29.7,1005.6,,,,2025-03-27,3,2025,16,KIAD
2025-03-24,24,17:52,EDT,S  9,10.0,Partly Cloudy,FEW032 SCT250,61.0,50.0,,,67%,,,29.71,1005.8,,,,2025-03-27,3,2025,17,KIAD
2025-03-24,24,18:52,EDT,SW  3,10.0,Partly Cloudy,FEW032 SCT250,60.1,48.9,,,67%,,,29.74,1007.0,,,,2025-03-27,3,2025,18,KIAD
2025-03-24,24,19:52,EDT,NW  12,10.0,Mostly Cloudy,FEW035 BKN200,59.0,26.1,62.1,55.0,28%,,,29.78,1008.4,,,,2025-03-27,3,2025,19,KIAD
2025-03-24,24,20:52,EDT,W  6,10.0,A Few Clouds,FEW200,55.9,25.0,,,30%,,,29.8,1009.1,,,,2025-03-27,3,2025,20,KIAD
2025-03-24,24,21:52,EDT,W  7,10.0,A Few Clouds,FEW200,57.9,25.0,,,28%,,,29.83,1010.0,,,,2025-03-27,3,2025,21,KIAD
2025-03-24,24,22:52,EDT,W  6,10.0,Mostly Cloudy,BKN200,57.9,24.1,,,27%,,,29.84,1010.2,,,,2025-03-27,3,2025,22,KIAD
2025-03-24,24,23:52,EDT,W  3,10.0,Mostly Cloudy,FEW095 BKN200,55.0,26.1,,,33%,,,29.85,1010.7,,,,2025-03-27,3,2025,23,KIAD
2025-03-25,25,00:52,EDT,W  10,10.0,Overcast,OVC140,55.9,25.0,,,30%,,,29.85,1010.8,,,,2025-03-28,3,2025,0,KIAD
2025-03-25,25,01:52,EDT,NW  9,10.0,Overcast,OVC140,55.0,24.1,59.0,54.0,30%,,,29.86,1011.1,,,,2025-03-28,3,2025,1,KIAD
2025-03-25,25,02:52,EDT,NW  9,10.0,Overcast,OVC140,54.0,25.0,,,33%,,,29.88,1011.6,,,,2025-03-28,3,2025,2,KIAD
2025-03-25,25,03:52,EDT,NW  8,10.0,Overcast,BKN130 OVC160,52.0,24.1,,,34%,,,29.88,1011.7,,,,2025-03-28,3,2025,3,KIAD
2025-03-25,25,04:52,EDT,NW  9,10.0,Overcast,BKN160 OVC190,52.0,21.9,,,31%,,,29.91,1012.6,,,,2025-03-28,3,2025,4,KIAD
2025-03-25,25,05:52,EDT,NW  6,10.0,Mostly Cloudy,BKN220,50.0,23.0,,,35%,48.0,,29.93,1013.5,,,,2025-03-28,3,2025,5,KIAD
2025-03-25,25,06:52,EDT,Calm,10.0,Mostly Cloudy,BKN220,42.1,25.0,,,51%,,,29.95,1014.1,,,,2025-03-28,3,2025,6,KIAD
2025-03-25,25,08:52,EDT,W  12,10.0,A Few Clouds,FEW250,53.1,23.0,,,31%,,,29.97,1014.7,,,,2025-03-28,3,2025,8,KIAD
2025-03-25,25,09:52,EDT,W  16  G 25,10.0,A Few Clouds,FEW220,55.0,21.9,,,28%,,,29.96,1014.4,,,,2025-03-28,3,2025,9,KIAD
2025-03-25,25,10:52,EDT,W  12  G 24,10.0,A Few Clouds,FEW200,55.9,21.0,,,26%,,,29.97,1014.8,,,,2025-03-28,3,2025,10,KIAD
2025-03-25,25,11:52,EDT,W  12,10.0,A Few Clouds,FEW220,55.0,23.0,,,29%,,,29.95,1014.1,,,,2025-03-28,3,2025,11,KIAD
2025-03-25,25,12:52,EDT,Vrbl  6  G 18,10.0,Mostly Cloudy,BKN250,60.1,23.0,,,24%,,,29.92,1013.0,,,,2025-03-28,3,2025,12,KIAD
2025-03-25,25,13:52,EDT,W  10  G 21,10.0,Mostly Cloudy,FEW050 FEW100 BKN200,61.0,23.0,62.1,48.9,23%,,,29.9,1012.5,,,,2025-03-28,3,2025,13,KIAD
2025-03-25,25,14:52,EDT,SW  8,10.0,Mostly Cloudy,FEW070 BKN150 BKN250,61.0,24.1,,,24%,,,29.86,1011.2,,,,2025-03-28,3,2025,14,KIAD
2025-03-25,25,15:52,EDT,W  7,10.0,Mostly Cloudy,FEW070 BKN140 BKN250,62.1,24.1,,,23%,,,29.85,1010.7,,,,2025-03-28,3,2025,15,KIAD
2025-03-25,25,16:52,EDT,W  15,10.0,Overcast,BKN065 OVC100,60.1,27.0,,,28%,,,29.86,1011.0,,,,2025-03-28,3,2025,16,KIAD
2025-03-25,25,17:52,EDT,W  12  G 21,10.0,Overcast,OVC060,59.0,30.0,,,33%,,,29.87,1011.4,,,,2025-03-28,3,2025,17,KIAD
2025-03-25,25,18:52,EDT,NW  14,10.0,Overcast,OVC060,57.0,30.9,,,37%,,,29.91,1012.7,,,,2025-03-28,3,2025,18,KIAD
2025-03-25,25,19:52,EDT,NW  18  G 29,10.0,Overcast,BKN060 OVC080,55.0,33.1,63.0,55.0,44%,,,29.93,1013.6,,,,2025-03-28,3,2025,19,KIAD
2025-03-25,25,20:52,EDT,N  3,10.0,Overcast,OVC070,53.1,33.1,,,47%,,,29.96,1014.6,,,,2025-03-28,3,2025,20,KIAD
2025-03-25,25,21:52,EDT,W  12,10.0,Mostly Cloudy,BKN070 BKN140,52.0,30.0,,,43%,,,29.97,1015.0,,,,2025-03-28,3,2025,21,KIAD
2025-03-25,25,22:52,EDT,W  16,10.0,Mostly Cloudy,BKN150,51.1,30.0,,,45%,,,29.98,1015.2,,,,2025-03-28,3,2025,22,KIAD
2025-03-25,25,23:52,EDT,NW  10,10.0,Mostly Cloudy,BKN160,48.0,30.0,,,50%,44.0,,30.0,1015.7,,,,2025-03-29,3,2025,23,KIAD
2025-03-26,26,00:52,EDT,NW  7,10.0,Mostly Cloudy,FEW120 BKN140,46.0,30.0,,,54%,43.0,,30.01,1016.2,,,,2025-03-29,3,2025,0,KIAD
2025-03-26,26,01:52,EDT,NW  6,10.0,Partly Cloudy,FEW110 SCT140,45.0,28.9,55.0,42.1,54%,42.0,,30.01,1016.3,,,,2025-03-29,3,2025,1,KIAD
2025-03-26,26,02:52,EDT,NW  15,10.0,Overcast,OVC130,46.9,30.0,,,52%,41.0,,30.01,1016.4,,,,2025-03-29,3,2025,2,KIAD
2025-03-26,26,03:52,EDT,NW  9,10.0,Overcast,OVC090,46.0,30.9,,,56%,42.0,,30.0,1016.0,,,,2025-03-29,3,2025,3,KIAD
2025-03-26,26,04:52,EDT,W  14  G 21,10.0,Overcast,OVC080,46.0,30.9,,,56%,40.0,,30.02,1016.5,,,,2025-03-29,3,2025,4,KIAD
2025-03-26,26,05:52,EDT,NW  12  G 25,10.0,Overcast,OVC090,45.0,30.9,,,58%,40.0,,30.04,1017.1,,,,2025-03-29,3,2025,5,KIAD
2025-03-26,26,06:52,EDT,NW  12,10.0,Overcast,OVC075,45.0,30.9,,,58%,40.0,,30.05,1017.6,,,,2025-03-29,3,2025,6,KIAD
2025-03-26,26,07:52,EDT,W  14,10.0,Partly Cloudy,FEW055 SCT110,43.0,30.0,46.9,43.0,60%,37.0,,30.07,1018.4,,,,2025-03-29,3,2025,7,KIAD
2025-03-26,26,08:52,EDT,W  16  G 29,10.0,A Few Clouds,FEW050,46.9,25.0,,,42%,41.0,,30.08,1018.6,,,,2025-03-29,3,2025,8,KIAD
2025-03-26,26,09:52,EDT,NW  21  G 30,10.0,A Few Clouds and Breezy,FEW050,48.0,21.0,,,34%,41.0,,30.1,1019.1,,,,2025-03-29,3,2025,9,KIAD
2025-03-26,26,10:52,EDT,W  16  G 28,10.0,Partly Cloudy,SCT055,48.0,21.0,,,34%,42.0,,30.12,1019.8,,,,2025-03-29,3,2025,10,KIAD
2025-03-26,26,11:52,EDT,NW  23  G 38,10.0,Mostly Cloudy and Breezy,BKN055,48.0,19.9,,,33%,41.0,,30.11,1019.5,,,,2025-03-29,3,2025,11,KIAD
2025-03-26,26,12:52,EDT,W  17  G 36,10.0,Partly Cloudy,SCT065,48.0,17.1,,,29%,42.0,,30.12,1020.0,,,,2025-03-29,3,2025,12,KIAD
2025-03-26,26,13:52,EDT,NW  18  G 32,10.0,Partly Cloudy,SCT070,50.0,18.0,52.0,43.0,28%,44.0,,30.1,1019.4,,,,2025-03-29,3,2025,13,KIAD
2025-03-26,26,14:52,EDT,NW  20  G 31,10.0,Partly Cloudy,SCT070,53.1,19.0,,,26%,,,30.1,1019.1,,,,2025-03-29,3,2025,14,KIAD
2025-03-26,26,15:52,EDT,NW  20  G 35,10.0,A Few Clouds,FEW075,53.1,19.0,,,26%,,,30.09,1018.9,,,,2025-03-29,3,2025,15,KIAD
2025-03-26,26,16:52,EDT,NW  16  G 32,10.0,A Few Clouds,FEW075,53.1,17.1,,,24%,,,30.1,1019.4,,,,2025-03-29,3,2025,16,KIAD
2025-03-26,26,17:52,EDT,NW  18  G 30,10.0,A Few Clouds,FEW075,52.0,16.0,,,24%,,,30.12,1020.0,,,,2025-03-29,3,2025,17,KIAD
2025-03-26,26,18:52,EDT,NW  16  G 25,10.0,A Few Clouds,FEW075,50.0,16.0,,,26%,45.0,,30.14,1020.7,,,,2025-03-29,3,2025,18,KIAD
2025-03-26,26,19:52,EDT,NW  8,10.0,A Few Clouds,FEW090,48.0,16.0,54.0,48.0,28%,45.0,,30.16,1021.6,,,,2025-03-29,3,2025,19,KIAD
2025-03-26,26,20:52,EDT,NW  5,10.0,A Few Clouds,FEW090,45.0,17.1,,,33%,43.0,,30.19,1022.4,,,,2025-03-29,3,2025,20,KIAD
2025-03-26,26,21:52,EDT,Calm,10.0,Mostly Cloudy,BKN090,42.1,19.0,,,40%,,,30.2,1022.8,,,,2025-03-29,3,2025,21,KIAD
2025-03-26,26,22:52,EDT,NE  7,10.0,Partly Cloudy,SCT085,41.0,18.0,,,39%,37.0,,30.21,1023.1,,,,2025-03-29,3,2025,22,KIAD
2025-03-26,26,23:52,EDT,NE  8,10.0,A Few Clouds,FEW085,39.0,19.0,,,45%,34.0,,30.22,1023.6,,,,2025-03-29,3,2025,23,KIAD
2025-03-27,27,00:52,EDT,Calm,10.0,Fair,CLR,34.0,19.9,,,56%,,,30.24,1023.9,,,,2025-03-30,3,2025,0,KIAD
2025-03-27,27,01:52,EDT,Calm,10.0,Fair,CLR,33.1,19.9,48.0,32.0,58%,,,30.24,1024.3,,,,2025-03-30,3,2025,1,KIAD
2025-03-27,27,02:52,EDT,Calm,10.0,Fair,CLR,28.9,19.9,,,69%,,,30.25,1024.6,,,,2025-03-30,3,2025,2,KIAD
2025-03-27,27,03:52,EDT,Calm,10.0,A Few Clouds,FEW080,28.9,19.9,,,69%,,,30.26,1024.7,,,,2025-03-30,3,2025,3,KIAD
2025-03-27,27,04:52,EDT,Calm,10.0,A Few Clouds,FEW085,28.0,19.9,,,72%,,,30.26,1024.8,,,,2025-03-30,3,2025,4,KIAD
2025-03-27,27,05:52,EDT,Calm,10.0,A Few Clouds,FEW085,28.9,19.9,,,69%,,,30.29,1025.9,,,,2025-03-30,3,2025,5,KIAD
2025-03-27,27,06:52,EDT,NW  5,10.0,A Few Clouds,FEW080,28.9,19.9,,,69%,25.0,,30.32,1027.0,,,,2025-03-30,3,2025,6,KIAD
2025-03-27,27,07:52,EDT,NW  6,10.0,Mostly Cloudy,BKN085,34.0,23.0,34.0,26.1,64%,29.0,,30.35,1027.7,,,,2025-03-30,3,2025,7,KIAD
2025-03-27,27,08:52,EDT,NW  8,10.0,Partly Cloudy,FEW080 SCT250,39.9,18.0,,,41%,35.0,,30.36,1028.1,,,,2025-03-30,3,2025,8,KIAD
2025-03-27,27,09:52,EDT,NW  12,10.0,Partly Cloudy,FEW080 SCT250,44.1,15.1,,,31%,39.0,,30.37,1028.6,,,,2025-03-30,3,2025,9,KIAD
2025-03-27,27,10:52,EDT,W  9,10.0,Partly Cloudy,FEW080 SCT250,44.1,44.1,,,100%,40.0,,30.37,1028.6,,,,2025-03-30,3,2025,10,KIAD
2025-03-27,27,11:52,EDT,NW  8,10.0,A Few Clouds,FEW050,46.0,19.0,,,34%,42.0,,30.36,1028.3,,,,2025-03-30,3,2025,11,KIAD
2025-03-27,27,12:52,EDT,Vrbl  6,10.0,A Few Clouds,FEW050,48.9,21.0,,,33%,47.0,,30.34,1027.6,,,,2025-03-30,3,2025,12,KIAD
2025-03-27,27,13:52,EDT,NW  7  G 20,10.0,A Few Clouds,FEW060,55.4,32.0,,,41%,,,30.32,0.0,,,,2025-03-30,3,2025,13,KIAD
2025-03-27,27,14:52,EDT,NW  12  G 22,10.0,A Few Clouds,FEW080,55.9,19.0,,,24%,,,30.29,1025.7,,,,2025-03-30,3,2025,14,KIAD
2025-03-27,27,15:52,EDT,W  8  G 22,10.0,A Few Clouds,FEW080,57.0,19.0,,,23%,,,30.26,1024.7,,,,2025-03-30,3,2025,15,KIAD
2025-03-27,27,16:52,EDT,NW  7,10.0,A Few Clouds,FEW090,59.0,19.9,,,22%,,,30.23,1023.8,,,,2025-03-30,3,2025,16,KIAD
2025-03-27,27,17:52,EDT,SW  6,10.0,A Few Clouds,FEW100 FEW250,59.0,19.9,,,22%,,,30.21,1023.2,,,,2025-03-30,3,2025,17,KIAD
2025-03-27,27,18:52,EDT,S  6,10.0,A Few Clouds,FEW250,57.0,21.9,,,26%,,,30.21,1023.2,,,,2025-03-30,3,2025,18,KIAD
2025-03-27,27,19:52,EDT,S  3,10.0,A Few Clouds,FEW250,51.1,23.0,60.1,51.1,33%,,,30.22,1023.4,,,,2025-03-30,3,2025,19,KIAD
2025-03-27,27,20:52,EDT,SE  6,10.0,A Few Clouds,FEW250,46.9,24.1,,,41%,45.0,,30.24,1024.1,,,,2025-03-30,3,2025,20,KIAD
2025-03-27,27,21:52,EDT,Calm,10.0,A Few Clouds,FEW250,44.1,24.1,,,45%,,,30.25,1024.3,,,,2025-03-30,3,2025,21,KIAD
2025-03-27,27,22:52,EDT,Calm,10.0,A Few Clouds,FEW250,39.9,25.0,,,55%,,,30.24,1024.2,,,,2025-03-30,3,2025,22,KIAD
2025-03-27,27,23:52,EDT,S  5,10.0,A Few Clouds,FEW250,43.0,26.1,,,51%,41.0,,30.25,1024.4,,,,2025-03-30,3,2025,23,KIAD
2025-03-28,28,00:52,EDT,S  3,10.0,A Few Clouds,FEW250,37.9,28.0,,,68%,,,30.24,1024.2,,,,2025-03-31,3,2025,0,KIAD
2025-03-28,28,01:52,EDT,Calm,10.0,A Few Clouds,FEW120,39.9,28.9,50.0,37.0,65%,,,30.24,0.0,,,,2025-03-31,3,2025,1,KIAD
2025-03-28,28,02:52,EDT,SE  3,10.0,Mostly Cloudy,BKN110,44.1,30.0,,,58%,,,30.22,1023.5,,,,2025-03-31,3,2025,2,KIAD
2025-03-28,28,03:52,EDT,S  3,10.0,Mostly Cloudy,BKN100,44.1,32.0,,,63%,,,30.22,1023.3,,,,2025-03-31,3,2025,3,KIAD
2025-03-28,28,04:52,EDT,S  3,10.0,Mostly Cloudy,BKN100,42.1,32.0,,,68%,,,30.21,1023.1,,,,2025-03-31,3,2025,4,KIAD
2025-03-28,28,05:52,EDT,Calm,10.0,Overcast,OVC110,44.1,32.0,,,63%,,,30.23,1023.6,,,,2025-03-31,3,2025,5,KIAD
2025-03-28,28,06:52,EDT,Calm,10.0,Overcast,OVC110,44.1,30.9,,,60%,,,30.23,1023.7,,,,2025-03-31,3,2025,6,KIAD
2025-03-28,28,07:52,EDT,SE  3,10.0,Overcast,OVC110,45.0,30.0,45.0,37.9,56%,,,30.24,1023.9,,,,2025-03-31,3,2025,7,KIAD
2025-03-28,28,08:52,EDT,S  7,10.0,Mostly Cloudy,BKN120,48.0,30.0,,,50%,45.0,,30.26,1024.7,,,,2025-03-31,3,2025,8,KIAD
2025-03-28,28,09:52,EDT,Calm,10.0,Overcast,BKN070 OVC110,53.1,30.0,,,41%,,,30.26,1024.6,,,,2025-03-31,3,2025,9,KIAD
2025-03-28,28,10:52,EDT,S  6,10.0,Overcast,FEW075 OVC110,57.9,30.0,,,35%,,,30.23,1023.7,,,,2025-03-31,3,2025,10,KIAD
2025-03-28,28,12:52,EDT,SW  14,10.0,Mostly Cloudy,SCT110 BKN200,68.0,35.1,,,30%,,,30.18,1021.9,,,,2025-03-31,3,2025,12,KIAD
2025-03-28,28,13:52,EDT,S  8,10.0,Overcast,BKN100 OVC180,66.0,36.0,68.0,45.0,33%,,,30.15,1021.1,,,,2025-03-31,3,2025,13,KIAD
2025-03-28,28,14:52,EDT,SW  6,10.0,Overcast,BKN110 OVC180,66.9,39.0,,,36%,,,30.12,1020.0,,,,2025-03-31,3,2025,14,KIAD
2025-03-28,28,15:52,EDT,Vrbl  6,10.0,Mostly Cloudy,SCT120 BKN180 BKN250,69.1,39.9,,,35%,,,30.1,1019.1,,,,2025-03-31,3,2025,15,KIAD
2025-03-28,28,16:52,EDT,S  6,10.0,Light Rain,SCT065 BKN090 OVC160,69.1,42.1,,,38%,,,30.09,1018.8,,,,2025-03-31,3,2025,16,KIAD
2025-03-28,28,17:52,EDT,W  10,10.0,Overcast,FEW065 BKN090 OVC180,68.0,46.9,,,47%,,,30.09,1018.7,,,,2025-03-31,3,2025,17,KIAD
2025-03-28,28,18:52,EDT,N  7,10.0,Mostly Cloudy,FEW060 BKN100 BKN170 BKN250,66.0,48.9,,,54%,,,30.07,1018.2,,,,2025-03-31,3,2025,18,KIAD
2025-03-28,28,19:52,EDT,NE  5,10.0,Mostly Cloudy,BKN100 BKN170 BKN250,63.0,50.0,72.0,62.1,63%,,,30.08,1018.5,,,,2025-03-31,3,2025,19,KIAD
2025-03-28,28,20:52,EDT,SE  5,10.0,Mostly Cloudy,BKN090 BKN140,62.1,50.0,,,65%,,,30.06,1017.9,,,,2025-03-31,3,2025,20,KIAD
2025-03-28,28,21:52,EDT,SE  3,10.0,Mostly Cloudy,SCT100 BKN200,57.0,48.9,,,74%,,,30.06,1017.8,,,,2025-03-31,3,2025,21,KIAD
2025-03-28,28,22:52,EDT,Vrbl  3,10.0,A Few Clouds,FEW100,53.1,48.0,,,83%,,,30.05,1017.6,,,,2025-03-31,3,2025,22,KIAD
2025-03-28,28,23:52,EDT,Calm,10.0,Partly Cloudy,SCT180,51.1,48.0,,,89%,,,30.04,1017.3,,,,2025-03-31,3,2025,23,KIAD
2025-03-29,29,00:52,EDT,S  6,10.0,Partly Cloudy,SCT180,51.1,46.9,,,86%,,,30.03,1016.9,,,,2025-04-01,3,2025,0,KIAD
2025-03-29,29,01:52,EDT,S  8,10.0,A Few Clouds,FEW180,55.9,44.1,63.0,48.9,65%,,,30.03,1016.8,,,,2025-04-01,3,2025,1,KIAD
2025-03-29,29,02:52,EDT,S  10,10.0,A Few Clouds,FEW180,57.0,43.0,,,60%,,,30.02,1016.4,,,,2025-04-01,3,2025,2,KIAD
2025-03-29,29,03:52,EDT,S  13,10.0,A Few Clouds,FEW080 FEW180,59.0,42.1,,,54%,,,30.02,1016.2,,,,2025-04-01,3,2025,3,KIAD
2025-03-29,29,04:52,EDT,S  12,10.0,Mostly Cloudy,BKN130,61.0,42.1,,,50%,,,30.03,1016.7,,,,2025-04-01,3,2025,4,KIAD
2025-03-29,29,05:52,EDT,S  6,10.0,Mostly Cloudy,BKN130,60.1,42.1,,,52%,,,30.05,1017.4,,,,2025-04-01,3,2025,5,KIAD
2025-03-29,29,06:52,EDT,S  10,10.0,Mostly Cloudy,BKN120,62.1,42.1,,,48%,,,30.05,1017.5,,,,2025-04-01,3,2025,6,KIAD
2025-03-29,29,07:52,EDT,S  10,10.0,Mostly Cloudy,BKN130,62.1,43.0,62.1,55.9,50%,,,30.07,1018.2,,,,2025-04-01,3,2025,7,KIAD
2025-03-29,29,08:52,EDT,S  9,10.0,Overcast,OVC130,63.0,44.1,,,50%,,,30.09,1018.6,,,,2025-04-01,3,2025,8,KIAD
2025-03-29,29,09:52,EDT,S  13,10.0,Overcast,OVC120,66.0,44.1,,,45%,,,30.1,1019.1,,,,2025-04-01,3,2025,9,KIAD
2025-03-29,29,10:52,EDT,S  10,10.0,Mostly Cloudy,BKN130 BKN250,68.0,44.1,,,42%,,,30.11,1019.4,,,,2025-04-01,3,2025,10,KIAD
2025-03-29,29,11:52,EDT,S  12,10.0,Overcast,BKN120 OVC240,73.9,45.0,,,36%,,,30.1,1019.0,,,,2025-04-01,3,2025,11,KIAD
2025-03-29,29,12:52,EDT,S  13,10.0,Overcast,BKN120 OVC220,75.9,45.0,,,33%,,77.0,30.09,1018.7,,,,2025-04-01,3,2025,12,KIAD
2025-03-29,29,13:52,EDT,SW  8,10.0,Overcast,BKN100 OVC200,79.0,45.0,79.0,62.1,30%,,79.0,30.07,1018.0,,,,2025-04-01,3,2025,13,KIAD
2025-03-29,29,14:52,EDT,W  8,10.0,Overcast,FEW100 SCT140 OVC180,81.0,43.0,,,26%,,80.0,30.04,1017.2,,,,2025-04-01,3,2025,14,KIAD
2025-03-29,29,15:52,EDT,W  9,10.0,Overcast,FEW080 SCT140 BKN180 OVC220,81.0,43.0,,,26%,,80.0,30.03,1016.8,,,,2025-04-01,3,2025,15,KIAD
2025-03-29,29,16:52,EDT,S  7,10.0,Mostly Cloudy,FEW080 SCT140 BKN220,81.0,45.0,,,28%,,80.0,30.02,1016.3,,,,2025-04-01,3,2025,16,KIAD
2025-03-29,29,17:52,EDT,SW  14  G 21,10.0,Overcast,FEW140 OVC220,79.0,44.1,,,29%,,79.0,30.02,1016.4,,,,2025-04-01,3,2025,17,KIAD
2025-03-29,29,18:52,EDT,S  5,10.0,Overcast,FEW160 OVC250,75.9,46.0,,,35%,,78.0,30.02,1016.4,,,,2025-04-01,3,2025,18,KIAD
2025-03-29,29,19:52,EDT,S  5,10.0,Overcast,FEW160 OVC250,73.0,45.0,82.0,73.0,37%,,,30.03,1016.8,,,,2025-04-01,3,2025,19,KIAD
2025-03-29,29,20:52,EDT,S  7,10.0,Mostly Cloudy,BKN250,73.9,46.9,,,38%,,,30.04,1017.2,,,,2025-04-01,3,2025,20,KIAD
2025-03-29,29,21:52,EDT,S  8,10.0,Overcast,BKN180 OVC240,72.0,50.0,,,46%,,,30.04,1017.2,,,,2025-04-01,3,2025,21,KIAD
2025-03-29,29,22:52,EDT,S  10,10.0,Mostly Cloudy,BKN180 BKN250,71.1,50.0,,,47%,,,30.04,1017.0,,,,2025-04-01,3,2025,22,KIAD
2025-03-29,29,23:52,EDT,S  9,10.0,Overcast,BKN180 OVC250,70.0,50.0,,,49%,,,30.05,1017.3,,,,2025-04-02,3,2025,23,KIAD
2025-03-30,30,00:52,EDT,S  9,10.0,Overcast,OVC180,70.0,50.0,,,49%,,,30.04,1017.0,,,,2025-04-02,3,2025,0,KIAD
2025-03-30,30,01:52,EDT,S  13,10.0,Overcast,OVC160,70.0,50.0,73.9,69.1,49%,,,30.03,1016.7,,,,2025-04-02,3,2025,1,KIAD
2025-03-30,30,02:52,EDT,S  12  G 22,10.0,Overcast,OVC160,69.1,50.0,,,51%,,,30.02,1016.3,,,,2025-04-02,3,2025,2,KIAD
2025-03-30,30,03:52,EDT,S  8,10.0,Overcast,OVC180,66.9,50.0,,,55%,,,30.01,1015.9,,,,2025-04-02,3,2025,3,KIAD
2025-03-30,30,04:52,EDT,S  7,10.0,Overcast,BKN180 OVC250,66.0,50.0,,,56%,,,30.01,1015.9,,,,2025-04-02,3,2025,4,KIAD
2025-03-30,30,05:52,EDT,S  13,10.0,Overcast,BKN120 OVC250,66.9,50.0,,,55%,,,30.02,1016.1,,,,2025-04-02,3,2025,5,KIAD
2025-03-30,30,06:52,EDT,SW  10,10.0,Overcast,SCT120 BKN160 OVC250,66.9,51.1,,,57%,,,30.03,1016.4,,,,2025-04-02,3,2025,6,KIAD
2025-03-30,30,07:52,EDT,S  9,10.0,Mostly Cloudy,SCT120 BKN150 BKN250,66.0,51.1,70.0,66.0,59%,,,30.04,1017.0,,,,2025-04-02,3,2025,7,KIAD
2025-03-30,30,08:52,EDT,S  13,10.0,Mostly Cloudy,SCT120 BKN160 BKN250,68.0,53.1,,,59%,,,30.04,1016.8,,,,2025-04-02,3,2025,8,KIAD
2025-03-30,30,09:52,EDT,S  15  G 20,10.0,Mostly Cloudy,FEW160 BKN250,70.0,54.0,,,57%,,,30.03,1016.6,,,,2025-04-02,3,2025,9,KIAD
2025-03-30,30,10:52,EDT,S  12  G 20,10.0,Mostly Cloudy,FEW160 BKN250,73.9,54.0,,,50%,,,30.03,1016.5,,,,2025-04-02,3,2025,10,KIAD
2025-03-30,30,11:52,EDT,S  17  G 24,10.0,Mostly Cloudy,FEW050 FEW110 BKN250,77.0,54.0,,,45%,,78.0,30.01,1015.9,,,,2025-04-02,3,2025,11,KIAD
2025-03-30,30,12:52,EDT,S  14  G 23,10.0,Mostly Cloudy,FEW060 FEW110 BKN250,79.0,53.1,,,41%,,79.0,29.99,1015.2,,,,2025-04-02,3,2025,12,KIAD
2025-03-30,30,13:52,EDT,S  20  G 31,10.0,Mostly Cloudy,FEW070 BKN160 BKN250,80.1,50.0,81.0,66.0,35%,,80.0,29.97,1014.5,,,,2025-04-02,3,2025,13,KIAD
2025-03-30,30,14:52,EDT,SW  17  G 30,10.0,Mostly Cloudy,SCT065 BKN160,79.0,51.1,,,38%,,79.0,29.95,1013.7,,,,2025-04-02,3,2025,14,KIAD
2025-03-30,30,15:52,EDT,S  17  G 29,10.0,Mostly Cloudy,BKN070 BKN120 BKN160,79.0,53.1,,,41%,,79.0,29.92,1012.9,,,,2025-04-02,3,2025,15,KIAD
2025-03-30,30,16:52,EDT,SW  9  G 23,10.0,Overcast,BKN075 OVC150,79.0,53.1,,,41%,,79.0,29.91,1012.4,,,,2025-04-02,3,2025,16,KIAD
2025-03-30,30,17:52,EDT,SW  17  G 25,10.0,Mostly Cloudy,FEW080 SCT120 BKN160,78.1,53.1,,,42%,,79.0,29.9,1012.1,,,,2025-04-02,3,2025,17,KIAD
2025-03-30,30,18:52,EDT,S  12,10.0,Overcast,BKN075 OVC150,77.0,53.1,,,43%,,78.0,29.9,1012.1,,,,2025-04-02,3,2025,18,KIAD
2025-03-30,30,19:52,EDT,S  7,10.0,Overcast,BKN060 OVC085,75.0,53.1,81.0,75.0,46%,,78.0,29.89,1011.7,,,,2025-04-02,3,2025,19,KIAD
2025-03-30,30,20:52,EDT,S  10  G 20,10.0,Overcast,OVC070,75.0,53.1,,,46%,,78.0,29.88,1011.5,,,,2025-04-02,3,2025,20,KIAD
2025-03-30,30,21:52,EDT,S  16  G 23,10.0,Mostly Cloudy,BKN110,73.9,53.1,,,48%,,,29.86,1011.0,,,,2025-04-02,3,2025,21,KIAD
2025-03-30,30,22:52,EDT,S  12,10.0,Mostly Cloudy,BKN170,72.0,53.1,,,52%,,,29.85,1010.6,,,,2025-04-02,3,2025,22,KIAD
2025-03-30,30,23:52,EDT,S  14  G 24,10.0,Mostly Cloudy,BKN140,72.0,53.1,,,52%,,,29.84,1010.3,,,,2025-04-02,3,2025,23,KIAD
2025-03-31,31,00:52,EDT,S  13  G 20,10.0,Overcast,OVC140,70.0,55.0,,,59%,,,29.83,1009.9,,,,2025-04-03,3,2025,0,KIAD
2025-03-31,31,01:52,EDT,S  13,10.0,Overcast,OVC120,70.0,57.0,75.9,70.0,64%,,,29.82,1009.4,,,,2025-04-03,3,2025,1,KIAD
2025-03-31,31,02:52,EDT,S  16,10.0,Overcast,OVC120,69.1,57.9,,,68%,,,29.78,1008.1,,,,2025-04-03,3,2025,2,KIAD
2025-03-31,31,03:52,EDT,SW  17,10.0,Overcast,OVC120,68.0,57.9,,,70%,,,29.77,1007.9,,,,2025-04-03,3,2025,3,KIAD
2025-03-31,31,04:52,EDT,S  15  G 23,10.0,Partly Cloudy,SCT120,66.9,59.0,,,76%,,,29.76,1007.6,,,,2025-04-03,3,2025,4,KIAD
2025-03-31,31,05:52,EDT,S  15  G 24,10.0,Partly Cloudy,SCT120,66.0,59.0,,,78%,,,29.76,1007.4,,,,2025-04-03,3,2025,5,KIAD
2025-03-31,31,06:52,EDT,S  18,10.0,Partly Cloudy,SCT023 SCT120,66.0,59.0,,,78%,,,29.76,1007.5,,,,2025-04-03,3,2025,6,KIAD
2025-03-31,31,07:52,EDT,SW  13  G 23,10.0,Mostly Cloudy,FEW022 SCT047 BKN060,66.9,59.0,70.0,66.0,76%,,,29.77,1007.9,,,,2025-04-03,3,2025,7,KIAD
2025-03-31,31,08:52,EDT,SW  9  G 20,10.0,Mostly Cloudy,FEW020 SCT060 BKN120 BKN250,69.1,60.1,,,73%,,,29.76,1007.4,,,,2025-04-03,3,2025,8,KIAD
2025-03-31,31,09:52,EDT,SW  10  G 21,10.0,Mostly Cloudy,FEW025 SCT060 BKN250,72.0,59.0,,,64%,,,29.75,1007.0,,,,2025-04-03,3,2025,9,KIAD
2025-03-31,31,10:52,EDT,SW  14,10.0,Partly Cloudy,FEW025 FEW120 SCT250,73.9,57.9,,,57%,,,29.72,1006.1,,,,2025-04-03,3,2025,10,KIAD
2025-03-31,31,11:52,EDT,SW  13  G 22,10.0,Mostly Cloudy,FEW045 BKN120 BKN250,78.1,57.0,,,48%,,79.0,29.71,1005.7,,,,2025-04-03,3,2025,11,KIAD
2025-03-31,31,12:52,EDT,S  20  G 31,10.0,Mostly Cloudy,FEW045 BKN120 BKN250,78.1,55.9,,,47%,,79.0,29.69,1005.1,,,,2025-04-03,3,2025,12,KIAD
2025-03-31,31,13:52,EDT,S  20  G 29,10.0,Mostly Cloudy,FEW045 FEW140 BKN250,80.1,55.0,81.0,66.9,42%,,80.0,29.66,1004.1,,,,2025-04-03,3,2025,13,KIAD
2025-03-31,31,14:52,EDT,S  16  G 31,10.0,Mostly Cloudy,BKN060 BKN200,81.0,55.0,,,41%,,81.0,29.62,1002.9,,,,2025-04-03,3,2025,14,KIAD
2025-03-31,31,15:52,EDT,S  16  G 26,10.0,Mostly Cloudy,FEW070 BKN200,81.0,54.0,,,39%,,81.0,29.6,1002.0,,,,2025-04-03,3,2025,15,KIAD
2025-03-31,31,16:52,EDT,S  13  G 22,10.0,Mostly Cloudy,SCT065 BKN110 BKN200,80.1,55.0,,,42%,,80.0,29.57,1001.1,,,,2025-04-03,3,2025,16,KIAD
2025-03-31,31,17:52,EDT,SW  15  G 23,10.0,Mostly Cloudy,FEW070 SCT100 BKN200,81.0,55.9,,,42%,,81.0,29.54,1000.1,,,,2025-04-03,3,2025,17,KIAD
2025-03-31,31,18:52,EDT,NW  16  G 22,10.0,Overcast,BKN060CB BKN100 OVC200,72.0,57.0,,,59%,,,29.56,1000.9,,,,2025-04-03,3,2025,18,KIAD
2025-03-31,31,19:52,EDT,NW  10,2.5,Thunderstorm Rain Fog/Mist,SCT019 BKN034CB OVC060,62.1,60.1,82.9,62.1,93%,,,29.61,1002.5,0.41,,0.41,2025-04-03,3,2025,19,KIAD
2025-03-31,31,20:52,EDT,NW  3,10.0,Light Rain,SCT033 BKN045 OVC055,62.1,60.1,,,93%,,,29.62,1002.9,0.02,,,2025-04-03,3,2025,20,KIAD
2025-03-31,31,21:52,EDT,NW  5,10.0,Light Rain,SCT012 OVC047,63.0,61.0,,,93%,,,29.62,1002.9,0.04,,,2025-04-03,3,2025,21,KIAD
2025-03-31,31,22:52,EDT,N  8,5.0,Light Rain Fog/Mist,BKN011 BKN020 OVC070,62.1,60.1,,,93%,,,29.64,1003.4,0.05,0.11,,2025-04-03,3,2025,22,KIAD
2025-03-31,31,23:52,EDT,W  15  G 21,7.0,Light Rain,BKN012 BKN020 OVC030,61.0,57.9,,,90%,,,29.67,1004.3,0.09,,,2025-04-04,3,2025,23,KIAD
2025-04-01,1,00:52,EDT,NW  14  G 23,10.0,Overcast,FEW012 FEW023 OVC110,57.0,51.1,,,81%,,,29.7,1005.5,0.02,,,2025-04-04,4,2025,0,KIAD
2025-04-01,1,01:52,EDT,N  15  G 30,10.0,Mostly Cloudy,BKN050 BKN170,52.0,44.1,63.0,52.0,75%,,,29.74,1006.9,,,0.22,2025-04-04,4,2025,1,KIAD
2025-04-01,1,02:52,EDT,NW  17  G 26,10.0,Mostly Cloudy,FEW011 SCT050 BKN220,48.9,39.9,,,71%,43.0,,29.77,1008.0,,,,2025-04-04,4,2025,2,KIAD
2025-04-01,1,03:52,EDT,NW  15  G 36,10.0,Overcast,OVC034,46.9,36.0,,,66%,41.0,,29.82,1009.5,,,,2025-04-04,4,2025,3,KIAD
2025-04-01,1,04:52,EDT,NW  14  G 25,10.0,Overcast,OVC034,46.0,35.1,,,66%,40.0,,29.86,1010.8,,,,2025-04-04,4,2025,4,KIAD
2025-04-01,1,05:52,EDT,NW  9  G 22,10.0,Partly Cloudy,SCT034,44.1,33.1,,,65%,40.0,,29.9,1012.2,,,,2025-04-04,4,2025,5,KIAD
2025-04-01,1,06:52,EDT,N  13,10.0,A Few Clouds,FEW090,43.0,30.9,,,63%,37.0,,29.93,1013.6,,,,2025-04-04,4,2025,6,KIAD
2025-04-01,1,07:52,EDT,N  15,10.0,A Few Clouds,FEW050,43.0,30.0,52.0,43.0,60%,36.0,,29.96,1014.5,,,,2025-04-04,4,2025,7,KIAD
2025-04-01,1,08:52,EDT,NW  16  G 26,10.0,A Few Clouds,FEW050 FEW250,44.1,30.9,,,60%,37.0,,30.0,1015.7,,,,2025-04-04,4,2025,8,KIAD
2025-04-01,1,09:52,EDT,NW  20  G 24,10.0,A Few Clouds,FEW050 FEW250,46.0,30.0,,,54%,39.0,,30.03,1016.7,,,,2025-04-04,4,2025,9,KIAD
2025-04-01,1,10:52,EDT,Calm,10.0,A Few Clouds,FEW050,46.9,30.0,,,52%,,,30.05,1017.6,,,,2025-04-04,4,2025,10,KIAD
2025-04-01,1,11:52,EDT,NW  18  G 28,10.0,A Few Clouds,FEW050,48.9,30.0,,,48%,43.0,,30.07,1018.3,,,,2025-04-04,4,2025,11,KIAD
2025-04-01,1,12:52,EDT,NW  15  G 28,10.0,A Few Clouds,FEW050,50.0,30.0,,,46%,45.0,,30.1,1019.3,,,,2025-04-04,4,2025,12,KIAD
2025-04-01,1,13:52,EDT,NW  13  G 26,10.0,A Few Clouds,FEW050,52.0,30.0,52.0,43.0,43%,,,30.1,1019.2,,,,2025-04-04,4,2025,13,KIAD
2025-04-01,1,14:52,EDT,N  12  G 22,10.0,Fair,CLR,54.0,30.0,,,40%,,,30.09,1019.0,,,,2025-04-04,4,2025,14,KIAD
2025-04-01,1,15:52,EDT,NW  14  G 21,10.0,Fair,CLR,55.0,28.9,,,37%,,,30.09,1018.9,,,,2025-04-04,4,2025,15,KIAD
2025-04-01,1,16:52,EDT,NW  13,10.0,Fair,CLR,55.9,28.9,,,36%,,,30.1,1019.4,,,,2025-04-04,4,2025,16,KIAD
2025-04-01,1,17:52,EDT,N  8,10.0,A Few Clouds,FEW250,55.0,27.0,,,34%,,,30.13,1020.2,,,,2025-04-04,4,2025,17,KIAD
2025-04-01,1,18:52,EDT,NW  9,10.0,A Few Clouds,FEW250,54.0,26.1,,,34%,,,30.15,1020.9,,,,2025-04-04,4,2025,18,KIAD
2025-04-01,1,19:52,EDT,N  8,10.0,A Few Clouds,FEW250,51.1,25.0,55.9,51.1,36%,,,30.16,1021.3,,,,2025-04-04,4,2025,19,KIAD
2025-04-01,1,20:52,EDT,N  7,10.0,Fair,CLR,52.0,24.1,,,34%,,,30.21,1022.9,,,,2025-04-04,4,2025,20,KIAD
2025-04-01,1,21:52,EDT,NE  8,10.0,Fair,CLR,46.9,27.0,,,46%,44.0,,30.22,1023.5,,,,2025-04-04,4,2025,21,KIAD
2025-04-01,1,22:52,EDT,E  5,10.0,Fair,CLR,45.0,27.0,,,49%,43.0,,30.23,1023.9,,,,2025-04-04,4,2025,22,KIAD
2025-04-01,1,23:52,EDT,Calm,10.0,Fair,CLR,41.0,28.9,,,62%,,,30.25,1024.4,,,,2025-04-04,4,2025,23,KIAD
2025-04-02,2,00:52,EDT,NW  3,10.0,Fair,CLR,39.0,30.9,,,73%,,,30.27,1025.2,,,,2025-04-05,4,2025,0,KIAD
2025-04-02,2,01:52,EDT,Calm,10.0,Fair,CLR,35.1,30.0,52.0,35.1,82%,,,30.29,1025.9,,,,2025-04-05,4,2025,1,KIAD
2025-04-02,2,02:52,EDT,Calm,10.0,Fair,CLR,35.1,28.9,,,78%,,,30.3,1026.0,,,,2025-04-05,4,2025,2,KIAD
2025-04-02,2,03:52,EDT,Calm,10.0,Mostly Cloudy,BKN210,34.0,30.0,,,85%,,,30.31,1026.3,,,,2025-04-05,4,2025,3,KIAD
2025-04-02,2,04:52,EDT,Calm,10.0,Mostly Cloudy,BKN210,34.0,30.9,,,89%,,,30.31,1026.5,,,,2025-04-05,4,2025,4,KIAD
2025-04-02,2,05:52,EDT,Calm,10.0,Overcast,OVC210,35.1,32.0,,,89%,,,30.34,1027.5,,,,2025-04-05,4,2025,5,KIAD
2025-04-02,2,06:52,EDT,E  7,10.0,Mostly Cloudy,FEW050 BKN210,42.1,30.9,,,65%,38.0,,30.37,1028.3,,,,2025-04-05,4,2025,6,KIAD
2025-04-02,2,07:52,EDT,E  9,10.0,Mostly Cloudy,FEW050 BKN190,43.0,30.9,43.0,34.0,63%,38.0,,30.38,1028.9,,,,2025-04-05,4,2025,7,KIAD
2025-04-02,2,08:52,EDT,E  12,10.0,Mostly Cloudy,SCT047 BKN180,45.0,30.9,,,58%,40.0,,30.38,1028.8,,,,2025-04-05,4,2025,8,KIAD
2025-04-02,2,09:52,EDT,SE  9,10.0,Overcast,FEW023 BKN050 OVC180,46.9,32.0,,,56%,43.0,,30.39,1029.1,,,,2025-04-05,4,2025,9,KIAD
2025-04-02,2,10:52,EDT,SE  9,10.0,Overcast,OVC047,48.9,34.0,,,56%,45.0,,30.39,1029.1,,,,2025-04-05,4,2025,10,KIAD
2025-04-02,2,11:52,EDT,SE  13  G 22,10.0,Overcast,FEW031 OVC047,52.0,37.0,,,57%,,,30.35,1027.9,,,,2025-04-05,4,2025,11,KIAD
2025-04-02,2,12:52,EDT,S  14,10.0,Overcast,FEW031 OVC046,53.1,36.0,,,52%,,,30.34,1027.5,,,,2025-04-05,4,2025,12,KIAD
2025-04-02,2,13:52,EDT,SE  14  G 26,10.0,Overcast,BKN043 OVC060,55.9,37.0,57.0,43.0,49%,,,30.31,1026.6,,,,2025-04-05,4,2025,13,KIAD
2025-04-02,2,14:52,EDT,SE  13,10.0,Overcast,OVC043,55.9,37.9,,,51%,,,30.3,1026.1,,,,2025-04-05,4,2025,14,KIAD
2025-04-02,2,15:52,EDT,SE  16  G 22,10.0,Overcast,OVC043,55.9,39.0,,,53%,,,30.28,1025.4,,,,2025-04-05,4,2025,15,KIAD
2025-04-02,2,16:52,EDT,SE  14  G 25,10.0,Overcast,OVC041,55.9,37.9,,,51%,,,30.25,1024.4,,,,2025-04-05,4,2025,16,KIAD
2025-04-02,2,17:52,EDT,SE  13,10.0,Overcast,OVC041,55.9,36.0,,,47%,,,30.27,1025.2,,,,2025-04-05,4,2025,17,KIAD
2025-04-02,2,18:52,EDT,SE  12,10.0,Overcast,OVC041,55.0,36.0,,,49%,,,30.27,1025.1,,,,2025-04-05,4,2025,18,KIAD
2025-04-02,2,19:52,EDT,SE  13,10.0,Overcast,OVC043,53.1,37.0,57.0,53.1,55%,,,30.28,1025.4,,,,2025-04-05,4,2025,19,KIAD
2025-04-02,2,20:52,EDT,SE  14  G 26,10.0,Overcast,OVC039,53.1,37.9,,,57%,,,30.24,1024.2,,,,2025-04-05,4,2025,20,KIAD
2025-04-02,2,21:52,EDT,SE  13  G 22,10.0,Overcast,OVC037,53.1,39.9,,,61%,,,30.25,1024.2,,,,2025-04-05,4,2025,21,KIAD
2025-04-02,2,22:52,EDT,SE  10,10.0,Overcast,OVC031,53.1,42.1,,,66%,,,30.24,1023.9,,,,2025-04-05,4,2025,22,KIAD
2025-04-02,2,23:52,EDT,SE  9,10.0,Overcast,OVC022,52.0,44.1,,,75%,,,30.2,1022.7,,,,2025-04-05,4,2025,23,KIAD
2025-04-03,3,00:52,EDT,S  7,10.0,Overcast,OVC016,52.0,46.0,,,80%,,,30.19,1022.3,,,,2025-04-06,4,2025,0,KIAD
2025-04-03,3,01:52,EDT,S  9,7.0,Overcast,BKN020 OVC025,51.1,48.0,53.1,51.1,89%,,,30.18,1022.1,,,,2025-04-06,4,2025,1,KIAD
2025-04-03,3,02:52,EDT,S  7,5.0,Fog/Mist,BKN005 OVC010,51.1,48.9,,,92%,,,30.16,1021.2,,,,2025-04-06,4,2025,2,KIAD
2025-04-03,3,03:52,EDT,SW  8,5.0,Light Rain Fog/Mist,OVC005,51.1,50.0,,,96%,,,30.14,1020.5,0.01,,,2025-04-06,4,2025,3,KIAD
2025-04-03,3,04:52,EDT,SW  5,3.0,Light Drizzle Fog/Mist,OVC004,51.1,50.0,,,96%,,,30.13,1020.3,,0.01,,2025-04-06,4,2025,4,KIAD
2025-04-03,3,05:52,EDT,SW  6,3.0,Light Drizzle Fog/Mist,OVC003,51.1,50.0,,,96%,,,30.12,1020.1,0.01,,,2025-04-06,4,2025,5,KIAD
2025-04-03,3,06:52,EDT,S  9,3.0,Light Drizzle Fog/Mist,SCT005 OVC010,52.0,51.1,,,97%,,,30.11,1019.5,0.01,,,2025-04-06,4,2025,6,KIAD
2025-04-03,3,07:52,EDT,S  8,3.0,Light Drizzle Fog/Mist,BKN004 OVC010,53.1,52.0,53.1,51.1,96%,,,30.11,1019.4,,,0.03,2025-04-06,4,2025,7,KIAD
2025-04-03,3,08:52,EDT,Calm,4.0,Light Drizzle Fog/Mist,OVC003,55.0,54.0,,,96%,,,30.15,1020.8,,,,2025-04-06,4,2025,8,KIAD
2025-04-03,3,09:52,EDT,SE  8,3.0,Fog/Mist,BKN004 OVC011,55.9,55.0,,,97%,,,30.15,1020.7,,,,2025-04-06,4,2025,9,KIAD
2025-04-03,3,10:52,EDT,S  10,5.0,Fog/Mist,BKN040 BKN100 OVC180,61.0,59.0,,,93%,,,30.14,1020.6,,,,2025-04-06,4,2025,10,KIAD
2025-04-03,3,11:52,EDT,S  10,7.0,Overcast,FEW045 BKN080 OVC120,63.0,60.1,,,90%,,,30.12,1019.9,,,,2025-04-06,4,2025,11,KIAD
2025-04-03,3,12:52,EDT,S  13,7.0,Overcast,FEW045 BKN080 OVC150,66.9,62.1,,,84%,,,30.1,1019.3,,,,2025-04-06,4,2025,12,KIAD
2025-04-03,3,13:52,EDT,SW  16  G 22,7.0,Overcast,FEW022 BKN080 OVC150,70.0,64.0,70.0,53.1,82%,,,30.08,1018.5,,,,2025-04-06,4,2025,13,KIAD
2025-04-03,3,14:52,EDT,SW  10  G 25,10.0,Overcast,SCT020 BKN090 OVC150,73.9,64.9,,,74%,,,30.06,1017.6,,,,2025-04-06,4,2025,14,KIAD
2025-04-03,3,15:52,EDT,SW  14,10.0,Overcast,SCT020 BKN090 OVC150,73.9,64.9,,,74%,,,30.04,1017.1,,,,2025-04-06,4,2025,15,KIAD
2025-04-03,3,16:52,EDT,SW  16  G 23,10.0,Overcast,FEW027 BKN100 OVC150,75.0,64.0,,,69%,,77.0,30.03,1016.8,,,,2025-04-06,4,2025,16,KIAD
2025-04-03,3,17:52,EDT,SW  10,10.0,Overcast,SCT090 OVC150,75.0,64.9,,,71%,,77.0,30.03,1016.7,,,,2025-04-06,4,2025,17,KIAD
2025-04-03,3,18:52,EDT,SW  12,10.0,Overcast,FEW030 SCT090 OVC150,75.0,64.9,,,71%,,77.0,30.03,1016.8,,,,2025-04-06,4,2025,18,KIAD
2025-04-03,3,19:52,EDT,SW  9,10.0,Overcast,FEW030 SCT090 OVC150,75.0,64.0,75.9,70.0,69%,,77.0,30.07,1017.9,,,,2025-04-06,4,2025,19,KIAD
2025-04-03,3,20:52,EDT,S  10,10.0,Overcast,BKN100 OVC150,73.9,64.0,,,71%,,,30.06,1017.6,,,,2025-04-06,4,2025,20,KIAD
2025-04-03,3,21:52,EDT,S  13,10.0,Overcast,BKN090 OVC150,73.9,64.9,,,74%,,,30.05,1017.3,,,,2025-04-06,4,2025,21,KIAD
2025-04-03,3,22:52,EDT,S  8,10.0,Overcast,OVC130,73.0,64.9,,,76%,,,30.06,1017.6,,,,2025-04-06,4,2025,22,KIAD
2025-04-03,3,23:52,EDT,SW  9,10.0,Overcast,OVC150,73.0,64.9,,,76%,,,30.06,1017.7,,,,2025-04-06,4,2025,23,KIAD
2025-04-04,4,00:52,EDT,S  6,10.0,Overcast,OVC150,73.0,64.9,,,76%,,,30.03,1016.9,,,,2025-04-07,4,2025,0,KIAD
2025-04-04,4,01:52,EDT,S  5,10.0,Overcast,OVC140,71.1,64.9,75.0,71.1,81%,,,30.03,1016.6,,,,2025-04-07,4,2025,1,KIAD
2025-04-04,4,02:52,EDT,S  7,10.0,Overcast,FEW110 BKN140 OVC250,71.1,64.9,,,81%,,,30.03,1016.7,,,,2025-04-07,4,2025,2,KIAD
2025-04-04,4,03:52,EDT,SW  10,10.0,Overcast,OVC190,72.0,64.9,,,79%,,,30.02,1016.3,,,,2025-04-07,4,2025,3,KIAD
2025-04-04,4,04:52,EDT,SW  13,10.0,Overcast,FEW090 SCT120 OVC180,73.0,64.0,,,74%,,,30.03,1016.6,,,,2025-04-07,4,2025,4,KIAD
2025-04-04,4,05:52,EDT,Calm,5.0,Light Rain,FEW028 BKN045 OVC085,66.9,61.0,,,81%,,,30.1,1019.0,0.1,,,2025-04-07,4,2025,5,KIAD
2025-04-04,4,06:52,EDT,Calm,6.0,Fog/Mist,SCT045 OVC090,64.0,62.1,,,93%,,,30.11,1019.4,,,,2025-04-07,4,2025,6,KIAD
2025-04-04,4,07:52,EDT,Calm,10.0,Overcast,FEW040 BKN080 OVC120,63.0,62.1,73.0,63.0,97%,,,30.16,1021.0,0.01,,0.11,2025-04-07,4,2025,7,KIAD
2025-04-04,4,08:52,EDT,N  7,6.0,Fog/Mist,SCT040 BKN070 OVC110,66.0,63.0,,,90%,,,30.17,1021.3,,,,2025-04-07,4,2025,8,KIAD
2025-04-04,4,09:52,EDT,W  3,10.0,Overcast,SCT060 BKN110 OVC160,68.0,64.0,,,87%,,,30.19,1022.1,,,,2025-04-07,4,2025,9,KIAD
2025-04-04,4,10:52,EDT,N  7,10.0,Light Rain,FEW025 BKN080 OVC140,66.0,61.0,,,84%,,,30.2,1022.4,,,,2025-04-07,4,2025,10,KIAD
2025-04-04,4,11:52,EDT,NE  10,10.0,Overcast,FEW020 BKN085 OVC150,66.0,59.0,,,78%,,,30.21,1022.7,,,,2025-04-07,4,2025,11,KIAD
2025-04-04,4,12:52,EDT,N  8,10.0,Overcast,FEW020 BKN085 OVC180,66.9,57.9,,,73%,,,30.21,1022.7,,,,2025-04-07,4,2025,12,KIAD
2025-04-04,4,13:52,EDT,SE  3,10.0,Overcast,SCT020 BKN080 OVC170,66.9,55.9,69.1,63.0,68%,,,30.2,1022.6,,,,2025-04-07,4,2025,13,KIAD
2025-04-04,4,14:52,EDT,N  9,10.0,Mostly Cloudy,FEW020 BKN080 BKN160 BKN220,69.1,55.0,,,61%,,,30.2,1022.6,,,,2025-04-07,4,2025,14,KIAD
2025-04-04,4,15:52,EDT,NW  8,10.0,Overcast,FEW038 SCT080 BKN150 OVC230,70.0,55.0,,,59%,,,30.2,1022.3,,,,2025-04-07,4,2025,15,KIAD
2025-04-04,4,16:52,EDT,N  13,10.0,Mostly Cloudy,FEW026 SCT050 SCT110 BKN160 BKN220,69.1,54.0,,,59%,,,30.21,1022.8,,,,2025-04-07,4,2025,16,KIAD
2025-04-04,4,17:52,EDT,N  6,10.0,Mostly Cloudy,FEW050 SCT140 BKN180 BKN250,69.1,54.0,,,59%,,,30.22,1023.2,,,,2025-04-07,4,2025,17,KIAD
2025-04-04,4,18:52,EDT,N  8,10.0,Mostly Cloudy,FEW060 SCT120 BKN170 BKN250,68.0,54.0,,,61%,,,30.23,1023.6,,,,2025-04-07,4,2025,18,KIAD
2025-04-04,4,19:52,EDT,N  6,10.0,Overcast,SCT050 BKN070 BKN170 OVC200,66.9,54.0,71.1,66.9,63%,,,30.24,1024.0,,,,2025-04-07,4,2025,19,KIAD
2025-04-04,4,20:52,EDT,N  6,10.0,Overcast,BKN060 OVC080,66.0,52.0,,,61%,,,30.26,1024.4,,,,2025-04-07,4,2025,20,KIAD
2025-04-04,4,21:52,EDT,N  6,10.0,Mostly Cloudy,BKN060 BKN080,64.9,52.0,,,63%,,,30.27,1024.7,,,,2025-04-07,4,2025,21,KIAD
2025-04-04,4,22:52,EDT,NE  7,10.0,Mostly Cloudy,BKN060,62.1,52.0,,,70%,,,30.26,1024.4,,,,2025-04-07,4,2025,22,KIAD
2025-04-04,4,23:52,EDT,E  3,10.0,Mostly Cloudy,FEW060 BKN250,59.0,52.0,,,78%,,,30.25,1024.1,,,,2025-04-07,4,2025,23,KIAD
2025-04-05,5,00:52,EDT,Calm,10.0,Mostly Cloudy,FEW060 BKN250,57.0,52.0,,,83%,,,30.25,1024.2,,,,2025-04-08,4,2025,0,KIAD
2025-04-05,5,01:52,EDT,Calm,10.0,Mostly Cloudy,FEW060 BKN250,57.0,52.0,66.9,55.9,83%,,,30.25,1024.3,,,,2025-04-08,4,2025,1,KIAD
2025-04-05,5,02:52,EDT,Calm,10.0,Mostly Cloudy,SCT110 BKN250,55.9,52.0,,,87%,,,30.23,1023.5,,,,2025-04-08,4,2025,2,KIAD
2025-04-05,5,03:52,EDT,E  3,10.0,Overcast,OVC031,59.0,54.0,,,83%,,,30.21,1022.7,,,,2025-04-08,4,2025,3,KIAD
2025-04-05,5,04:52,EDT,E  5,10.0,Overcast,OVC032,60.1,52.0,,,75%,,,30.19,1022.2,,,,2025-04-08,4,2025,4,KIAD
2025-04-05,5,05:52,EDT,Calm,10.0,Overcast,OVC030,60.1,50.0,,,70%,,,30.18,1021.8,,,,2025-04-08,4,2025,5,KIAD
2025-04-05,5,06:52,EDT,Calm,10.0,Overcast,OVC025,61.0,51.1,,,70%,,,30.17,1021.5,,,,2025-04-08,4,2025,6,KIAD
2025-04-05,5,07:52,EDT,S  3,10.0,Overcast,OVC019,61.0,53.1,62.1,54.0,75%,,,30.18,1021.7,,,,2025-04-08,4,2025,7,KIAD
2025-04-05,5,08:52,EDT,SE  6,10.0,Overcast,OVC017,60.1,54.0,,,80%,,,30.17,1021.5,,,,2025-04-08,4,2025,8,KIAD
2025-04-05,5,09:52,EDT,SE  8,10.0,Overcast,OVC012,61.0,55.9,,,84%,,,30.14,1020.3,,,,2025-04-08,4,2025,9,KIAD
2025-04-05,5,10:52,EDT,SE  9,10.0,Overcast,OVC010,62.1,57.9,,,86%,,,30.12,1020.0,,,,2025-04-08,4,2025,10,KIAD
2025-04-05,5,11:52,EDT,S  6,10.0,Overcast,OVC008,62.1,59.0,,,90%,,,30.11,1019.4,,,,2025-04-08,4,2025,11,KIAD
2025-04-05,5,12:52,EDT,SE  8,10.0,Overcast,OVC007,63.0,60.1,,,90%,,,30.07,1018.2,,,,2025-04-08,4,2025,12,KIAD
2025-04-05,5,13:52,EDT,S  8,10.0,Overcast,SCT009 OVC012,64.9,60.1,64.9,60.1,84%,,,30.03,1016.9,,,,2025-04-08,4,2025,13,KIAD
2025-04-05,5,14:52,EDT,S  14  G 21,10.0,Overcast,BKN018 BKN120 OVC240,69.1,62.1,,,78%,,,29.99,1015.3,,,,2025-04-08,4,2025,14,KIAD
2025-04-05,5,15:52,EDT,S  12,10.0,Mostly Cloudy,SCT025 BKN140 BKN250,73.0,63.0,,,71%,,,29.96,1014.5,,,,2025-04-08,4,2025,15,KIAD
2025-04-05,5,16:52,EDT,SE  9,10.0,Mostly Cloudy,FEW030 FEW100 SCT160 BKN250,75.9,64.0,,,67%,,78.0,29.93,1013.3,,,,2025-04-08,4,2025,16,KIAD
2025-04-05,5,17:52,EDT,E  6,10.0,Mostly Cloudy,FEW038 BKN250,78.1,64.9,,,64%,,80.0,29.91,1012.6,,,,2025-04-08,4,2025,17,KIAD
2025-04-05,5,18:52,EDT,E  6,10.0,Mostly Cloudy,FEW040 SCT080 BKN250,75.0,64.0,,,69%,,77.0,29.9,1012.5,,,,2025-04-08,4,2025,18,KIAD
2025-04-05,5,19:52,EDT,NE  7,10.0,Mostly Cloudy,SCT060 BKN085 BKN140 BKN250,73.9,64.0,80.1,64.9,71%,,,29.9,1012.2,,,,2025-04-08,4,2025,19,KIAD
2025-04-05,5,20:52,EDT,NE  9,10.0,Mostly Cloudy,BKN060 BKN085 BKN120 BKN250,72.0,63.0,,,73%,,,29.91,1012.5,,,,2025-04-08,4,2025,20,KIAD
2025-04-05,5,21:52,EDT,NE  7,10.0,Mostly Cloudy,SCT043 BKN070 BKN110 BKN250,69.1,61.0,,,76%,,,29.91,1012.8,,,,2025-04-08,4,2025,21,KIAD
2025-04-05,5,22:52,EDT,NE  8,10.0,Overcast,FEW028 OVC110,64.9,59.0,,,81%,,,29.9,1012.3,,,,2025-04-08,4,2025,22,KIAD
2025-04-05,5,23:52,EDT,NE  8,10.0,Overcast,FEW040 SCT110 OVC250,62.1,57.0,,,84%,,,29.88,1011.5,,,,2025-04-08,4,2025,23,KIAD
2025-04-06,6,00:52,EDT,NE  8,10.0,Mostly Cloudy,SCT120 BKN250,60.1,54.0,,,80%,,,29.86,1010.9,,,,2025-04-09,4,2025,0,KIAD
2025-04-06,6,01:52,EDT,N  6,10.0,Overcast,SCT120 OVC250,57.9,53.1,73.9,57.9,84%,,,29.83,1010.1,,,,2025-04-09,4,2025,1,KIAD
2025-04-06,6,02:52,EDT,NE  6,10.0,Mostly Cloudy,BKN250,57.0,53.1,,,87%,,,29.8,1008.8,,,,2025-04-09,4,2025,2,KIAD
2025-04-06,6,03:52,EDT,NE  6,10.0,Mostly Cloudy,BKN250,57.0,53.1,,,87%,,,29.79,1008.4,,,,2025-04-09,4,2025,3,KIAD
2025-04-06,6,04:52,EDT,NE  6,10.0,Mostly Cloudy,FEW140 BKN250,55.9,52.0,,,87%,,,29.77,1007.8,,,,2025-04-09,4,2025,4,KIAD
2025-04-06,6,05:52,EDT,NE  6,10.0,Mostly Cloudy,BKN250,55.0,52.0,,,90%,,,29.76,1007.4,,,,2025-04-09,4,2025,5,KIAD
2025-04-06,6,06:52,EDT,NW  7,9.0,Mostly Cloudy,FEW009 FEW019 SCT110 BKN160 BKN250,55.0,53.1,,,93%,,,29.79,1008.7,,,,2025-04-09,4,2025,6,KIAD
2025-04-06,6,07:52,EDT,NE  5,7.0,Mostly Cloudy,FEW020 BKN120 BKN160 BKN250,55.9,53.1,57.9,55.0,90%,,,29.8,1008.8,,,,2025-04-09,4,2025,7,KIAD
2025-04-06,6,08:52,EDT,NE  6,7.0,Overcast,SCT055 BKN070 OVC110,57.0,54.0,,,90%,,,29.8,1008.8,,,,2025-04-09,4,2025,8,KIAD
2025-04-06,6,09:52,EDT,NE  3,8.0,Overcast,BKN046 BKN060 OVC150,59.0,54.0,,,83%,,,29.79,1008.6,,,,2025-04-09,4,2025,9,KIAD
2025-04-06,6,10:52,EDT,N  8,10.0,Overcast,SCT060 BKN170 OVC200,62.1,55.9,,,80%,,,29.79,1008.6,,,,2025-04-09,4,2025,10,KIAD
2025-04-06,6,11:52,EDT,N  17  G 23,3.0,Light Rain Fog/Mist,BKN006 OVC011,57.0,55.0,,,93%,,,29.87,1011.3,,,,2025-04-09,4,2025,11,KIAD
2025-04-06,6,12:52,EDT,N  13  G 24,10.0,Overcast,FEW009 BKN014 OVC025,57.0,51.1,,,81%,,,29.86,1010.9,,,,2025-04-09,4,2025,12,KIAD
2025-04-06,6,13:52,EDT,N  14  G 22,10.0,Overcast,SCT012 OVC015,55.9,51.1,62.1,55.9,84%,,,29.89,1012.0,,,,2025-04-09,4,2025,13,KIAD
2025-04-06,6,14:52,EDT,NE  9,10.0,Overcast,FEW011 OVC014,55.9,48.0,,,75%,,,29.87,1011.3,,,,2025-04-09,4,2025,14,KIAD
2025-04-06,6,15:52,EDT,N  8,10.0,Overcast,BKN019 OVC036,55.9,48.0,,,75%,,,29.87,1011.3,,,,2025-04-09,4,2025,15,KIAD
2025-04-06,6,16:52,EDT,N  9,10.0,Overcast,SCT020 BKN033 OVC055,55.9,48.9,,,77%,,,29.86,1010.9,,,,2025-04-09,4,2025,16,KIAD
2025-04-06,6,17:52,EDT,NE  6,10.0,Overcast,OVC015,55.0,48.9,,,80%,,,29.87,1011.5,,,,2025-04-09,4,2025,17,KIAD
2025-04-06,6,18:52,EDT,N  8,10.0,Overcast,BKN017 OVC050,55.0,48.9,,,80%,,,29.89,1012.1,,,,2025-04-09,4,2025,18,KIAD
2025-04-06,6,19:52,EDT,NE  5,10.0,Overcast,SCT021 BKN080 OVC100,54.0,48.9,57.0,54.0,83%,,,29.88,1011.5,,,,2025-04-09,4,2025,19,KIAD
2025-04-06,6,20:52,EDT,NE  3,10.0,Overcast,SCT050 BKN075 OVC095,54.0,50.0,,,87%,,,29.91,1012.6,,,,2025-04-09,4,2025,20,KIAD
2025-04-06,6,21:52,EDT,SE  6,10.0,Overcast,FEW012 SCT022 OVC070,52.0,50.0,,,93%,,,29.91,1012.6,0.01,,,2025-04-09,4,2025,21,KIAD
2025-04-06,6,22:52,EDT,E  6,10.0,Light Rain,SCT023 OVC032,52.0,50.0,,,93%,,,29.88,1011.7,,0.01,,2025-04-09,4,2025,22,KIAD
2025-04-06,6,23:52,EDT,E  5,10.0,Overcast,OVC024,52.0,50.0,,,93%,,,29.88,1011.7,,,,2025-04-10,4,2025,23,KIAD
2025-04-07,7,00:52,EDT,E  3,10.0,Overcast,OVC022,51.1,48.9,,,92%,,,29.86,1011.1,,,,2025-04-10,4,2025,0,KIAD
2025-04-07,7,01:52,EDT,NE  5,6.0,Light Drizzle Fog/Mist,FEW020 OVC030,51.1,46.9,54.0,51.1,86%,,,29.83,1010.1,,,0.01,2025-04-10,4,2025,1,KIAD
2025-04-07,7,02:52,EDT,NE  6,6.0,Light Drizzle Fog/Mist,BKN025 OVC030,50.0,48.0,,,93%,48.0,,29.82,1009.8,0.03,,,2025-04-10,4,2025,2,KIAD
2025-04-07,7,03:52,EDT,NE  10,6.0,Light Drizzle Fog/Mist,FEW010 BKN015 OVC020,48.9,46.9,,,93%,45.0,,29.79,1008.9,0.02,,,2025-04-10,4,2025,3,KIAD
2025-04-07,7,04:52,EDT,NE  7,10.0,Overcast,OVC021,48.9,46.0,,,90%,46.0,,29.78,1008.5,,0.05,,2025-04-10,4,2025,4,KIAD
2025-04-07,7,05:52,EDT,NE  9,5.0,Light Drizzle Fog/Mist,OVC008,48.0,46.0,,,93%,44.0,,29.78,1008.4,,,,2025-04-10,4,2025,5,KIAD
2025-04-07,7,06:52,EDT,N  10,4.0,Fog/Mist,OVC006,46.9,45.0,,,93%,43.0,,29.78,1008.4,0.02,,,2025-04-10,4,2025,6,KIAD
2025-04-07,7,07:52,EDT,NE  6,2.0,Light Rain Fog/Mist,SCT007 OVC014,46.9,45.0,51.1,46.9,93%,45.0,,29.77,1008.2,0.04,,0.11,2025-04-10,4,2025,7,KIAD
2025-04-07,7,08:52,EDT,N  7,2.0,Rain Fog/Mist,OVC007,46.0,44.1,,,93%,43.0,,29.77,1008.1,0.2,,,2025-04-10,4,2025,8,KIAD
2025-04-07,7,09:52,EDT,NE  9,5.0,Fog/Mist,BKN009 OVC015,45.0,42.1,,,90%,41.0,,29.78,1008.3,0.04,,,2025-04-10,4,2025,9,KIAD
2025-04-07,7,10:52,EDT,E  9,1.0,Heavy Rain Fog/Mist,OVC009,44.1,42.1,,,93%,40.0,,29.77,1008.2,0.04,0.28,,2025-04-10,4,2025,10,KIAD
2025-04-07,7,11:52,EDT,NE  9,5.0,Light Rain Fog/Mist,OVC010,45.0,42.1,,,90%,41.0,,29.75,1007.3,0.05,,,2025-04-10,4,2025,11,KIAD
2025-04-07,7,12:52,EDT,NE  7,6.0,Fog/Mist,OVC009,44.1,42.1,,,93%,41.0,,29.73,1006.7,,,,2025-04-10,4,2025,12,KIAD
2025-04-07,7,13:52,EDT,N  8,5.0,Fog/Mist,OVC009,45.0,42.1,46.9,44.1,90%,41.0,,29.72,1006.3,,,0.33,2025-04-10,4,2025,13,KIAD
2025-04-07,7,14:52,EDT,N  8,6.0,Fog/Mist,OVC009,45.0,42.1,,,90%,41.0,,29.72,1006.3,,,,2025-04-10,4,2025,14,KIAD
2025-04-07,7,15:52,EDT,N  9,6.0,Fog/Mist,OVC007,43.0,41.0,,,93%,38.0,,29.7,1005.9,,,,2025-04-10,4,2025,15,KIAD
2025-04-07,7,16:52,EDT,NE  8,6.0,Fog/Mist,BKN008 OVC014,44.1,39.9,,,85%,40.0,,29.69,1005.3,,,,2025-04-10,4,2025,16,KIAD
2025-04-07,7,17:52,EDT,N  7,10.0,Overcast,OVC011,45.0,39.9,,,83%,42.0,,29.71,1006.0,,,,2025-04-10,4,2025,17,KIAD
2025-04-07,7,18:52,EDT,NW  6,10.0,Overcast,BKN012 OVC047,45.0,39.9,,,83%,42.0,,29.73,1006.7,,,,2025-04-10,4,2025,18,KIAD
2025-04-07,7,19:52,EDT,NW  6,10.0,Overcast,SCT013 BKN065 OVC160,44.1,39.9,45.0,43.0,85%,41.0,,29.7,1005.9,,,,2025-04-10,4,2025,19,KIAD
2025-04-07,7,20:52,EDT,NE  5,10.0,Overcast,FEW012 OVC140,44.1,39.9,,,85%,42.0,,29.69,1005.3,,,,2025-04-10,4,2025,20,KIAD
2025-04-07,7,21:52,EDT,E  3,10.0,Overcast,FEW012 OVC140,43.0,41.0,,,93%,,,29.69,1005.3,,,,2025-04-10,4,2025,21,KIAD
2025-04-07,7,22:52,EDT,S  5,10.0,Overcast,FEW120 OVC140,43.0,41.0,,,93%,41.0,,29.69,1005.6,,,,2025-04-10,4,2025,22,KIAD
2025-04-07,7,23:52,EDT,Calm,8.0,Overcast,OVC130,42.1,41.0,,,96%,,,29.68,1005.0,,,,2025-04-11,4,2025,23,KIAD
2025-04-08,8,00:52,EDT,SW  5,8.0,Overcast,OVC130,42.1,41.0,,,96%,40.0,,29.68,1005.3,,,,2025-04-11,4,2025,0,KIAD
2025-04-08,8,01:52,EDT,NW  3,8.0,Overcast,OVC140,42.1,41.0,44.1,42.1,96%,,,29.67,1004.9,,,,2025-04-11,4,2025,1,KIAD
2025-04-08,8,02:52,EDT,NW  14  G 23,10.0,Overcast,BKN044 OVC140,44.1,37.0,,,76%,38.0,,29.69,1005.5,,,,2025-04-11,4,2025,2,KIAD
2025-04-08,8,03:52,EDT,NW  15,10.0,Overcast,FEW048 BKN075 OVC100,43.0,28.9,,,58%,36.0,,29.72,1006.5,,,,2025-04-11,4,2025,3,KIAD
2025-04-08,8,04:52,EDT,NW  15  G 23,10.0,Overcast,OVC080,41.0,26.1,,,55%,34.0,,29.76,1007.7,,,,2025-04-11,4,2025,4,KIAD
2025-04-08,8,05:52,EDT,NW  15  G 23,10.0,Overcast,OVC080,37.9,21.0,,,51%,30.0,,29.8,1009.1,,,,2025-04-11,4,2025,5,KIAD
2025-04-08,8,06:52,EDT,N  17  G 25,10.0,Partly Cloudy,SCT085,35.1,19.0,,,52%,26.0,,29.83,1010.5,,,,2025-04-11,4,2025,6,KIAD
2025-04-08,8,07:52,EDT,N  12  G 24,10.0,Mostly Cloudy,BKN055 BKN080,35.1,18.0,44.1,35.1,50%,28.0,,29.89,1012.2,,,,2025-04-11,4,2025,7,KIAD
2025-04-08,8,08:52,EDT,NW  14  G 25,10.0,Partly Cloudy,SCT050 SCT065,37.0,19.9,,,50%,29.0,,29.91,1012.8,,,,2025-04-11,4,2025,8,KIAD
2025-04-08,8,09:52,EDT,NW  20  G 30,10.0,Mostly Cloudy,BKN050,39.0,18.0,,,43%,30.0,,29.91,1013.0,,,,2025-04-11,4,2025,9,KIAD
2025-04-08,8,10:52,EDT,NW  20  G 29,10.0,Mostly Cloudy,BKN055,41.0,17.1,,,38%,33.0,,29.92,1013.3,,,,2025-04-11,4,2025,10,KIAD
2025-04-08,8,11:52,EDT,Calm,10.0,Partly Cloudy,SCT055,43.0,17.1,,,35%,,,29.92,1013.2,,,,2025-04-11,4,2025,11,KIAD
2025-04-08,8,12:52,EDT,NW  17  G 30,10.0,Partly Cloudy,SCT055,44.1,19.0,,,37%,37.0,,29.93,1013.6,,,,2025-04-11,4,2025,12,KIAD
2025-04-08,8,13:52,EDT,NW  21  G 28,10.0,Partly Cloudy and Breezy,SCT065,44.1,17.1,45.0,35.1,34%,36.0,,29.93,1013.7,,,,2025-04-11,4,2025,13,KIAD
2025-04-08,8,14:52,EDT,NW  24  G 35,10.0,A Few Clouds and Breezy,FEW070,45.0,15.1,,,30%,37.0,,29.93,1013.6,,,,2025-04-11,4,2025,14,KIAD
2025-04-08,8,15:52,EDT,NW  21  G 37,10.0,A Few Clouds and Breezy,FEW065,46.9,14.0,,,26%,40.0,,29.93,1013.8,,,,2025-04-11,4,2025,15,KIAD
2025-04-08,8,16:52,EDT,NW  20  G 32,10.0,A Few Clouds,FEW070,46.9,15.1,,,28%,40.0,,29.96,1014.5,,,,2025-04-11,4,2025,16,KIAD
2025-04-08,8,17:52,EDT,NW  22  G 29,10.0,A Few Clouds and Breezy,FEW070,45.0,12.0,,,26%,37.0,,29.98,1015.5,,,,2025-04-11,4,2025,17,KIAD
2025-04-08,8,18:52,EDT,NW  16  G 24,10.0,Fair,CLR,44.1,12.0,,,27%,37.0,,30.01,1016.5,,,,2025-04-11,4,2025,18,KIAD
2025-04-08,8,19:52,EDT,NW  12,10.0,Fair,CLR,41.0,12.0,48.0,41.0,30%,35.0,,30.05,1017.7,,,,2025-04-11,4,2025,19,KIAD
2025-04-08,8,20:52,EDT,NW  7,10.0,Fair,CLR,39.9,12.0,,,32%,36.0,,30.09,1019.2,,,,2025-04-11,4,2025,20,KIAD
2025-04-08,8,21:52,EDT,N  7,10.0,Fair,CLR,39.0,12.0,,,33%,35.0,,30.12,1020.3,,,,2025-04-11,4,2025,21,KIAD
2025-04-08,8,22:52,EDT,NW  9,10.0,Fair,CLR,39.0,12.0,,,33%,33.0,,30.15,1021.0,,,,2025-04-11,4,2025,22,KIAD
2025-04-08,8,23:52,EDT,NW  8,10.0,Fair,CLR,37.0,12.0,,,36%,32.0,,30.17,1021.7,,,,2025-04-11,4,2025,23,KIAD
2025-04-09,9,00:52,EDT,NW  8,10.0,Fair,CLR,36.0,12.9,,,39%,30.0,,30.19,1022.5,,,,2025-04-12,4,2025,0,KIAD
2025-04-09,9,01:52,EDT,Calm,10.0,Fair,CLR,33.1,15.1,41.0,33.1,48%,,,30.21,1023.3,,,,2025-04-12,4,2025,1,KIAD
2025-04-09,9,02:52,EDT,NW  6,10.0,Fair,CLR,34.0,12.9,,,42%,29.0,,30.21,1023.1,,,,2025-04-12,4,2025,2,KIAD
2025-04-09,9,03:52,EDT,Calm,10.0,Fair,CLR,27.0,18.0,,,69%,,,30.23,1023.7,,,,2025-04-12,4,2025,3,KIAD
2025-04-09,9,04:52,EDT,NW  5,10.0,Fair,CLR,32.0,14.0,,,47%,28.0,,30.25,1024.4,,,,2025-04-12,4,2025,4,KIAD
2025-04-09,9,05:52,EDT,Calm,10.0,Fair,CLR,28.0,17.1,,,63%,,,30.26,1024.7,,,,2025-04-12,4,2025,5,KIAD
2025-04-09,9,06:52,EDT,Calm,10.0,Fair,CLR,27.0,17.1,,,66%,,,30.28,1025.6,,,,2025-04-12,4,2025,6,KIAD
2025-04-09,9,07:52,EDT,W  3,10.0,Fair,CLR,33.1,19.9,34.0,26.1,58%,,,30.3,1026.3,,,,2025-04-12,4,2025,7,KIAD
2025-04-09,9,08:52,EDT,Calm,10.0,Fair,CLR,37.9,16.0,,,41%,,,30.31,1026.5,,,,2025-04-12,4,2025,8,KIAD
2025-04-09,9,09:52,EDT,Calm,10.0,Fair,CLR,39.9,15.1,,,36%,,,30.32,1026.9,,,,2025-04-12,4,2025,9,KIAD
2025-04-09,9,10:52,EDT,N  6,10.0,Fair,CLR,42.1,16.0,,,35%,39.0,,30.32,1026.8,,,,2025-04-12,4,2025,10,KIAD
2025-04-09,9,11:52,EDT,Vrbl  3,10.0,Fair,CLR,44.1,16.0,,,32%,,,30.3,1026.3,,,,2025-04-12,4,2025,11,KIAD
2025-04-09,9,12:52,EDT,Calm,10.0,Fair,CLR,46.9,17.1,,,30%,,,30.29,1025.7,,,,2025-04-12,4,2025,12,KIAD
2025-04-09,9,13:52,EDT,Vrbl  3,10.0,A Few Clouds,FEW250,48.9,17.1,50.0,33.1,28%,,,30.27,1025.0,,,,2025-04-12,4,2025,13,KIAD
2025-04-09,9,14:52,EDT,Vrbl  6,10.0,A Few Clouds,FEW250,51.1,19.0,,,28%,,,30.24,1024.2,,,,2025-04-12,4,2025,14,KIAD
2025-04-09,9,15:52,EDT,SE  10,10.0,A Few Clouds,FEW250,52.0,19.0,,,27%,,,30.22,1023.5,,,,2025-04-12,4,2025,15,KIAD
2025-04-09,9,16:52,EDT,Calm,10.0,Partly Cloudy,SCT250,52.0,18.0,,,26%,,,30.21,1022.9,,,,2025-04-12,4,2025,16,KIAD
2025-04-09,9,17:52,EDT,SW  8,10.0,A Few Clouds,FEW250,53.1,19.0,,,26%,,,30.2,1022.6,,,,2025-04-12,4,2025,17,KIAD
2025-04-09,9,18:52,EDT,S  6,10.0,A Few Clouds,FEW250,53.1,19.9,,,27%,,,30.2,1023.0,,,,2025-04-12,4,2025,18,KIAD
2025-04-09,9,19:52,EDT,SE  6,10.0,A Few Clouds,FEW090 FEW250,48.0,21.9,54.0,48.0,36%,46.0,,30.2,1022.9,,,,2025-04-12,4,2025,19,KIAD
2025-04-09,9,20:52,EDT,SE  14  G 20,10.0,A Few Clouds,FEW080 FEW250,46.9,25.0,,,42%,42.0,,30.22,1023.5,,,,2025-04-12,4,2025,20,KIAD
2025-04-09,9,21:52,EDT,SE  9  G 18,10.0,A Few Clouds,FEW080 FEW250,45.0,27.0,,,49%,41.0,,30.24,1024.0,,,,2025-04-12,4,2025,21,KIAD
2025-04-09,9,22:52,EDT,SE  9,10.0,Overcast,OVC085,45.0,28.9,,,54%,41.0,,30.24,1024.2,,,,2025-04-12,4,2025,22,KIAD
2025-04-09,9,23:52,EDT,SE  7,10.0,Overcast,OVC085,45.0,30.9,,,58%,42.0,,30.25,1024.5,,,,2025-04-12,4,2025,23,KIAD
2025-04-10,10,00:52,EDT,S  7,10.0,Overcast,OVC085,44.1,30.9,,,60%,41.0,,30.26,1024.9,,,,2025-04-13,4,2025,0,KIAD
2025-04-10,10,01:52,EDT,S  9,10.0,Overcast,OVC090,44.1,30.9,48.9,44.1,60%,40.0,,30.25,1024.6,,,,2025-04-13,4,2025,1,KIAD
2025-04-10,10,02:52,EDT,S  8,10.0,Overcast,OVC100,44.1,30.9,,,60%,40.0,,30.24,1024.0,,,,2025-04-13,4,2025,2,KIAD
2025-04-10,10,03:52,EDT,S  6,10.0,Overcast,FEW095 OVC120,43.0,30.9,,,63%,40.0,,30.23,1023.8,,,,2025-04-13,4,2025,3,KIAD
2025-04-10,10,04:52,EDT,S  7,10.0,Overcast,BKN090 OVC110,43.0,30.9,,,63%,39.0,,30.25,1024.3,,,,2025-04-13,4,2025,4,KIAD
2025-04-10,10,05:52,EDT,S  8,10.0,Light Rain,OVC065,43.0,32.0,,,65%,39.0,,30.24,1023.9,,,,2025-04-13,4,2025,5,KIAD
2025-04-10,10,06:52,EDT,S  6,10.0,Overcast,FEW060 BKN080 OVC110,43.0,33.1,,,68%,40.0,,30.24,1024.1,,,,2025-04-13,4,2025,6,KIAD
2025-04-10,10,07:52,EDT,S  7,10.0,Overcast,BKN060 BKN080 OVC110,45.0,33.1,45.0,43.0,63%,42.0,,30.25,1024.5,,,,2025-04-13,4,2025,7,KIAD
2025-04-10,10,08:52,EDT,S  8,10.0,Overcast,BKN070 OVC100,46.0,34.0,,,63%,42.0,,30.25,1024.4,,,,2025-04-13,4,2025,8,KIAD
2025-04-10,10,09:52,EDT,S  9  G 20,10.0,Overcast,FEW060 OVC080,48.0,33.1,,,56%,44.0,,30.24,1024.2,,,,2025-04-13,4,2025,9,KIAD
2025-04-10,10,10:52,EDT,S  13  G 22,10.0,Overcast,FEW040 BKN060 OVC095,53.1,35.1,,,51%,,,30.22,1023.4,,,,2025-04-13,4,2025,10,KIAD
2025-04-10,10,11:52,EDT,SE  12  G 23,10.0,Overcast,BKN042 BKN060 OVC100,52.0,34.0,,,50%,,,30.2,1022.7,,,,2025-04-13,4,2025,11,KIAD
2025-04-10,10,12:52,EDT,S  10  G 22,10.0,Overcast,SCT040 BKN070 OVC110,54.0,34.0,,,47%,,,30.17,1021.7,,,,2025-04-13,4,2025,12,KIAD
2025-04-10,10,13:52,EDT,S  13  G 28,10.0,Overcast,SCT065 BKN095 BKN130 OVC230,57.0,36.0,57.0,45.0,45%,,,30.15,1021.1,,,,2025-04-13,4,2025,13,KIAD
2025-04-10,10,14:52,EDT,SE  12,10.0,Light Rain,OVC060,57.0,37.9,,,49%,,,30.13,1020.3,,,,2025-04-13,4,2025,14,KIAD
2025-04-10,10,15:52,EDT,S  7,10.0,Light Rain,OVC055,55.0,41.0,,,59%,,,30.11,1019.7,,,,2025-04-13,4,2025,15,KIAD
2025-04-10,10,16:52,EDT,SE  9,10.0,Light Rain,OVC065,55.9,42.1,,,60%,,,30.1,1019.1,,,,2025-04-13,4,2025,16,KIAD
2025-04-10,10,17:52,EDT,SE  5,10.0,Overcast,OVC060,55.0,39.9,,,57%,,,30.09,1019.0,,,,2025-04-13,4,2025,17,KIAD
2025-04-10,10,18:52,EDT,E  6,10.0,Light Rain,OVC045,52.0,43.0,,,72%,,,30.1,1019.3,,,,2025-04-13,4,2025,18,KIAD
2025-04-10,10,19:52,EDT,SE  8,10.0,Light Rain,BKN043 OVC050,51.1,43.0,57.0,50.0,74%,,,30.11,1019.5,0.02,,0.02,2025-04-13,4,2025,19,KIAD
2025-04-10,10,20:52,EDT,SE  7,10.0,Light Rain,OVC047,50.0,43.0,,,77%,48.0,,30.12,1019.8,,,,2025-04-13,4,2025,20,KIAD
2025-04-10,10,21:52,EDT,SE  7,10.0,Overcast,OVC047,50.0,42.1,,,74%,48.0,,30.12,1020.0,,,,2025-04-13,4,2025,21,KIAD
2025-04-10,10,22:52,EDT,SE  7,10.0,Overcast,SCT043 OVC055,50.0,41.0,,,71%,48.0,,30.11,1019.6,,,,2025-04-13,4,2025,22,KIAD
2025-04-10,10,23:52,EDT,SE  5,10.0,Overcast,BKN039 BKN060 OVC080,48.9,42.1,,,77%,48.0,,30.11,1019.7,,,,2025-04-13,4,2025,23,KIAD
2025-04-11,11,00:52,EDT,E  6,10.0,Overcast,OVC018,48.9,42.1,,,77%,47.0,,30.1,1019.4,,,,2025-04-14,4,2025,0,KIAD
2025-04-11,11,01:52,EDT,E  8,10.0,Overcast,OVC016,48.0,42.1,51.1,48.0,80%,45.0,,30.08,1018.7,,,,2025-04-14,4,2025,1,KIAD
2025-04-11,11,02:52,EDT,E  6,10.0,Overcast,OVC014,46.9,41.0,,,80%,45.0,,30.06,1017.8,,,,2025-04-14,4,2025,2,KIAD
2025-04-11,11,03:52,EDT,E  7,10.0,Overcast,OVC013,46.0,41.0,,,83%,43.0,,30.05,1017.7,,,,2025-04-14,4,2025,3,KIAD
2025-04-11,11,04:52,EDT,E  7,10.0,Overcast,OVC012,45.0,41.0,,,86%,42.0,,30.03,1016.9,,,,2025-04-14,4,2025,4,KIAD
2025-04-11,11,05:52,EDT,NE  7,10.0,Overcast,OVC011,45.0,41.0,,,86%,42.0,,30.05,1017.5,,,,2025-04-14,4,2025,5,KIAD
2025-04-11,11,06:52,EDT,NE  8,10.0,Overcast,OVC011,45.0,41.0,,,86%,41.0,,30.04,1017.3,,,,2025-04-14,4,2025,6,KIAD
2025-04-11,11,07:52,EDT,NE  10,10.0,Overcast,FEW008 OVC010,46.0,42.1,48.0,45.0,86%,42.0,,30.05,1017.4,,,,2025-04-14,4,2025,7,KIAD
2025-04-11,11,08:52,EDT,NE  7,10.0,Overcast,OVC010,46.0,42.1,,,86%,43.0,,30.05,1017.4,,,,2025-04-14,4,2025,8,KIAD
2025-04-11,11,09:52,EDT,NE  8,10.0,Light Rain,FEW008 OVC011,46.0,42.1,,,86%,42.0,,30.05,1017.5,,,,2025-04-14,4,2025,9,KIAD
2025-04-11,11,10:52,EDT,NE  7,7.0,Light Rain,FEW008 OVC011,46.0,43.0,,,89%,43.0,,30.05,1017.5,0.01,0.01,,2025-04-14,4,2025,10,KIAD
2025-04-11,11,11:52,EDT,NE  10,10.0,Light Rain,OVC011,46.0,44.1,,,93%,42.0,,30.04,1017.2,0.02,,,2025-04-14,4,2025,11,KIAD
2025-04-11,11,13:52,EDT,NE  10,10.0,Light Rain,OVC009,46.0,43.0,46.9,45.0,89%,42.0,,30.02,1016.8,,,0.03,2025-04-14,4,2025,13,KIAD
2025-04-11,11,14:52,EDT,N  10,4.0,Light Rain Fog/Mist,OVC010,46.0,44.1,,,93%,42.0,,30.01,1016.4,0.06,,,2025-04-14,4,2025,14,KIAD
2025-04-11,11,15:51,EDT,N  8,8.0,Light Rain,OVC009,46.9,45.0,,,93%,44.0,,29.99,1015.5,0.06,,,2025-04-14,4,2025,15,KIAD
2025-04-11,11,16:52,EDT,NE  12,4.0,Light Rain Fog/Mist,OVC008,46.9,45.0,,,93%,42.0,,29.97,1014.8,0.07,0.19,,2025-04-14,4,2025,16,KIAD
2025-04-11,11,17:52,EDT,N  14,7.0,Light Rain,BKN008 OVC014,46.9,45.0,,,93%,42.0,,29.97,1014.8,0.05,,,2025-04-14,4,2025,17,KIAD
2025-04-11,11,18:52,EDT,N  12,7.0,Light Rain,BKN008 OVC012,46.9,45.0,,,93%,42.0,,29.96,1014.6,0.04,,,2025-04-14,4,2025,18,KIAD
2025-04-11,11,19:52,EDT,N  12,7.0,Light Rain,OVC008,46.9,45.0,46.9,46.0,93%,42.0,,29.96,1014.7,0.04,,0.32,2025-04-14,4,2025,19,KIAD
2025-04-11,11,20:52,EDT,N  12,5.0,Light Rain Fog/Mist,OVC008,46.0,44.1,,,93%,41.0,,29.98,1015.3,0.05,,,2025-04-14,4,2025,20,KIAD
2025-04-11,11,21:52,EDT,N  12,6.0,Light Rain Fog/Mist,BKN008 OVC013,46.0,44.1,,,93%,41.0,,29.99,1015.6,0.11,,,2025-04-14,4,2025,21,KIAD
2025-04-11,11,22:52,EDT,N  12,8.0,Light Rain,BKN009 OVC020,46.0,44.1,,,93%,41.0,,29.99,1015.6,0.02,0.18,,2025-04-14,4,2025,22,KIAD
2025-04-11,11,23:52,EDT,N  12,10.0,Light Rain,BKN011 OVC028,46.0,43.0,,,89%,41.0,,29.98,1015.3,,,,2025-04-14,4,2025,23,KIAD
2025-04-12,12,00:52,EDT,N  10  G 21,8.0,Light Rain,BKN011 OVC015,45.0,42.1,,,90%,40.0,,29.97,1015.1,,,,2025-04-14,4,2025,0,KIAD
2025-04-12,12,01:52,EDT,N  10  G 21,6.0,Light Rain Fog/Mist,SCT010 BKN017 OVC044,45.0,42.1,46.9,45.0,90%,40.0,,29.96,1014.5,0.02,,0.2,2025-04-14,4,2025,1,KIAD
2025-04-12,12,02:52,EDT,N  14  G 22,8.0,Light Rain,BKN010 OVC030,44.1,41.0,,,89%,38.0,,29.95,1014.4,0.02,,,2025-04-14,4,2025,2,KIAD
2025-04-12,12,03:52,EDT,N  13  G 25,10.0,Overcast,OVC015,44.1,41.0,,,89%,38.0,,29.96,1014.7,0.01,,,2025-04-14,4,2025,3,KIAD
2025-04-12,12,04:52,EDT,N  14  G 21,10.0,Overcast,BKN012 OVC028,44.1,39.9,,,85%,38.0,,29.97,1014.8,,0.03,,2025-04-14,4,2025,4,KIAD
2025-04-12,12,05:52,EDT,N  16  G 22,10.0,Overcast,FEW012 BKN015 OVC022,44.1,39.9,,,85%,37.0,,29.98,1015.2,,,,2025-04-14,4,2025,5,KIAD
2025-04-12,12,06:52,EDT,N  8  G 20,10.0,Overcast,SCT017 OVC027,43.0,39.0,,,86%,39.0,,29.98,1015.4,,,,2025-04-14,4,2025,6,KIAD
2025-04-12,12,07:52,EDT,N  12,6.0,Fog/Mist,SCT015 BKN040 OVC080,43.0,39.0,44.1,43.0,86%,37.0,,29.99,1015.6,,,0.03,2025-04-14,4,2025,7,KIAD
2025-04-12,12,08:52,EDT,N  10  G 18,6.0,Fog/Mist,SCT011 BKN017 OVC045,45.0,41.0,,,86%,40.0,,29.99,1015.7,,,,2025-04-14,4,2025,8,KIAD
2025-04-12,12,09:52,EDT,N  14,6.0,Overcast with Haze,BKN014 BKN022 OVC040,46.0,39.0,,,77%,40.0,,29.99,1015.8,,,,2025-04-14,4,2025,9,KIAD
2025-04-12,12,10:52,EDT,N  15  G 23,6.0,Overcast with Haze,BKN020 OVC027,48.9,39.9,,,71%,44.0,,30.0,1015.9,,,,2025-04-14,4,2025,10,KIAD
2025-04-12,12,11:52,EDT,N  15,10.0,Overcast,BKN024 OVC035,50.0,37.9,,,63%,45.0,,30.0,1016.0,,,,2025-04-14,4,2025,11,KIAD
2025-04-12,12,12:52,EDT,NW  16,10.0,Mostly Cloudy,BKN027 BKN040 BKN065,52.0,39.0,,,61%,,,29.98,1015.3,,,,2025-04-14,4,2025,12,KIAD
2025-04-12,12,13:52,EDT,NW  15  G 24,10.0,Mostly Cloudy,BKN028 BKN040 BKN060,52.0,39.0,53.1,43.0,61%,,,29.97,1015.0,,,,2025-04-14,4,2025,13,KIAD
2025-04-12,12,14:52,EDT,NW  17  G 28,10.0,Mostly Cloudy,FEW025 BKN034 BKN055,50.0,41.0,,,71%,45.0,,29.96,1014.7,,,,2025-04-14,4,2025,14,KIAD
2025-04-12,12,15:52,EDT,NW  15  G 26,10.0,Mostly Cloudy,SCT028 BKN038 BKN055,51.1,39.0,,,64%,,,29.95,1014.1,,,,2025-04-14,4,2025,15,KIAD
2025-04-12,12,16:52,EDT,N  16  G 23,10.0,Mostly Cloudy,FEW028 BKN038 BKN048,51.1,37.9,,,61%,,,29.95,1014.2,,,,2025-04-14,4,2025,16,KIAD
2025-04-12,12,17:52,EDT,N  16  G 22,10.0,Mostly Cloudy,FEW026 SCT034 BKN050,51.1,37.9,,,61%,,,29.96,1014.6,,,,2025-04-14,4,2025,17,KIAD
2025-04-12,12,18:52,EDT,N  15  G 30,10.0,Mostly Cloudy,SCT032 BKN040 BKN055,51.1,37.0,,,59%,,,29.97,1015.0,,,,2025-04-14,4,2025,18,KIAD
2025-04-12,12,19:52,EDT,NW  12,10.0,Overcast,BKN032 OVC044,50.0,37.0,52.0,50.0,61%,46.0,,29.98,1015.1,,,,2025-04-14,4,2025,19,KIAD
2025-04-12,12,20:52,EDT,NW  9,10.0,Overcast,OVC037,50.0,37.0,,,61%,47.0,,29.99,1015.5,,,,2025-04-14,4,2025,20,KIAD
2025-04-12,12,21:52,EDT,NW  12  G 22,10.0,Light Rain,OVC034,48.0,37.9,,,68%,44.0,,30.0,1016.0,,,,2025-04-14,4,2025,21,KIAD
2025-04-12,12,22:52,EDT,NW  12,10.0,Overcast,OVC036,48.0,37.0,,,66%,44.0,,30.01,1016.1,,,,2025-04-14,4,2025,22,KIAD
2025-04-12,12,23:52,EDT,NW  7,10.0,Light Rain,BKN038 OVC046,46.9,39.9,,,77%,44.0,,30.02,1016.4,,,,2025-04-14,4,2025,23,KIAD
2025-04-13,13,00:52,EDT,NW  6,10.0,Overcast,BKN037 BKN046 OVC055,46.9,39.9,,,77%,45.0,,30.01,1016.3,,,,2025-04-14,4,2025,0,KIAD
2025-04-13,13,01:52,EDT,NW  8,10.0,Overcast,OVC038,46.9,37.9,50.0,46.0,71%,44.0,,30.01,1016.2,,,,2025-04-14,4,2025,1,KIAD
2025-04-13,13,02:52,EDT,NW  13,10.0,Overcast,OVC044,46.9,37.0,,,69%,42.0,,30.0,1015.9,,,,2025-04-14,4,2025,2,KIAD
2025-04-13,13,03:52,EDT,NW  9,10.0,Overcast,OVC049,46.9,36.0,,,66%,43.0,,30.0,1015.8,,,,2025-04-14,4,2025,3,KIAD
2025-04-13,13,04:52,EDT,NW  14  G 26,10.0,Overcast,OVC049,46.9,35.1,,,63%,42.0,,30.0,1015.9,,,,2025-04-14,4,2025,4,KIAD
2025-04-13,13,05:52,EDT,NW  12,10.0,Overcast,OVC050,46.0,35.1,,,66%,41.0,,30.02,1016.4,,,,2025-04-14,4,2025,5,KIAD
2025-04-13,13,06:52,EDT,NW  15  G 22,10.0,Mostly Cloudy,BKN049,46.0,34.0,,,63%,40.0,,30.03,1017.0,,,,2025-04-14,4,2025,6,KIAD
2025-04-13,13,07:52,EDT,NW  15  G 25,10.0,Mostly Cloudy,BKN045,45.0,34.0,48.0,45.0,66%,39.0,,30.04,1017.3,,,,2025-04-14,4,2025,7,KIAD
2025-04-13,13,08:52,EDT,NW  16  G 26,10.0,A Few Clouds,FEW045 FEW250,48.0,35.1,,,61%,42.0,,30.05,1017.4,,,,2025-04-14,4,2025,8,KIAD
2025-04-13,13,09:52,EDT,NW  24  G 32,10.0,Partly Cloudy and Breezy,FEW050 SCT250,50.0,34.0,,,54%,43.0,,30.06,1018.1,,,,2025-04-14,4,2025,9,KIAD
2025-04-13,13,10:52,EDT,NW  14  G 26,10.0,Partly Cloudy,SCT036 SCT250,51.1,35.1,,,54%,,,30.07,1018.4,,,,2025-04-14,4,2025,10,KIAD
2025-04-13,13,11:52,EDT,NW  12  G 21,10.0,Partly Cloudy,SCT039 SCT250,53.1,36.0,,,52%,,,30.07,1018.3,,,,2025-04-14,4,2025,11,KIAD
2025-04-13,13,12:52,EDT,NW  13  G 25,10.0,Mostly Cloudy,BKN043,54.0,36.0,,,51%,,,30.06,1017.9,,,,2025-04-14,4,2025,12,KIAD
2025-04-13,13,13:52,EDT,NW  13  G 24,10.0,Partly Cloudy,SCT046,57.9,36.0,57.9,45.0,44%,,,30.03,1017.0,,,,2025-04-14,4,2025,13,KIAD
2025-04-13,13,14:52,EDT,NW  13  G 23,10.0,Partly Cloudy,SCT050,59.0,35.1,,,41%,,,30.01,1016.1,,,,2025-04-14,4,2025,14,KIAD
2025-04-13,13,15:52,EDT,NW  16  G 22,10.0,Partly Cloudy,SCT050,61.0,37.0,,,41%,,,29.99,1015.5,,,,2025-04-14,4,2025,15,KIAD
2025-04-13,13,16:52,EDT,NW  10  G 20,10.0,Partly Cloudy,SCT060,61.0,35.1,,,38%,,,29.97,1015.0,,,,2025-04-14,4,2025,16,KIAD
2025-04-13,13,17:52,EDT,W  6  G 16,10.0,Partly Cloudy,SCT060 SCT250,60.1,35.1,,,39%,,,29.97,1015.0,,,,2025-04-14,4,2025,17,KIAD
2025-04-13,13,18:52,EDT,NW  7,10.0,A Few Clouds,FEW060 FEW250,60.1,34.0,,,38%,,,29.98,1015.1,,,,2025-04-14,4,2025,18,KIAD
2025-04-13,13,19:52,EDT,Calm,10.0,A Few Clouds,FEW060 FEW250,53.1,36.0,62.1,53.1,52%,,,29.98,1015.4,,,,2025-04-14,4,2025,19,KIAD
2025-04-13,13,20:52,EDT,S  3,10.0,A Few Clouds,FEW250,46.0,37.0,,,71%,,,29.99,1015.5,,,,2025-04-14,4,2025,20,KIAD
2025-04-13,13,21:52,EDT,SW  5,10.0,A Few Clouds,FEW250,46.0,37.0,,,71%,44.0,,29.99,1015.5,,,,2025-04-14,4,2025,21,KIAD
2025-04-13,13,22:52,EDT,S  5,10.0,A Few Clouds,FEW250,46.0,37.9,,,73%,44.0,,29.99,1015.4,,,,2025-04-14,4,2025,22,KIAD
2025-04-13,13,23:52,EDT,S  3,10.0,Mostly Cloudy,BKN250,46.9,36.0,,,66%,,,29.99,1015.4,,,,2025-04-14,4,2025,23,KIAD
2025-04-14,14,00:52,EDT,S  3,10.0,Mostly Cloudy,BKN170,46.9,37.0,,,69%,,,29.97,1015.0,,,,2025-04-14,4,2025,0,KIAD
2025-04-14,14,01:52,EDT,S  6,10.0,Mostly Cloudy,BKN220,45.0,37.0,52.0,43.0,74%,42.0,,29.97,1014.9,,,,2025-04-14,4,2025,1,KIAD
2025-04-14,14,02:52,EDT,Calm,10.0,Overcast,OVC110,46.9,39.9,,,77%,,,29.97,1014.8,,,,2025-04-14,4,2025,2,KIAD
2025-04-14,14,03:52,EDT,Calm,10.0,Overcast,OVC100,48.0,39.9,,,74%,,,29.96,1014.5,,,,2025-04-14,4,2025,3,KIAD
2025-04-14,14,04:52,EDT,Calm,10.0,Mostly Cloudy,BKN095,48.9,37.9,,,66%,,,29.94,1013.8,,,,2025-04-14,4,2025,4,KIAD
2025-04-14,14,05:52,EDT,Calm,10.0,Overcast,FEW055 OVC095,46.9,42.1,,,83%,,,29.96,1014.4,,,,2025-04-14,4,2025,5,KIAD
2025-04-14,14,06:52,EDT,SE  5,10.0,Overcast,OVC100,48.9,39.9,,,71%,48.0,,29.93,1013.4,,,,2025-04-14,4,2025,6,KIAD
2025-04-14,14,07:52,EDT,SE  5,10.0,Overcast,OVC100,51.1,39.0,51.1,45.0,64%,,,29.91,1012.7,,,,2025-04-14,4,2025,7,KIAD
2025-04-14,14,08:52,EDT,Calm,10.0,Overcast,OVC120,54.0,39.9,,,59%,,,29.9,1012.6,,,,2025-04-14,4,2025,8,KIAD
2025-04-14,14,09:52,EDT,S  7,10.0,Overcast,OVC110,55.9,39.9,,,55%,,,29.88,1011.8,,,,2025-04-14,4,2025,9,KIAD
2025-04-14,14,10:52,EDT,S  8,10.0,Overcast,OVC090,59.0,39.0,,,48%,,,29.88,1011.7,,,,2025-04-14,4,2025,10,KIAD
2025-04-14,14,11:52,EDT,S  8,10.0,Partly Cloudy,SCT095,64.9,41.0,,,42%,,,29.84,1010.4,,,,2025-04-14,4,2025,11,KIAD
2025-04-14,14,12:52,EDT,SW  9,10.0,Mostly Cloudy,FEW095 SCT160 BKN250,69.1,39.9,,,35%,,,29.82,1009.6,,,,2025-04-14,4,2025,12,KIAD
2025-04-14,14,13:52,EDT,S  8,10.0,Mostly Cloudy,SCT095 BKN250,70.0,41.0,71.1,52.0,35%,,,29.79,1008.8,,,,2025-04-14,4,2025,13,KIAD
2025-04-14,14,14:52,EDT,S  8,10.0,Mostly Cloudy,FEW080 BKN140 BKN250,72.0,43.0,,,35%,,,29.77,1007.9,,,,2025-04-14,4,2025,14,KIAD
2025-04-14,14,15:52,EDT,SE  10,10.0,Fair,CLR,73.9,43.0,,,33%,,,29.74,1007.1,,,,2025-04-14,4,2025,15,KIAD
2025-04-14,14,16:52,EDT,S  9,10.0,Mostly Cloudy,FEW150 BKN250,75.0,45.0,,,34%,,77.0,29.71,1006.1,,,,2025-04-14,4,2025,16,KIAD
2025-04-14,14,17:52,EDT,S  9,10.0,Partly Cloudy,FEW150 SCT250,75.9,46.0,,,35%,,78.0,29.68,1004.9,,,,2025-04-14,4,2025,17,KIAD
2025-04-14,14,18:52,EDT,SE  10,10.0,Mostly Cloudy,FEW120 BKN250,73.0,46.9,,,40%,,,29.67,1004.5,,,,2025-04-14,4,2025,18,KIAD
2025-04-14,14,19:52,EDT,SE  6,10.0,Overcast,FEW038CB BKN120 OVC200,70.0,46.9,75.9,70.0,44%,,,29.67,1004.5,,,,2025-04-14,4,2025,19,KIAD
2025-04-14,14,20:52,EDT,NE  6,10.0,Thunderstorm,SCT038CB BKN100 OVC200,70.0,48.0,,,46%,,,29.71,1005.9,,,,2025-04-14,4,2025,20,KIAD
2025-04-14,14,21:52,EDT,W  7,5.0,Thunderstorm Rain,BKN040CB OVC100,63.0,55.9,,,78%,,,29.77,1008.0,0.06,,,2025-04-14,4,2025,21,KIAD
2025-04-14,14,22:52,EDT,W  8,7.0,Light Rain,OVC100,62.1,57.9,,,86%,,,29.74,1006.8,0.1,0.16,,2025-04-14,4,2025,22,KIAD
