Date,Day,Time,Time Zone,Wind (mph),Vis. (mi.),Weather,Sky Cond.,Air,Dwpt,Max.,Min.,Relative Humidity,Wind Chill (°F),Heat Index (°F),altimeter (in),sea level (mb),1 hr,3 hr,6 hr,Data Retrieval Date,Obs_Month,Obs_Year
2025-04-11,11,23:52,EDT,N  12,10.00,Light Rain,BKN011 OVC028,46,43,,,89%,41,,29.98,1015.3,,,,2025-04-14,4,2025
2025-04-12,12,00:52,EDT,N  10  G 21,8.00,Light Rain,BKN011 OVC015,45,42.1,,,90%,40,,29.97,1015.1,,,,2025-04-14,4,2025
2025-04-12,12,01:52,EDT,N  10  G 21,6.00,Light Rain Fog/Mist,SCT010 BKN017 OVC044,45,42.1,46.9,45,90%,40,,29.96,1014.5,0.02,,0.2,2025-04-14,4,2025
2025-04-12,12,02:52,EDT,N  14  G 22,8.00,Light Rain,BKN010 OVC030,44.1,41,,,89%,38,,29.95,1014.4,0.02,,,2025-04-14,4,2025
2025-04-12,12,03:52,EDT,N  13  G 25,10.00,Overcast,OVC015,44.1,41,,,89%,38,,29.96,1014.7,0.01,,,2025-04-14,4,2025
2025-04-12,12,04:52,EDT,N  14  G 21,10.00,Overcast,BKN012 OVC028,44.1,39.9,,,85%,38,,29.97,1014.8,,0.03,,2025-04-14,4,2025
2025-04-12,12,05:52,EDT,N  16  G 22,10.00,Overcast,FEW012 BKN015 OVC022,44.1,39.9,,,85%,37,,29.98,1015.2,,,,2025-04-14,4,2025
2025-04-12,12,06:52,EDT,N  8  G 20,10.00,Overcast,SCT017 OVC027,43,39,,,86%,39,,29.98,1015.4,,,,2025-04-14,4,2025
2025-04-12,12,07:52,EDT,N  12,6.00,Fog/Mist,SCT015 BKN040 OVC080,43,39,44.1,43,86%,37,,29.99,1015.6,,,0.03,2025-04-14,4,2025
2025-04-12,12,08:52,EDT,N  10  G 18,6.00,Fog/Mist,SCT011 BKN017 OVC045,45,41,,,86%,40,,29.99,1015.7,,,,2025-04-14,4,2025
2025-04-12,12,09:52,EDT,N  14,6.00,Overcast with Haze,BKN014 BKN022 OVC040,46,39,,,77%,40,,29.99,1015.8,,,,2025-04-14,4,2025
2025-04-12,12,10:52,EDT,N  15  G 23,6.00,Overcast with Haze,BKN020 OVC027,48.9,39.9,,,71%,44,,30,1015.9,,,,2025-04-14,4,2025
2025-04-12,12,11:52,EDT,N  15,10.00,Overcast,BKN024 OVC035,50,37.9,,,63%,45,,30,1016.0,,,,2025-04-14,4,2025
2025-04-12,12,12:52,EDT,NW  16,10.00,Mostly Cloudy,BKN027 BKN040 BKN065,52,39,,,61%,,,29.98,1015.3,,,,2025-04-14,4,2025
2025-04-12,12,13:52,EDT,NW  15  G 24,10.00,Mostly Cloudy,BKN028 BKN040 BKN060,52,39,53.1,43,61%,,,29.97,1015.0,,,,2025-04-14,4,2025
2025-04-12,12,14:52,EDT,NW  17  G 28,10.00,Mostly Cloudy,FEW025 BKN034 BKN055,50,41,,,71%,45,,29.96,1014.7,,,,2025-04-14,4,2025
2025-04-12,12,15:52,EDT,NW  15  G 26,10.00,Mostly Cloudy,SCT028 BKN038 BKN055,51.1,39,,,64%,,,29.95,1014.1,,,,2025-04-14,4,2025
2025-04-12,12,16:52,EDT,N  16  G 23,10.00,Mostly Cloudy,FEW028 BKN038 BKN048,51.1,37.9,,,61%,,,29.95,1014.2,,,,2025-04-14,4,2025
2025-04-12,12,17:52,EDT,N  16  G 22,10.00,Mostly Cloudy,FEW026 SCT034 BKN050,51.1,37.9,,,61%,,,29.96,1014.6,,,,2025-04-14,4,2025
2025-04-12,12,18:52,EDT,N  15  G 30,10.00,Mostly Cloudy,SCT032 BKN040 BKN055,51.1,37,,,59%,,,29.97,1015.0,,,,2025-04-14,4,2025
2025-04-12,12,19:52,EDT,NW  12,10.00,Overcast,BKN032 OVC044,50,37,52,50,61%,46,,29.98,1015.1,,,,2025-04-14,4,2025
2025-04-12,12,20:52,EDT,NW  9,10.00,Overcast,OVC037,50,37,,,61%,47,,29.99,1015.5,,,,2025-04-14,4,2025
2025-04-12,12,21:52,EDT,NW  12  G 22,10.00,Light Rain,OVC034,48,37.9,,,68%,44,,30,1016.0,,,,2025-04-14,4,2025
2025-04-12,12,22:52,EDT,NW  12,10.00,Overcast,OVC036,48,37,,,66%,44,,30.01,1016.1,,,,2025-04-14,4,2025
2025-04-12,12,23:52,EDT,NW  7,10.00,Light Rain,BKN038 OVC046,46.9,39.9,,,77%,44,,30.02,1016.4,,,,2025-04-14,4,2025
2025-04-13,13,00:52,EDT,NW  6,10.00,Overcast,BKN037 BKN046 OVC055,46.9,39.9,,,77%,45,,30.01,1016.3,,,,2025-04-14,4,2025
2025-04-13,13,01:52,EDT,NW  8,10.00,Overcast,OVC038,46.9,37.9,50,46,71%,44,,30.01,1016.2,,,,2025-04-14,4,2025
2025-04-13,13,02:52,EDT,NW  13,10.00,Overcast,OVC044,46.9,37,,,69%,42,,30,1015.9,,,,2025-04-14,4,2025
2025-04-13,13,03:52,EDT,NW  9,10.00,Overcast,OVC049,46.9,36,,,66%,43,,30,1015.8,,,,2025-04-14,4,2025
2025-04-13,13,04:52,EDT,NW  14  G 26,10.00,Overcast,OVC049,46.9,35.1,,,63%,42,,30,1015.9,,,,2025-04-14,4,2025
2025-04-13,13,05:52,EDT,NW  12,10.00,Overcast,OVC050,46,35.1,,,66%,41,,30.02,1016.4,,,,2025-04-14,4,2025
2025-04-13,13,06:52,EDT,NW  15  G 22,10.00,Mostly Cloudy,BKN049,46,34,,,63%,40,,30.03,1017.0,,,,2025-04-14,4,2025
2025-04-13,13,07:52,EDT,NW  15  G 25,10.00,Mostly Cloudy,BKN045,45,34,48,45,66%,39,,30.04,1017.3,,,,2025-04-14,4,2025
2025-04-13,13,08:52,EDT,NW  16  G 26,10.00,A Few Clouds,FEW045 FEW250,48,35.1,,,61%,42,,30.05,1017.4,,,,2025-04-14,4,2025
2025-04-13,13,09:52,EDT,NW  24  G 32,10.00,Partly Cloudy and Breezy,FEW050 SCT250,50,34,,,54%,43,,30.06,1018.1,,,,2025-04-14,4,2025
2025-04-13,13,10:52,EDT,NW  14  G 26,10.00,Partly Cloudy,SCT036 SCT250,51.1,35.1,,,54%,,,30.07,1018.4,,,,2025-04-14,4,2025
2025-04-13,13,11:52,EDT,NW  12  G 21,10.00,Partly Cloudy,SCT039 SCT250,53.1,36,,,52%,,,30.07,1018.3,,,,2025-04-14,4,2025
2025-04-13,13,12:52,EDT,NW  13  G 25,10.00,Mostly Cloudy,BKN043,54,36,,,51%,,,30.06,1017.9,,,,2025-04-14,4,2025
2025-04-13,13,13:52,EDT,NW  13  G 24,10.00,Partly Cloudy,SCT046,57.9,36,57.9,45,44%,,,30.03,1017.0,,,,2025-04-14,4,2025
2025-04-13,13,14:52,EDT,NW  13  G 23,10.00,Partly Cloudy,SCT050,59,35.1,,,41%,,,30.01,1016.1,,,,2025-04-14,4,2025
2025-04-13,13,15:52,EDT,NW  16  G 22,10.00,Partly Cloudy,SCT050,61,37,,,41%,,,29.99,1015.5,,,,2025-04-14,4,2025
2025-04-13,13,16:52,EDT,NW  10  G 20,10.00,Partly Cloudy,SCT060,61,35.1,,,38%,,,29.97,1015.0,,,,2025-04-14,4,2025
2025-04-13,13,17:52,EDT,W  6  G 16,10.00,Partly Cloudy,SCT060 SCT250,60.1,35.1,,,39%,,,29.97,1015.0,,,,2025-04-14,4,2025
2025-04-13,13,18:52,EDT,NW  7,10.00,A Few Clouds,FEW060 FEW250,60.1,34,,,38%,,,29.98,1015.1,,,,2025-04-14,4,2025
2025-04-13,13,19:52,EDT,Calm,10.00,A Few Clouds,FEW060 FEW250,53.1,36,62.1,53.1,52%,,,29.98,1015.4,,,,2025-04-14,4,2025
2025-04-13,13,20:52,EDT,S  3,10.00,A Few Clouds,FEW250,46,37,,,71%,,,29.99,1015.5,,,,2025-04-14,4,2025
2025-04-13,13,21:52,EDT,SW  5,10.00,A Few Clouds,FEW250,46,37,,,71%,44,,29.99,1015.5,,,,2025-04-14,4,2025
2025-04-13,13,22:52,EDT,S  5,10.00,A Few Clouds,FEW250,46,37.9,,,73%,44,,29.99,1015.4,,,,2025-04-14,4,2025
2025-04-13,13,23:52,EDT,S  3,10.00,Mostly Cloudy,BKN250,46.9,36,,,66%,,,29.99,1015.4,,,,2025-04-14,4,2025
2025-04-14,14,00:52,EDT,S  3,10.00,Mostly Cloudy,BKN170,46.9,37,,,69%,,,29.97,1015.0,,,,2025-04-14,4,2025
2025-04-14,14,01:52,EDT,S  6,10.00,Mostly Cloudy,BKN220,45,37,52,43,74%,42,,29.97,1014.9,,,,2025-04-14,4,2025
2025-04-14,14,02:52,EDT,Calm,10.00,Overcast,OVC110,46.9,39.9,,,77%,,,29.97,1014.8,,,,2025-04-14,4,2025
2025-04-14,14,03:52,EDT,Calm,10.00,Overcast,OVC100,48,39.9,,,74%,,,29.96,1014.5,,,,2025-04-14,4,2025
2025-04-14,14,04:52,EDT,Calm,10.00,Mostly Cloudy,BKN095,48.9,37.9,,,66%,,,29.94,1013.8,,,,2025-04-14,4,2025
2025-04-14,14,05:52,EDT,Calm,10.00,Overcast,FEW055 OVC095,46.9,42.1,,,83%,,,29.96,1014.4,,,,2025-04-14,4,2025
2025-04-14,14,06:52,EDT,SE  5,10.00,Overcast,OVC100,48.9,39.9,,,71%,48,,29.93,1013.4,,,,2025-04-14,4,2025
2025-04-14,14,07:52,EDT,SE  5,10.00,Overcast,OVC100,51.1,39,51.1,45,64%,,,29.91,1012.7,,,,2025-04-14,4,2025
2025-04-14,14,08:52,EDT,Calm,10.00,Overcast,OVC120,54,39.9,,,59%,,,29.9,1012.6,,,,2025-04-14,4,2025
2025-04-14,14,09:52,EDT,S  7,10.00,Overcast,OVC110,55.9,39.9,,,55%,,,29.88,1011.8,,,,2025-04-14,4,2025
2025-04-14,14,10:52,EDT,S  8,10.00,Overcast,OVC090,59,39,,,48%,,,29.88,1011.7,,,,2025-04-14,4,2025
2025-04-14,14,11:52,EDT,S  8,10.00,Partly Cloudy,SCT095,64.9,41,,,42%,,,29.84,1010.4,,,,2025-04-14,4,2025
2025-04-14,14,12:52,EDT,SW  9,10.00,Mostly Cloudy,FEW095 SCT160 BKN250,69.1,39.9,,,35%,,,29.82,1009.6,,,,2025-04-14,4,2025
2025-04-14,14,13:52,EDT,S  8,10.00,Mostly Cloudy,SCT095 BKN250,70,41,71.1,52,35%,,,29.79,1008.8,,,,2025-04-14,4,2025
2025-04-14,14,14:52,EDT,S  8,10.00,Mostly Cloudy,FEW080 BKN140 BKN250,72,43,,,35%,,,29.77,1007.9,,,,2025-04-14,4,2025
2025-04-14,14,15:52,EDT,SE  10,10.00,Fair,CLR,73.9,43,,,33%,,,29.74,1007.1,,,,2025-04-14,4,2025
2025-04-14,14,16:52,EDT,S  9,10.00,Mostly Cloudy,FEW150 BKN250,75,45,,,34%,,77,29.71,1006.1,,,,2025-04-14,4,2025
2025-04-14,14,17:52,EDT,S  9,10.00,Partly Cloudy,FEW150 SCT250,75.9,46,,,35%,,78,29.68,1004.9,,,,2025-04-14,4,2025
2025-04-14,14,18:52,EDT,SE  10,10.00,Mostly Cloudy,FEW120 BKN250,73,46.9,,,40%,,,29.67,1004.5,,,,2025-04-14,4,2025
2025-04-14,14,19:52,EDT,SE  6,10.00,Overcast,FEW038CB BKN120 OVC200,70,46.9,75.9,70,44%,,,29.67,1004.5,,,,2025-04-14,4,2025
2025-04-14,14,20:52,EDT,NE  6,10.00,Thunderstorm,SCT038CB BKN100 OVC200,70,48,,,46%,,,29.71,1005.9,,,,2025-04-14,4,2025
2025-04-14,14,21:52,EDT,W  7,5.00,Thunderstorm Rain,BKN040CB OVC100,63,55.9,,,78%,,,29.77,1008.0,0.06,,,2025-04-14,4,2025
2025-04-14,14,22:52,EDT,W  8,7.00,Light Rain,OVC100,62.1,57.9,,,86%,,,29.74,1006.8,0.1,0.16,,2025-04-14,4,2025
