Date,Day,Time,Time Zone,Wind (mph),Vis. (mi.),Weather,Sky Cond.,Air,Dwpt,Max.,Min.,Relative Humidity,Wind Chill (°F),Heat Index (°F),altimeter (in),sea level (mb),1 hr,3 hr,6 hr,Data Retrieval Date,Obs_Month,Obs_Year,Hour,Station
2024-11-19,19,00:55,EST,Calm,10.0,Fair,CLR,51.8,46.4,,,82%,,,29.95,0.0,,,,2024-11-22,11,2024,0,KOKV
2024-11-19,19,01:55,EST,Calm,10.0,Fair,CLR,50.0,46.4,,,88%,,,29.95,0.0,,,,2024-11-22,11,2024,1,KOKV
2024-11-19,19,02:55,EST,Calm,10.0,Fair,CLR,50.0,46.4,,,88%,,,29.96,0.0,,,,2024-11-22,11,2024,2,KOKV
2024-11-19,19,03:55,EST,Calm,10.0,Fair,CLR,46.4,44.6,,,93%,,,29.96,0.0,,,,2024-11-22,11,2024,3,KOKV
2024-11-19,19,04:55,EST,Calm,7.0,Fair,CLR,44.6,44.6,,,100%,,,29.94,0.0,,,,2024-11-22,11,2024,4,KOKV
2024-11-19,19,05:55,EST,Calm,5.0,Fair,CLR,44.6,44.6,,,100%,,,29.95,0.0,,,,2024-11-22,11,2024,5,KOKV
2024-11-19,19,06:55,EST,Calm,4.0,Fair,CLR,44.6,44.6,,,100%,,,29.96,0.0,,,,2024-11-22,11,2024,6,KOKV
2024-11-19,19,07:55,EST,Calm,5.0,Fair,CLR,46.4,46.4,,,100%,,,29.97,0.0,,,,2024-11-22,11,2024,7,KOKV
2024-11-19,19,08:55,EST,Calm,10.0,Fair,CLR,51.8,44.6,,,77%,,,29.97,0.0,,,,2024-11-22,11,2024,8,KOKV
2024-11-19,19,09:55,EST,E  3,10.0,Fair,CLR,51.8,42.8,,,72%,,,29.97,0.0,,,,2024-11-22,11,2024,9,KOKV
2024-11-19,19,10:55,EST,Calm,10.0,Fair,CLR,53.6,42.8,,,67%,,,29.97,0.0,,,,2024-11-22,11,2024,10,KOKV
2024-11-19,19,11:55,EST,SE  6,10.0,Fair,CLR,53.6,41.0,,,63%,,,29.92,0.0,,,,2024-11-22,11,2024,11,KOKV
2024-11-19,19,12:55,EST,SE  3,10.0,Fair,CLR,55.4,42.8,,,63%,,,29.9,0.0,,,,2024-11-22,11,2024,12,KOKV
2024-11-19,19,13:55,EST,Calm,10.0,Mostly Cloudy,BKN110,55.4,42.8,,,63%,,,29.85,0.0,,,,2024-11-22,11,2024,13,KOKV
2024-11-19,19,14:55,EST,E  3,10.0,Mostly Cloudy,BKN120,55.4,42.8,,,63%,,,29.84,0.0,,,,2024-11-22,11,2024,14,KOKV
2024-11-19,19,15:55,EST,E  3,10.0,Partly Cloudy,SCT110,55.4,42.8,,,63%,,,29.83,0.0,,,,2024-11-22,11,2024,15,KOKV
2024-11-19,19,16:35,EST,SE  3,10.0,Mostly Cloudy,BKN110,53.6,42.8,,,67%,,,29.83,0.0,,,,2024-11-22,11,2024,16,KOKV
2024-11-19,19,17:55,EST,Calm,10.0,Overcast,OVC080,51.8,42.8,,,72%,,,29.83,0.0,,,,2024-11-22,11,2024,17,KOKV
2024-11-19,19,18:55,EST,Calm,10.0,Overcast,OVC070,51.8,44.6,,,77%,,,29.84,0.0,,,,2024-11-22,11,2024,18,KOKV
2024-11-19,19,19:55,EST,Calm,10.0,Overcast,SCT060 BKN070 OVC080,50.0,46.4,,,88%,,,29.84,0.0,,,,2024-11-22,11,2024,19,KOKV
2024-11-19,19,20:55,EST,Calm,10.0,Overcast,OVC050,50.0,48.2,,,94%,,,29.83,0.0,,,,2024-11-22,11,2024,20,KOKV
2024-11-19,19,21:55,EST,N  3,10.0,Overcast,OVC044,50.0,46.4,,,88%,,,29.83,0.0,,,,2024-11-22,11,2024,21,KOKV
2024-11-19,19,22:55,EST,N  3,10.0,Overcast,OVC046,50.0,46.4,,,88%,,,29.82,0.0,,,,2024-11-22,11,2024,22,KOKV
2024-11-19,19,23:55,EST,Calm,10.0,Overcast,OVC038,50.0,44.6,,,82%,,,29.82,0.0,,,,2024-11-22,11,2024,23,KOKV
2024-11-20,20,00:55,EST,Calm,10.0,Overcast,OVC030,50.0,44.6,,,82%,,,29.79,0.0,,,,2024-11-23,11,2024,0,KOKV
2024-11-20,20,01:55,EST,Calm,10.0,Overcast,SCT030 OVC110,50.0,46.4,,,88%,,,29.8,0.0,,,,2024-11-23,11,2024,1,KOKV
2024-11-20,20,02:55,EST,Calm,10.0,Overcast,OVC110,50.0,46.4,,,88%,,,29.8,0.0,,,,2024-11-23,11,2024,2,KOKV
2024-11-20,20,03:55,EST,Calm,10.0,Partly Cloudy,SCT110,46.4,44.6,,,93%,,,29.79,0.0,,,,2024-11-23,11,2024,3,KOKV
2024-11-20,20,04:55,EST,Calm,10.0,Overcast,OVC050,46.4,46.4,,,100%,,,29.79,0.0,,,,2024-11-23,11,2024,4,KOKV
2024-11-20,20,05:55,EST,Calm,10.0,Overcast,OVC048,48.2,44.6,,,87%,,,29.8,0.0,,,,2024-11-23,11,2024,5,KOKV
2024-11-20,20,06:55,EST,Calm,10.0,Overcast,OVC048,50.0,42.8,,,76%,,,29.81,0.0,,,,2024-11-23,11,2024,6,KOKV
2024-11-20,20,07:55,EST,Calm,10.0,Overcast,OVC050,50.0,42.8,,,76%,,,29.8,0.0,,,,2024-11-23,11,2024,7,KOKV
2024-11-20,20,08:55,EST,Calm,10.0,Partly Cloudy,SCT050,51.8,42.8,,,72%,,,29.78,0.0,,,,2024-11-23,11,2024,8,KOKV
2024-11-20,20,09:55,EST,Calm,10.0,Fair,CLR,55.4,44.6,,,67%,,,29.77,0.0,,,,2024-11-23,11,2024,9,KOKV
2024-11-20,20,10:55,EST,Calm,10.0,Overcast,SCT038 OVC049,57.2,46.4,,,67%,,,29.77,0.0,,,,2024-11-23,11,2024,10,KOKV
2024-11-20,20,11:15,EST,Calm,10.0,Overcast,BKN040 OVC045,59.0,46.4,,,63%,,,29.75,0.0,,,,2024-11-23,11,2024,11,KOKV
2024-11-20,20,12:35,EST,S  3,10.0,Overcast,OVC038,60.8,50.0,,,68%,,,29.71,0.0,,,,2024-11-23,11,2024,12,KOKV
2024-11-20,20,13:55,EST,SE  5,10.0,Overcast,OVC036,60.8,51.8,,,72%,,,29.68,0.0,,,,2024-11-23,11,2024,13,KOKV
2024-11-20,20,14:55,EST,E  7,10.0,Overcast,OVC038,62.6,51.8,,,68%,,,29.65,0.0,,,,2024-11-23,11,2024,14,KOKV
2024-11-20,20,15:55,EST,E  6,10.0,Overcast,OVC042,60.8,50.0,,,68%,,,29.62,0.0,,,,2024-11-23,11,2024,15,KOKV
2024-11-20,20,16:35,EST,SE  6,10.0,Overcast,BKN040 OVC060,59.0,50.0,,,72%,,,29.61,0.0,,,,2024-11-23,11,2024,16,KOKV
2024-11-20,20,17:55,EST,S  6,10.0,Overcast,OVC043,59.0,51.8,,,77%,,,29.59,0.0,,,,2024-11-23,11,2024,17,KOKV
2024-11-20,20,18:55,EST,Calm,10.0,Overcast,BKN021 BKN026 OVC050,55.4,53.6,,,94%,,,29.61,0.0,,,,2024-11-23,11,2024,18,KOKV
2024-11-20,20,19:55,EST,NW  23  G 33,7.0,Thunderstorm in Vicinity and Breezy,SCT013 BKN029 OVC048,50.0,42.8,,,76%,44.0,,29.71,0.0,,,,2024-11-23,11,2024,19,KOKV
2024-11-20,20,20:55,EST,W  18  G 28,10.0,Overcast,OVC060,46.4,35.6,,,66%,40.0,,29.75,0.0,,,,2024-11-23,11,2024,20,KOKV
2024-11-20,20,21:55,EST,NW  15  G 28,10.0,Overcast,OVC070,44.6,35.6,,,71%,38.0,,29.73,0.0,,,,2024-11-23,11,2024,21,KOKV
2024-11-20,20,22:35,EST,NW  16  G 23,10.0,Overcast,SCT070 OVC080,44.6,33.8,,,66%,38.0,,29.76,0.0,,,,2024-11-23,11,2024,22,KOKV
2024-11-20,20,23:55,EST,Calm,0.0,Partly Cloudy,SCT100,41.0,30.2,,,66%,,,0.0,0.0,,,,2024-11-23,11,2024,23,KOKV
2024-11-21,21,00:15,EST,Calm,0.0,,,41.0,30.2,,,66%,,,0.0,0.0,,,,2024-11-23,11,2024,0,KOKV
2024-11-21,21,06:55,EST,Calm,10.0,Mostly Cloudy,BKN044,32.0,30.2,,,93%,,,29.68,0.0,,,,2024-11-24,11,2024,6,KOKV
2024-11-21,21,07:55,EST,SW  3,10.0,Partly Cloudy,SCT050,32.0,32.0,,,100%,,,29.68,0.0,,,,2024-11-24,11,2024,7,KOKV
2024-11-21,21,08:55,EST,S  5,10.0,Overcast,BKN050 OVC070,39.2,32.0,,,75%,36.0,,29.67,0.0,,,,2024-11-24,11,2024,8,KOKV
2024-11-21,21,09:55,EST,SW  5,10.0,Overcast,BKN050 OVC065,41.0,32.0,,,70%,38.0,,29.65,0.0,,,,2024-11-24,11,2024,9,KOKV
2024-11-21,21,10:55,EST,W  5,10.0,Overcast,OVC046,41.0,32.0,,,70%,38.0,,29.64,0.0,,,,2024-11-24,11,2024,10,KOKV
2024-11-21,21,11:55,EST,NW  12,10.0,Overcast,BKN041 OVC049,37.4,32.0,,,81%,30.0,,29.63,0.0,,,,2024-11-24,11,2024,11,KOKV
2024-11-21,21,12:55,EST,NW  3,10.0,Overcast,OVC044,37.4,32.0,,,81%,,,29.62,0.0,,,,2024-11-24,11,2024,12,KOKV
2024-11-21,21,13:55,EST,Calm,10.0,Overcast,SCT070 OVC080,41.0,33.8,,,76%,,,29.59,0.0,,,,2024-11-24,11,2024,13,KOKV
2024-11-21,21,14:55,EST,W  3,10.0,Overcast,SCT048 SCT080 OVC110,41.0,32.0,,,70%,,,29.59,0.0,,,,2024-11-24,11,2024,14,KOKV
2024-11-21,21,15:55,EST,NW  6,10.0,Overcast,SCT070 OVC100,41.0,32.0,,,70%,38.0,,29.59,0.0,,,,2024-11-24,11,2024,15,KOKV
2024-11-21,21,16:55,EST,NW  10,10.0,Overcast,SCT013 BKN070 OVC100,37.4,32.0,,,81%,31.0,,29.61,0.0,,,,2024-11-24,11,2024,16,KOKV
2024-11-21,21,17:55,EST,NW  9,10.0,Overcast,BKN100 OVC120,37.4,32.0,,,81%,31.0,,29.62,0.0,,,,2024-11-24,11,2024,17,KOKV
2024-11-21,21,18:55,EST,W  10,10.0,Overcast,SCT035 BKN060 OVC090,37.4,32.0,,,81%,31.0,,29.64,0.0,,,,2024-11-24,11,2024,18,KOKV
2024-11-21,21,19:55,EST,W  10,10.0,Mostly Cloudy,BKN120,35.6,28.4,,,75%,29.0,,29.64,0.0,,,,2024-11-24,11,2024,19,KOKV
2024-11-21,21,20:55,EST,W  9,10.0,Mostly Cloudy,BKN110,35.6,26.6,,,70%,29.0,,29.65,0.0,,,,2024-11-24,11,2024,20,KOKV
2024-11-21,21,21:55,EST,NW  13,10.0,Fair,CLR,33.8,24.8,,,70%,25.0,,29.65,0.0,,,,2024-11-24,11,2024,21,KOKV
2024-11-21,21,22:55,EST,W  9,10.0,Fair,CLR,33.8,23.0,,,65%,27.0,,29.65,0.0,,,,2024-11-24,11,2024,22,KOKV
2024-11-21,21,23:55,EST,W  12,10.0,Fair,CLR,32.0,23.0,,,69%,24.0,,29.62,0.0,,,,2024-11-24,11,2024,23,KOKV
2024-11-22,22,00:55,EST,W  14  G 20,10.0,Fair,CLR,32.0,23.0,,,69%,23.0,,29.61,0.0,,,,2024-11-25,11,2024,0,KOKV
2024-11-22,22,01:55,EST,W  10  G 18,10.0,Fair,CLR,32.0,23.0,,,69%,24.0,,29.59,0.0,,,,2024-11-25,11,2024,1,KOKV
2024-11-22,22,02:55,EST,W  10,10.0,Mostly Cloudy,BKN037,32.0,21.2,,,64%,24.0,,29.61,0.0,,,,2024-11-25,11,2024,2,KOKV
2024-11-22,22,03:55,EST,W  9  G 16,10.0,Overcast,OVC037,32.0,21.2,,,64%,25.0,,29.6,0.0,,,,2024-11-25,11,2024,3,KOKV
2024-11-22,22,04:55,EST,W  10,10.0,Mostly Cloudy,BKN035,32.0,23.0,,,69%,24.0,,29.59,0.0,,,,2024-11-25,11,2024,4,KOKV
2024-11-22,22,05:55,EST,W  13  G 18,10.0,Overcast,OVC033,32.0,21.2,,,64%,23.0,,29.59,0.0,,,,2024-11-25,11,2024,5,KOKV
2024-11-22,22,06:35,EST,W  14,10.0,Partly Cloudy,SCT033,32.0,23.0,,,69%,23.0,,29.59,0.0,,,,2024-11-25,11,2024,6,KOKV
2024-11-22,22,07:55,EST,W  10  G 16,10.0,Partly Cloudy,SCT110,33.8,23.0,,,65%,26.0,,29.56,0.0,,,,2024-11-25,11,2024,7,KOKV
2024-11-22,22,08:55,EST,W  14,10.0,Overcast,SCT045 BKN065 OVC090,33.8,24.8,,,70%,25.0,,29.55,0.0,,,,2024-11-25,11,2024,8,KOKV
2024-11-22,22,09:55,EST,W  10  G 17,10.0,Overcast,SCT032 SCT042 OVC060,35.6,26.6,,,70%,29.0,,29.55,0.0,,,,2024-11-25,11,2024,9,KOKV
2024-11-22,22,10:55,EST,W  16  G 23,10.0,Overcast,BKN039 OVC048,33.8,30.2,,,87%,24.0,,29.53,0.0,,,,2024-11-25,11,2024,10,KOKV
2024-11-22,22,11:55,EST,W  16  G 21,10.0,Overcast,BKN038 OVC044,35.6,30.2,,,81%,27.0,,29.5,0.0,,,,2024-11-25,11,2024,11,KOKV
2024-11-22,22,12:55,EST,W  15  G 24,10.0,Overcast,OVC037,37.4,30.2,,,75%,29.0,,29.48,0.0,,,,2024-11-25,11,2024,12,KOKV
2024-11-22,22,13:55,EST,W  18  G 26,10.0,Overcast,BKN025 OVC032,35.6,30.2,,,81%,26.0,,29.46,0.0,,,,2024-11-25,11,2024,13,KOKV
2024-11-22,22,14:55,EST,W  10  G 21,10.0,Overcast,OVC040,37.4,30.2,,,75%,31.0,,29.45,0.0,,,,2024-11-25,11,2024,14,KOKV
2024-11-22,22,15:55,EST,W  14  G 23,10.0,Overcast,BKN038 OVC046,37.4,30.2,,,75%,30.0,,29.46,0.0,,,,2024-11-25,11,2024,15,KOKV
2024-11-22,22,16:55,EST,W  13  G 21,10.0,Overcast,SCT039 SCT047 OVC055,41.0,28.4,,,61%,34.0,,29.46,0.0,,,,2024-11-25,11,2024,16,KOKV
2024-11-22,22,17:55,EST,W  16  G 26,10.0,Overcast,SCT040 SCT046 OVC060,41.0,30.2,,,66%,33.0,,29.47,0.0,,,,2024-11-25,11,2024,17,KOKV
2024-11-22,22,18:55,EST,W  17  G 24,10.0,Overcast,BKN042 BKN048 OVC065,42.8,30.2,,,61%,35.0,,29.47,0.0,,,,2024-11-25,11,2024,18,KOKV
2024-11-22,22,19:55,EST,W  16  G 22,10.0,Overcast,BKN038 BKN047 OVC070,42.8,32.0,,,66%,36.0,,29.47,0.0,,,,2024-11-25,11,2024,19,KOKV
2024-11-22,22,20:55,EST,W  17  G 24,10.0,Overcast,BKN036 BKN046 OVC065,42.8,32.0,,,66%,35.0,,29.5,0.0,,,,2024-11-25,11,2024,20,KOKV
2024-11-22,22,21:55,EST,NW  18  G 30,10.0,Overcast,BKN032 BKN043 OVC060,41.0,33.8,,,76%,33.0,,29.51,0.0,,,,2024-11-25,11,2024,21,KOKV
2024-11-22,22,22:55,EST,W  17  G 24,10.0,Overcast,SCT029 OVC070,42.8,32.0,,,66%,35.0,,29.52,0.0,,,,2024-11-25,11,2024,22,KOKV
2024-11-22,22,23:55,EST,W  18  G 30,10.0,Overcast,BKN030 BKN038 OVC080,42.8,32.0,,,66%,35.0,,29.53,0.0,,,,2024-11-25,11,2024,23,KOKV
2024-11-23,23,00:55,EST,NW  21  G 29,10.0,Mostly Cloudy and Breezy,BKN032,42.8,32.0,,,66%,35.0,,29.55,0.0,,,,2024-11-26,11,2024,0,KOKV
2024-11-23,23,01:55,EST,NW  16  G 22,10.0,Mostly Cloudy,BKN028 BKN034 BKN042,42.8,33.8,,,71%,36.0,,29.57,0.0,,,,2024-11-26,11,2024,1,KOKV
2024-11-23,23,02:55,EST,NW  9  G 21,10.0,Overcast,OVC030,42.8,33.8,,,71%,38.0,,29.6,0.0,,,,2024-11-26,11,2024,2,KOKV
2024-11-23,23,03:55,EST,NW  21,10.0,Overcast and Breezy,SCT020 BKN028 OVC070,41.0,33.8,,,76%,32.0,,29.63,0.0,,,,2024-11-26,11,2024,3,KOKV
2024-11-23,23,04:55,EST,NW  13  G 20,10.0,Overcast,SCT060 OVC070,41.0,33.8,,,76%,34.0,,29.66,0.0,,,,2024-11-26,11,2024,4,KOKV
2024-11-23,23,05:55,EST,NW  5,10.0,Overcast,SCT030 BKN060 OVC070,41.0,33.8,,,76%,38.0,,29.7,0.0,,,,2024-11-26,11,2024,5,KOKV
2024-11-23,23,06:55,EST,NW  5,10.0,Overcast,SCT031 OVC050,41.0,32.0,,,70%,38.0,,29.72,0.0,,,,2024-11-26,11,2024,6,KOKV
2024-11-23,23,07:55,EST,W  9  G 16,10.0,Partly Cloudy,SCT028 SCT048 SCT060,41.0,33.8,,,76%,36.0,,29.75,0.0,,,,2024-11-26,11,2024,7,KOKV
2024-11-23,23,08:55,EST,W  15  G 18,10.0,Mostly Cloudy,SCT029 BKN041 BKN055,42.8,33.8,,,71%,36.0,,29.78,0.0,,,,2024-11-26,11,2024,8,KOKV
2024-11-23,23,09:55,EST,NW  15  G 18,10.0,Overcast,BKN029 OVC038,44.6,35.6,,,71%,38.0,,29.8,0.0,,,,2024-11-26,11,2024,9,KOKV
2024-11-23,23,10:55,EST,W  10  G 21,10.0,Overcast,OVC029,44.6,35.6,,,71%,40.0,,29.81,0.0,,,,2024-11-26,11,2024,10,KOKV
2024-11-23,23,11:55,EST,NW  17,10.0,Overcast,OVC031,48.2,35.6,,,62%,42.0,,29.79,0.0,,,,2024-11-26,11,2024,11,KOKV
2024-11-23,23,12:55,EST,NW  24  G 31,10.0,Overcast and Breezy,OVC035,50.0,35.6,,,58%,43.0,,29.79,0.0,,,,2024-11-26,11,2024,12,KOKV
2024-11-23,23,13:55,EST,W  21  G 28,10.0,Mostly Cloudy and Breezy,BKN039,50.0,35.6,,,58%,44.0,,29.8,0.0,,,,2024-11-26,11,2024,13,KOKV
2024-11-23,23,14:55,EST,W  14  G 26,10.0,Mostly Cloudy,BKN041,50.0,33.8,,,54%,45.0,,29.82,0.0,,,,2024-11-26,11,2024,14,KOKV
2024-11-23,23,15:55,EST,W  17  G 29,10.0,Mostly Cloudy,BKN041,48.2,33.8,,,58%,42.0,,29.84,0.0,,,,2024-11-26,11,2024,15,KOKV
2024-11-23,23,16:55,EST,W  15  G 18,10.0,Overcast,OVC039,46.4,33.8,,,62%,41.0,,29.86,0.0,,,,2024-11-26,11,2024,16,KOKV
2024-11-23,23,17:55,EST,W  8  G 22,10.0,Overcast,OVC035,46.4,33.8,,,62%,43.0,,29.88,0.0,,,,2024-11-26,11,2024,17,KOKV
2024-11-23,23,18:55,EST,W  13,10.0,Overcast,OVC035,46.4,33.8,,,62%,41.0,,29.9,0.0,,,,2024-11-26,11,2024,18,KOKV
2024-11-23,23,19:55,EST,W  14  G 20,10.0,Overcast,BKN033 OVC039,44.6,33.8,,,66%,39.0,,29.92,0.0,,,,2024-11-26,11,2024,19,KOKV
2024-11-23,23,20:55,EST,W  12  G 22,10.0,Overcast,OVC035,44.6,33.8,,,66%,39.0,,29.92,0.0,,,,2024-11-26,11,2024,20,KOKV
2024-11-23,23,21:55,EST,W  16,10.0,Overcast,OVC035,46.4,33.8,,,62%,40.0,,29.93,0.0,,,,2024-11-26,11,2024,21,KOKV
2024-11-23,23,22:55,EST,W  8,10.0,Overcast,OVC035,44.6,33.8,,,66%,41.0,,29.92,0.0,,,,2024-11-26,11,2024,22,KOKV
2024-11-23,23,23:55,EST,W  12,10.0,Overcast,OVC035,46.4,33.8,,,62%,42.0,,29.93,0.0,,,,2024-11-26,11,2024,23,KOKV
2024-11-24,24,00:55,EST,NW  8,10.0,Overcast,OVC035,46.4,33.8,,,62%,43.0,,29.93,0.0,,,,2024-11-27,11,2024,0,KOKV
2024-11-24,24,01:55,EST,W  10  G 17,10.0,Overcast,OVC031,46.4,33.8,,,62%,42.0,,29.95,0.0,,,,2024-11-27,11,2024,1,KOKV
2024-11-24,24,02:55,EST,W  6,10.0,Overcast,OVC035,46.4,33.8,,,62%,44.0,,29.97,0.0,,,,2024-11-27,11,2024,2,KOKV
2024-11-24,24,03:55,EST,W  7,10.0,Overcast,OVC035,46.4,33.8,,,62%,43.0,,29.98,0.0,,,,2024-11-27,11,2024,3,KOKV
2024-11-24,24,04:55,EST,W  6,10.0,Overcast,OVC035,44.6,33.8,,,66%,42.0,,29.98,0.0,,,,2024-11-27,11,2024,4,KOKV
2024-11-24,24,05:55,EST,W  7,10.0,Mostly Cloudy,SCT033 BKN120,44.6,33.8,,,66%,41.0,,29.99,0.0,,,,2024-11-27,11,2024,5,KOKV
2024-11-24,24,06:55,EST,W  12,10.0,Overcast,OVC110,44.6,33.8,,,66%,39.0,,29.99,0.0,,,,2024-11-27,11,2024,6,KOKV
2024-11-24,24,07:55,EST,W  10,10.0,Partly Cloudy,SCT120,44.6,33.8,,,66%,40.0,,30.0,0.0,,,,2024-11-27,11,2024,7,KOKV
2024-11-24,24,08:55,EST,W  9,10.0,Partly Cloudy,SCT120,44.6,33.8,,,66%,40.0,,30.01,0.0,,,,2024-11-27,11,2024,8,KOKV
2024-11-24,24,09:55,EST,W  7,10.0,Fair,CLR,48.2,33.8,,,58%,46.0,,30.04,0.0,,,,2024-11-27,11,2024,9,KOKV
2024-11-24,24,10:55,EST,W  7,10.0,Fair,CLR,50.0,33.8,,,54%,48.0,,30.02,0.0,,,,2024-11-27,11,2024,10,KOKV
2024-11-24,24,11:55,EST,Calm,10.0,Fair,CLR,51.8,33.8,,,50%,,,29.99,0.0,,,,2024-11-27,11,2024,11,KOKV
2024-11-24,24,12:55,EST,SE  3,10.0,Fair,CLR,51.8,33.8,,,50%,,,29.97,0.0,,,,2024-11-27,11,2024,12,KOKV
2024-11-24,24,13:55,EST,SW  3,10.0,Fair,CLR,53.6,33.8,,,47%,,,29.95,0.0,,,,2024-11-27,11,2024,13,KOKV
2024-11-24,24,14:55,EST,Calm,10.0,Fair,CLR,53.6,35.6,,,51%,,,29.95,0.0,,,,2024-11-27,11,2024,14,KOKV
2024-11-24,24,15:55,EST,NW  9,10.0,Fair,CLR,53.6,32.0,,,44%,,,29.96,0.0,,,,2024-11-27,11,2024,15,KOKV
2024-11-24,24,16:55,EST,NW  9,10.0,Fair,CLR,50.0,32.0,,,50%,47.0,,29.97,0.0,,,,2024-11-27,11,2024,16,KOKV
2024-11-24,24,17:55,EST,Calm,10.0,Fair,CLR,46.4,32.0,,,57%,,,30.0,0.0,,,,2024-11-27,11,2024,17,KOKV
2024-11-24,24,18:55,EST,NW  6,10.0,Fair,CLR,46.4,32.0,,,57%,44.0,,30.02,0.0,,,,2024-11-27,11,2024,18,KOKV
2024-11-24,24,19:55,EST,E  3,10.0,Fair,CLR,41.0,32.0,,,70%,,,30.04,0.0,,,,2024-11-27,11,2024,19,KOKV
2024-11-24,24,20:55,EST,Calm,10.0,Fair,CLR,39.2,32.0,,,75%,,,30.05,0.0,,,,2024-11-27,11,2024,20,KOKV
2024-11-24,24,21:55,EST,Calm,10.0,Fair,CLR,35.6,32.0,,,87%,,,30.07,0.0,,,,2024-11-27,11,2024,21,KOKV
2024-11-24,24,22:55,EST,Calm,10.0,Fair,CLR,35.6,32.0,,,87%,,,30.07,0.0,,,,2024-11-27,11,2024,22,KOKV
2024-11-24,24,23:55,EST,NW  3,10.0,Fair,CLR,33.8,32.0,,,93%,,,30.07,0.0,,,,2024-11-27,11,2024,23,KOKV
2024-11-25,25,00:55,EST,NW  3,10.0,Fair,CLR,33.8,32.0,,,93%,,,30.07,0.0,,,,2024-11-28,11,2024,0,KOKV
2024-11-25,25,01:55,EST,Calm,10.0,Fair,CLR,33.8,32.0,,,93%,,,30.08,0.0,,,,2024-11-28,11,2024,1,KOKV
2024-11-25,25,02:55,EST,Calm,10.0,Fair,CLR,33.8,32.0,,,93%,,,30.09,0.0,,,,2024-11-28,11,2024,2,KOKV
2024-11-25,25,03:55,EST,Calm,10.0,Fair,CLR,33.8,32.0,,,93%,,,30.09,0.0,,,,2024-11-28,11,2024,3,KOKV
2024-11-25,25,04:55,EST,Calm,7.0,Fair,CLR,30.2,28.4,,,93%,,,30.08,0.0,,,,2024-11-28,11,2024,4,KOKV
2024-11-25,25,05:55,EST,Calm,10.0,Fair,CLR,32.0,30.2,,,93%,,,30.08,0.0,,,,2024-11-28,11,2024,5,KOKV
2024-11-25,25,06:55,EST,Calm,10.0,Fair,CLR,30.2,28.4,,,93%,,,30.09,0.0,,,,2024-11-28,11,2024,6,KOKV
2024-11-25,25,07:55,EST,Calm,10.0,Fair,CLR,30.2,28.4,,,93%,,,30.1,0.0,,,,2024-11-28,11,2024,7,KOKV
2024-11-25,25,08:55,EST,Calm,10.0,Fair,CLR,37.4,32.0,,,81%,,,30.1,0.0,,,,2024-11-28,11,2024,8,KOKV
2024-11-25,25,09:55,EST,S  5,10.0,Fair,CLR,44.6,33.8,,,66%,43.0,,30.1,0.0,,,,2024-11-28,11,2024,9,KOKV
2024-11-25,25,10:55,EST,S  7,10.0,Fair,CLR,48.2,35.6,,,62%,46.0,,30.08,0.0,,,,2024-11-28,11,2024,10,KOKV
2024-11-25,25,11:35,EST,S  3,10.0,Fair,CLR,51.8,33.8,,,50%,,,30.05,0.0,,,,2024-11-28,11,2024,11,KOKV
2024-11-25,25,12:55,EST,SE  3,10.0,Fair,CLR,55.4,35.6,,,47%,,,30.0,0.0,,,,2024-11-28,11,2024,12,KOKV
2024-11-25,25,13:55,EST,E  5,10.0,Fair,CLR,57.2,35.6,,,44%,,,29.98,0.0,,,,2024-11-28,11,2024,13,KOKV
2024-11-25,25,14:55,EST,E  7,10.0,Mostly Cloudy,BKN075,57.2,35.6,,,44%,,,29.96,0.0,,,,2024-11-28,11,2024,14,KOKV
2024-11-25,25,15:55,EST,Calm,10.0,Overcast,OVC060,55.4,37.4,,,51%,,,29.97,0.0,,,,2024-11-28,11,2024,15,KOKV
2024-11-25,25,16:55,EST,SE  6,10.0,Overcast,SCT060 SCT065 OVC080,53.6,37.4,,,54%,,,29.97,0.0,,,,2024-11-28,11,2024,16,KOKV
2024-11-25,25,17:55,EST,Calm,10.0,Overcast,BKN055 OVC080,51.8,37.4,,,58%,,,29.97,0.0,,,,2024-11-28,11,2024,17,KOKV
2024-11-25,25,18:55,EST,Calm,10.0,Overcast,OVC050,50.0,39.2,,,67%,,,29.97,0.0,,,,2024-11-28,11,2024,18,KOKV
2024-11-25,25,19:55,EST,Calm,10.0,Overcast,BKN050 OVC095,51.8,37.4,,,58%,,,29.97,0.0,,,,2024-11-28,11,2024,19,KOKV
2024-11-25,25,20:55,EST,Calm,10.0,Overcast,BKN050 OVC065,50.0,39.2,,,67%,,,29.95,0.0,,,,2024-11-28,11,2024,20,KOKV
2024-11-25,25,21:55,EST,Calm,10.0,Overcast,BKN050 OVC100,50.0,39.2,,,67%,,,29.93,0.0,,,,2024-11-28,11,2024,21,KOKV
2024-11-25,25,22:55,EST,Calm,10.0,Partly Cloudy,SCT100,48.2,37.4,,,66%,,,29.91,0.0,,,,2024-11-28,11,2024,22,KOKV
2024-11-25,25,23:55,EST,Calm,10.0,Overcast,SCT050 OVC110,46.4,39.2,,,76%,,,29.88,0.0,,,,2024-11-28,11,2024,23,KOKV
2024-11-26,26,00:55,EST,Calm,10.0,Overcast,SCT065 OVC080,46.4,42.8,,,87%,,,29.86,0.0,,,,2024-11-29,11,2024,0,KOKV
2024-11-26,26,01:55,EST,Calm,10.0,Mostly Cloudy,SCT065 BKN110,46.4,44.6,,,93%,,,29.83,0.0,,,,2024-11-29,11,2024,1,KOKV
2024-11-26,26,02:55,EST,Calm,10.0,Partly Cloudy,SCT100,44.6,42.8,,,93%,,,29.8,0.0,,,,2024-11-29,11,2024,2,KOKV
2024-11-26,26,03:55,EST,Calm,10.0,Mostly Cloudy,SCT060 BKN110,46.4,42.8,,,87%,,,29.78,0.0,,,,2024-11-29,11,2024,3,KOKV
2024-11-26,26,04:55,EST,SW  12  G 16,5.0,Overcast,SCT043 BKN060 OVC080,53.6,46.4,,,77%,,,29.79,0.0,,,,2024-11-29,11,2024,4,KOKV
2024-11-26,26,05:55,EST,W  8,10.0,Mostly Cloudy,SCT090 BKN120,51.8,48.2,,,88%,,,29.79,0.0,,,,2024-11-29,11,2024,5,KOKV
2024-11-26,26,06:55,EST,W  3,10.0,Partly Cloudy,SCT050 SCT110,51.8,50.0,,,94%,,,29.82,0.0,,,,2024-11-29,11,2024,6,KOKV
2024-11-26,26,07:55,EST,W  14  G 17,10.0,Overcast,SCT035 BKN050 OVC085,57.2,50.0,,,77%,,,29.85,0.0,,,,2024-11-29,11,2024,7,KOKV
2024-11-26,26,08:55,EST,W  20  G 26,10.0,Partly Cloudy,SCT047 SCT060 SCT070,55.4,46.4,,,72%,,,29.89,0.0,,,,2024-11-29,11,2024,8,KOKV
2024-11-26,26,09:55,EST,W  20  G 35,10.0,Partly Cloudy,SCT045,55.4,42.8,,,63%,,,29.93,0.0,,,,2024-11-29,11,2024,9,KOKV
2024-11-26,26,10:55,EST,W  24  G 30,10.0,Partly Cloudy and Breezy,SCT048,57.2,37.4,,,48%,,,29.95,0.0,,,,2024-11-29,11,2024,10,KOKV
2024-11-26,26,11:55,EST,W  20  G 26,10.0,Fair,CLR,57.2,33.8,,,41%,,,29.94,0.0,,,,2024-11-29,11,2024,11,KOKV
2024-11-26,26,12:55,EST,NW  18,10.0,Fair,CLR,57.2,33.8,,,41%,,,29.93,0.0,,,,2024-11-29,11,2024,12,KOKV
2024-11-26,26,13:55,EST,W  13  G 20,10.0,Fair,CLR,59.0,33.8,,,39%,,,29.94,0.0,,,,2024-11-29,11,2024,13,KOKV
2024-11-26,26,14:55,EST,NW  15  G 24,10.0,Fair,CLR,55.4,30.2,,,38%,,,29.95,0.0,,,,2024-11-29,11,2024,14,KOKV
2024-11-26,26,15:55,EST,NW  10,10.0,Fair,CLR,53.6,28.4,,,38%,,,29.99,0.0,,,,2024-11-29,11,2024,15,KOKV
2024-11-26,26,16:55,EST,W  12,10.0,Fair,CLR,50.0,28.4,,,43%,46.0,,30.0,0.0,,,,2024-11-29,11,2024,16,KOKV
2024-11-26,26,17:55,EST,W  14  G 17,10.0,Fair,CLR,50.0,28.4,,,43%,45.0,,30.02,0.0,,,,2024-11-29,11,2024,17,KOKV
2024-11-26,26,18:55,EST,NW  12,10.0,Fair,CLR,48.2,28.4,,,46%,44.0,,30.02,0.0,,,,2024-11-29,11,2024,18,KOKV
2024-11-26,26,19:55,EST,NW  8,10.0,Fair,CLR,44.6,30.2,,,57%,41.0,,30.03,0.0,,,,2024-11-29,11,2024,19,KOKV
2024-11-26,26,20:55,EST,Calm,10.0,Fair,CLR,42.8,28.4,,,57%,,,30.04,0.0,,,,2024-11-29,11,2024,20,KOKV
2024-11-26,26,21:55,EST,SW  3,10.0,Fair,CLR,42.8,26.6,,,53%,,,30.05,0.0,,,,2024-11-29,11,2024,21,KOKV
2024-11-26,26,22:55,EST,W  6,10.0,Fair,CLR,42.8,26.6,,,53%,40.0,,30.05,0.0,,,,2024-11-29,11,2024,22,KOKV
2024-11-26,26,23:55,EST,Calm,10.0,Fair,CLR,41.0,26.6,,,57%,,,30.05,0.0,,,,2024-11-29,11,2024,23,KOKV
2024-11-27,27,00:55,EST,Calm,10.0,Fair,CLR,41.0,26.6,,,57%,,,30.05,0.0,,,,2024-11-30,11,2024,0,KOKV
2024-11-27,27,01:55,EST,Calm,10.0,Fair,CLR,41.0,26.6,,,57%,,,30.06,0.0,,,,2024-11-30,11,2024,1,KOKV
2024-11-27,27,02:55,EST,Calm,10.0,Fair,CLR,39.2,26.6,,,61%,,,30.06,0.0,,,,2024-11-30,11,2024,2,KOKV
2024-11-27,27,03:55,EST,Calm,10.0,Fair,CLR,42.8,26.6,,,53%,,,30.06,0.0,,,,2024-11-30,11,2024,3,KOKV
2024-11-27,27,04:55,EST,S  3,10.0,Fair,CLR,37.4,28.4,,,70%,,,30.06,0.0,,,,2024-11-30,11,2024,4,KOKV
2024-11-27,27,05:55,EST,W  3,10.0,Fair,CLR,37.4,28.4,,,70%,,,30.07,0.0,,,,2024-11-30,11,2024,5,KOKV
2024-11-27,27,06:55,EST,SW  3,10.0,Fair,CLR,35.6,26.6,,,70%,,,30.08,0.0,,,,2024-11-30,11,2024,6,KOKV
2024-11-27,27,07:55,EST,SW  6,10.0,Fair,CLR,37.4,26.6,,,65%,33.0,,30.08,0.0,,,,2024-11-30,11,2024,7,KOKV
2024-11-27,27,08:55,EST,SW  5,10.0,Fair,CLR,42.8,28.4,,,57%,41.0,,30.09,0.0,,,,2024-11-30,11,2024,8,KOKV
2024-11-27,27,09:55,EST,W  6,10.0,Fair,CLR,46.4,26.6,,,46%,44.0,,30.08,0.0,,,,2024-11-30,11,2024,9,KOKV
2024-11-27,27,10:55,EST,S  7,10.0,Fair,CLR,48.2,30.2,,,50%,46.0,,30.08,0.0,,,,2024-11-30,11,2024,10,KOKV
2024-11-27,27,11:55,EST,S  7,10.0,Fair,CLR,50.0,30.2,,,47%,48.0,,30.05,0.0,,,,2024-11-30,11,2024,11,KOKV
2024-11-27,27,12:55,EST,S  7,10.0,Fair,CLR,51.8,28.4,,,41%,,,30.0,0.0,,,,2024-11-30,11,2024,12,KOKV
2024-11-27,27,13:55,EST,S  6,10.0,Fair,CLR,51.8,28.4,,,41%,,,29.98,0.0,,,,2024-11-30,11,2024,13,KOKV
2024-11-27,27,14:55,EST,Calm,10.0,Fair,CLR,51.8,26.6,,,38%,,,29.95,0.0,,,,2024-11-30,11,2024,14,KOKV
2024-11-27,27,15:55,EST,SE  6,10.0,Fair,CLR,51.8,26.6,,,38%,,,29.95,0.0,,,,2024-11-30,11,2024,15,KOKV
2024-11-27,27,16:55,EST,SE  7,10.0,Fair,CLR,48.2,26.6,,,43%,46.0,,29.94,0.0,,,,2024-11-30,11,2024,16,KOKV
2024-11-27,27,17:55,EST,S  8,10.0,Mostly Cloudy,BKN120,46.4,26.6,,,46%,43.0,,29.94,0.0,,,,2024-11-30,11,2024,17,KOKV
2024-11-27,27,18:55,EST,SE  3,10.0,Overcast,OVC100,46.4,28.4,,,50%,,,29.92,0.0,,,,2024-11-30,11,2024,18,KOKV
2024-11-27,27,19:55,EST,S  6,10.0,Overcast,OVC100,46.4,28.4,,,50%,44.0,,29.93,0.0,,,,2024-11-30,11,2024,19,KOKV
2024-11-27,27,20:35,EST,S  8,10.0,Overcast,SCT050 OVC070,46.4,28.4,,,50%,43.0,,29.93,0.0,,,,2024-11-30,11,2024,20,KOKV
2024-11-27,27,21:55,EST,SE  6,10.0,Overcast,OVC100,46.4,32.0,,,57%,44.0,,29.88,0.0,,,,2024-11-30,11,2024,21,KOKV
2024-11-27,27,22:55,EST,SE  9,10.0,Overcast,OVC065,44.6,32.0,,,61%,40.0,,29.84,0.0,,,,2024-11-30,11,2024,22,KOKV
2024-11-27,27,23:55,EST,SE  12,10.0,Overcast,OVC055,46.4,32.0,,,57%,42.0,,29.81,0.0,,,,2024-11-30,11,2024,23,KOKV
2024-11-28,28,00:55,EST,SE  5,10.0,Overcast,BKN042 OVC050,44.6,32.0,,,61%,43.0,,29.78,0.0,,,,2024-12-01,11,2024,0,KOKV
2024-11-28,28,01:55,EST,Calm,10.0,Overcast,SCT037 OVC048,42.8,37.4,,,81%,,,29.75,0.0,,,,2024-12-01,11,2024,1,KOKV
2024-11-28,28,02:55,EST,NE  3,10.0,Overcast,SCT031 OVC041,41.0,37.4,,,87%,,,29.71,0.0,,,,2024-12-01,11,2024,2,KOKV
2024-11-28,28,03:55,EST,Calm,10.0,Overcast,BKN034 BKN050 OVC070,41.0,39.2,,,93%,,,29.67,0.0,,,,2024-12-01,11,2024,3,KOKV
2024-11-28,28,04:55,EST,NE  3,7.0,Overcast,SCT002 OVC030,41.0,41.0,,,100%,,,29.62,0.0,,,,2024-12-01,11,2024,4,KOKV
2024-11-28,28,05:55,EST,Calm,7.0,Overcast,OVC002,41.0,41.0,,,100%,,,29.61,0.0,,,,2024-12-01,11,2024,5,KOKV
2024-11-28,28,06:55,EST,Calm,5.0,Overcast,SCT022 OVC026,41.0,41.0,,,100%,,,29.57,0.0,,,,2024-12-01,11,2024,6,KOKV
2024-11-28,28,07:55,EST,Calm,3.0,Overcast,SCT006 BKN060 OVC075,41.0,41.0,,,100%,,,29.55,0.0,,,,2024-12-01,11,2024,7,KOKV
2024-11-28,28,08:55,EST,Calm,4.0,Overcast,BKN006 BKN022 OVC060,42.8,41.0,,,93%,,,29.57,0.0,,,,2024-12-01,11,2024,8,KOKV
2024-11-28,28,09:55,EST,NW  5,5.0,Overcast,OVC004,42.8,41.0,,,93%,41.0,,29.59,0.0,,,,2024-12-01,11,2024,9,KOKV
2024-11-28,28,10:55,EST,W  5,10.0,Mostly Cloudy,SCT010 SCT014 BKN020,46.4,42.8,,,87%,45.0,,29.6,0.0,,,,2024-12-01,11,2024,10,KOKV
2024-11-28,28,11:55,EST,W  20  G 25,10.0,Mostly Cloudy,SCT022 BKN031,50.0,41.0,,,71%,44.0,,29.6,0.0,,,,2024-12-01,11,2024,11,KOKV
2024-11-28,28,12:55,EST,W  22  G 31,10.0,Mostly Cloudy and Breezy,BKN034 BKN040,50.0,35.6,,,58%,44.0,,29.63,0.0,,,,2024-12-01,11,2024,12,KOKV
2024-11-28,28,13:55,EST,W  14  G 25,10.0,Overcast,BKN038 BKN045 OVC065,50.0,35.6,,,58%,45.0,,29.67,0.0,,,,2024-12-01,11,2024,13,KOKV
2024-11-28,28,14:55,EST,W  23  G 28,10.0,Overcast and Breezy,SCT041 BKN048 OVC050,46.4,33.8,,,62%,39.0,,29.7,0.0,,,,2024-12-01,11,2024,14,KOKV
2024-11-28,28,15:55,EST,W  26  G 32,7.0,Overcast and Windy,BKN035 BKN045 OVC050,44.6,33.8,,,66%,36.0,,29.77,0.0,,,,2024-12-01,11,2024,15,KOKV
2024-11-28,28,16:55,EST,NW  14  G 23,10.0,Overcast,BKN040 BKN046 OVC060,42.8,32.0,,,66%,36.0,,29.81,0.0,,,,2024-12-01,11,2024,16,KOKV
2024-11-28,28,17:55,EST,W  13  G 20,10.0,Overcast,OVC040,42.8,32.0,,,66%,37.0,,29.85,0.0,,,,2024-12-01,11,2024,17,KOKV
2024-11-28,28,18:55,EST,NW  15  G 20,10.0,Partly Cloudy,SCT036 SCT043 SCT065,41.0,32.0,,,70%,34.0,,29.86,0.0,,,,2024-12-01,11,2024,18,KOKV
2024-11-28,28,19:55,EST,W  9  G 20,10.0,Partly Cloudy,SCT032,41.0,32.0,,,70%,36.0,,29.88,0.0,,,,2024-12-01,11,2024,19,KOKV
2024-11-28,28,20:55,EST,W  9,10.0,Partly Cloudy,SCT035 SCT043,41.0,32.0,,,70%,36.0,,29.9,0.0,,,,2024-12-01,11,2024,20,KOKV
2024-11-28,28,21:55,EST,W  14  G 18,10.0,Overcast,BKN037 OVC042,41.0,32.0,,,70%,34.0,,29.9,0.0,,,,2024-12-01,11,2024,21,KOKV
2024-11-28,28,22:55,EST,W  7,10.0,Overcast,BKN037 OVC050,41.0,32.0,,,70%,37.0,,29.92,0.0,,,,2024-12-01,11,2024,22,KOKV
2024-11-28,28,23:55,EST,W  13,10.0,Overcast,OVC041,41.0,28.4,,,61%,34.0,,29.92,0.0,,,,2024-12-01,11,2024,23,KOKV
2024-11-29,29,00:55,EST,W  10,10.0,Overcast,OVC044,41.0,26.6,,,57%,35.0,,29.94,0.0,,,,2024-12-02,11,2024,0,KOKV
2024-11-29,29,01:55,EST,W  7,10.0,Overcast,SCT047 OVC055,37.4,23.0,,,56%,33.0,,29.94,0.0,,,,2024-12-02,11,2024,1,KOKV
2024-11-29,29,02:55,EST,W  3,10.0,Overcast,OVC065,37.4,23.0,,,56%,,,29.95,0.0,,,,2024-12-02,11,2024,2,KOKV
2024-11-29,29,03:55,EST,Calm,10.0,Mostly Cloudy,BKN065,32.0,24.8,,,75%,,,29.93,0.0,,,,2024-12-02,11,2024,3,KOKV
2024-11-29,29,04:55,EST,Calm,10.0,Overcast,OVC065,32.0,24.8,,,75%,,,29.93,0.0,,,,2024-12-02,11,2024,4,KOKV
2024-11-29,29,05:55,EST,Calm,10.0,Fair,CLR,30.2,24.8,,,80%,,,29.93,0.0,,,,2024-12-02,11,2024,5,KOKV
2024-11-29,29,06:55,EST,SW  5,10.0,Overcast,OVC046,32.0,26.6,,,80%,28.0,,29.94,0.0,,,,2024-12-02,11,2024,6,KOKV
2024-11-29,29,07:55,EST,SW  3,10.0,Fair,CLR,33.8,26.6,,,75%,,,29.95,0.0,,,,2024-12-02,11,2024,7,KOKV
2024-11-29,29,08:55,EST,SW  5,10.0,Overcast,OVC060,35.6,26.6,,,70%,32.0,,29.96,0.0,,,,2024-12-02,11,2024,8,KOKV
2024-11-29,29,09:55,EST,SW  5,10.0,Overcast,BKN047 OVC060,37.4,28.4,,,70%,34.0,,29.97,0.0,,,,2024-12-02,11,2024,9,KOKV
2024-11-29,29,10:55,EST,NW  12,10.0,Overcast,BKN038 OVC044,37.4,28.4,,,70%,30.0,,29.97,0.0,,,,2024-12-02,11,2024,10,KOKV
2024-11-29,29,11:55,EST,W  14  G 22,10.0,Overcast,OVC049,39.2,23.0,,,52%,32.0,,29.95,0.0,,,,2024-12-02,11,2024,11,KOKV
2024-11-29,29,12:55,EST,NW  20  G 23,10.0,Overcast,OVC055,41.0,24.8,,,53%,33.0,,29.94,0.0,,,,2024-12-02,11,2024,12,KOKV
2024-11-29,29,13:55,EST,NW  20  G 26,10.0,Mostly Cloudy,BKN055,37.4,21.2,,,52%,28.0,,29.95,0.0,,,,2024-12-02,11,2024,13,KOKV
2024-11-29,29,14:55,EST,W  17  G 26,10.0,Partly Cloudy,SCT065,35.6,21.2,,,56%,26.0,,29.96,0.0,,,,2024-12-02,11,2024,14,KOKV
2024-11-29,29,15:55,EST,W  12,10.0,Overcast,BKN043 BKN050 OVC055,33.8,21.2,,,60%,26.0,,29.98,0.0,,,,2024-12-02,11,2024,15,KOKV
2024-11-29,29,16:55,EST,W  18  G 24,10.0,Overcast,OVC050,33.8,17.6,,,51%,24.0,,30.0,0.0,,,,2024-12-02,11,2024,16,KOKV
2024-11-29,29,17:55,EST,W  9,10.0,Mostly Cloudy,BKN055,32.0,15.8,,,51%,25.0,,30.0,0.0,,,,2024-12-02,11,2024,17,KOKV
2024-11-29,29,18:55,EST,W  9  G 18,10.0,Mostly Cloudy,SCT046 SCT055 BKN070,32.0,17.6,,,55%,25.0,,30.02,0.0,,,,2024-12-02,11,2024,18,KOKV
2024-11-29,29,19:55,EST,W  9,10.0,Fair,CLR,32.0,15.8,,,51%,25.0,,30.03,0.0,,,,2024-12-02,11,2024,19,KOKV
2024-11-29,29,20:55,EST,W  13  G 16,10.0,Partly Cloudy,SCT049 SCT065,32.0,15.8,,,51%,23.0,,30.03,0.0,,,,2024-12-02,11,2024,20,KOKV
2024-11-29,29,21:55,EST,W  8  G 20,10.0,Fair,CLR,32.0,14.0,,,47%,25.0,,30.06,0.0,,,,2024-12-02,11,2024,21,KOKV
2024-11-29,29,22:55,EST,NW  7,10.0,Mostly Cloudy,BKN060,28.4,14.0,,,55%,22.0,,30.05,0.0,,,,2024-12-02,11,2024,22,KOKV
2024-11-29,29,23:55,EST,Calm,10.0,Partly Cloudy,SCT060,28.4,14.0,,,55%,,,30.04,0.0,,,,2024-12-02,11,2024,23,KOKV
2024-11-30,30,00:55,EST,NW  7,10.0,Overcast,SCT039 SCT050 OVC060,28.4,15.8,,,59%,22.0,,30.04,0.0,,,,2024-12-03,11,2024,0,KOKV
2024-11-30,30,01:55,EST,NW  5,10.0,Overcast,BKN042 BKN048 OVC060,30.2,17.6,,,59%,26.0,,30.04,0.0,,,,2024-12-03,11,2024,1,KOKV
2024-11-30,30,02:55,EST,W  10,10.0,Overcast,SCT040 OVC049,30.2,17.6,,,59%,22.0,,30.05,0.0,,,,2024-12-03,11,2024,2,KOKV
2024-11-30,30,03:55,EST,W  8,10.0,Overcast,OVC045,32.0,17.6,,,55%,25.0,,30.04,0.0,,,,2024-12-03,11,2024,3,KOKV
2024-11-30,30,04:55,EST,NW  10,10.0,Overcast,OVC045,32.0,15.8,,,51%,24.0,,30.06,0.0,,,,2024-12-03,11,2024,4,KOKV
2024-11-30,30,05:55,EST,W  15  G 20,10.0,Overcast,OVC046,30.2,14.0,,,51%,20.0,,30.07,0.0,,,,2024-12-03,11,2024,5,KOKV
2024-11-30,30,06:55,EST,W  9,10.0,Overcast,OVC046,30.2,14.0,,,51%,23.0,,30.09,0.0,,,,2024-12-03,11,2024,6,KOKV
2024-11-30,30,07:55,EST,W  12,10.0,Overcast,OVC042,30.2,14.0,,,51%,21.0,,30.1,0.0,,,,2024-12-03,11,2024,7,KOKV
2024-11-30,30,08:55,EST,W  10  G 16,10.0,Overcast,OVC044,30.2,14.0,,,51%,22.0,,30.11,0.0,,,,2024-12-03,11,2024,8,KOKV
2024-11-30,30,09:55,EST,W  15  G 18,10.0,Overcast,OVC042,30.2,14.0,,,51%,20.0,,30.13,0.0,,,,2024-12-03,11,2024,9,KOKV
2024-11-30,30,10:55,EST,NW  15,10.0,Mostly Cloudy,BKN044 BKN050,30.2,12.2,,,47%,20.0,,30.13,0.0,,,,2024-12-03,11,2024,10,KOKV
2024-11-30,30,11:55,EST,W  17  G 25,10.0,Fair,CLR,32.0,12.2,,,44%,22.0,,30.11,0.0,,,,2024-12-03,11,2024,11,KOKV
2024-11-30,30,12:55,EST,NW  7  G 16,10.0,Mostly Cloudy,BKN050,32.0,12.2,,,44%,26.0,,30.1,0.0,,,,2024-12-03,11,2024,12,KOKV
2024-11-30,30,13:55,EST,NW  10,10.0,Partly Cloudy,SCT050,32.0,12.2,,,44%,24.0,,30.08,0.0,,,,2024-12-03,11,2024,13,KOKV
2024-11-30,30,14:55,EST,NW  10,10.0,Fair,CLR,33.8,14.0,,,44%,26.0,,30.07,0.0,,,,2024-12-03,11,2024,14,KOKV
2024-11-30,30,15:55,EST,NW  9,10.0,Fair,CLR,32.0,14.0,,,47%,25.0,,30.08,0.0,,,,2024-12-03,11,2024,15,KOKV
2024-11-30,30,16:55,EST,NW  8,10.0,Fair,CLR,32.0,12.2,,,44%,25.0,,30.08,0.0,,,,2024-12-03,11,2024,16,KOKV
2024-11-30,30,17:55,EST,NW  5,10.0,Fair,CLR,28.4,12.2,,,51%,24.0,,30.1,0.0,,,,2024-12-03,11,2024,17,KOKV
2024-11-30,30,18:35,EST,Calm,10.0,Fair,CLR,28.4,14.0,,,55%,,,30.11,0.0,,,,2024-12-03,11,2024,18,KOKV
2024-11-30,30,19:55,EST,N  3,10.0,Fair,CLR,26.6,12.2,,,54%,,,30.11,0.0,,,,2024-12-03,11,2024,19,KOKV
2024-11-30,30,20:55,EST,Calm,10.0,Fair,CLR,24.8,12.2,,,59%,,,30.1,0.0,,,,2024-12-03,11,2024,20,KOKV
2024-11-30,30,21:55,EST,Calm,10.0,Fair,CLR,19.4,12.2,,,73%,,,30.11,0.0,,,,2024-12-03,11,2024,21,KOKV
2024-11-30,30,22:55,EST,SE  6,10.0,Fair,CLR,19.4,12.2,,,73%,12.0,,30.11,0.0,,,,2024-12-03,11,2024,22,KOKV
2024-11-30,30,23:55,EST,Calm,10.0,Fair,CLR,19.4,12.2,,,73%,,,30.12,0.0,,,,2024-12-03,11,2024,23,KOKV
2024-12-01,1,00:55,EST,Calm,10.0,Fair,CLR,21.2,12.2,,,68%,,,30.11,0.0,,,,2024-12-04,12,2024,0,KOKV
2024-12-01,1,01:55,EST,Calm,10.0,Partly Cloudy,SCT080,17.6,12.2,,,79%,,,30.11,0.0,,,,2024-12-04,12,2024,1,KOKV
2024-12-01,1,02:55,EST,W  3,10.0,Overcast,OVC070,21.2,14.0,,,74%,,,30.11,0.0,,,,2024-12-04,12,2024,2,KOKV
2024-12-01,1,03:55,EST,Calm,10.0,Overcast,OVC050,24.8,15.8,,,69%,,,30.1,0.0,,,,2024-12-04,12,2024,3,KOKV
2024-12-01,1,04:55,EST,Calm,10.0,Overcast,OVC050,21.2,17.6,,,86%,,,30.11,0.0,,,,2024-12-04,12,2024,4,KOKV
2024-12-01,1,05:55,EST,Calm,10.0,Overcast,OVC048,24.8,19.4,,,80%,,,30.11,0.0,,,,2024-12-04,12,2024,5,KOKV
2024-12-01,1,06:55,EST,Calm,10.0,Overcast,OVC044,24.8,21.2,,,86%,,,30.11,0.0,,,,2024-12-04,12,2024,6,KOKV
2024-12-01,1,07:55,EST,Calm,10.0,Overcast,OVC048,26.6,21.2,,,80%,,,30.1,0.0,,,,2024-12-04,12,2024,7,KOKV
2024-12-01,1,08:55,EST,Calm,10.0,Overcast,OVC046,28.4,19.4,,,69%,,,30.11,0.0,,,,2024-12-04,12,2024,8,KOKV
2024-12-01,1,09:55,EST,Calm,10.0,Overcast,OVC050,30.2,17.6,,,59%,,,30.11,0.0,,,,2024-12-04,12,2024,9,KOKV
2024-12-01,1,10:55,EST,Calm,10.0,Overcast,BKN047 OVC050,32.0,21.2,,,64%,,,30.1,0.0,,,,2024-12-04,12,2024,10,KOKV
2024-12-01,1,11:55,EST,Calm,10.0,Overcast,SCT040 OVC050,35.6,21.2,,,56%,,,30.07,0.0,,,,2024-12-04,12,2024,11,KOKV
2024-12-01,1,12:55,EST,SW  6,10.0,Overcast,OVC042,37.4,21.2,,,52%,33.0,,30.06,0.0,,,,2024-12-04,12,2024,12,KOKV
2024-12-01,1,13:55,EST,W  13  G 16,10.0,Overcast,OVC065,37.4,23.0,,,56%,30.0,,30.05,0.0,,,,2024-12-04,12,2024,13,KOKV
2024-12-01,1,14:55,EST,NW  14,10.0,Overcast,SCT048 OVC050,35.6,24.8,,,65%,27.0,,30.05,0.0,,,,2024-12-04,12,2024,14,KOKV
2024-12-01,1,15:55,EST,W  3,10.0,Overcast,SCT050 OVC090,35.6,23.0,,,60%,,,30.06,0.0,,,,2024-12-04,12,2024,15,KOKV
2024-12-01,1,16:55,EST,W  9,10.0,Overcast,OVC070,35.6,17.6,,,48%,29.0,,30.07,0.0,,,,2024-12-04,12,2024,16,KOKV
2024-12-01,1,17:55,EST,NW  9,10.0,Overcast,SCT050 OVC070,33.8,21.2,,,60%,27.0,,30.09,0.0,,,,2024-12-04,12,2024,17,KOKV
2024-12-01,1,18:55,EST,NW  8,10.0,Overcast,OVC065,32.0,19.4,,,60%,25.0,,30.12,0.0,,,,2024-12-04,12,2024,18,KOKV
2024-12-01,1,19:55,EST,NW  6,10.0,Overcast,OVC060,32.0,17.6,,,55%,27.0,,30.13,0.0,,,,2024-12-04,12,2024,19,KOKV
2024-12-01,1,20:55,EST,NW  7,10.0,Partly Cloudy,SCT060,28.4,17.6,,,64%,22.0,,30.14,0.0,,,,2024-12-04,12,2024,20,KOKV
2024-12-01,1,21:55,EST,NW  12  G 17,10.0,Partly Cloudy,SCT055,30.2,14.0,,,51%,21.0,,30.15,0.0,,,,2024-12-04,12,2024,21,KOKV
2024-12-01,1,22:55,EST,NW  10,10.0,Fair,CLR,28.4,12.2,,,51%,20.0,,30.16,0.0,,,,2024-12-04,12,2024,22,KOKV
2024-12-01,1,23:55,EST,W  9,10.0,Fair,CLR,23.0,12.2,,,63%,14.0,,30.17,0.0,,,,2024-12-04,12,2024,23,KOKV
2024-12-02,2,00:55,EST,W  10,10.0,Fair,CLR,28.4,10.4,,,47%,20.0,,30.16,0.0,,,,2024-12-05,12,2024,0,KOKV
2024-12-02,2,01:55,EST,W  9,10.0,Fair,CLR,26.6,10.4,,,50%,18.0,,30.16,0.0,,,,2024-12-05,12,2024,1,KOKV
2024-12-02,2,02:55,EST,W  8,10.0,Fair,CLR,26.6,10.4,,,50%,19.0,,30.17,0.0,,,,2024-12-05,12,2024,2,KOKV
2024-12-02,2,03:55,EST,W  9,10.0,Fair,CLR,26.6,10.4,,,50%,18.0,,30.17,0.0,,,,2024-12-05,12,2024,3,KOKV
2024-12-02,2,04:55,EST,W  7,10.0,Fair,CLR,26.6,12.2,,,54%,20.0,,30.18,0.0,,,,2024-12-05,12,2024,4,KOKV
2024-12-02,2,05:55,EST,Calm,10.0,Fair,CLR,24.8,12.2,,,59%,,,30.19,0.0,,,,2024-12-05,12,2024,5,KOKV
2024-12-02,2,06:55,EST,W  6,10.0,Fair,CLR,24.8,12.2,,,59%,19.0,,30.2,0.0,,,,2024-12-05,12,2024,6,KOKV
2024-12-02,2,07:55,EST,Calm,10.0,Fair,CLR,21.2,12.2,,,68%,,,30.22,0.0,,,,2024-12-05,12,2024,7,KOKV
2024-12-02,2,08:55,EST,Calm,10.0,Fair,CLR,28.4,14.0,,,55%,,,30.23,0.0,,,,2024-12-05,12,2024,8,KOKV
2024-12-02,2,09:55,EST,NW  9,10.0,Fair,CLR,32.0,12.2,,,44%,25.0,,30.24,0.0,,,,2024-12-05,12,2024,9,KOKV
2024-12-02,2,10:55,EST,NW  7,10.0,Fair,CLR,32.0,14.0,,,47%,26.0,,30.24,0.0,,,,2024-12-05,12,2024,10,KOKV
2024-12-02,2,11:55,EST,NW  10  G 17,10.0,Fair,CLR,33.8,14.0,,,44%,26.0,,30.22,0.0,,,,2024-12-05,12,2024,11,KOKV
2024-12-02,2,12:55,EST,W  15,10.0,Fair,CLR,33.8,14.0,,,44%,25.0,,30.2,0.0,,,,2024-12-05,12,2024,12,KOKV
2024-12-02,2,13:55,EST,NW  14,10.0,Partly Cloudy,SCT049,33.8,14.0,,,44%,25.0,,30.2,0.0,,,,2024-12-05,12,2024,13,KOKV
2024-12-02,2,14:55,EST,NW  9  G 16,10.0,Partly Cloudy,SCT048,33.8,14.0,,,44%,27.0,,30.2,0.0,,,,2024-12-05,12,2024,14,KOKV
2024-12-02,2,15:55,EST,NW  10,10.0,Fair,CLR,33.8,14.0,,,44%,26.0,,30.22,0.0,,,,2024-12-05,12,2024,15,KOKV
2024-12-02,2,16:55,EST,NW  9,10.0,Fair,CLR,32.0,14.0,,,47%,25.0,,30.23,0.0,,,,2024-12-05,12,2024,16,KOKV
2024-12-02,2,17:55,EST,W  6,10.0,Fair,CLR,26.6,14.0,,,59%,21.0,,30.24,0.0,,,,2024-12-05,12,2024,17,KOKV
2024-12-02,2,18:55,EST,W  7,10.0,Fair,CLR,24.8,14.0,,,63%,18.0,,30.25,0.0,,,,2024-12-05,12,2024,18,KOKV
2024-12-02,2,19:55,EST,W  3,10.0,Fair,CLR,28.4,14.0,,,55%,,,30.27,0.0,,,,2024-12-05,12,2024,19,KOKV
2024-12-02,2,20:55,EST,W  5,10.0,Fair,CLR,28.4,14.0,,,55%,24.0,,30.27,0.0,,,,2024-12-05,12,2024,20,KOKV
2024-12-02,2,21:55,EST,W  3,10.0,Fair,CLR,28.4,14.0,,,55%,,,30.28,0.0,,,,2024-12-05,12,2024,21,KOKV
2024-12-02,2,22:55,EST,W  6,10.0,Fair,CLR,26.6,14.0,,,59%,21.0,,30.28,0.0,,,,2024-12-05,12,2024,22,KOKV
2024-12-02,2,23:55,EST,W  7,10.0,Fair,CLR,26.6,14.0,,,59%,20.0,,30.29,0.0,,,,2024-12-05,12,2024,23,KOKV
2024-12-03,3,00:55,EST,SW  3,10.0,Fair,CLR,26.6,14.0,,,59%,,,30.28,0.0,,,,2024-12-06,12,2024,0,KOKV
2024-12-03,3,01:55,EST,W  7,10.0,Fair,CLR,26.6,14.0,,,59%,20.0,,30.3,0.0,,,,2024-12-06,12,2024,1,KOKV
2024-12-03,3,02:55,EST,SW  3,10.0,Fair,CLR,23.0,14.0,,,68%,,,30.31,0.0,,,,2024-12-06,12,2024,2,KOKV
2024-12-03,3,03:55,EST,SW  3,10.0,Fair,CLR,21.2,12.2,,,68%,,,30.3,0.0,,,,2024-12-06,12,2024,3,KOKV
2024-12-03,3,04:55,EST,Calm,10.0,Fair,CLR,19.4,12.2,,,73%,,,30.31,0.0,,,,2024-12-06,12,2024,4,KOKV
2024-12-03,3,05:55,EST,SW  3,10.0,Fair,CLR,19.4,12.2,,,73%,,,30.32,0.0,,,,2024-12-06,12,2024,5,KOKV
2024-12-03,3,06:55,EST,Calm,10.0,Partly Cloudy,SCT070,21.2,12.2,,,68%,,,30.34,0.0,,,,2024-12-06,12,2024,6,KOKV
2024-12-03,3,07:55,EST,Calm,10.0,Fair,CLR,21.2,14.0,,,74%,,,30.35,0.0,,,,2024-12-06,12,2024,7,KOKV
2024-12-03,3,08:55,EST,W  6,10.0,Fair,CLR,28.4,15.8,,,59%,23.0,,30.37,0.0,,,,2024-12-06,12,2024,8,KOKV
2024-12-03,3,09:55,EST,W  12  G 18,10.0,Fair,CLR,32.0,17.6,,,55%,24.0,,30.37,0.0,,,,2024-12-06,12,2024,9,KOKV
2024-12-03,3,10:55,EST,W  13  G 17,10.0,Partly Cloudy,SCT038,33.8,17.6,,,51%,25.0,,30.38,0.0,,,,2024-12-06,12,2024,10,KOKV
2024-12-03,3,11:55,EST,NW  12  G 22,10.0,Fair,CLR,33.8,17.6,,,51%,26.0,,30.35,0.0,,,,2024-12-06,12,2024,11,KOKV
2024-12-03,3,12:55,EST,NW  17  G 22,10.0,Fair,CLR,35.6,17.6,,,48%,26.0,,30.34,0.0,,,,2024-12-06,12,2024,12,KOKV
2024-12-03,3,13:55,EST,NW  16  G 24,10.0,Fair,CLR,35.6,17.6,,,48%,27.0,,30.33,0.0,,,,2024-12-06,12,2024,13,KOKV
2024-12-03,3,14:55,EST,W  13  G 17,10.0,Fair,CLR,35.6,15.8,,,44%,28.0,,30.33,0.0,,,,2024-12-06,12,2024,14,KOKV
2024-12-03,3,15:55,EST,W  9,10.0,Partly Cloudy,SCT050,33.8,15.8,,,48%,27.0,,30.35,0.0,,,,2024-12-06,12,2024,15,KOKV
2024-12-03,3,16:55,EST,W  8,10.0,Fair,CLR,32.0,15.8,,,51%,25.0,,30.36,0.0,,,,2024-12-06,12,2024,16,KOKV
2024-12-03,3,17:55,EST,W  5,10.0,Partly Cloudy,SCT044,30.2,14.0,,,51%,26.0,,30.37,0.0,,,,2024-12-06,12,2024,17,KOKV
2024-12-03,3,18:55,EST,W  6,10.0,Fair,CLR,30.2,14.0,,,51%,25.0,,30.37,0.0,,,,2024-12-06,12,2024,18,KOKV
2024-12-03,3,19:55,EST,W  7,10.0,Fair,CLR,28.4,14.0,,,55%,22.0,,30.37,0.0,,,,2024-12-06,12,2024,19,KOKV
2024-12-03,3,20:55,EST,SW  3,10.0,Fair,CLR,28.4,14.0,,,55%,,,30.37,0.0,,,,2024-12-06,12,2024,20,KOKV
2024-12-03,3,21:55,EST,W  8,10.0,Fair,CLR,28.4,14.0,,,55%,21.0,,30.36,0.0,,,,2024-12-06,12,2024,21,KOKV
2024-12-03,3,22:55,EST,S  3,10.0,Fair,CLR,21.2,12.2,,,68%,,,30.36,0.0,,,,2024-12-06,12,2024,22,KOKV
2024-12-03,3,23:55,EST,SW  5,10.0,Fair,CLR,23.0,14.0,,,68%,18.0,,30.35,0.0,,,,2024-12-06,12,2024,23,KOKV
2024-12-04,4,00:55,EST,W  7,10.0,Fair,CLR,24.8,14.0,,,63%,18.0,,30.33,0.0,,,,2024-12-07,12,2024,0,KOKV
2024-12-04,4,01:55,EST,SW  5,10.0,Fair,CLR,24.8,14.0,,,63%,20.0,,30.32,0.0,,,,2024-12-07,12,2024,1,KOKV
2024-12-04,4,02:55,EST,SW  5,10.0,Fair,CLR,23.0,14.0,,,68%,18.0,,30.33,0.0,,,,2024-12-07,12,2024,2,KOKV
2024-12-04,4,03:55,EST,W  5,10.0,Fair,CLR,23.0,14.0,,,68%,18.0,,30.31,0.0,,,,2024-12-07,12,2024,3,KOKV
2024-12-04,4,04:55,EST,SW  5,10.0,Partly Cloudy,SCT120,23.0,14.0,,,68%,18.0,,30.29,0.0,,,,2024-12-07,12,2024,4,KOKV
2024-12-04,4,05:55,EST,SW  7,10.0,Partly Cloudy,SCT120,23.0,14.0,,,68%,16.0,,30.28,0.0,,,,2024-12-07,12,2024,5,KOKV
2024-12-04,4,06:55,EST,SW  5,10.0,Overcast,OVC110,23.0,14.0,,,68%,18.0,,30.26,0.0,,,,2024-12-07,12,2024,6,KOKV
2024-12-04,4,07:55,EST,SW  5,10.0,Partly Cloudy,SCT110,23.0,14.0,,,68%,18.0,,30.25,0.0,,,,2024-12-07,12,2024,7,KOKV
2024-12-04,4,08:55,EST,SW  6,10.0,Fair,CLR,26.6,14.0,,,59%,21.0,,30.22,0.0,,,,2024-12-07,12,2024,8,KOKV
2024-12-04,4,09:35,EST,SW  8,10.0,Partly Cloudy,SCT090,28.4,14.0,,,55%,21.0,,30.2,0.0,,,,2024-12-07,12,2024,9,KOKV
2024-12-04,4,10:35,EST,SW  7,10.0,Fair,CLR,32.0,15.8,,,51%,26.0,,30.16,0.0,,,,2024-12-07,12,2024,10,KOKV
2024-12-04,4,11:55,EST,SW  8,10.0,Mostly Cloudy,BKN070,33.8,14.0,,,44%,28.0,,30.08,0.0,,,,2024-12-07,12,2024,11,KOKV
2024-12-04,4,12:55,EST,SW  7,10.0,Overcast,OVC070,33.8,15.8,,,48%,28.0,,30.03,0.0,,,,2024-12-07,12,2024,12,KOKV
2024-12-04,4,13:55,EST,SW  7,10.0,Overcast,OVC060,35.6,15.8,,,44%,31.0,,29.99,0.0,,,,2024-12-07,12,2024,13,KOKV
2024-12-04,4,14:55,EST,S  3,10.0,Overcast,OVC048,35.6,15.8,,,44%,,,29.93,0.0,,,,2024-12-07,12,2024,14,KOKV
2024-12-04,4,15:55,EST,S  8,10.0,Overcast,OVC050,35.6,15.8,,,44%,30.0,,29.89,0.0,,,,2024-12-07,12,2024,15,KOKV
2024-12-04,4,16:55,EST,S  8,10.0,Overcast,OVC060,35.6,15.8,,,44%,30.0,,29.85,0.0,,,,2024-12-07,12,2024,16,KOKV
2024-12-04,4,17:55,EST,S  5,10.0,Partly Cloudy,SCT060,33.8,17.6,,,51%,30.0,,29.83,0.0,,,,2024-12-07,12,2024,17,KOKV
2024-12-04,4,18:55,EST,S  6,10.0,Partly Cloudy,SCT060,33.8,17.6,,,51%,29.0,,29.79,0.0,,,,2024-12-07,12,2024,18,KOKV
2024-12-04,4,19:55,EST,Calm,10.0,Overcast,BKN065 OVC075,35.6,17.6,,,48%,,,29.76,0.0,,,,2024-12-07,12,2024,19,KOKV
2024-12-04,4,20:55,EST,SW  7,10.0,Overcast,SCT038 OVC046,37.4,19.4,,,48%,33.0,,29.75,0.0,,,,2024-12-07,12,2024,20,KOKV
2024-12-04,4,21:55,EST,SW  6,10.0,Overcast,BKN041 BKN047 OVC055,39.2,23.0,,,52%,36.0,,29.72,0.0,,,,2024-12-07,12,2024,21,KOKV
2024-12-04,4,22:55,EST,SW  9,10.0,Mostly Cloudy,BKN050,39.2,26.6,,,61%,34.0,,29.68,0.0,,,,2024-12-07,12,2024,22,KOKV
2024-12-04,4,23:55,EST,S  3,10.0,Mostly Cloudy,BKN120,37.4,23.0,,,56%,,,29.66,0.0,,,,2024-12-07,12,2024,23,KOKV
2024-12-05,5,00:55,EST,SW  7,10.0,Mostly Cloudy,SCT055 BKN110,35.6,24.8,,,65%,31.0,,29.62,0.0,,,,2024-12-08,12,2024,0,KOKV
2024-12-05,5,01:55,EST,S  10  G 17,10.0,Fair,CLR,37.4,28.4,,,70%,31.0,,29.56,0.0,,,,2024-12-08,12,2024,1,KOKV
2024-12-05,5,02:55,EST,SW  6,10.0,Overcast,BKN075 OVC085,37.4,26.6,,,65%,33.0,,29.53,0.0,,,,2024-12-08,12,2024,2,KOKV
2024-12-05,5,03:55,EST,NW  23  G 30,4.0,Overcast and Breezy,SCT014 BKN033 OVC044,35.6,32.0,,,87%,25.0,,29.6,0.0,,,,2024-12-08,12,2024,3,KOKV
2024-12-05,5,04:55,EST,W  9  G 20,10.0,Overcast,SCT060 SCT070 OVC075,37.4,32.0,,,81%,31.0,,29.58,0.0,,,,2024-12-08,12,2024,4,KOKV
2024-12-05,5,05:55,EST,W  12,10.0,Mostly Cloudy,SCT090 BKN120,37.4,30.2,,,75%,30.0,,29.59,0.0,,,,2024-12-08,12,2024,5,KOKV
2024-12-05,5,06:55,EST,NW  22  G 30,10.0,Overcast and Breezy,SCT030 BKN043 OVC075,35.6,30.2,,,81%,25.0,,29.65,0.0,,,,2024-12-08,12,2024,6,KOKV
2024-12-05,5,07:55,EST,W  13  G 36,10.0,Mostly Cloudy,SCT049 BKN060 BKN070,33.8,19.4,,,56%,25.0,,29.72,0.0,,,,2024-12-08,12,2024,7,KOKV
2024-12-05,5,08:55,EST,NW  22  G 30,10.0,Partly Cloudy and Breezy,SCT055 SCT070,30.2,10.4,,,43%,18.0,,29.79,0.0,,,,2024-12-08,12,2024,8,KOKV
2024-12-05,5,09:55,EST,NW  32  G 39,10.0,Fair and Windy,CLR,30.2,8.6,,,40%,16.0,,29.83,0.0,,,,2024-12-08,12,2024,9,KOKV
2024-12-05,5,10:55,EST,W  28  G 37,10.0,Fair and Windy,CLR,32.0,10.4,,,40%,19.0,,29.84,0.0,,,,2024-12-08,12,2024,10,KOKV
2024-12-05,5,11:55,EST,W  24  G 33,10.0,Overcast and Breezy,OVC055,30.2,10.4,,,43%,17.0,,29.87,0.0,,,,2024-12-08,12,2024,11,KOKV
2024-12-05,5,12:55,EST,W  31  G 39,10.0,Partly Cloudy and Windy,SCT050,32.0,10.4,,,40%,18.0,,29.87,0.0,,,,2024-12-08,12,2024,12,KOKV
2024-12-05,5,13:55,EST,W  24  G 31,10.0,Partly Cloudy and Breezy,SCT050,32.0,10.4,,,40%,20.0,,29.91,0.0,,,,2024-12-08,12,2024,13,KOKV
2024-12-05,5,14:55,EST,W  15  G 30,10.0,Overcast,OVC050,30.2,8.6,,,40%,20.0,,29.96,0.0,,,,2024-12-08,12,2024,14,KOKV
2024-12-05,5,15:55,EST,W  23  G 29,10.0,Partly Cloudy and Breezy,SCT050,28.4,8.6,,,43%,15.0,,30.01,0.0,,,,2024-12-08,12,2024,15,KOKV
2024-12-05,5,16:55,EST,W  17  G 23,10.0,Partly Cloudy,SCT048,26.6,8.6,,,46%,15.0,,30.05,0.0,,,,2024-12-08,12,2024,16,KOKV
2024-12-05,5,17:55,EST,W  13  G 30,10.0,Mostly Cloudy,BKN048,26.6,8.6,,,46%,16.0,,30.1,0.0,,,,2024-12-08,12,2024,17,KOKV
2024-12-05,5,18:55,EST,W  12  G 15,10.0,Fair,CLR,24.8,8.6,,,50%,15.0,,30.09,0.0,,,,2024-12-08,12,2024,18,KOKV
2024-12-05,5,19:55,EST,W  12,10.0,Fair,CLR,26.6,8.6,,,46%,17.0,,30.11,0.0,,,,2024-12-08,12,2024,19,KOKV
2024-12-05,5,20:55,EST,W  13  G 18,10.0,Fair,CLR,26.6,10.4,,,50%,16.0,,30.11,0.0,,,,2024-12-08,12,2024,20,KOKV
2024-12-05,5,21:55,EST,W  10  G 21,10.0,Partly Cloudy,SCT042,26.6,12.2,,,54%,18.0,,30.12,0.0,,,,2024-12-08,12,2024,21,KOKV
2024-12-05,5,22:55,EST,W  16  G 20,10.0,Mostly Cloudy,BKN038 BKN060,26.6,12.2,,,54%,15.0,,30.12,0.0,,,,2024-12-08,12,2024,22,KOKV
2024-12-05,5,23:55,EST,W  16  G 23,10.0,Mostly Cloudy,BKN038,26.6,14.0,,,59%,15.0,,30.11,0.0,,,,2024-12-08,12,2024,23,KOKV
2024-12-06,6,00:55,EST,W  7  G 23,10.0,Mostly Cloudy,BKN036,26.6,14.0,,,59%,20.0,,30.12,0.0,,,,2024-12-09,12,2024,0,KOKV
2024-12-06,6,01:55,EST,W  13,10.0,Partly Cloudy,SCT034 SCT041,26.6,14.0,,,59%,16.0,,30.13,0.0,,,,2024-12-09,12,2024,1,KOKV
2024-12-06,6,02:55,EST,W  10,10.0,Overcast,BKN035 BKN043 OVC055,26.6,14.0,,,59%,18.0,,30.16,0.0,,,,2024-12-09,12,2024,2,KOKV
2024-12-06,6,03:55,EST,W  12  G 21,10.0,Overcast,BKN035 OVC048,28.4,14.0,,,55%,19.0,,30.16,0.0,,,,2024-12-09,12,2024,3,KOKV
2024-12-06,6,04:55,EST,W  18  G 23,10.0,Mostly Cloudy,SCT032 BKN039 BKN045,26.6,14.0,,,59%,14.0,,30.16,0.0,,,,2024-12-09,12,2024,4,KOKV
2024-12-06,6,05:55,EST,NW  9  G 18,10.0,Partly Cloudy,SCT037 SCT047,26.6,14.0,,,59%,18.0,,30.18,0.0,,,,2024-12-09,12,2024,5,KOKV
2024-12-06,6,06:55,EST,W  10  G 17,10.0,Partly Cloudy,SCT039,26.6,12.2,,,54%,18.0,,30.2,0.0,,,,2024-12-09,12,2024,6,KOKV
2024-12-06,6,07:55,EST,W  12  G 16,10.0,Partly Cloudy,SCT041,26.6,12.2,,,54%,17.0,,30.22,0.0,,,,2024-12-09,12,2024,7,KOKV
2024-12-06,6,08:55,EST,NW  16  G 23,10.0,Fair,CLR,28.4,12.2,,,51%,17.0,,30.23,0.0,,,,2024-12-09,12,2024,8,KOKV
2024-12-06,6,09:55,EST,NW  20  G 28,10.0,Fair,CLR,30.2,12.2,,,47%,19.0,,30.25,0.0,,,,2024-12-09,12,2024,9,KOKV
2024-12-06,6,10:35,EST,NW  17  G 23,10.0,Mostly Cloudy,BKN047,32.0,12.2,,,44%,22.0,,30.24,0.0,,,,2024-12-09,12,2024,10,KOKV
2024-12-06,6,11:55,EST,NW  17  G 24,10.0,Overcast,OVC045,32.0,12.2,,,44%,22.0,,30.24,0.0,,,,2024-12-09,12,2024,11,KOKV
2024-12-06,6,12:55,EST,NW  13  G 22,10.0,Overcast,OVC045,32.0,12.2,,,44%,23.0,,30.23,0.0,,,,2024-12-09,12,2024,12,KOKV
2024-12-06,6,13:55,EST,NW  20  G 25,10.0,Mostly Cloudy,BKN045,30.2,10.4,,,43%,19.0,,30.22,0.0,,,,2024-12-09,12,2024,13,KOKV
2024-12-06,6,14:55,EST,NW  20  G 24,10.0,Partly Cloudy,SCT046,32.0,12.2,,,44%,21.0,,30.21,0.0,,,,2024-12-09,12,2024,14,KOKV
2024-12-06,6,15:55,EST,NW  15,10.0,Partly Cloudy,SCT050,30.2,10.4,,,43%,20.0,,30.21,0.0,,,,2024-12-09,12,2024,15,KOKV
2024-12-06,6,17:55,EST,W  9,10.0,Partly Cloudy,SCT046,28.4,12.2,,,51%,20.0,,30.22,0.0,,,,2024-12-09,12,2024,17,KOKV
2024-12-06,6,18:55,EST,W  8,10.0,Fair,CLR,28.4,12.2,,,51%,21.0,,30.23,0.0,,,,2024-12-09,12,2024,18,KOKV
2024-12-06,6,19:55,EST,W  3,10.0,Fair,CLR,28.4,10.4,,,47%,,,30.22,0.0,,,,2024-12-09,12,2024,19,KOKV
2024-12-06,6,20:55,EST,SW  5,10.0,Fair,CLR,26.6,12.2,,,54%,22.0,,30.22,0.0,,,,2024-12-09,12,2024,20,KOKV
2024-12-06,6,21:55,EST,SW  7,10.0,Fair,CLR,26.6,12.2,,,54%,20.0,,30.2,0.0,,,,2024-12-09,12,2024,21,KOKV
2024-12-06,6,22:55,EST,W  3,10.0,Fair,CLR,24.8,12.2,,,59%,,,30.21,0.0,,,,2024-12-09,12,2024,22,KOKV
2024-12-06,6,23:55,EST,SW  3,10.0,Fair,CLR,24.8,10.4,,,54%,,,30.22,0.0,,,,2024-12-09,12,2024,23,KOKV
2024-12-07,7,00:55,EST,W  5,10.0,Mostly Cloudy,BKN100,24.8,12.2,,,59%,20.0,,30.21,0.0,,,,2024-12-10,12,2024,0,KOKV
2024-12-07,7,01:55,EST,W  6,10.0,Overcast,OVC100,24.8,12.2,,,59%,19.0,,30.21,0.0,,,,2024-12-10,12,2024,1,KOKV
2024-12-07,7,02:55,EST,SW  5,10.0,Mostly Cloudy,BKN090,24.8,12.2,,,59%,20.0,,30.22,0.0,,,,2024-12-10,12,2024,2,KOKV
2024-12-07,7,03:55,EST,SW  7,10.0,Mostly Cloudy,BKN060,26.6,12.2,,,54%,20.0,,30.21,0.0,,,,2024-12-10,12,2024,3,KOKV
2024-12-07,7,04:55,EST,SW  6,10.0,Overcast,OVC050,28.4,12.2,,,51%,23.0,,30.21,0.0,,,,2024-12-10,12,2024,4,KOKV
2024-12-07,7,05:55,EST,W  5,10.0,Overcast,OVC050,28.4,12.2,,,51%,24.0,,30.22,0.0,,,,2024-12-10,12,2024,5,KOKV
2024-12-07,7,06:55,EST,SW  6,10.0,Partly Cloudy,SCT065,26.6,10.4,,,50%,21.0,,30.22,0.0,,,,2024-12-10,12,2024,6,KOKV
2024-12-07,7,07:55,EST,W  7,10.0,Fair,CLR,26.6,10.4,,,50%,20.0,,30.21,0.0,,,,2024-12-10,12,2024,7,KOKV
2024-12-07,7,08:55,EST,SW  3,10.0,Fair,CLR,28.4,12.2,,,51%,,,30.22,0.0,,,,2024-12-10,12,2024,8,KOKV
2024-12-07,7,09:55,EST,SW  5,10.0,Mostly Cloudy,BKN060,32.0,12.2,,,44%,28.0,,30.23,0.0,,,,2024-12-10,12,2024,9,KOKV
2024-12-07,7,10:55,EST,SW  7,10.0,Mostly Cloudy,BKN060,33.8,12.2,,,41%,28.0,,30.22,0.0,,,,2024-12-10,12,2024,10,KOKV
2024-12-07,7,11:15,EST,SW  5,10.0,Fair,CLR,33.8,12.2,,,41%,30.0,,30.21,0.0,,,,2024-12-10,12,2024,11,KOKV
2024-12-07,7,12:35,EST,SW  8,10.0,Fair,CLR,35.6,10.4,,,35%,30.0,,30.17,0.0,,,,2024-12-10,12,2024,12,KOKV
2024-12-07,7,13:55,EST,SW  8,10.0,Mostly Cloudy,BKN055,41.0,10.4,,,28%,36.0,,30.13,0.0,,,,2024-12-10,12,2024,13,KOKV
2024-12-07,7,14:55,EST,SW  8,10.0,Fair,CLR,41.0,10.4,,,28%,36.0,,30.1,0.0,,,,2024-12-10,12,2024,14,KOKV
2024-12-07,7,15:55,EST,SW  7,10.0,Fair,CLR,41.0,10.4,,,28%,37.0,,30.07,0.0,,,,2024-12-10,12,2024,15,KOKV
2024-12-07,7,16:55,EST,S  3,10.0,Fair,CLR,35.6,12.2,,,38%,,,30.07,0.0,,,,2024-12-10,12,2024,16,KOKV
2024-12-07,7,17:55,EST,S  3,10.0,Fair,CLR,35.6,12.2,,,38%,,,30.07,0.0,,,,2024-12-10,12,2024,17,KOKV
2024-12-07,7,18:55,EST,S  3,10.0,Fair,CLR,33.8,12.2,,,41%,,,30.04,0.0,,,,2024-12-10,12,2024,18,KOKV
2024-12-07,7,19:55,EST,S  3,10.0,Fair,CLR,32.0,12.2,,,44%,,,30.03,0.0,,,,2024-12-10,12,2024,19,KOKV
2024-12-07,7,20:55,EST,Calm,10.0,Fair,CLR,32.0,14.0,,,47%,,,30.0,0.0,,,,2024-12-10,12,2024,20,KOKV
2024-12-07,7,21:55,EST,S  3,10.0,Fair,CLR,32.0,14.0,,,47%,,,29.97,0.0,,,,2024-12-10,12,2024,21,KOKV
2024-12-07,7,22:55,EST,SW  6,10.0,Fair,CLR,33.8,17.6,,,51%,29.0,,29.95,0.0,,,,2024-12-10,12,2024,22,KOKV
2024-12-07,7,23:55,EST,SW  7,10.0,Fair,CLR,35.6,19.4,,,52%,31.0,,29.93,0.0,,,,2024-12-10,12,2024,23,KOKV
2024-12-08,8,00:55,EST,SW  7,10.0,Fair,CLR,35.6,19.4,,,52%,31.0,,29.9,0.0,,,,2024-12-11,12,2024,0,KOKV
2024-12-08,8,01:55,EST,SW  7,10.0,Fair,CLR,37.4,19.4,,,48%,33.0,,29.88,0.0,,,,2024-12-11,12,2024,1,KOKV
2024-12-08,8,02:55,EST,SW  9  G 16,10.0,Fair,CLR,41.0,21.2,,,45%,36.0,,29.88,0.0,,,,2024-12-11,12,2024,2,KOKV
2024-12-08,8,03:55,EST,SW  12,10.0,Fair,CLR,42.8,23.0,,,46%,37.0,,29.87,0.0,,,,2024-12-11,12,2024,3,KOKV
2024-12-08,8,04:55,EST,SW  12,10.0,Fair,CLR,42.8,24.8,,,49%,37.0,,29.86,0.0,,,,2024-12-11,12,2024,4,KOKV
2024-12-08,8,05:55,EST,S  5,10.0,Fair,CLR,39.2,24.8,,,56%,36.0,,29.84,0.0,,,,2024-12-11,12,2024,5,KOKV
2024-12-08,8,06:55,EST,SW  9,10.0,Fair,CLR,41.0,26.6,,,57%,36.0,,29.83,0.0,,,,2024-12-11,12,2024,6,KOKV
2024-12-08,8,07:55,EST,SW  6,10.0,Fair,CLR,41.0,26.6,,,57%,38.0,,29.84,0.0,,,,2024-12-11,12,2024,7,KOKV
2024-12-08,8,08:35,EST,SW  9,10.0,Fair,CLR,42.8,26.6,,,53%,38.0,,29.84,0.0,,,,2024-12-11,12,2024,8,KOKV
2024-12-08,8,09:35,EST,SW  10,10.0,Fair,CLR,48.2,28.4,,,46%,44.0,,29.86,0.0,,,,2024-12-11,12,2024,9,KOKV
2024-12-08,8,10:55,EST,SW  10,10.0,Fair,CLR,53.6,28.4,,,38%,,,29.87,0.0,,,,2024-12-11,12,2024,10,KOKV
2024-12-08,8,11:55,EST,SW  7,10.0,Fair,CLR,55.4,30.2,,,38%,,,29.86,0.0,,,,2024-12-11,12,2024,11,KOKV
2024-12-08,8,12:55,EST,SW  8,10.0,Fair,CLR,59.0,30.2,,,34%,,,29.85,0.0,,,,2024-12-11,12,2024,12,KOKV
2024-12-08,8,13:55,EST,W  15  G 18,10.0,Fair,CLR,60.8,32.0,,,34%,,,29.85,0.0,,,,2024-12-11,12,2024,13,KOKV
2024-12-08,8,14:55,EST,W  14  G 22,10.0,Fair,CLR,60.8,32.0,,,34%,,,29.86,0.0,,,,2024-12-11,12,2024,14,KOKV
2024-12-08,8,15:55,EST,W  14  G 25,10.0,Fair,CLR,60.8,32.0,,,34%,,,29.88,0.0,,,,2024-12-11,12,2024,15,KOKV
2024-12-08,8,16:55,EST,W  12,10.0,Fair,CLR,59.0,32.0,,,36%,,,29.91,0.0,,,,2024-12-11,12,2024,16,KOKV
2024-12-08,8,17:55,EST,W  10,10.0,Fair,CLR,55.4,32.0,,,41%,,,29.92,0.0,,,,2024-12-11,12,2024,17,KOKV
2024-12-08,8,18:55,EST,Calm,10.0,Fair,CLR,50.0,32.0,,,50%,,,29.95,0.0,,,,2024-12-11,12,2024,18,KOKV
2024-12-08,8,19:55,EST,W  5,10.0,Fair,CLR,46.4,32.0,,,57%,45.0,,29.95,0.0,,,,2024-12-11,12,2024,19,KOKV
2024-12-08,8,20:55,EST,Calm,10.0,Fair,CLR,46.4,32.0,,,57%,,,29.96,0.0,,,,2024-12-11,12,2024,20,KOKV
2024-12-08,8,21:55,EST,Calm,10.0,Fair,CLR,41.0,30.2,,,66%,,,29.96,0.0,,,,2024-12-11,12,2024,21,KOKV
2024-12-08,8,22:55,EST,Calm,10.0,Fair,CLR,42.8,32.0,,,66%,,,29.96,0.0,,,,2024-12-11,12,2024,22,KOKV
2024-12-08,8,23:55,EST,Calm,10.0,Fair,CLR,39.2,32.0,,,75%,,,29.95,0.0,,,,2024-12-11,12,2024,23,KOKV
2024-12-09,9,00:55,EST,Calm,10.0,Fair,CLR,37.4,32.0,,,81%,,,29.93,0.0,,,,2024-12-12,12,2024,0,KOKV
2024-12-09,9,01:55,EST,Calm,10.0,Fair,CLR,37.4,32.0,,,81%,,,29.94,0.0,,,,2024-12-12,12,2024,1,KOKV
2024-12-09,9,02:55,EST,S  3,10.0,Fair,CLR,41.0,33.8,,,76%,,,29.94,0.0,,,,2024-12-12,12,2024,2,KOKV
2024-12-09,9,03:55,EST,SE  3,10.0,Mostly Cloudy,BKN100,37.4,33.8,,,87%,,,29.93,0.0,,,,2024-12-12,12,2024,3,KOKV
2024-12-09,9,04:55,EST,SW  5,10.0,Fair,CLR,44.6,37.4,,,76%,43.0,,29.91,0.0,,,,2024-12-12,12,2024,4,KOKV
2024-12-09,9,05:55,EST,Calm,10.0,Mostly Cloudy,SCT080 BKN120,41.0,35.6,,,81%,,,29.89,0.0,,,,2024-12-12,12,2024,5,KOKV
2024-12-09,9,06:55,EST,SW  6,10.0,Overcast,SCT060 SCT075 OVC090,46.4,37.4,,,71%,44.0,,29.91,0.0,,,,2024-12-12,12,2024,6,KOKV
2024-12-09,9,07:55,EST,Calm,5.0,Overcast,BKN038 OVC050,44.6,41.0,,,87%,,,29.9,0.0,,,,2024-12-12,12,2024,7,KOKV
2024-12-09,9,08:35,EST,SE  5,5.0,Overcast,BKN035 BKN044 OVC085,42.8,41.0,,,93%,41.0,,29.9,0.0,,,,2024-12-12,12,2024,8,KOKV
2024-12-09,9,09:55,EST,Calm,5.0,Overcast,SCT025 SCT048 OVC065,44.6,42.8,,,93%,,,29.87,0.0,,,,2024-12-12,12,2024,9,KOKV
2024-12-09,9,10:55,EST,S  5,10.0,Overcast,SCT065 BKN080 OVC110,48.2,46.4,,,94%,47.0,,29.85,0.0,,,,2024-12-12,12,2024,10,KOKV
2024-12-09,9,11:55,EST,S  6,10.0,Overcast,SCT007 BKN100 OVC120,53.6,50.0,,,88%,,,29.81,0.0,,,,2024-12-12,12,2024,11,KOKV
2024-12-09,9,12:55,EST,SW  10  G 18,10.0,Partly Cloudy,SCT110,57.2,50.0,,,77%,,,29.81,0.0,,,,2024-12-12,12,2024,12,KOKV
2024-12-09,9,13:55,EST,SW  9,10.0,Overcast,SCT049 OVC060,59.0,50.0,,,72%,,,29.8,0.0,,,,2024-12-12,12,2024,13,KOKV
2024-12-09,9,14:55,EST,W  6,10.0,Partly Cloudy,SCT047,62.6,50.0,,,64%,,,29.82,0.0,,,,2024-12-12,12,2024,14,KOKV
2024-12-09,9,15:55,EST,Calm,10.0,Fair,CLR,60.8,50.0,,,68%,,,29.83,0.0,,,,2024-12-12,12,2024,15,KOKV
2024-12-09,9,16:55,EST,NE  5,10.0,Overcast,SCT060 OVC065,53.6,50.0,,,88%,,,29.86,0.0,,,,2024-12-12,12,2024,16,KOKV
2024-12-09,9,17:55,EST,Calm,10.0,Mostly Cloudy,BKN070,51.8,48.2,,,88%,,,29.89,0.0,,,,2024-12-12,12,2024,17,KOKV
2024-12-09,9,18:55,EST,Calm,5.0,Mostly Cloudy,BKN070,46.4,44.6,,,93%,,,29.9,0.0,,,,2024-12-12,12,2024,18,KOKV
2024-12-09,9,19:55,EST,Calm,10.0,Overcast,OVC070,50.0,46.4,,,88%,,,29.92,0.0,,,,2024-12-12,12,2024,19,KOKV
2024-12-09,9,20:55,EST,Calm,10.0,Mostly Cloudy,BKN060,46.4,46.4,,,100%,,,29.92,0.0,,,,2024-12-12,12,2024,20,KOKV
2024-12-09,9,21:55,EST,Calm,10.0,Overcast,OVC060,46.4,44.6,,,93%,,,29.93,0.0,,,,2024-12-12,12,2024,21,KOKV
2024-12-09,9,22:55,EST,Calm,10.0,Overcast,OVC060,46.4,44.6,,,93%,,,29.94,0.0,,,,2024-12-12,12,2024,22,KOKV
2024-12-09,9,23:55,EST,Calm,10.0,Fair,CLR,46.4,42.8,,,87%,,,29.95,0.0,,,,2024-12-12,12,2024,23,KOKV
2024-12-10,10,00:55,EST,SW  5,10.0,Mostly Cloudy,SCT050 BKN065,46.4,42.8,,,87%,45.0,,29.95,0.0,,,,2024-12-13,12,2024,0,KOKV
2024-12-10,10,01:55,EST,SW  3,10.0,Overcast,SCT050 OVC065,50.0,44.6,,,82%,,,29.95,0.0,,,,2024-12-13,12,2024,1,KOKV
2024-12-10,10,02:55,EST,SW  3,10.0,Mostly Cloudy,BKN065,50.0,44.6,,,82%,,,29.96,0.0,,,,2024-12-13,12,2024,2,KOKV
2024-12-10,10,03:55,EST,SW  3,10.0,Fair,CLR,44.6,42.8,,,93%,,,29.94,0.0,,,,2024-12-13,12,2024,3,KOKV
2024-12-10,10,04:55,EST,W  3,10.0,Fair,CLR,46.4,42.8,,,87%,,,29.95,0.0,,,,2024-12-13,12,2024,4,KOKV
2024-12-10,10,05:55,EST,Calm,7.0,Fair,CLR,42.8,41.0,,,93%,,,29.95,0.0,,,,2024-12-13,12,2024,5,KOKV
2024-12-10,10,06:55,EST,Calm,0.5,Mostly Cloudy,BKN003 BKN060,39.2,37.4,,,93%,,,29.97,0.0,,,,2024-12-13,12,2024,6,KOKV
2024-12-10,10,07:55,EST,Calm,7.0,Overcast,OVC060,41.0,41.0,,,100%,,,29.98,0.0,,,,2024-12-13,12,2024,7,KOKV
2024-12-10,10,08:55,EST,S  3,10.0,Fair,CLR,48.2,44.6,,,87%,,,29.98,0.0,,,,2024-12-13,12,2024,8,KOKV
2024-12-10,10,09:55,EST,Calm,10.0,Fair,CLR,51.8,44.6,,,77%,,,29.98,0.0,,,,2024-12-13,12,2024,9,KOKV
2024-12-10,10,10:55,EST,S  3,10.0,Fair,CLR,55.4,46.4,,,72%,,,29.96,0.0,,,,2024-12-13,12,2024,10,KOKV
2024-12-10,10,11:55,EST,Calm,10.0,Mostly Cloudy,BKN110,55.4,46.4,,,72%,,,29.92,0.0,,,,2024-12-13,12,2024,11,KOKV
2024-12-10,10,12:55,EST,E  6,10.0,Overcast,OVC080,55.4,46.4,,,72%,,,29.9,0.0,,,,2024-12-13,12,2024,12,KOKV
2024-12-10,10,13:55,EST,E  7,10.0,Overcast,BKN065 BKN075 OVC090,51.8,46.4,,,82%,,,29.89,0.0,,,,2024-12-13,12,2024,13,KOKV
2024-12-10,10,14:55,EST,E  5,10.0,Overcast,SCT060 OVC075,50.0,44.6,,,82%,49.0,,29.88,0.0,,,,2024-12-13,12,2024,14,KOKV
2024-12-10,10,15:55,EST,E  5,10.0,Mostly Cloudy,SCT005 SCT035 BKN085,48.2,46.4,,,94%,47.0,,29.88,0.0,,,,2024-12-13,12,2024,15,KOKV
2024-12-10,10,16:55,EST,Calm,5.0,Partly Cloudy,SCT005,46.4,44.6,,,93%,,,29.88,0.0,,,,2024-12-13,12,2024,16,KOKV
2024-12-10,10,17:55,EST,Calm,5.0,Partly Cloudy,SCT029,44.6,42.8,,,93%,,,29.87,0.0,,,,2024-12-13,12,2024,17,KOKV
2024-12-10,10,18:55,EST,Calm,7.0,Fair,CLR,44.6,44.6,,,100%,,,29.86,0.0,,,,2024-12-13,12,2024,18,KOKV
2024-12-10,10,19:55,EST,Calm,7.0,Fair,CLR,44.6,44.6,,,100%,,,29.86,0.0,,,,2024-12-13,12,2024,19,KOKV
2024-12-10,10,20:55,EST,SE  3,10.0,Overcast,OVC090,46.4,46.4,,,100%,,,29.84,0.0,,,,2024-12-13,12,2024,20,KOKV
2024-12-10,10,21:55,EST,Calm,10.0,Overcast,BKN030 OVC043,50.0,48.2,,,94%,,,29.83,0.0,,,,2024-12-13,12,2024,21,KOKV
2024-12-10,10,22:55,EST,Calm,7.0,Mostly Cloudy,BKN021 BKN026 BKN095,46.4,46.4,,,100%,,,29.81,0.0,,,,2024-12-13,12,2024,22,KOKV
2024-12-10,10,23:55,EST,NW  5,5.0,Partly Cloudy,SCT026 SCT120,46.4,46.4,,,100%,45.0,,29.78,0.0,,,,2024-12-13,12,2024,23,KOKV
2024-12-11,11,00:55,EST,Calm,5.0,Overcast,BKN100 OVC120,46.4,46.4,,,100%,,,29.76,0.0,,,,2024-12-14,12,2024,0,KOKV
2024-12-11,11,01:55,EST,N  3,5.0,Overcast,SCT038 BKN046 OVC070,48.2,46.4,,,94%,,,29.73,0.0,,,,2024-12-14,12,2024,1,KOKV
2024-12-11,11,02:55,EST,Calm,4.0,Overcast,SCT034 BKN047 OVC100,46.4,46.4,,,100%,,,29.71,0.0,,,,2024-12-14,12,2024,2,KOKV
2024-12-11,11,03:55,EST,Calm,3.0,Overcast,OVC100,48.2,46.4,,,94%,,,29.67,0.0,,,,2024-12-14,12,2024,3,KOKV
2024-12-11,11,04:55,EST,NW  6,2.0,Overcast,SCT002 SCT019 OVC024,50.0,48.2,,,94%,48.0,,29.67,0.0,,,,2024-12-14,12,2024,4,KOKV
2024-12-11,11,05:55,EST,NW  3,4.0,Overcast,SCT005 BKN017 OVC023,50.0,50.0,,,100%,,,29.64,0.0,,,,2024-12-14,12,2024,5,KOKV
2024-12-11,11,06:55,EST,E  3,4.0,Overcast,SCT013 BKN022 OVC034,51.8,50.0,,,94%,,,0.0,0.0,,,,2024-12-14,12,2024,6,KOKV
2024-12-11,11,07:55,EST,Calm,3.0,Overcast,OVC020,51.8,50.0,,,94%,,,0.0,0.0,,,,2024-12-14,12,2024,7,KOKV
2024-12-11,11,08:55,EST,W  10,4.0,Overcast,SCT008 BKN014 OVC022,50.0,50.0,,,100%,46.0,,29.66,0.0,,,,2024-12-14,12,2024,8,KOKV
2024-12-11,11,09:55,EST,NW  8,7.0,Overcast,SCT019 OVC029,50.0,46.4,,,88%,47.0,,29.61,0.0,,,,2024-12-14,12,2024,9,KOKV
2024-12-11,11,10:55,EST,Calm,5.0,Overcast,SCT007 BKN040 OVC065,50.0,48.2,,,94%,,,29.59,0.0,,,,2024-12-14,12,2024,10,KOKV
2024-12-11,11,11:55,EST,N  5,10.0,Overcast,OVC006,48.2,48.2,,,100%,47.0,,0.0,0.0,,,,2024-12-14,12,2024,11,KOKV
2024-12-11,11,12:55,EST,NW  10  G 18,2.5,Overcast,SCT011 BKN031 OVC041,46.4,46.4,,,100%,42.0,,29.52,0.0,,,,2024-12-14,12,2024,12,KOKV
2024-12-11,11,13:55,EST,NW  21  G 33,5.0,Overcast and Breezy,BKN013 BKN020 OVC055,44.6,41.0,,,87%,37.0,,0.0,0.0,,,,2024-12-14,12,2024,13,KOKV
2024-12-11,11,14:55,EST,NW  21  G 28,10.0,Overcast and Breezy,SCT049 BKN070 OVC075,39.2,35.6,,,87%,30.0,,29.59,0.0,,,,2024-12-14,12,2024,14,KOKV
2024-12-11,11,15:55,EST,NW  18  G 25,10.0,Overcast,SCT028 OVC055,39.2,33.8,,,81%,31.0,,0.0,0.0,,,,2024-12-14,12,2024,15,KOKV
2024-12-11,11,16:55,EST,W  16  G 22,10.0,Overcast,OVC030,39.2,32.0,,,75%,31.0,,0.0,0.0,,,,2024-12-14,12,2024,16,KOKV
2024-12-11,11,17:35,EST,W  17  G 26,10.0,Overcast,SCT034 BKN042 OVC100,37.4,28.4,,,70%,29.0,,0.0,0.0,,,,2024-12-14,12,2024,17,KOKV
2024-12-11,11,18:55,EST,NW  18  G 29,10.0,Overcast,BKN042 OVC048,35.6,26.6,,,70%,26.0,,29.77,0.0,,,,2024-12-14,12,2024,18,KOKV
2024-12-11,11,19:55,EST,W  21  G 25,10.0,Overcast and Breezy,BKN040 OVC046,33.8,24.8,,,70%,23.0,,29.84,0.0,,,,2024-12-14,12,2024,19,KOKV
2024-12-11,11,20:55,EST,W  17  G 33,10.0,Mostly Cloudy,BKN042,33.8,21.2,,,60%,24.0,,29.89,0.0,,,,2024-12-14,12,2024,20,KOKV
2024-12-11,11,21:55,EST,W  20  G 43,10.0,Overcast,BKN041 OVC047,32.0,21.2,,,64%,21.0,,29.94,0.0,,,,2024-12-14,12,2024,21,KOKV
2024-12-11,11,22:55,EST,W  10  G 24,10.0,Mostly Cloudy,BKN043,32.0,19.4,,,60%,24.0,,29.95,0.0,,,,2024-12-14,12,2024,22,KOKV
2024-12-11,11,23:55,EST,W  9,10.0,Partly Cloudy,SCT055,32.0,19.4,,,60%,25.0,,29.95,0.0,,,,2024-12-14,12,2024,23,KOKV
2024-12-12,12,00:55,EST,SW  5,10.0,Partly Cloudy,SCT047,32.0,19.4,,,60%,28.0,,29.96,0.0,,,,2024-12-15,12,2024,0,KOKV
2024-12-12,12,01:55,EST,W  12,10.0,Overcast,SCT048 OVC060,32.0,21.2,,,64%,24.0,,29.98,0.0,,,,2024-12-15,12,2024,1,KOKV
2024-12-12,12,02:55,EST,SW  8,10.0,Overcast,BKN050 OVC060,33.8,21.2,,,60%,28.0,,30.01,0.0,,,,2024-12-15,12,2024,2,KOKV
2024-12-12,12,03:55,EST,W  8,10.0,Mostly Cloudy,SCT049 BKN060,32.0,23.0,,,69%,25.0,,30.03,0.0,,,,2024-12-15,12,2024,3,KOKV
2024-12-12,12,04:55,EST,W  12  G 26,10.0,Overcast,SCT048 OVC050,33.8,17.6,,,51%,26.0,,30.04,0.0,,,,2024-12-15,12,2024,4,KOKV
2024-12-12,12,05:55,EST,SW  6,10.0,Overcast,OVC060,32.0,17.6,,,55%,27.0,,30.07,0.0,,,,2024-12-15,12,2024,5,KOKV
2024-12-12,12,06:55,EST,SW  6,10.0,Mostly Cloudy,BKN060,32.0,17.6,,,55%,27.0,,30.1,0.0,,,,2024-12-15,12,2024,6,KOKV
2024-12-12,12,07:35,EST,S  5,10.0,Mostly Cloudy,BKN060,32.0,17.6,,,55%,28.0,,30.13,0.0,,,,2024-12-15,12,2024,7,KOKV
2024-12-12,12,08:55,EST,W  5,10.0,Fair,CLR,33.8,17.6,,,51%,30.0,,30.16,0.0,,,,2024-12-15,12,2024,8,KOKV
2024-12-12,12,09:55,EST,SW  10,10.0,Fair,CLR,35.6,15.8,,,44%,29.0,,30.19,0.0,,,,2024-12-15,12,2024,9,KOKV
2024-12-12,12,10:55,EST,W  17,10.0,Fair,CLR,37.4,8.6,,,30%,29.0,,30.21,0.0,,,,2024-12-15,12,2024,10,KOKV
2024-12-12,12,11:55,EST,W  14  G 22,10.0,Fair,CLR,37.4,5.0,,,26%,30.0,,30.21,0.0,,,,2024-12-15,12,2024,11,KOKV
2024-12-12,12,12:55,EST,W  14  G 24,10.0,Fair,CLR,37.4,5.0,,,26%,30.0,,30.22,0.0,,,,2024-12-15,12,2024,12,KOKV
2024-12-12,12,13:55,EST,W  17  G 23,10.0,Fair,CLR,39.2,6.8,,,26%,31.0,,30.23,0.0,,,,2024-12-15,12,2024,13,KOKV
2024-12-12,12,14:55,EST,W  12  G 20,10.0,Fair,CLR,37.4,5.0,,,26%,30.0,,30.25,0.0,,,,2024-12-15,12,2024,14,KOKV
2024-12-12,12,15:55,EST,W  12  G 17,10.0,Fair,CLR,37.4,6.8,,,28%,30.0,,30.28,0.0,,,,2024-12-15,12,2024,15,KOKV
2024-12-12,12,16:55,EST,NW  8,10.0,Fair,CLR,32.0,10.4,,,40%,25.0,,30.31,0.0,,,,2024-12-15,12,2024,16,KOKV
2024-12-12,12,17:55,EST,NW  5,10.0,Fair,CLR,32.0,10.4,,,40%,28.0,,30.34,0.0,,,,2024-12-15,12,2024,17,KOKV
2024-12-12,12,18:55,EST,NW  3,10.0,Fair,CLR,32.0,10.4,,,40%,,,30.37,0.0,,,,2024-12-15,12,2024,18,KOKV
2024-12-12,12,19:55,EST,NW  6,10.0,Fair,CLR,32.0,8.6,,,37%,27.0,,30.38,0.0,,,,2024-12-15,12,2024,19,KOKV
2024-12-12,12,20:55,EST,N  5,10.0,Fair,CLR,32.0,8.6,,,37%,28.0,,30.39,0.0,,,,2024-12-15,12,2024,20,KOKV
2024-12-12,12,21:55,EST,S  5,10.0,Fair,CLR,26.6,12.2,,,54%,22.0,,30.4,0.0,,,,2024-12-15,12,2024,21,KOKV
2024-12-12,12,22:55,EST,Calm,10.0,Fair,CLR,26.6,14.0,,,59%,,,30.42,0.0,,,,2024-12-15,12,2024,22,KOKV
2024-12-12,12,23:55,EST,Calm,10.0,Fair,CLR,24.8,14.0,,,63%,,,30.43,0.0,,,,2024-12-15,12,2024,23,KOKV
2024-12-13,13,00:55,EST,Calm,10.0,Mostly Cloudy,BKN065,26.6,14.0,,,59%,,,30.44,0.0,,,,2024-12-16,12,2024,0,KOKV
2024-12-13,13,01:55,EST,Calm,10.0,Overcast,OVC065,24.8,14.0,,,63%,,,30.45,0.0,,,,2024-12-16,12,2024,1,KOKV
2024-12-13,13,02:55,EST,Calm,10.0,Mostly Cloudy,BKN065,23.0,17.6,,,80%,,,30.47,0.0,,,,2024-12-16,12,2024,2,KOKV
2024-12-13,13,03:55,EST,Calm,10.0,Overcast,OVC065,26.6,21.2,,,80%,,,30.48,0.0,,,,2024-12-16,12,2024,3,KOKV
2024-12-13,13,04:55,EST,Calm,10.0,Overcast,OVC065,28.4,21.2,,,74%,,,30.49,0.0,,,,2024-12-16,12,2024,4,KOKV
2024-12-13,13,05:55,EST,Calm,10.0,Overcast,OVC055,28.4,19.4,,,69%,,,30.52,0.0,,,,2024-12-16,12,2024,5,KOKV
2024-12-13,13,06:55,EST,NE  3,10.0,Overcast,OVC055,28.4,15.8,,,59%,,,30.55,0.0,,,,2024-12-16,12,2024,6,KOKV
2024-12-13,13,07:55,EST,NE  3,10.0,Overcast,OVC055,28.4,12.2,,,51%,,,30.58,0.0,,,,2024-12-16,12,2024,7,KOKV
2024-12-13,13,08:55,EST,Calm,10.0,Overcast,OVC055,28.4,12.2,,,51%,,,30.61,0.0,,,,2024-12-16,12,2024,8,KOKV
2024-12-13,13,09:55,EST,N  3,10.0,Overcast,OVC055,30.2,12.2,,,47%,,,30.64,0.0,,,,2024-12-16,12,2024,9,KOKV
2024-12-13,13,10:55,EST,NE  5,10.0,Overcast,OVC055,30.2,14.0,,,51%,26.0,,30.65,0.0,,,,2024-12-16,12,2024,10,KOKV
2024-12-13,13,11:35,EST,NE  3,10.0,Overcast,OVC055,32.0,14.0,,,47%,,,30.64,0.0,,,,2024-12-16,12,2024,11,KOKV
2024-12-13,13,12:55,EST,NE  5,10.0,Overcast,OVC055,32.0,14.0,,,47%,28.0,,30.63,0.0,,,,2024-12-16,12,2024,12,KOKV
2024-12-13,13,13:55,EST,NE  3,10.0,Overcast,OVC055,32.0,14.0,,,47%,,,30.62,0.0,,,,2024-12-16,12,2024,13,KOKV
2024-12-13,13,14:55,EST,NE  3,10.0,Overcast,OVC055,32.0,15.8,,,51%,,,30.63,0.0,,,,2024-12-16,12,2024,14,KOKV
2024-12-13,13,15:55,EST,Calm,10.0,Overcast,OVC055,32.0,17.6,,,55%,,,30.65,0.0,,,,2024-12-16,12,2024,15,KOKV
2024-12-13,13,16:55,EST,NE  3,10.0,Partly Cloudy,SCT050,32.0,17.6,,,55%,,,30.66,0.0,,,,2024-12-16,12,2024,16,KOKV
2024-12-13,13,17:55,EST,Calm,10.0,Fair,CLR,28.4,17.6,,,64%,,,30.68,0.0,,,,2024-12-16,12,2024,17,KOKV
2024-12-13,13,18:55,EST,Calm,10.0,Fair,CLR,28.4,19.4,,,69%,,,30.7,0.0,,,,2024-12-16,12,2024,18,KOKV
2024-12-13,13,19:55,EST,Calm,10.0,Fair,CLR,26.6,19.4,,,74%,,,30.71,0.0,,,,2024-12-16,12,2024,19,KOKV
2024-12-13,13,20:55,EST,Calm,10.0,Fair,CLR,26.6,19.4,,,74%,,,30.73,0.0,,,,2024-12-16,12,2024,20,KOKV
2024-12-13,13,21:55,EST,Calm,10.0,Fair,CLR,24.8,19.4,,,80%,,,30.74,0.0,,,,2024-12-16,12,2024,21,KOKV
2024-12-13,13,22:55,EST,Calm,10.0,Fair,CLR,23.0,19.4,,,86%,,,30.76,0.0,,,,2024-12-16,12,2024,22,KOKV
2024-12-13,13,23:55,EST,Calm,10.0,Fair,CLR,23.0,19.4,,,86%,,,30.76,0.0,,,,2024-12-16,12,2024,23,KOKV
2024-12-14,14,00:55,EST,Calm,10.0,Fair,CLR,23.0,19.4,,,86%,,,30.76,0.0,,,,2024-12-17,12,2024,0,KOKV
2024-12-14,14,01:55,EST,Calm,10.0,Fair,CLR,23.0,19.4,,,86%,,,30.77,0.0,,,,2024-12-17,12,2024,1,KOKV
2024-12-14,14,02:55,EST,Calm,10.0,Fair,CLR,21.2,19.4,,,93%,,,30.79,0.0,,,,2024-12-17,12,2024,2,KOKV
2024-12-14,14,03:55,EST,Calm,10.0,Fair,CLR,23.0,19.4,,,86%,,,30.79,0.0,,,,2024-12-17,12,2024,3,KOKV
2024-12-14,14,04:55,EST,Calm,10.0,Fair,CLR,21.2,17.6,,,86%,,,30.8,0.0,,,,2024-12-17,12,2024,4,KOKV
2024-12-14,14,05:55,EST,Calm,10.0,Fair,CLR,21.2,17.6,,,86%,,,30.82,0.0,,,,2024-12-17,12,2024,5,KOKV
2024-12-14,14,06:55,EST,Calm,10.0,Fair,CLR,21.2,17.6,,,86%,,,30.84,0.0,,,,2024-12-17,12,2024,6,KOKV
2024-12-14,14,07:55,EST,Calm,10.0,Fair,CLR,21.2,15.8,,,80%,,,30.86,0.0,,,,2024-12-17,12,2024,7,KOKV
2024-12-14,14,08:55,EST,NE  3,10.0,Fair,CLR,26.6,17.6,,,69%,,,30.87,0.0,,,,2024-12-17,12,2024,8,KOKV
2024-12-14,14,09:55,EST,E  5,10.0,Fair,CLR,30.2,17.6,,,59%,26.0,,30.88,0.0,,,,2024-12-17,12,2024,9,KOKV
2024-12-14,14,10:55,EST,E  5,10.0,Fair,CLR,32.0,17.6,,,55%,28.0,,30.87,0.0,,,,2024-12-17,12,2024,10,KOKV
2024-12-14,14,11:55,EST,E  3,10.0,Fair,CLR,32.0,14.0,,,47%,,,30.84,0.0,,,,2024-12-17,12,2024,11,KOKV
2024-12-14,14,12:55,EST,Calm,10.0,Fair,CLR,33.8,14.0,,,44%,,,30.82,0.0,,,,2024-12-17,12,2024,12,KOKV
2024-12-14,14,13:55,EST,SE  6,10.0,Fair,CLR,35.6,17.6,,,48%,31.0,,30.8,0.0,,,,2024-12-17,12,2024,13,KOKV
2024-12-14,14,14:55,EST,SE  5,10.0,Fair,CLR,35.6,17.6,,,48%,32.0,,30.78,0.0,,,,2024-12-17,12,2024,14,KOKV
2024-12-14,14,15:55,EST,SE  6,10.0,Fair,CLR,33.8,17.6,,,51%,29.0,,30.77,0.0,,,,2024-12-17,12,2024,15,KOKV
2024-12-14,14,16:55,EST,E  3,10.0,Fair,CLR,32.0,17.6,,,55%,,,30.77,0.0,,,,2024-12-17,12,2024,16,KOKV
2024-12-14,14,17:55,EST,Calm,10.0,Fair,CLR,28.4,19.4,,,69%,,,30.78,0.0,,,,2024-12-17,12,2024,17,KOKV
2024-12-14,14,18:55,EST,Calm,10.0,Fair,CLR,28.4,17.6,,,64%,,,30.78,0.0,,,,2024-12-17,12,2024,18,KOKV
2024-12-14,14,19:55,EST,Calm,10.0,Fair,CLR,26.6,17.6,,,69%,,,30.78,0.0,,,,2024-12-17,12,2024,19,KOKV
2024-12-14,14,20:55,EST,E  3,10.0,Fair,CLR,28.4,17.6,,,64%,,,30.78,0.0,,,,2024-12-17,12,2024,20,KOKV
2024-12-14,14,21:55,EST,E  5,10.0,Fair,CLR,28.4,19.4,,,69%,24.0,,30.78,0.0,,,,2024-12-17,12,2024,21,KOKV
2024-12-14,14,22:55,EST,E  3,10.0,Fair,CLR,28.4,19.4,,,69%,,,30.77,0.0,,,,2024-12-17,12,2024,22,KOKV
2024-12-14,14,23:55,EST,Calm,10.0,Fair,CLR,26.6,19.4,,,74%,,,30.77,0.0,,,,2024-12-18,12,2024,23,KOKV
2024-12-15,15,00:55,EST,Calm,10.0,Fair,CLR,28.4,21.2,,,74%,,,30.76,0.0,,,,2024-12-18,12,2024,0,KOKV
2024-12-15,15,01:55,EST,E  5,10.0,Overcast,OVC028,28.4,23.0,,,80%,24.0,,30.75,0.0,,,,2024-12-18,12,2024,1,KOKV
2024-12-15,15,02:55,EST,Calm,10.0,Overcast,BKN022 OVC028,28.4,23.0,,,80%,,,30.75,0.0,,,,2024-12-18,12,2024,2,KOKV
2024-12-15,15,03:55,EST,Calm,10.0,Overcast,OVC022,30.2,26.6,,,86%,,,30.73,0.0,,,,2024-12-18,12,2024,3,KOKV
2024-12-15,15,04:55,EST,Calm,10.0,Overcast,OVC024,30.2,26.6,,,86%,,,30.72,0.0,,,,2024-12-18,12,2024,4,KOKV
2024-12-15,15,05:55,EST,Calm,10.0,Overcast,OVC026,30.2,26.6,,,86%,,,30.71,0.0,,,,2024-12-18,12,2024,5,KOKV
2024-12-15,15,06:55,EST,Calm,10.0,Overcast,OVC026,30.2,26.6,,,86%,,,30.7,0.0,,,,2024-12-18,12,2024,6,KOKV
2024-12-15,15,07:55,EST,Calm,10.0,Overcast,OVC026,32.0,26.6,,,80%,,,30.7,0.0,,,,2024-12-18,12,2024,7,KOKV
2024-12-15,15,08:55,EST,SE  3,10.0,Overcast,OVC026,32.0,24.8,,,75%,,,30.7,0.0,,,,2024-12-18,12,2024,8,KOKV
2024-12-15,15,09:55,EST,SE  5,10.0,Overcast,OVC030,32.0,26.6,,,80%,28.0,,30.7,0.0,,,,2024-12-18,12,2024,9,KOKV
2024-12-15,15,10:55,EST,Calm,7.0,Overcast,OVC026,32.0,26.6,,,80%,,,30.68,0.0,,,,2024-12-18,12,2024,10,KOKV
2024-12-15,15,11:55,EST,Calm,4.0,Overcast,OVC026,32.0,26.6,,,80%,,,30.65,0.0,,,,2024-12-18,12,2024,11,KOKV
2024-12-15,15,12:55,EST,Calm,2.5,Overcast,OVC026,32.0,28.4,,,87%,,,30.62,0.0,,,,2024-12-18,12,2024,12,KOKV
2024-12-15,15,13:55,EST,Calm,4.0,Overcast,SCT019 BKN039 OVC055,32.0,30.2,,,93%,,,30.59,0.0,,,,2024-12-18,12,2024,13,KOKV
2024-12-15,15,14:55,EST,E  3,1.25,Overcast,SCT007 OVC015,32.0,30.2,,,93%,,,30.58,0.0,,,,2024-12-18,12,2024,14,KOKV
2024-12-15,15,15:55,EST,Calm,5.0,Overcast,SCT003 OVC012,32.0,30.2,,,93%,,,30.56,0.0,,,,2024-12-18,12,2024,15,KOKV
2024-12-15,15,16:55,EST,Calm,4.0,Overcast,OVC014,32.0,30.2,,,93%,,,30.55,0.0,,,,2024-12-18,12,2024,16,KOKV
2024-12-15,15,17:55,EST,Calm,5.0,Overcast,OVC016,32.0,30.2,,,93%,,,30.54,0.0,,,,2024-12-18,12,2024,17,KOKV
2024-12-15,15,18:55,EST,Calm,4.0,Overcast,OVC016,32.0,32.0,,,100%,,,30.54,0.0,,,,2024-12-18,12,2024,18,KOKV
2024-12-15,15,19:55,EST,Calm,3.0,Overcast,BKN016 OVC021,32.0,32.0,,,100%,,,30.53,0.0,,,,2024-12-18,12,2024,19,KOKV
2024-12-15,15,20:55,EST,Calm,2.0,Overcast,OVC017,32.0,32.0,,,100%,,,30.5,0.0,,,,2024-12-18,12,2024,20,KOKV
2024-12-15,15,21:55,EST,Calm,1.75,Overcast,OVC013,32.0,32.0,,,100%,,,30.48,0.0,,,,2024-12-18,12,2024,21,KOKV
2024-12-15,15,22:55,EST,Calm,2.0,Overcast,OVC011,32.0,32.0,,,100%,,,30.48,0.0,,,,2024-12-18,12,2024,22,KOKV
2024-12-15,15,23:55,EST,Calm,1.5,Overcast,OVC003,32.0,32.0,,,100%,,,30.46,0.0,,,,2024-12-18,12,2024,23,KOKV
2024-12-16,16,00:55,EST,Calm,1.5,Overcast,OVC003,32.0,32.0,,,100%,,,30.44,0.0,,,,2024-12-19,12,2024,0,KOKV
2024-12-16,16,01:55,EST,Calm,1.5,Overcast,OVC003,32.0,32.0,,,100%,,,30.43,0.0,,,,2024-12-19,12,2024,1,KOKV
2024-12-16,16,02:55,EST,Calm,1.25,Overcast,OVC003,32.0,32.0,,,100%,,,30.42,0.0,,,,2024-12-19,12,2024,2,KOKV
2024-12-16,16,03:55,EST,Calm,0.5,Overcast,OVC003,32.0,32.0,,,100%,,,30.4,0.0,,,,2024-12-19,12,2024,3,KOKV
2024-12-16,16,04:55,EST,Calm,0.25,Overcast,OVC003,32.0,32.0,,,100%,,,30.4,0.0,,,,2024-12-19,12,2024,4,KOKV
2024-12-16,16,05:55,EST,Calm,0.5,Overcast,OVC003,32.0,32.0,,,100%,,,30.38,0.0,,,,2024-12-19,12,2024,5,KOKV
2024-12-16,16,06:55,EST,Calm,0.25,Overcast,OVC003,32.0,32.0,,,100%,,,30.38,0.0,,,,2024-12-19,12,2024,6,KOKV
2024-12-16,16,07:55,EST,Calm,0.25,Overcast,OVC003,32.0,32.0,,,100%,,,30.38,0.0,,,,2024-12-19,12,2024,7,KOKV
2024-12-16,16,08:55,EST,Calm,0.25,Overcast,OVC003,32.0,32.0,,,100%,,,30.37,0.0,,,,2024-12-19,12,2024,8,KOKV
2024-12-16,16,09:55,EST,Calm,1.25,Overcast,OVC003,33.8,32.0,,,93%,,,30.37,0.0,,,,2024-12-19,12,2024,9,KOKV
2024-12-16,16,10:55,EST,Calm,1.0,Overcast,OVC003,33.8,33.8,,,100%,,,30.35,0.0,,,,2024-12-19,12,2024,10,KOKV
2024-12-16,16,11:55,EST,Calm,1.5,Overcast,OVC003,35.6,35.6,,,100%,,,30.32,0.0,,,,2024-12-19,12,2024,11,KOKV
2024-12-16,16,12:55,EST,SE  3,4.0,Overcast,OVC003,35.6,35.6,,,100%,,,30.27,0.0,,,,2024-12-19,12,2024,12,KOKV
2024-12-16,16,13:55,EST,Calm,3.0,Overcast,OVC003,37.4,35.6,,,93%,,,30.25,0.0,,,,2024-12-19,12,2024,13,KOKV
2024-12-16,16,14:55,EST,Calm,1.5,Overcast,OVC003,37.4,37.4,,,100%,,,30.24,0.0,,,,2024-12-19,12,2024,14,KOKV
2024-12-16,16,15:55,EST,Calm,0.75,Overcast,OVC003,37.4,37.4,,,100%,,,30.2,0.0,,,,2024-12-19,12,2024,15,KOKV
2024-12-16,16,16:55,EST,Calm,4.0,Overcast,OVC003,37.4,37.4,,,100%,,,30.2,0.0,,,,2024-12-19,12,2024,16,KOKV
2024-12-16,16,17:55,EST,Calm,3.0,Overcast,OVC005,37.4,37.4,,,100%,,,30.2,0.0,,,,2024-12-19,12,2024,17,KOKV
2024-12-16,16,18:55,EST,Calm,3.0,Overcast,OVC007,37.4,37.4,,,100%,,,30.19,0.0,,,,2024-12-19,12,2024,18,KOKV
2024-12-16,16,19:55,EST,Calm,4.0,Overcast,OVC005,37.4,37.4,,,100%,,,30.18,0.0,,,,2024-12-19,12,2024,19,KOKV
2024-12-16,16,20:55,EST,Calm,3.0,Overcast,OVC010,37.4,37.4,,,100%,,,30.15,0.0,,,,2024-12-19,12,2024,20,KOKV
2024-12-16,16,21:55,EST,S  5,4.0,Mostly Cloudy,SCT003 BKN008,37.4,37.4,,,100%,34.0,,30.11,0.0,,,,2024-12-19,12,2024,21,KOKV
2024-12-16,16,22:55,EST,SW  3,7.0,Partly Cloudy,SCT110,41.0,39.2,,,93%,,,30.11,0.0,,,,2024-12-19,12,2024,22,KOKV
2024-12-16,16,23:55,EST,S  5,7.0,Fair,CLR,41.0,41.0,,,100%,38.0,,30.08,0.0,,,,2024-12-19,12,2024,23,KOKV
2024-12-17,17,00:55,EST,SW  6,10.0,Partly Cloudy,SCT060,42.8,42.8,,,100%,40.0,,30.07,0.0,,,,2024-12-20,12,2024,0,KOKV
2024-12-17,17,01:55,EST,SW  8,10.0,Partly Cloudy,SCT065,44.6,42.8,,,93%,41.0,,30.07,0.0,,,,2024-12-20,12,2024,1,KOKV
2024-12-17,17,02:55,EST,SW  8,10.0,Overcast,OVC065,44.6,42.8,,,93%,41.0,,30.07,0.0,,,,2024-12-20,12,2024,2,KOKV
2024-12-17,17,03:55,EST,SW  5,10.0,Fair,CLR,44.6,42.8,,,93%,43.0,,30.08,0.0,,,,2024-12-20,12,2024,3,KOKV
2024-12-17,17,04:55,EST,SW  7,10.0,Mostly Cloudy,SCT055 BKN070,46.4,44.6,,,93%,43.0,,30.08,0.0,,,,2024-12-20,12,2024,4,KOKV
2024-12-17,17,05:55,EST,SW  6,10.0,Mostly Cloudy,SCT055 BKN075,46.4,44.6,,,93%,44.0,,30.1,0.0,,,,2024-12-20,12,2024,5,KOKV
2024-12-17,17,06:55,EST,SW  5,10.0,Overcast,OVC065,48.2,44.6,,,87%,47.0,,30.11,0.0,,,,2024-12-20,12,2024,6,KOKV
2024-12-17,17,07:55,EST,SW  6,10.0,Mostly Cloudy,BKN065 BKN075,50.0,46.4,,,88%,48.0,,30.12,0.0,,,,2024-12-20,12,2024,7,KOKV
2024-12-17,17,08:55,EST,SW  5,10.0,Overcast,OVC050,50.0,46.4,,,88%,49.0,,30.14,0.0,,,,2024-12-20,12,2024,8,KOKV
2024-12-17,17,09:55,EST,Calm,10.0,Overcast,BKN050 OVC060,51.8,46.4,,,82%,,,30.17,0.0,,,,2024-12-20,12,2024,9,KOKV
2024-12-17,17,10:55,EST,W  3,10.0,Mostly Cloudy,BKN055 BKN065,55.4,50.0,,,82%,,,30.17,0.0,,,,2024-12-20,12,2024,10,KOKV
2024-12-17,17,11:55,EST,SW  5,10.0,Partly Cloudy,SCT050 SCT060,57.2,48.2,,,72%,,,30.16,0.0,,,,2024-12-20,12,2024,11,KOKV
2024-12-17,17,12:55,EST,W  9,10.0,Fair,CLR,59.0,44.6,,,59%,,,30.15,0.0,,,,2024-12-20,12,2024,12,KOKV
2024-12-17,17,13:55,EST,W  10,10.0,Fair,CLR,59.0,41.0,,,51%,,,30.14,0.0,,,,2024-12-20,12,2024,13,KOKV
2024-12-17,17,14:55,EST,W  16  G 21,10.0,Fair,CLR,59.0,35.6,,,42%,,,30.14,0.0,,,,2024-12-20,12,2024,14,KOKV
2024-12-17,17,15:55,EST,W  9,10.0,Fair,CLR,57.2,32.0,,,39%,,,30.17,0.0,,,,2024-12-20,12,2024,15,KOKV
2024-12-17,17,16:55,EST,NW  8,10.0,Fair,CLR,48.2,30.2,,,50%,45.0,,30.2,0.0,,,,2024-12-20,12,2024,16,KOKV
2024-12-17,17,17:55,EST,NW  7,10.0,Fair,CLR,42.8,28.4,,,57%,39.0,,30.22,0.0,,,,2024-12-20,12,2024,17,KOKV
2024-12-17,17,18:55,EST,Calm,10.0,Fair,CLR,42.8,28.4,,,57%,,,30.25,0.0,,,,2024-12-20,12,2024,18,KOKV
2024-12-17,17,19:55,EST,NW  7,10.0,Fair,CLR,44.6,23.0,,,43%,41.0,,30.25,0.0,,,,2024-12-20,12,2024,19,KOKV
2024-12-17,17,20:55,EST,Calm,10.0,Fair,CLR,39.2,26.6,,,61%,,,30.26,0.0,,,,2024-12-20,12,2024,20,KOKV
2024-12-17,17,21:55,EST,Calm,10.0,Fair,CLR,37.4,26.6,,,65%,,,30.27,0.0,,,,2024-12-20,12,2024,21,KOKV
2024-12-17,17,22:55,EST,Calm,10.0,Fair,CLR,32.0,26.6,,,80%,,,30.27,0.0,,,,2024-12-20,12,2024,22,KOKV
2024-12-17,17,23:55,EST,Calm,10.0,Fair,CLR,33.8,26.6,,,75%,,,30.27,0.0,,,,2024-12-20,12,2024,23,KOKV
2024-12-18,18,00:55,EST,W  5,10.0,Fair,CLR,32.0,26.6,,,80%,28.0,,30.26,0.0,,,,2024-12-21,12,2024,0,KOKV
2024-12-18,18,01:55,EST,Calm,10.0,Fair,CLR,32.0,26.6,,,80%,,,30.26,0.0,,,,2024-12-21,12,2024,1,KOKV
2024-12-18,18,02:55,EST,Calm,10.0,Fair,CLR,30.2,26.6,,,86%,,,30.27,0.0,,,,2024-12-21,12,2024,2,KOKV
2024-12-18,18,03:55,EST,NW  3,10.0,Fair,CLR,32.0,26.6,,,80%,,,30.25,0.0,,,,2024-12-21,12,2024,3,KOKV
2024-12-18,18,04:55,EST,Calm,10.0,Fair,CLR,30.2,28.4,,,93%,,,30.22,0.0,,,,2024-12-21,12,2024,4,KOKV
2024-12-18,18,05:55,EST,Calm,10.0,Fair,CLR,28.4,24.8,,,86%,,,30.22,0.0,,,,2024-12-21,12,2024,5,KOKV
2024-12-18,18,06:55,EST,Calm,10.0,Fair,CLR,28.4,24.8,,,86%,,,30.21,0.0,,,,2024-12-21,12,2024,6,KOKV
2024-12-18,18,07:55,EST,Calm,10.0,Fair,CLR,28.4,26.6,,,93%,,,30.21,0.0,,,,2024-12-21,12,2024,7,KOKV
2024-12-18,18,08:55,EST,Calm,10.0,Partly Cloudy,SCT045,33.8,32.0,,,93%,,,30.22,0.0,,,,2024-12-21,12,2024,8,KOKV
2024-12-18,18,09:55,EST,SE  3,10.0,Overcast,OVC045,41.0,32.0,,,70%,,,30.2,0.0,,,,2024-12-21,12,2024,9,KOKV
2024-12-18,18,10:55,EST,S  3,10.0,Overcast,OVC041,42.8,32.0,,,66%,,,30.17,0.0,,,,2024-12-21,12,2024,10,KOKV
2024-12-18,18,11:55,EST,Calm,10.0,Overcast,OVC039,46.4,32.0,,,57%,,,30.1,0.0,,,,2024-12-21,12,2024,11,KOKV
2024-12-18,18,12:55,EST,S  3,10.0,Overcast,OVC039,50.0,30.2,,,47%,,,30.05,0.0,,,,2024-12-21,12,2024,12,KOKV
2024-12-18,18,13:55,EST,S  8,10.0,Overcast,OVC035,50.0,32.0,,,50%,47.0,,29.99,0.0,,,,2024-12-21,12,2024,13,KOKV
2024-12-18,18,14:55,EST,S  6,10.0,Overcast,OVC035,50.0,32.0,,,50%,48.0,,29.97,0.0,,,,2024-12-21,12,2024,14,KOKV
2024-12-18,18,15:55,EST,Calm,10.0,Overcast,BKN033 OVC040,46.4,33.8,,,62%,,,29.99,0.0,,,,2024-12-21,12,2024,15,KOKV
2024-12-18,18,16:55,EST,S  3,10.0,Overcast,OVC100,46.4,33.8,,,62%,,,29.96,0.0,,,,2024-12-21,12,2024,16,KOKV
2024-12-18,18,17:55,EST,Calm,10.0,Overcast,OVC100,44.6,37.4,,,76%,,,29.96,0.0,,,,2024-12-21,12,2024,17,KOKV
2024-12-18,18,18:55,EST,Calm,10.0,Overcast,BKN060 BKN070 OVC100,46.4,35.6,,,66%,,,29.95,0.0,,,,2024-12-21,12,2024,18,KOKV
2024-12-18,18,19:55,EST,NW  10  G 16,10.0,Overcast,BKN029 OVC046,42.8,39.2,,,87%,38.0,,30.03,0.0,,,,2024-12-21,12,2024,19,KOKV
2024-12-18,18,20:55,EST,NW  8,10.0,Overcast,OVC050,42.8,37.4,,,81%,39.0,,30.06,0.0,,,,2024-12-21,12,2024,20,KOKV
2024-12-18,18,21:55,EST,NW  5,10.0,Overcast,BKN023 OVC070,42.8,35.6,,,76%,41.0,,30.1,0.0,,,,2024-12-21,12,2024,21,KOKV
2024-12-18,18,22:55,EST,NW  14,10.0,Overcast,OVC023,41.0,33.8,,,76%,34.0,,30.11,0.0,,,,2024-12-21,12,2024,22,KOKV
2024-12-18,18,23:55,EST,NW  18  G 23,10.0,Partly Cloudy,SCT027,41.0,33.8,,,76%,33.0,,30.11,0.0,,,,2024-12-21,12,2024,23,KOKV
2024-12-19,19,00:55,EST,NW  12  G 22,10.0,Overcast,OVC027,41.0,33.8,,,76%,35.0,,30.13,0.0,,,,2024-12-22,12,2024,0,KOKV
2024-12-19,19,01:55,EST,NW  17  G 21,10.0,Overcast,BKN024 OVC031,37.4,33.8,,,87%,29.0,,30.15,0.0,,,,2024-12-22,12,2024,1,KOKV
2024-12-19,19,02:55,EST,NW  8,10.0,Mostly Cloudy,SCT027 BKN036,37.4,32.0,,,81%,32.0,,30.2,0.0,,,,2024-12-22,12,2024,2,KOKV
2024-12-19,19,03:55,EST,NW  7,10.0,Overcast,SCT029 OVC038,37.4,32.0,,,81%,33.0,,30.21,0.0,,,,2024-12-22,12,2024,3,KOKV
2024-12-19,19,04:55,EST,NW  8  G 16,10.0,Overcast,OVC030,37.4,30.2,,,75%,32.0,,30.22,0.0,,,,2024-12-22,12,2024,4,KOKV
2024-12-19,19,05:55,EST,NW  13,10.0,Overcast,OVC033,37.4,30.2,,,75%,30.0,,30.24,0.0,,,,2024-12-22,12,2024,5,KOKV
2024-12-19,19,06:55,EST,NW  8,10.0,Overcast,OVC033,35.6,26.6,,,70%,30.0,,30.26,0.0,,,,2024-12-22,12,2024,6,KOKV
2024-12-19,19,07:55,EST,N  5,10.0,Overcast,OVC037,35.6,26.6,,,70%,32.0,,30.28,0.0,,,,2024-12-22,12,2024,7,KOKV
2024-12-19,19,08:55,EST,NW  10,10.0,Mostly Cloudy,BKN037,37.4,26.6,,,65%,31.0,,30.3,0.0,,,,2024-12-22,12,2024,8,KOKV
2024-12-19,19,09:55,EST,NW  9,10.0,Partly Cloudy,SCT039,37.4,24.8,,,60%,31.0,,30.31,0.0,,,,2024-12-22,12,2024,9,KOKV
2024-12-19,19,10:55,EST,NW  14,10.0,Partly Cloudy,SCT039,41.0,26.6,,,57%,34.0,,30.31,0.0,,,,2024-12-22,12,2024,10,KOKV
2024-12-19,19,11:55,EST,NW  9,10.0,Fair,CLR,39.2,26.6,,,61%,34.0,,30.29,0.0,,,,2024-12-22,12,2024,11,KOKV
2024-12-19,19,12:55,EST,NW  9,10.0,Mostly Cloudy,BKN040,41.0,26.6,,,57%,36.0,,30.26,0.0,,,,2024-12-22,12,2024,12,KOKV
2024-12-19,19,13:55,EST,NW  7,10.0,Overcast,OVC040,39.2,26.6,,,61%,35.0,,30.24,0.0,,,,2024-12-22,12,2024,13,KOKV
2024-12-19,19,14:55,EST,NW  9,10.0,Fair,CLR,37.4,26.6,,,65%,31.0,,30.24,0.0,,,,2024-12-22,12,2024,14,KOKV
2024-12-19,19,15:55,EST,NW  7,10.0,Partly Cloudy,SCT042,37.4,26.6,,,65%,33.0,,30.25,0.0,,,,2024-12-22,12,2024,15,KOKV
2024-12-19,19,16:55,EST,NW  5,10.0,Partly Cloudy,SCT041,35.6,26.6,,,70%,32.0,,30.27,0.0,,,,2024-12-22,12,2024,16,KOKV
2024-12-19,19,17:55,EST,Calm,10.0,Fair,CLR,33.8,26.6,,,75%,,,30.24,0.0,,,,2024-12-22,12,2024,17,KOKV
2024-12-19,19,18:55,EST,Calm,10.0,Fair,CLR,33.8,26.6,,,75%,,,30.26,0.0,,,,2024-12-22,12,2024,18,KOKV
2024-12-19,19,19:55,EST,Calm,10.0,Fair,CLR,32.0,26.6,,,80%,,,30.25,0.0,,,,2024-12-22,12,2024,19,KOKV
2024-12-19,19,20:55,EST,Calm,10.0,Fair,CLR,30.2,26.6,,,86%,,,30.22,0.0,,,,2024-12-22,12,2024,20,KOKV
2024-12-19,19,21:55,EST,Calm,10.0,Overcast,OVC043,32.0,28.4,,,87%,,,30.21,0.0,,,,2024-12-22,12,2024,21,KOKV
2024-12-19,19,22:55,EST,Calm,10.0,Overcast,OVC043,32.0,28.4,,,87%,,,30.2,0.0,,,,2024-12-22,12,2024,22,KOKV
2024-12-19,19,23:55,EST,NE  3,10.0,Overcast,OVC043,33.8,28.4,,,81%,,,30.16,0.0,,,,2024-12-22,12,2024,23,KOKV
2024-12-20,20,00:55,EST,Calm,10.0,Overcast,OVC045,33.8,28.4,,,81%,,,30.14,0.0,,,,2024-12-23,12,2024,0,KOKV
2024-12-20,20,01:55,EST,Calm,10.0,Overcast,OVC047,33.8,28.4,,,81%,,,30.12,0.0,,,,2024-12-23,12,2024,1,KOKV
2024-12-20,20,02:55,EST,SE  7,10.0,Overcast,OVC049,33.8,28.4,,,81%,28.0,,30.11,0.0,,,,2024-12-23,12,2024,2,KOKV
2024-12-20,20,03:55,EST,SE  8,10.0,Overcast,SCT040 SCT048 OVC050,33.8,28.4,,,81%,28.0,,30.08,0.0,,,,2024-12-23,12,2024,3,KOKV
2024-12-20,20,04:55,EST,Calm,10.0,Overcast,OVC041,33.8,28.4,,,81%,,,30.06,0.0,,,,2024-12-23,12,2024,4,KOKV
2024-12-20,20,05:55,EST,E  3,10.0,Overcast,OVC039,33.8,28.4,,,81%,,,30.05,0.0,,,,2024-12-23,12,2024,5,KOKV
2024-12-20,20,06:55,EST,E  3,10.0,Overcast,SCT032 OVC038,33.8,28.4,,,81%,,,30.04,0.0,,,,2024-12-23,12,2024,6,KOKV
2024-12-20,20,07:55,EST,Calm,10.0,Overcast,SCT029 BKN036 OVC048,33.8,28.4,,,81%,,,30.02,0.0,,,,2024-12-23,12,2024,7,KOKV
2024-12-20,20,08:55,EST,Calm,10.0,Overcast,OVC029,33.8,28.4,,,81%,,,30.01,0.0,,,,2024-12-23,12,2024,8,KOKV
2024-12-20,20,09:55,EST,Calm,10.0,Overcast,SCT023 BKN030 OVC038,33.8,28.4,,,81%,,,30.01,0.0,,,,2024-12-23,12,2024,9,KOKV
2024-12-20,20,10:55,EST,E  3,10.0,Overcast,SCT028 OVC039,33.8,30.2,,,87%,,,29.98,0.0,,,,2024-12-23,12,2024,10,KOKV
2024-12-20,20,11:55,EST,Calm,10.0,Overcast,SCT033 OVC041,35.6,30.2,,,81%,,,29.93,0.0,,,,2024-12-23,12,2024,11,KOKV
2024-12-20,20,12:55,EST,Calm,10.0,Overcast,SCT018 SCT036 OVC090,37.4,30.2,,,75%,,,29.9,0.0,,,,2024-12-23,12,2024,12,KOKV
2024-12-20,20,13:55,EST,N  3,10.0,Overcast,SCT025 BKN044 OVC080,39.2,30.2,,,70%,,,29.88,0.0,,,,2024-12-23,12,2024,13,KOKV
2024-12-20,20,14:55,EST,N  3,10.0,Mostly Cloudy,BKN027 BKN032,37.4,30.2,,,75%,,,29.88,0.0,,,,2024-12-23,12,2024,14,KOKV
2024-12-20,20,15:55,EST,N  6,10.0,Overcast,SCT025 SCT048 OVC085,39.2,32.0,,,75%,36.0,,29.88,0.0,,,,2024-12-23,12,2024,15,KOKV
2024-12-20,20,16:55,EST,NE  5,10.0,Overcast,SCT028 OVC095,35.6,32.0,,,87%,32.0,,29.9,0.0,,,,2024-12-23,12,2024,16,KOKV
2024-12-20,20,17:55,EST,Calm,10.0,Overcast,SCT080 OVC100,33.8,32.0,,,93%,,,29.92,0.0,,,,2024-12-23,12,2024,17,KOKV
2024-12-20,20,18:55,EST,Calm,10.0,Overcast,SCT060 SCT075 OVC110,33.8,32.0,,,93%,,,29.94,0.0,,,,2024-12-23,12,2024,18,KOKV
2024-12-20,20,19:55,EST,Calm,10.0,Overcast,SCT050 BKN060 OVC085,32.0,30.2,,,93%,,,29.96,0.0,,,,2024-12-23,12,2024,19,KOKV
2024-12-20,20,20:55,EST,Calm,7.0,Overcast,BKN033 OVC040,32.0,32.0,,,100%,,,29.95,0.0,,,,2024-12-23,12,2024,20,KOKV
2024-12-20,20,21:55,EST,Calm,10.0,Mostly Cloudy,SCT038 BKN044 BKN055,32.0,30.2,,,93%,,,29.96,0.0,,,,2024-12-23,12,2024,21,KOKV
2024-12-20,20,22:55,EST,Calm,10.0,Overcast,BKN030 OVC037,32.0,32.0,,,100%,,,29.96,0.0,,,,2024-12-23,12,2024,22,KOKV
2024-12-20,20,23:55,EST,NW  5,10.0,Overcast,OVC034,35.6,30.2,,,81%,32.0,,29.96,0.0,,,,2024-12-23,12,2024,23,KOKV
2024-12-21,21,00:55,EST,NW  3,10.0,Overcast,OVC037,33.8,26.6,,,75%,,,29.96,0.0,,,,2024-12-24,12,2024,0,KOKV
2024-12-21,21,01:55,EST,NW  10,10.0,Overcast,BKN039 OVC100,33.8,26.6,,,75%,26.0,,29.97,0.0,,,,2024-12-24,12,2024,1,KOKV
2024-12-21,21,02:55,EST,NW  16  G 22,10.0,Overcast,OVC041,33.8,24.8,,,70%,24.0,,29.99,0.0,,,,2024-12-24,12,2024,2,KOKV
2024-12-21,21,03:55,EST,NW  9,10.0,Overcast,BKN043 OVC090,33.8,23.0,,,65%,27.0,,30.03,0.0,,,,2024-12-24,12,2024,3,KOKV
2024-12-21,21,04:55,EST,NW  8,10.0,Overcast,SCT037 BKN050 OVC090,33.8,23.0,,,65%,28.0,,30.06,0.0,,,,2024-12-24,12,2024,4,KOKV
2024-12-21,21,05:55,EST,NW  10,10.0,Overcast,OVC100,32.0,19.4,,,60%,24.0,,30.09,0.0,,,,2024-12-24,12,2024,5,KOKV
2024-12-21,21,06:55,EST,NW  16  G 23,10.0,Overcast,SCT040 BKN049 OVC055,32.0,19.4,,,60%,22.0,,30.11,0.0,,,,2024-12-24,12,2024,6,KOKV
2024-12-21,21,07:55,EST,NW  15  G 23,10.0,Fair,CLR,32.0,14.0,,,47%,22.0,,30.15,0.0,,,,2024-12-24,12,2024,7,KOKV
2024-12-21,21,08:55,EST,N  7  G 21,10.0,Overcast,OVC047,32.0,14.0,,,47%,26.0,,30.18,0.0,,,,2024-12-24,12,2024,8,KOKV
2024-12-21,21,09:55,EST,NW  12  G 17,10.0,Overcast,SCT042 OVC050,32.0,17.6,,,55%,24.0,,30.21,0.0,,,,2024-12-24,12,2024,9,KOKV
2024-12-21,21,10:55,EST,NW  15  G 26,10.0,Overcast,BKN048 OVC060,32.0,14.0,,,47%,22.0,,30.22,0.0,,,,2024-12-24,12,2024,10,KOKV
2024-12-21,21,11:55,EST,NW  14  G 18,10.0,Overcast,OVC048,32.0,15.8,,,51%,23.0,,30.19,0.0,,,,2024-12-24,12,2024,11,KOKV
2024-12-21,21,12:55,EST,NW  9,10.0,Overcast,BKN050 OVC060,32.0,14.0,,,47%,25.0,,30.19,0.0,,,,2024-12-24,12,2024,12,KOKV
2024-12-21,21,13:55,EST,NW  14  G 21,10.0,Overcast,SCT050 SCT055 OVC065,32.0,14.0,,,47%,23.0,,30.18,0.0,,,,2024-12-24,12,2024,13,KOKV
2024-12-21,21,14:55,EST,NW  13  G 18,10.0,Overcast,SCT047 OVC060,32.0,17.6,,,55%,23.0,,30.21,0.0,,,,2024-12-24,12,2024,14,KOKV
2024-12-21,21,15:55,EST,NW  9  G 22,10.0,Overcast,SCT040 SCT049 OVC065,32.0,17.6,,,55%,25.0,,30.22,0.0,,,,2024-12-24,12,2024,15,KOKV
2024-12-21,21,16:55,EST,NW  13  G 21,10.0,Overcast,OVC055,30.2,14.0,,,51%,21.0,,30.22,0.0,,,,2024-12-24,12,2024,16,KOKV
2024-12-21,21,17:55,EST,NW  14  G 22,10.0,Overcast,SCT043 OVC055,30.2,14.0,,,51%,21.0,,30.24,0.0,,,,2024-12-24,12,2024,17,KOKV
2024-12-21,21,18:55,EST,NW  12  G 21,7.0,Overcast,SCT025 BKN045 OVC050,28.4,17.6,,,64%,19.0,,30.26,0.0,,,,2024-12-24,12,2024,18,KOKV
2024-12-21,21,19:55,EST,NW  16  G 25,10.0,Partly Cloudy,SCT050,28.4,14.0,,,55%,17.0,,30.27,0.0,,,,2024-12-24,12,2024,19,KOKV
2024-12-21,21,20:55,EST,Calm,10.0,Fair,CLR,26.6,12.2,,,54%,,,30.3,0.0,,,,2024-12-24,12,2024,20,KOKV
2024-12-21,21,21:55,EST,NW  10,10.0,Partly Cloudy,SCT055,26.6,12.2,,,54%,18.0,,30.32,0.0,,,,2024-12-24,12,2024,21,KOKV
2024-12-21,21,22:55,EST,NW  14,10.0,Fair,CLR,26.6,12.2,,,54%,16.0,,30.33,0.0,,,,2024-12-24,12,2024,22,KOKV
2024-12-21,21,23:55,EST,N  9,10.0,Overcast,SCT042 OVC048,26.6,10.4,,,50%,18.0,,30.32,0.0,,,,2024-12-24,12,2024,23,KOKV
2024-12-22,22,00:55,EST,NW  9,10.0,Overcast,OVC044,26.6,12.2,,,54%,18.0,,30.33,0.0,,,,2024-12-25,12,2024,0,KOKV
2024-12-22,22,01:55,EST,NW  7,10.0,Partly Cloudy,SCT043,24.8,10.4,,,54%,18.0,,30.34,0.0,,,,2024-12-25,12,2024,1,KOKV
2024-12-22,22,02:55,EST,W  13,10.0,Overcast,OVC049,24.8,10.4,,,54%,14.0,,30.36,0.0,,,,2024-12-25,12,2024,2,KOKV
2024-12-22,22,03:55,EST,NW  12,10.0,Overcast,OVC045,24.8,10.4,,,54%,15.0,,30.35,0.0,,,,2024-12-25,12,2024,3,KOKV
2024-12-22,22,04:55,EST,NW  12  G 16,10.0,Overcast,OVC043,23.0,8.6,,,54%,13.0,,30.37,0.0,,,,2024-12-25,12,2024,4,KOKV
2024-12-22,22,05:55,EST,NW  7,10.0,Partly Cloudy,SCT042,21.2,8.6,,,58%,13.0,,30.4,0.0,,,,2024-12-25,12,2024,5,KOKV
2024-12-22,22,06:55,EST,NW  10,10.0,Fair,CLR,21.2,10.4,,,63%,11.0,,30.41,0.0,,,,2024-12-25,12,2024,6,KOKV
2024-12-22,22,07:55,EST,NW  7,10.0,Mostly Cloudy,BKN040,21.2,10.4,,,63%,13.0,,30.44,0.0,,,,2024-12-25,12,2024,7,KOKV
2024-12-22,22,08:55,EST,NW  6,10.0,Mostly Cloudy,SCT029 BKN036,24.8,10.4,,,54%,19.0,,30.46,0.0,,,,2024-12-25,12,2024,8,KOKV
2024-12-22,22,09:55,EST,NW  9  G 16,10.0,Overcast,OVC036,26.6,10.4,,,50%,18.0,,30.48,0.0,,,,2024-12-25,12,2024,9,KOKV
2024-12-22,22,10:55,EST,NW  9  G 16,10.0,Fair,CLR,26.6,10.4,,,50%,18.0,,30.48,0.0,,,,2024-12-25,12,2024,10,KOKV
2024-12-22,22,11:55,EST,W  12,10.0,Fair,CLR,28.4,10.4,,,47%,19.0,,30.45,0.0,,,,2024-12-25,12,2024,11,KOKV
2024-12-22,22,12:55,EST,W  6,10.0,Fair,CLR,28.4,10.4,,,47%,23.0,,30.42,0.0,,,,2024-12-25,12,2024,12,KOKV
2024-12-22,22,13:55,EST,NW  6,10.0,Fair,CLR,30.2,10.4,,,43%,25.0,,30.43,0.0,,,,2024-12-25,12,2024,13,KOKV
2024-12-22,22,14:55,EST,N  6,10.0,Fair,CLR,30.2,8.6,,,40%,25.0,,30.42,0.0,,,,2024-12-25,12,2024,14,KOKV
2024-12-22,22,15:55,EST,NW  3,10.0,Fair,CLR,30.2,8.6,,,40%,,,30.45,0.0,,,,2024-12-25,12,2024,15,KOKV
2024-12-22,22,16:55,EST,N  3,10.0,Fair,CLR,28.4,8.6,,,43%,,,30.46,0.0,,,,2024-12-25,12,2024,16,KOKV
2024-12-22,22,17:55,EST,Calm,10.0,Fair,CLR,26.6,8.6,,,46%,,,30.47,0.0,,,,2024-12-25,12,2024,17,KOKV
2024-12-22,22,18:55,EST,Calm,10.0,Fair,CLR,24.8,8.6,,,50%,,,30.49,0.0,,,,2024-12-25,12,2024,18,KOKV
2024-12-22,22,19:55,EST,Calm,10.0,Fair,CLR,21.2,10.4,,,63%,,,30.5,0.0,,,,2024-12-25,12,2024,19,KOKV
2024-12-22,22,20:55,EST,Calm,10.0,Fair,CLR,21.2,8.6,,,58%,,,30.52,0.0,,,,2024-12-25,12,2024,20,KOKV
2024-12-22,22,21:55,EST,Calm,10.0,Fair,CLR,17.6,10.4,,,73%,,,30.53,0.0,,,,2024-12-25,12,2024,21,KOKV
2024-12-22,22,22:55,EST,Calm,10.0,Fair,CLR,17.6,10.4,,,73%,,,30.54,0.0,,,,2024-12-25,12,2024,22,KOKV
2024-12-22,22,23:55,EST,Calm,10.0,Fair,CLR,17.6,10.4,,,73%,,,30.53,0.0,,,,2024-12-25,12,2024,23,KOKV
2024-12-23,23,00:55,EST,Calm,10.0,Fair,CLR,17.6,10.4,,,73%,,,30.52,0.0,,,,2024-12-26,12,2024,0,KOKV
2024-12-23,23,01:55,EST,Calm,10.0,Fair,CLR,15.8,10.4,,,79%,,,30.52,0.0,,,,2024-12-26,12,2024,1,KOKV
2024-12-23,23,02:55,EST,Calm,10.0,Fair,CLR,14.0,8.6,,,79%,,,30.54,0.0,,,,2024-12-26,12,2024,2,KOKV
2024-12-23,23,03:55,EST,Calm,10.0,Fair,CLR,14.0,8.6,,,79%,,,30.53,0.0,,,,2024-12-26,12,2024,3,KOKV
2024-12-23,23,04:55,EST,Calm,10.0,Fair,CLR,14.0,8.6,,,79%,,,30.53,0.0,,,,2024-12-26,12,2024,4,KOKV
2024-12-23,23,05:55,EST,Calm,10.0,Fair,CLR,14.0,8.6,,,79%,,,30.54,0.0,,,,2024-12-26,12,2024,5,KOKV
2024-12-23,23,06:55,EST,N  3,10.0,Fair,CLR,14.0,8.6,,,79%,,,30.56,0.0,,,,2024-12-26,12,2024,6,KOKV
2024-12-23,23,07:55,EST,Calm,10.0,Fair,CLR,14.0,8.6,,,79%,,,30.56,0.0,,,,2024-12-26,12,2024,7,KOKV
2024-12-23,23,08:55,EST,Calm,10.0,Fair,CLR,17.6,12.2,,,79%,,,30.57,0.0,,,,2024-12-26,12,2024,8,KOKV
2024-12-23,23,09:55,EST,S  5,10.0,Fair,CLR,23.0,14.0,,,68%,18.0,,30.57,0.0,,,,2024-12-26,12,2024,9,KOKV
2024-12-23,23,10:55,EST,SE  9,10.0,Fair,CLR,28.4,15.8,,,59%,20.0,,30.54,0.0,,,,2024-12-26,12,2024,10,KOKV
2024-12-23,23,11:55,EST,SE  6,10.0,Fair,CLR,30.2,15.8,,,55%,25.0,,30.51,0.0,,,,2024-12-26,12,2024,11,KOKV
2024-12-23,23,12:55,EST,SE  5,10.0,Fair,CLR,32.0,15.8,,,51%,28.0,,30.47,0.0,,,,2024-12-26,12,2024,12,KOKV
2024-12-23,23,13:55,EST,SE  8,10.0,Fair,CLR,32.0,15.8,,,51%,25.0,,30.46,0.0,,,,2024-12-26,12,2024,13,KOKV
2024-12-23,23,14:55,EST,S  6,10.0,Fair,CLR,32.0,15.8,,,51%,27.0,,30.45,0.0,,,,2024-12-26,12,2024,14,KOKV
2024-12-23,23,15:55,EST,E  5,10.0,Fair,CLR,32.0,15.8,,,51%,28.0,,30.45,0.0,,,,2024-12-26,12,2024,15,KOKV
2024-12-23,23,16:55,EST,SE  5,10.0,Fair,CLR,30.2,15.8,,,55%,26.0,,30.43,0.0,,,,2024-12-26,12,2024,16,KOKV
2024-12-23,23,17:55,EST,SE  5,10.0,Fair,CLR,28.4,15.8,,,59%,24.0,,30.42,0.0,,,,2024-12-26,12,2024,17,KOKV
2024-12-23,23,18:55,EST,SE  3,10.0,Fair,CLR,26.6,15.8,,,64%,,,30.42,0.0,,,,2024-12-26,12,2024,18,KOKV
2024-12-23,23,19:55,EST,S  5,10.0,Fair,CLR,28.4,15.8,,,59%,24.0,,30.41,0.0,,,,2024-12-26,12,2024,19,KOKV
2024-12-23,23,20:55,EST,S  9,10.0,Fair,CLR,28.4,17.6,,,64%,20.0,,30.39,0.0,,,,2024-12-26,12,2024,20,KOKV
2024-12-23,23,21:55,EST,S  7,10.0,Fair,CLR,28.4,17.6,,,64%,22.0,,30.37,0.0,,,,2024-12-26,12,2024,21,KOKV
2024-12-23,23,22:55,EST,S  8,10.0,Fair,CLR,28.4,17.6,,,64%,21.0,,30.34,0.0,,,,2024-12-26,12,2024,22,KOKV
2024-12-23,23,23:55,EST,Calm,10.0,Fair,CLR,28.4,17.6,,,64%,,,30.31,0.0,,,,2024-12-26,12,2024,23,KOKV
2024-12-24,24,00:55,EST,Calm,10.0,Fair,CLR,26.6,17.6,,,69%,,,30.28,0.0,,,,2024-12-27,12,2024,0,KOKV
2024-12-24,24,01:55,EST,Calm,10.0,Mostly Cloudy,BKN090,26.6,17.6,,,69%,,,30.27,0.0,,,,2024-12-27,12,2024,1,KOKV
2024-12-24,24,02:55,EST,SW  5,10.0,Mostly Cloudy,SCT055 SCT080 BKN110,30.2,19.4,,,64%,26.0,,30.27,0.0,,,,2024-12-27,12,2024,2,KOKV
2024-12-24,24,03:55,EST,Calm,10.0,Partly Cloudy,SCT075 SCT110,26.6,19.4,,,74%,,,30.26,0.0,,,,2024-12-27,12,2024,3,KOKV
2024-12-24,24,04:55,EST,Calm,10.0,Overcast,OVC090,30.2,19.4,,,64%,,,30.25,0.0,,,,2024-12-27,12,2024,4,KOKV
2024-12-24,24,05:55,EST,SW  6,10.0,Overcast,OVC100,32.0,19.4,,,60%,27.0,,30.26,0.0,,,,2024-12-27,12,2024,5,KOKV
2024-12-24,24,06:55,EST,SW  3,10.0,Fair,CLR,32.0,19.4,,,60%,,,30.26,0.0,,,,2024-12-27,12,2024,6,KOKV
2024-12-24,24,07:55,EST,Calm,10.0,Fair,CLR,32.0,19.4,,,60%,,,30.26,0.0,,,,2024-12-27,12,2024,7,KOKV
2024-12-24,24,08:55,EST,Calm,10.0,Mostly Cloudy,BKN120,32.0,21.2,,,64%,,,30.27,0.0,,,,2024-12-27,12,2024,8,KOKV
2024-12-24,24,09:55,EST,S  5,10.0,Partly Cloudy,SCT070 SCT110,32.0,21.2,,,64%,28.0,,30.28,0.0,,,,2024-12-27,12,2024,9,KOKV
2024-12-24,24,10:55,EST,Calm,10.0,Overcast,OVC070,35.6,21.2,,,56%,,,30.29,0.0,,,,2024-12-27,12,2024,10,KOKV
2024-12-24,24,11:55,EST,Calm,10.0,Overcast,OVC046,37.4,23.0,,,56%,,,30.27,0.0,,,,2024-12-27,12,2024,11,KOKV
2024-12-24,24,12:55,EST,S  3,10.0,Overcast,OVC044,41.0,26.6,,,57%,,,30.25,0.0,,,,2024-12-27,12,2024,12,KOKV
2024-12-24,24,13:55,EST,S  3,10.0,Overcast,OVC048,42.8,26.6,,,53%,,,30.23,0.0,,,,2024-12-27,12,2024,13,KOKV
2024-12-24,24,14:55,EST,Calm,10.0,Overcast,OVC048,42.8,28.4,,,57%,,,30.23,0.0,,,,2024-12-27,12,2024,14,KOKV
2024-12-24,24,15:55,EST,Calm,10.0,Overcast,OVC044,42.8,28.4,,,57%,,,30.24,0.0,,,,2024-12-27,12,2024,15,KOKV
2024-12-24,24,16:55,EST,Calm,10.0,Overcast,OVC042,41.0,28.4,,,61%,,,30.25,0.0,,,,2024-12-27,12,2024,16,KOKV
2024-12-24,24,17:55,EST,Calm,10.0,Overcast,BKN034 OVC044,41.0,32.0,,,70%,,,30.26,0.0,,,,2024-12-27,12,2024,17,KOKV
2024-12-24,24,18:55,EST,N  3,10.0,Overcast,OVC042,41.0,32.0,,,70%,,,30.27,0.0,,,,2024-12-27,12,2024,18,KOKV
2024-12-24,24,19:55,EST,NW  5,10.0,Overcast,OVC042,41.0,32.0,,,70%,38.0,,30.29,0.0,,,,2024-12-27,12,2024,19,KOKV
2024-12-24,24,20:55,EST,NW  5,10.0,Overcast,OVC042,37.4,32.0,,,81%,34.0,,30.29,0.0,,,,2024-12-27,12,2024,20,KOKV
2024-12-24,24,21:55,EST,Calm,10.0,Overcast,OVC040,39.2,32.0,,,75%,,,30.29,0.0,,,,2024-12-27,12,2024,21,KOKV
2024-12-24,24,22:55,EST,Calm,10.0,Overcast,OVC040,37.4,32.0,,,81%,,,30.3,0.0,,,,2024-12-27,12,2024,22,KOKV
2024-12-24,24,23:55,EST,Calm,10.0,Overcast,OVC042,37.4,32.0,,,81%,,,30.3,0.0,,,,2024-12-27,12,2024,23,KOKV
2024-12-25,25,00:55,EST,Calm,10.0,Overcast,OVC044,35.6,32.0,,,87%,,,30.29,0.0,,,,2024-12-28,12,2024,0,KOKV
2024-12-25,25,01:55,EST,Calm,10.0,Overcast,OVC044,37.4,32.0,,,81%,,,30.3,0.0,,,,2024-12-28,12,2024,1,KOKV
2024-12-25,25,02:55,EST,Calm,10.0,Overcast,OVC042,35.6,32.0,,,87%,,,30.31,0.0,,,,2024-12-28,12,2024,2,KOKV
2024-12-25,25,03:55,EST,Calm,10.0,Overcast,OVC044,35.6,32.0,,,87%,,,30.31,0.0,,,,2024-12-28,12,2024,3,KOKV
2024-12-25,25,04:55,EST,Calm,10.0,Overcast,OVC044,33.8,32.0,,,93%,,,30.3,0.0,,,,2024-12-28,12,2024,4,KOKV
2024-12-25,25,05:55,EST,Calm,10.0,Overcast,OVC044,33.8,32.0,,,93%,,,30.31,0.0,,,,2024-12-28,12,2024,5,KOKV
2024-12-25,25,06:55,EST,Calm,7.0,Overcast,BKN022 OVC042,33.8,32.0,,,93%,,,30.33,0.0,,,,2024-12-28,12,2024,6,KOKV
2024-12-25,25,07:55,EST,Calm,7.0,Overcast,OVC042,33.8,32.0,,,93%,,,30.34,0.0,,,,2024-12-28,12,2024,7,KOKV
2024-12-25,25,08:55,EST,Calm,7.0,Overcast,OVC042,35.6,33.8,,,93%,,,30.37,0.0,,,,2024-12-28,12,2024,8,KOKV
2024-12-25,25,09:55,EST,Calm,10.0,Overcast,OVC038,37.4,32.0,,,81%,,,30.37,0.0,,,,2024-12-28,12,2024,9,KOKV
2024-12-25,25,10:55,EST,NE  3,10.0,Overcast,SCT022 OVC040,37.4,30.2,,,75%,,,30.37,0.0,,,,2024-12-28,12,2024,10,KOKV
2024-12-25,25,11:55,EST,Calm,10.0,Overcast,SCT022 OVC040,39.2,28.4,,,65%,,,30.35,0.0,,,,2024-12-28,12,2024,11,KOKV
2024-12-25,25,12:55,EST,Calm,10.0,Overcast,SCT030 OVC040,41.0,30.2,,,66%,,,30.33,0.0,,,,2024-12-28,12,2024,12,KOKV
2024-12-25,25,13:55,EST,Calm,10.0,Overcast,OVC028,41.0,30.2,,,66%,,,30.33,0.0,,,,2024-12-28,12,2024,13,KOKV
2024-12-25,25,14:55,EST,Calm,10.0,Overcast,OVC035,41.0,30.2,,,66%,,,30.32,0.0,,,,2024-12-28,12,2024,14,KOKV
2024-12-25,25,15:55,EST,SE  5,10.0,Overcast,OVC039,41.0,30.2,,,66%,38.0,,30.32,0.0,,,,2024-12-28,12,2024,15,KOKV
2024-12-25,25,16:55,EST,Calm,10.0,Partly Cloudy,SCT041,39.2,28.4,,,65%,,,30.33,0.0,,,,2024-12-28,12,2024,16,KOKV
2024-12-25,25,17:55,EST,Calm,10.0,Fair,CLR,35.6,28.4,,,75%,,,30.32,0.0,,,,2024-12-28,12,2024,17,KOKV
2024-12-25,25,18:55,EST,Calm,10.0,Fair,CLR,33.8,28.4,,,81%,,,30.34,0.0,,,,2024-12-28,12,2024,18,KOKV
2024-12-25,25,19:55,EST,Calm,10.0,Partly Cloudy,SCT120,32.0,28.4,,,87%,,,30.34,0.0,,,,2024-12-28,12,2024,19,KOKV
2024-12-25,25,20:55,EST,Calm,10.0,Fair,CLR,30.2,26.6,,,86%,,,30.35,0.0,,,,2024-12-28,12,2024,20,KOKV
2024-12-25,25,21:55,EST,Calm,10.0,Fair,CLR,28.4,24.8,,,86%,,,30.36,0.0,,,,2024-12-28,12,2024,21,KOKV
2024-12-25,25,22:55,EST,Calm,10.0,Fair,CLR,30.2,26.6,,,86%,,,30.36,0.0,,,,2024-12-28,12,2024,22,KOKV
2024-12-25,25,23:55,EST,Calm,10.0,Fair,CLR,30.2,28.4,,,93%,,,30.36,0.0,,,,2024-12-29,12,2024,23,KOKV
2024-12-26,26,00:55,EST,Calm,10.0,Fair,CLR,28.4,24.8,,,86%,,,30.35,0.0,,,,2024-12-29,12,2024,0,KOKV
2024-12-26,26,01:55,EST,Calm,10.0,Fair,CLR,30.2,24.8,,,80%,,,30.35,0.0,,,,2024-12-29,12,2024,1,KOKV
2024-12-26,26,02:55,EST,Calm,10.0,Fair,CLR,30.2,26.6,,,86%,,,30.35,0.0,,,,2024-12-29,12,2024,2,KOKV
2024-12-26,26,03:55,EST,Calm,7.0,Fair,CLR,26.6,24.8,,,93%,,,30.36,0.0,,,,2024-12-29,12,2024,3,KOKV
2024-12-26,26,04:55,EST,Calm,7.0,Fair,CLR,26.6,23.0,,,86%,,,30.37,0.0,,,,2024-12-29,12,2024,4,KOKV
2024-12-26,26,05:55,EST,Calm,7.0,Partly Cloudy,SCT029,26.6,24.8,,,93%,,,30.39,0.0,,,,2024-12-29,12,2024,5,KOKV
2024-12-26,26,06:55,EST,Calm,7.0,Overcast,OVC027,26.6,24.8,,,93%,,,30.4,0.0,,,,2024-12-29,12,2024,6,KOKV
2024-12-26,26,07:55,EST,Calm,7.0,Overcast,OVC021,30.2,26.6,,,86%,,,30.42,0.0,,,,2024-12-29,12,2024,7,KOKV
2024-12-26,26,08:55,EST,NE  3,7.0,Overcast,OVC021,30.2,28.4,,,93%,,,30.42,0.0,,,,2024-12-29,12,2024,8,KOKV
2024-12-26,26,09:55,EST,Calm,7.0,Overcast,OVC019,32.0,28.4,,,87%,,,30.43,0.0,,,,2024-12-29,12,2024,9,KOKV
2024-12-26,26,10:55,EST,Calm,7.0,Overcast,OVC019,32.0,30.2,,,93%,,,30.43,0.0,,,,2024-12-29,12,2024,10,KOKV
2024-12-26,26,11:55,EST,Calm,7.0,Overcast,OVC019,33.8,30.2,,,87%,,,30.41,0.0,,,,2024-12-29,12,2024,11,KOKV
2024-12-26,26,12:55,EST,Calm,7.0,Overcast,OVC019,33.8,30.2,,,87%,,,30.39,0.0,,,,2024-12-29,12,2024,12,KOKV
2024-12-26,26,13:55,EST,Calm,7.0,Overcast,OVC019,35.6,30.2,,,81%,,,30.37,0.0,,,,2024-12-29,12,2024,13,KOKV
2024-12-26,26,14:55,EST,E  5,7.0,Overcast,OVC019,35.6,30.2,,,81%,32.0,,30.37,0.0,,,,2024-12-29,12,2024,14,KOKV
2024-12-26,26,15:55,EST,E  5,10.0,Overcast,OVC019,35.6,30.2,,,81%,32.0,,30.37,0.0,,,,2024-12-29,12,2024,15,KOKV
2024-12-26,26,16:55,EST,Calm,10.0,Overcast,OVC019,35.6,30.2,,,81%,,,30.37,0.0,,,,2024-12-29,12,2024,16,KOKV
2024-12-26,26,17:55,EST,Calm,10.0,Overcast,OVC019,35.6,30.2,,,81%,,,30.38,0.0,,,,2024-12-29,12,2024,17,KOKV
2024-12-26,26,18:55,EST,Calm,10.0,Mostly Cloudy,BKN019,33.8,30.2,,,87%,,,30.39,0.0,,,,2024-12-29,12,2024,18,KOKV
2024-12-26,26,19:55,EST,Calm,7.0,Fair,CLR,32.0,28.4,,,87%,,,30.4,0.0,,,,2024-12-29,12,2024,19,KOKV
2024-12-26,26,20:55,EST,Calm,7.0,Fair,CLR,30.2,28.4,,,93%,,,30.39,0.0,,,,2024-12-29,12,2024,20,KOKV
2024-12-26,26,21:55,EST,Calm,5.0,Fair,CLR,30.2,28.4,,,93%,,,30.39,0.0,,,,2024-12-29,12,2024,21,KOKV
2024-12-26,26,22:55,EST,Calm,5.0,Fair,CLR,26.6,24.8,,,93%,,,30.39,0.0,,,,2024-12-29,12,2024,22,KOKV
2024-12-26,26,23:55,EST,Calm,4.0,Fair,CLR,28.4,26.6,,,93%,,,30.39,0.0,,,,2024-12-29,12,2024,23,KOKV
2024-12-27,27,00:55,EST,Calm,4.0,Fair,CLR,26.6,24.8,,,93%,,,30.37,0.0,,,,2024-12-30,12,2024,0,KOKV
2024-12-27,27,01:55,EST,Calm,4.0,Fair,CLR,26.6,26.6,,,100%,,,30.39,0.0,,,,2024-12-30,12,2024,1,KOKV
2024-12-27,27,02:55,EST,Calm,3.0,Fair,CLR,24.8,23.0,,,93%,,,30.4,0.0,,,,2024-12-30,12,2024,2,KOKV
2024-12-27,27,03:55,EST,Calm,4.0,Fair,CLR,26.6,24.8,,,93%,,,30.4,0.0,,,,2024-12-30,12,2024,3,KOKV
2024-12-27,27,04:55,EST,Calm,5.0,Overcast,OVC020,28.4,26.6,,,93%,,,30.39,0.0,,,,2024-12-30,12,2024,4,KOKV
2024-12-27,27,05:55,EST,Calm,5.0,Overcast,OVC018,28.4,26.6,,,93%,,,30.38,0.0,,,,2024-12-30,12,2024,5,KOKV
2024-12-27,27,06:55,EST,Calm,5.0,Partly Cloudy,SCT018,26.6,26.6,,,100%,,,30.39,0.0,,,,2024-12-30,12,2024,6,KOKV
2024-12-27,27,07:55,EST,Calm,2.0,Partly Cloudy,SCT019,26.6,24.8,,,93%,,,30.41,0.0,,,,2024-12-30,12,2024,7,KOKV
2024-12-27,27,08:55,EST,Calm,4.0,Fair,CLR,30.2,28.4,,,93%,,,30.4,0.0,,,,2024-12-30,12,2024,8,KOKV
2024-12-27,27,09:55,EST,S  5,7.0,Partly Cloudy,SCT016,32.0,30.2,,,93%,28.0,,30.4,0.0,,,,2024-12-30,12,2024,9,KOKV
2024-12-27,27,10:55,EST,S  6,7.0,Overcast,OVC012,35.6,32.0,,,87%,31.0,,30.39,0.0,,,,2024-12-30,12,2024,10,KOKV
2024-12-27,27,11:55,EST,S  5,7.0,Overcast,OVC016,37.4,32.0,,,81%,34.0,,30.36,0.0,,,,2024-12-30,12,2024,11,KOKV
2024-12-27,27,12:55,EST,SE  5,10.0,Fair,CLR,39.2,32.0,,,75%,36.0,,30.32,0.0,,,,2024-12-30,12,2024,12,KOKV
2024-12-27,27,13:55,EST,SE  5,10.0,Fair,CLR,41.0,32.0,,,70%,38.0,,30.29,0.0,,,,2024-12-30,12,2024,13,KOKV
2024-12-27,27,14:55,EST,SE  6,10.0,Partly Cloudy,SCT038,42.8,32.0,,,66%,40.0,,30.28,0.0,,,,2024-12-30,12,2024,14,KOKV
2024-12-27,27,15:55,EST,SE  8,10.0,Overcast,OVC032,42.8,32.0,,,66%,39.0,,30.29,0.0,,,,2024-12-30,12,2024,15,KOKV
2024-12-27,27,16:55,EST,SE  7,10.0,Overcast,OVC032,41.0,32.0,,,70%,37.0,,30.29,0.0,,,,2024-12-30,12,2024,16,KOKV
2024-12-27,27,17:55,EST,SE  5,10.0,Overcast,BKN032 OVC060,41.0,32.0,,,70%,38.0,,30.29,0.0,,,,2024-12-30,12,2024,17,KOKV
2024-12-27,27,18:55,EST,S  6,10.0,Overcast,BKN028 BKN043 OVC049,41.0,32.0,,,70%,38.0,,30.28,0.0,,,,2024-12-30,12,2024,18,KOKV
2024-12-27,27,19:55,EST,S  12,10.0,Overcast,BKN026 BKN031 OVC043,41.0,32.0,,,70%,35.0,,30.28,0.0,,,,2024-12-30,12,2024,19,KOKV
2024-12-27,27,20:55,EST,SE  10,10.0,Overcast,SCT029 OVC049,41.0,32.0,,,70%,35.0,,30.28,0.0,,,,2024-12-30,12,2024,20,KOKV
2024-12-27,27,21:55,EST,S  10,10.0,Overcast,SCT026 OVC033,41.0,33.8,,,76%,35.0,,30.25,0.0,,,,2024-12-30,12,2024,21,KOKV
2024-12-27,27,22:55,EST,S  9,10.0,Overcast,SCT024 OVC033,39.2,35.6,,,87%,34.0,,30.24,0.0,,,,2024-12-30,12,2024,22,KOKV
2024-12-27,27,23:55,EST,Calm,10.0,Overcast,OVC020,39.2,37.4,,,93%,,,30.23,0.0,,,,2024-12-30,12,2024,23,KOKV
2024-12-28,28,00:55,EST,Calm,5.0,Overcast,OVC018,39.2,37.4,,,93%,,,30.22,0.0,,,,2024-12-31,12,2024,0,KOKV
2024-12-28,28,01:55,EST,Calm,4.0,Overcast,BKN016 OVC023,37.4,37.4,,,100%,,,30.21,0.0,,,,2024-12-31,12,2024,1,KOKV
2024-12-28,28,02:55,EST,Calm,3.0,Overcast,BKN014 OVC020,39.2,37.4,,,93%,,,30.21,0.0,,,,2024-12-31,12,2024,2,KOKV
2024-12-28,28,03:55,EST,Calm,3.0,Overcast,OVC020,39.2,37.4,,,93%,,,30.19,0.0,,,,2024-12-31,12,2024,3,KOKV
2024-12-28,28,04:55,EST,W  3,5.0,Overcast,SCT018 BKN090 OVC110,41.0,39.2,,,93%,,,30.18,0.0,,,,2024-12-31,12,2024,4,KOKV
2024-12-28,28,05:55,EST,S  3,7.0,Overcast,SCT022 BKN039 OVC065,41.0,39.2,,,93%,,,30.19,0.0,,,,2024-12-31,12,2024,5,KOKV
2024-12-28,28,06:55,EST,S  3,10.0,Overcast,OVC029,41.0,41.0,,,100%,,,30.19,0.0,,,,2024-12-31,12,2024,6,KOKV
2024-12-28,28,07:55,EST,S  5,7.0,Overcast,BKN027 BKN048 OVC060,42.8,41.0,,,93%,41.0,,30.21,0.0,,,,2024-12-31,12,2024,7,KOKV
2024-12-28,28,08:55,EST,S  6,10.0,Overcast,BKN025 BKN036 OVC050,44.6,42.8,,,93%,42.0,,30.21,0.0,,,,2024-12-31,12,2024,8,KOKV
2024-12-28,28,09:55,EST,S  6,10.0,Overcast,BKN060 OVC070,44.6,42.8,,,93%,42.0,,30.22,0.0,,,,2024-12-31,12,2024,9,KOKV
2024-12-28,28,10:55,EST,S  5,10.0,Overcast,SCT060 BKN080 OVC090,46.4,44.6,,,93%,45.0,,30.21,0.0,,,,2024-12-31,12,2024,10,KOKV
2024-12-28,28,11:55,EST,SW  7,3.0,Overcast,OVC006,48.2,46.4,,,94%,46.0,,30.18,0.0,,,,2024-12-31,12,2024,11,KOKV
2024-12-28,28,12:55,EST,SW  5,10.0,Overcast,OVC006,51.8,50.0,,,94%,,,30.15,0.0,,,,2024-12-31,12,2024,12,KOKV
2024-12-28,28,13:55,EST,S  5,10.0,Overcast,OVC008,53.6,50.0,,,88%,,,30.13,0.0,,,,2024-12-31,12,2024,13,KOKV
2024-12-28,28,14:55,EST,SW  5,10.0,Partly Cloudy,SCT010,55.4,50.0,,,82%,,,30.13,0.0,,,,2024-12-31,12,2024,14,KOKV
2024-12-28,28,15:55,EST,Calm,10.0,Partly Cloudy,SCT012,53.6,50.0,,,88%,,,30.14,0.0,,,,2024-12-31,12,2024,15,KOKV
2024-12-28,28,16:55,EST,Calm,10.0,Partly Cloudy,SCT013,51.8,50.0,,,94%,,,30.15,0.0,,,,2024-12-31,12,2024,16,KOKV
2024-12-28,28,17:55,EST,Calm,3.0,Fair,CLR,46.4,46.4,,,100%,,,30.15,0.0,,,,2024-12-31,12,2024,17,KOKV
2024-12-28,28,18:55,EST,Calm,0.25,Overcast,OVC002,44.6,42.8,,,93%,,,30.16,0.0,,,,2024-12-31,12,2024,18,KOKV
2024-12-28,28,19:55,EST,Calm,0.5,Overcast,OVC002,42.8,42.8,,,100%,,,30.17,0.0,,,,2024-12-31,12,2024,19,KOKV
2024-12-28,28,20:55,EST,Calm,0.25,Overcast,OVC002,44.6,44.6,,,100%,,,30.17,0.0,,,,2024-12-31,12,2024,20,KOKV
2024-12-28,28,21:55,EST,Calm,0.25,Overcast,OVC002,44.6,42.8,,,93%,,,30.16,0.0,,,,2024-12-31,12,2024,21,KOKV
2024-12-28,28,22:55,EST,Calm,0.25,Overcast,OVC002,44.6,44.6,,,100%,,,30.16,0.0,,,,2024-12-31,12,2024,22,KOKV
2024-12-28,28,23:35,EST,Calm,0.25,Overcast,OVC002,44.6,44.6,,,100%,,,30.14,0.0,,,,2024-12-31,12,2024,23,KOKV
2024-12-29,29,00:55,EST,Calm,1.0,Overcast,OVC002,44.6,44.6,,,100%,,,30.12,0.0,,,,2025-01-01,12,2024,0,KOKV
2024-12-29,29,01:55,EST,Calm,4.0,Overcast,SCT002 BKN007 OVC030,44.6,44.6,,,100%,,,30.1,0.0,,,,2025-01-01,12,2024,1,KOKV
2024-12-29,29,02:55,EST,Calm,3.0,Overcast,OVC002,44.6,44.6,,,100%,,,30.1,0.0,,,,2025-01-01,12,2024,2,KOKV
2024-12-29,29,03:55,EST,Calm,0.75,Overcast,OVC002,44.6,44.6,,,100%,,,30.07,0.0,,,,2025-01-01,12,2024,3,KOKV
2024-12-29,29,04:55,EST,Calm,0.5,Overcast,OVC002,44.6,44.6,,,100%,,,30.04,0.0,,,,2025-01-01,12,2024,4,KOKV
2024-12-29,29,05:55,EST,Calm,1.0,Overcast,OVC002,44.6,44.6,,,100%,,,30.01,0.0,,,,2025-01-01,12,2024,5,KOKV
2024-12-29,29,06:55,EST,Calm,0.5,Overcast,OVC002,44.6,44.6,,,100%,,,29.99,0.0,,,,2025-01-01,12,2024,6,KOKV
2024-12-29,29,07:55,EST,NW  3,0.25,Overcast,OVC002,42.8,42.8,,,100%,,,29.97,0.0,,,,2025-01-01,12,2024,7,KOKV
2024-12-29,29,08:55,EST,SE  15  G 22,10.0,Partly Cloudy,SCT060,53.6,53.6,,,100%,,,29.96,0.0,,,,2025-01-01,12,2024,8,KOKV
2024-12-29,29,09:55,EST,S  17  G 25,10.0,Partly Cloudy,SCT031,55.4,55.4,,,100%,,,29.95,0.0,,,,2025-01-01,12,2024,9,KOKV
2024-12-29,29,10:55,EST,S  10  G 23,10.0,Overcast,BKN014 BKN022 OVC028,57.2,53.6,,,88%,,,29.91,0.0,,,,2025-01-01,12,2024,10,KOKV
2024-12-29,29,11:55,EST,S  16  G 25,10.0,Overcast,OVC020,60.8,53.6,,,77%,,,29.85,0.0,,,,2025-01-01,12,2024,11,KOKV
2024-12-29,29,12:55,EST,S  17  G 29,10.0,Mostly Cloudy,SCT028 BKN035 BKN041,62.6,53.6,,,73%,,,29.79,0.0,,,,2025-01-01,12,2024,12,KOKV
2024-12-29,29,13:55,EST,S  21  G 28,10.0,Overcast and Breezy,BKN030 OVC038,64.4,53.6,,,68%,,,29.75,0.0,,,,2025-01-01,12,2024,13,KOKV
2024-12-29,29,14:55,EST,SE  13  G 22,10.0,Overcast,BKN030 OVC040,62.6,53.6,,,73%,,,29.73,0.0,,,,2025-01-01,12,2024,14,KOKV
2024-12-29,29,15:55,EST,SE  15  G 24,10.0,Overcast,BKN026 BKN034 OVC100,60.8,53.6,,,77%,,,29.68,0.0,,,,2025-01-01,12,2024,15,KOKV
2024-12-29,29,16:55,EST,SE  24  G 31,10.0,Overcast and Breezy,OVC095,62.6,53.6,,,73%,,,29.65,0.0,,,,2025-01-01,12,2024,16,KOKV
2024-12-29,29,17:55,EST,SE  18  G 32,10.0,Overcast,SCT050 BKN065 OVC095,60.8,53.6,,,77%,,,29.63,0.0,,,,2025-01-01,12,2024,17,KOKV
2024-12-29,29,18:55,EST,SE  16  G 25,10.0,Overcast,SCT026 BKN035 OVC047,59.0,53.6,,,82%,,,29.63,0.0,,,,2025-01-01,12,2024,18,KOKV
2024-12-29,29,19:55,EST,S  17  G 24,10.0,Overcast,SCT041 BKN048 OVC070,59.0,51.8,,,77%,,,29.62,0.0,,,,2025-01-01,12,2024,19,KOKV
2024-12-29,29,20:55,EST,S  7,10.0,Overcast,BKN038 BKN044 OVC060,57.2,51.8,,,82%,,,29.62,0.0,,,,2025-01-01,12,2024,20,KOKV
2024-12-29,29,21:55,EST,S  9,10.0,Overcast,BKN038 OVC046,55.4,51.8,,,88%,,,29.61,0.0,,,,2025-01-01,12,2024,21,KOKV
2024-12-29,29,22:55,EST,SW  8  G 17,10.0,Overcast,SCT050 OVC090,57.2,50.0,,,77%,,,29.63,0.0,,,,2025-01-01,12,2024,22,KOKV
2024-12-29,29,23:55,EST,SW  7,10.0,Mostly Cloudy,BKN110,55.4,48.2,,,77%,,,29.62,0.0,,,,2025-01-01,12,2024,23,KOKV
2024-12-30,30,00:55,EST,SW  7,10.0,Fair,CLR,51.8,46.4,,,82%,,,29.61,0.0,,,,2025-01-02,12,2024,0,KOKV
2024-12-30,30,01:55,EST,SW  8,10.0,Fair,CLR,51.8,44.6,,,77%,,,29.62,0.0,,,,2025-01-02,12,2024,1,KOKV
2024-12-30,30,02:55,EST,SW  5,10.0,Fair,CLR,50.0,42.8,,,76%,49.0,,29.63,0.0,,,,2025-01-02,12,2024,2,KOKV
2024-12-30,30,03:55,EST,SW  6,10.0,Fair,CLR,50.0,41.0,,,71%,48.0,,29.63,0.0,,,,2025-01-02,12,2024,3,KOKV
2024-12-30,30,04:55,EST,SW  5,10.0,Fair,CLR,44.6,37.4,,,76%,43.0,,29.63,0.0,,,,2025-01-02,12,2024,4,KOKV
2024-12-30,30,05:55,EST,SW  3,10.0,Fair,CLR,42.8,37.4,,,81%,,,29.66,0.0,,,,2025-01-02,12,2024,5,KOKV
2024-12-30,30,06:55,EST,W  13  G 20,10.0,Fair,CLR,46.4,32.0,,,57%,41.0,,29.69,0.0,,,,2025-01-02,12,2024,6,KOKV
2024-12-30,30,07:55,EST,W  8,10.0,Fair,CLR,46.4,32.0,,,57%,43.0,,29.7,0.0,,,,2025-01-02,12,2024,7,KOKV
2024-12-30,30,08:55,EST,W  8,10.0,Fair,CLR,48.2,32.0,,,54%,45.0,,29.73,0.0,,,,2025-01-02,12,2024,8,KOKV
2024-12-30,30,09:55,EST,W  13  G 24,10.0,Fair,CLR,50.0,32.0,,,50%,46.0,,29.76,0.0,,,,2025-01-02,12,2024,9,KOKV
2024-12-30,30,10:55,EST,W  13  G 20,10.0,Partly Cloudy,SCT055,51.8,32.0,,,47%,,,29.76,0.0,,,,2025-01-02,12,2024,10,KOKV
2024-12-30,30,11:55,EST,W  16  G 20,10.0,Mostly Cloudy,BKN055,53.6,32.0,,,44%,,,29.74,0.0,,,,2025-01-02,12,2024,11,KOKV
2024-12-30,30,12:55,EST,SW  17  G 25,10.0,Partly Cloudy,SCT065,53.6,30.2,,,41%,,,29.73,0.0,,,,2025-01-02,12,2024,12,KOKV
2024-12-30,30,13:55,EST,W  17  G 23,10.0,Partly Cloudy,SCT065,55.4,30.2,,,38%,,,29.73,0.0,,,,2025-01-02,12,2024,13,KOKV
2024-12-30,30,14:55,EST,W  20  G 25,10.0,Fair,CLR,53.6,28.4,,,38%,,,29.74,0.0,,,,2025-01-02,12,2024,14,KOKV
2024-12-30,30,15:55,EST,W  20  G 24,10.0,Fair,CLR,53.6,26.6,,,35%,,,29.76,0.0,,,,2025-01-02,12,2024,15,KOKV
2024-12-30,30,16:55,EST,W  3,10.0,Fair,CLR,51.8,26.6,,,38%,,,29.79,0.0,,,,2025-01-02,12,2024,16,KOKV
2024-12-30,30,17:55,EST,SW  3,10.0,Fair,CLR,46.4,26.6,,,46%,,,29.82,0.0,,,,2025-01-02,12,2024,17,KOKV
2024-12-30,30,18:55,EST,SW  8,10.0,Fair,CLR,48.2,26.6,,,43%,45.0,,29.84,0.0,,,,2025-01-02,12,2024,18,KOKV
2024-12-30,30,19:55,EST,W  6,10.0,Fair,CLR,44.6,26.6,,,49%,42.0,,29.86,0.0,,,,2025-01-02,12,2024,19,KOKV
2024-12-30,30,20:55,EST,S  5,10.0,Fair,CLR,42.8,28.4,,,57%,41.0,,29.87,0.0,,,,2025-01-02,12,2024,20,KOKV
2024-12-30,30,21:55,EST,Calm,10.0,Fair,CLR,42.8,26.6,,,53%,,,29.87,0.0,,,,2025-01-02,12,2024,21,KOKV
2024-12-30,30,22:55,EST,Calm,10.0,Fair,CLR,37.4,28.4,,,70%,,,29.88,0.0,,,,2025-01-02,12,2024,22,KOKV
2024-12-30,30,23:55,EST,W  7,10.0,Fair,CLR,42.8,28.4,,,57%,39.0,,29.88,0.0,,,,2025-01-02,12,2024,23,KOKV
2024-12-31,31,00:55,EST,S  3,10.0,Fair,CLR,37.4,28.4,,,70%,,,29.87,0.0,,,,2025-01-03,12,2024,0,KOKV
2024-12-31,31,01:55,EST,S  5,10.0,Fair,CLR,37.4,30.2,,,75%,34.0,,29.87,0.0,,,,2025-01-03,12,2024,1,KOKV
2024-12-31,31,02:55,EST,Calm,10.0,Fair,CLR,37.4,30.2,,,75%,,,29.88,0.0,,,,2025-01-03,12,2024,2,KOKV
2024-12-31,31,03:55,EST,Calm,10.0,Fair,CLR,35.6,30.2,,,81%,,,29.87,0.0,,,,2025-01-03,12,2024,3,KOKV
2024-12-31,31,04:55,EST,Calm,10.0,Partly Cloudy,SCT120,33.8,30.2,,,87%,,,29.84,0.0,,,,2025-01-03,12,2024,4,KOKV
2024-12-31,31,05:55,EST,Calm,10.0,Mostly Cloudy,BKN110,35.6,32.0,,,87%,,,29.84,0.0,,,,2025-01-03,12,2024,5,KOKV
2024-12-31,31,06:55,EST,Calm,10.0,Fair,CLR,33.8,30.2,,,87%,,,29.83,0.0,,,,2025-01-03,12,2024,6,KOKV
2024-12-31,31,07:55,EST,Calm,10.0,Fair,CLR,32.0,28.4,,,87%,,,29.81,0.0,,,,2025-01-03,12,2024,7,KOKV
2024-12-31,31,08:55,EST,SE  8,10.0,Fair,CLR,42.8,32.0,,,66%,39.0,,29.79,0.0,,,,2025-01-03,12,2024,8,KOKV
2024-12-31,31,09:55,EST,SE  8,10.0,Fair,CLR,48.2,33.8,,,58%,45.0,,29.78,0.0,,,,2025-01-03,12,2024,9,KOKV
2024-12-31,31,10:55,EST,S  16  G 20,10.0,Fair,CLR,51.8,37.4,,,58%,,,29.74,0.0,,,,2025-01-03,12,2024,10,KOKV
2024-12-31,31,11:55,EST,SE  12  G 20,10.0,Mostly Cloudy,BKN027 BKN032 BKN040,51.8,41.0,,,67%,,,29.68,0.0,,,,2025-01-03,12,2024,11,KOKV
2024-12-31,31,12:55,EST,S  13  G 18,10.0,Overcast,OVC025,50.0,41.0,,,71%,46.0,,29.65,0.0,,,,2025-01-03,12,2024,12,KOKV
2024-12-31,31,13:55,EST,SE  10  G 16,10.0,Overcast,SCT029 SCT035 OVC070,48.2,39.2,,,71%,44.0,,29.59,0.0,,,,2025-01-03,12,2024,13,KOKV
2024-12-31,31,14:55,EST,Calm,10.0,Thunderstorm,SCT033 OVC039,48.2,39.2,,,71%,,,29.57,0.0,,,,2025-01-03,12,2024,14,KOKV
2024-12-31,31,15:55,EST,SE  5,10.0,Overcast,SCT031 BKN040 OVC060,50.0,42.8,,,76%,49.0,,29.55,0.0,,,,2025-01-03,12,2024,15,KOKV
2024-12-31,31,16:55,EST,Calm,5.0,Overcast,SCT009 BKN019 OVC049,46.4,44.6,,,93%,,,29.56,0.0,,,,2025-01-03,12,2024,16,KOKV
2024-12-31,31,17:55,EST,NW  3,10.0,Overcast,SCT027 BKN055 OVC100,46.4,44.6,,,93%,,,29.54,0.0,,,,2025-01-03,12,2024,17,KOKV
2024-12-31,31,18:55,EST,NW  17  G 26,2.5,Overcast,SCT011 BKN024 OVC046,46.4,44.6,,,93%,40.0,,29.58,0.0,,,,2025-01-03,12,2024,18,KOKV
2024-12-31,31,19:55,EST,Calm,10.0,Mostly Cloudy,SCT065 BKN085 BKN100,44.6,42.8,,,93%,,,29.55,0.0,,,,2025-01-03,12,2024,19,KOKV
2024-12-31,31,20:55,EST,Calm,1.25,Partly Cloudy,SCT001,42.8,42.8,,,100%,,,29.55,0.0,,,,2025-01-03,12,2024,20,KOKV
2024-12-31,31,21:55,EST,W  3,10.0,Overcast,BKN050 OVC085,42.8,42.8,,,100%,,,29.55,0.0,,,,2025-01-03,12,2024,21,KOKV
2024-12-31,31,22:55,EST,Calm,5.0,Partly Cloudy,SCT055 SCT070 SCT085,41.0,39.2,,,93%,,,29.55,0.0,,,,2025-01-03,12,2024,22,KOKV
2024-12-31,31,23:55,EST,S  3,3.0,Mostly Cloudy,BKN075,39.2,37.4,,,93%,,,29.53,0.0,,,,2025-01-03,12,2024,23,KOKV
2025-01-01,1,00:55,EST,W  6,10.0,Mostly Cloudy,SCT041 SCT046 BKN080,41.0,41.0,,,100%,38.0,,29.53,0.0,,,,2025-01-04,1,2025,0,KOKV
2025-01-01,1,01:55,EST,W  10,10.0,Overcast,SCT048 BKN060 OVC080,44.6,39.2,,,81%,40.0,,29.55,0.0,,,,2025-01-04,1,2025,1,KOKV
2025-01-01,1,02:55,EST,W  14  G 23,10.0,Mostly Cloudy,SCT070 BKN080,44.6,35.6,,,71%,39.0,,29.58,0.0,,,,2025-01-04,1,2025,2,KOKV
2025-01-01,1,03:55,EST,W  17  G 26,10.0,Overcast,OVC048,44.6,32.0,,,61%,38.0,,29.6,0.0,,,,2025-01-04,1,2025,3,KOKV
2025-01-01,1,04:55,EST,W  16,10.0,Mostly Cloudy,BKN044 BKN065 BKN120,42.8,32.0,,,66%,36.0,,29.62,0.0,,,,2025-01-04,1,2025,4,KOKV
2025-01-01,1,05:55,EST,W  25  G 32,10.0,Overcast and Breezy,OVC042,42.8,30.2,,,61%,34.0,,29.66,0.0,,,,2025-01-04,1,2025,5,KOKV
2025-01-01,1,06:55,EST,W  12  G 23,10.0,Mostly Cloudy,BKN042,41.0,28.4,,,61%,35.0,,29.69,0.0,,,,2025-01-04,1,2025,6,KOKV
2025-01-01,1,07:55,EST,W  23  G 36,10.0,Partly Cloudy and Breezy,SCT038 SCT044,41.0,28.4,,,61%,32.0,,29.72,0.0,,,,2025-01-04,1,2025,7,KOKV
2025-01-01,1,08:55,EST,W  25  G 35,10.0,Partly Cloudy and Breezy,SCT036,41.0,30.2,,,66%,31.0,,29.76,0.0,,,,2025-01-04,1,2025,8,KOKV
2025-01-01,1,09:55,EST,W  21  G 28,10.0,Overcast and Breezy,OVC038,41.0,30.2,,,66%,32.0,,29.81,0.0,,,,2025-01-04,1,2025,9,KOKV
2025-01-01,1,10:55,EST,W  13  G 24,10.0,Overcast,OVC038,41.0,28.4,,,61%,34.0,,29.83,0.0,,,,2025-01-04,1,2025,10,KOKV
2025-01-01,1,11:55,EST,W  17  G 24,10.0,Overcast,OVC040,41.0,28.4,,,61%,33.0,,29.83,0.0,,,,2025-01-04,1,2025,11,KOKV
2025-01-01,1,12:55,EST,NW  12  G 23,10.0,Overcast,OVC040,41.0,28.4,,,61%,35.0,,29.84,0.0,,,,2025-01-04,1,2025,12,KOKV
2025-01-01,1,13:55,EST,W  22  G 31,10.0,Overcast and Breezy,OVC040,41.0,28.4,,,61%,32.0,,29.86,0.0,,,,2025-01-04,1,2025,13,KOKV
2025-01-01,1,14:55,EST,W  16  G 25,10.0,Overcast,BKN043 OVC049,39.2,26.6,,,61%,31.0,,29.9,0.0,,,,2025-01-04,1,2025,14,KOKV
2025-01-01,1,15:55,EST,W  17  G 26,10.0,Overcast,BKN047 OVC060,39.2,24.8,,,56%,31.0,,29.91,0.0,,,,2025-01-04,1,2025,15,KOKV
2025-01-01,1,16:55,EST,W  16  G 22,10.0,Partly Cloudy,SCT047 SCT060,37.4,24.8,,,60%,29.0,,29.9,0.0,,,,2025-01-04,1,2025,16,KOKV
2025-01-01,1,17:55,EST,W  9  G 21,10.0,Partly Cloudy,SCT060,37.4,23.0,,,56%,31.0,,29.92,0.0,,,,2025-01-04,1,2025,17,KOKV
2025-01-01,1,18:55,EST,W  6,10.0,Partly Cloudy,SCT048 SCT060,35.6,24.8,,,65%,31.0,,29.94,0.0,,,,2025-01-04,1,2025,18,KOKV
2025-01-01,1,19:55,EST,W  10  G 22,10.0,Mostly Cloudy,BKN048 BKN060,37.4,24.8,,,60%,31.0,,29.95,0.0,,,,2025-01-04,1,2025,19,KOKV
2025-01-01,1,20:55,EST,W  10  G 21,10.0,Overcast,BKN046 OVC050,37.4,23.0,,,56%,31.0,,29.95,0.0,,,,2025-01-04,1,2025,20,KOKV
2025-01-01,1,21:55,EST,W  14  G 24,10.0,Overcast,OVC048,35.6,21.2,,,56%,27.0,,29.97,0.0,,,,2025-01-04,1,2025,21,KOKV
2025-01-01,1,22:55,EST,W  17  G 24,10.0,Overcast,OVC050,33.8,19.4,,,56%,24.0,,30.01,0.0,,,,2025-01-04,1,2025,22,KOKV
2025-01-01,1,23:55,EST,W  13  G 18,10.0,Overcast,BKN047 OVC050,33.8,19.4,,,56%,25.0,,30.03,0.0,,,,2025-01-04,1,2025,23,KOKV
2025-01-02,2,00:55,EST,W  12  G 24,10.0,Overcast,SCT049 OVC060,32.0,19.4,,,60%,24.0,,30.03,0.0,,,,2025-01-05,1,2025,0,KOKV
2025-01-02,2,01:55,EST,NW  21  G 33,10.0,Overcast and Breezy,OVC050,32.0,15.8,,,51%,21.0,,30.04,0.0,,,,2025-01-05,1,2025,1,KOKV
2025-01-02,2,02:55,EST,W  20  G 30,10.0,Overcast,OVC060,32.0,14.0,,,47%,21.0,,30.06,0.0,,,,2025-01-05,1,2025,2,KOKV
2025-01-02,2,03:55,EST,W  15,10.0,Overcast,OVC060,32.0,15.8,,,51%,22.0,,30.06,0.0,,,,2025-01-05,1,2025,3,KOKV
2025-01-02,2,04:55,EST,NW  17  G 26,10.0,Overcast,OVC050,32.0,17.6,,,55%,22.0,,30.06,0.0,,,,2025-01-05,1,2025,4,KOKV
2025-01-02,2,05:55,EST,W  14  G 18,10.0,Overcast,OVC049,32.0,19.4,,,60%,23.0,,30.08,0.0,,,,2025-01-05,1,2025,5,KOKV
2025-01-02,2,06:55,EST,W  21  G 31,10.0,Overcast and Breezy,OVC048,32.0,17.6,,,55%,21.0,,30.09,0.0,,,,2025-01-05,1,2025,6,KOKV
2025-01-02,2,07:55,EST,W  13  G 23,10.0,Overcast,OVC048,32.0,15.8,,,51%,23.0,,30.14,0.0,,,,2025-01-05,1,2025,7,KOKV
2025-01-02,2,08:55,EST,W  8  G 21,10.0,Overcast,OVC048,32.0,15.8,,,51%,25.0,,30.17,0.0,,,,2025-01-05,1,2025,8,KOKV
2025-01-02,2,09:55,EST,W  9  G 21,10.0,Overcast,OVC046,32.0,17.6,,,55%,25.0,,30.18,0.0,,,,2025-01-05,1,2025,9,KOKV
2025-01-02,2,10:55,EST,W  17  G 23,10.0,Overcast,OVC048,33.8,17.6,,,51%,24.0,,30.17,0.0,,,,2025-01-05,1,2025,10,KOKV
2025-01-02,2,11:55,EST,W  14  G 24,10.0,Overcast,OVC048,33.8,17.6,,,51%,25.0,,30.15,0.0,,,,2025-01-05,1,2025,11,KOKV
2025-01-02,2,12:55,EST,W  14  G 20,10.0,Overcast,OVC050,35.6,19.4,,,52%,27.0,,30.12,0.0,,,,2025-01-05,1,2025,12,KOKV
2025-01-02,2,13:55,EST,W  15  G 21,10.0,Overcast,OVC048,35.6,17.6,,,48%,27.0,,30.1,0.0,,,,2025-01-05,1,2025,13,KOKV
2025-01-02,2,14:55,EST,W  14  G 23,10.0,Overcast,OVC050,35.6,19.4,,,52%,27.0,,30.09,0.0,,,,2025-01-05,1,2025,14,KOKV
2025-01-02,2,15:55,EST,W  12  G 18,10.0,Mostly Cloudy,BKN050,37.4,17.6,,,45%,30.0,,30.1,0.0,,,,2025-01-05,1,2025,15,KOKV
2025-01-02,2,16:55,EST,NW  7,10.0,Partly Cloudy,SCT050,33.8,17.6,,,51%,28.0,,30.11,0.0,,,,2025-01-05,1,2025,16,KOKV
2025-01-02,2,17:55,EST,W  7,10.0,Fair,CLR,33.8,17.6,,,51%,28.0,,30.12,0.0,,,,2025-01-05,1,2025,17,KOKV
2025-01-02,2,18:55,EST,SW  3,10.0,Partly Cloudy,SCT050,30.2,19.4,,,64%,,,30.12,0.0,,,,2025-01-05,1,2025,18,KOKV
2025-01-02,2,19:55,EST,S  3,10.0,Mostly Cloudy,BKN050,30.2,19.4,,,64%,,,30.11,0.0,,,,2025-01-05,1,2025,19,KOKV
2025-01-02,2,20:55,EST,W  13  G 16,10.0,Partly Cloudy,SCT050,33.8,19.4,,,56%,25.0,,30.1,0.0,,,,2025-01-05,1,2025,20,KOKV
2025-01-02,2,21:55,EST,W  15  G 23,10.0,Partly Cloudy,SCT050,33.8,19.4,,,56%,25.0,,30.1,0.0,,,,2025-01-05,1,2025,21,KOKV
2025-01-02,2,22:55,EST,NW  25  G 33,10.0,Partly Cloudy and Breezy,SCT049,33.8,19.4,,,56%,22.0,,30.11,0.0,,,,2025-01-05,1,2025,22,KOKV
2025-01-02,2,23:55,EST,NW  21  G 25,10.0,Partly Cloudy and Breezy,SCT047,32.0,19.4,,,60%,21.0,,30.11,0.0,,,,2025-01-05,1,2025,23,KOKV
2025-01-03,3,00:55,EST,W  12  G 24,10.0,Fair,CLR,32.0,19.4,,,60%,24.0,,30.1,0.0,,,,2025-01-06,1,2025,0,KOKV
2025-01-03,3,01:55,EST,Calm,10.0,Partly Cloudy,SCT043,32.0,19.4,,,60%,,,30.1,0.0,,,,2025-01-06,1,2025,1,KOKV
2025-01-03,3,02:55,EST,Calm,10.0,Overcast,OVC043,30.2,19.4,,,64%,,,30.11,0.0,,,,2025-01-06,1,2025,2,KOKV
2025-01-03,3,03:55,EST,Calm,10.0,Mostly Cloudy,BKN043,30.2,19.4,,,64%,,,30.09,0.0,,,,2025-01-06,1,2025,3,KOKV
2025-01-03,3,04:55,EST,Calm,10.0,Overcast,OVC045,32.0,21.2,,,64%,,,30.07,0.0,,,,2025-01-06,1,2025,4,KOKV
2025-01-03,3,05:55,EST,E  3,10.0,Partly Cloudy,SCT043,28.4,19.4,,,69%,,,30.05,0.0,,,,2025-01-06,1,2025,5,KOKV
2025-01-03,3,06:55,EST,Calm,10.0,Mostly Cloudy,BKN050,26.6,19.4,,,74%,,,30.04,0.0,,,,2025-01-06,1,2025,6,KOKV
2025-01-03,3,07:55,EST,Calm,10.0,Overcast,BKN050 OVC060,26.6,21.2,,,80%,,,30.01,0.0,,,,2025-01-06,1,2025,7,KOKV
2025-01-03,3,08:55,EST,Calm,10.0,Mostly Cloudy,BKN090,28.4,21.2,,,74%,,,29.98,0.0,,,,2025-01-06,1,2025,8,KOKV
2025-01-03,3,09:55,EST,S  5,10.0,Overcast,BKN055 OVC065,32.0,23.0,,,69%,28.0,,29.95,0.0,,,,2025-01-06,1,2025,9,KOKV
2025-01-03,3,10:55,EST,SW  8,10.0,Overcast,OVC050,35.6,23.0,,,60%,30.0,,29.9,0.0,,,,2025-01-06,1,2025,10,KOKV
2025-01-03,3,11:55,EST,SW  9,10.0,Overcast,SCT044 OVC050,37.4,24.8,,,60%,31.0,,29.86,0.0,,,,2025-01-06,1,2025,11,KOKV
2025-01-03,3,12:55,EST,SW  8,10.0,Overcast,SCT026 BKN031 OVC046,35.6,28.4,,,75%,30.0,,29.83,0.0,,,,2025-01-06,1,2025,12,KOKV
2025-01-03,3,13:55,EST,SW  8,1.0,Overcast,OVC006,32.0,32.0,,,100%,25.0,,29.82,0.0,,,,2025-01-06,1,2025,13,KOKV
2025-01-03,3,14:55,EST,W  9,10.0,Overcast,SCT041 SCT050 OVC090,32.0,28.4,,,87%,25.0,,29.82,0.0,,,,2025-01-06,1,2025,14,KOKV
2025-01-03,3,15:55,EST,NW  15  G 21,10.0,Overcast,SCT009 BKN039 OVC070,32.0,28.4,,,87%,22.0,,29.87,0.0,,,,2025-01-06,1,2025,15,KOKV
2025-01-03,3,16:55,EST,W  16  G 21,10.0,Partly Cloudy,SCT035 SCT050,30.2,21.2,,,69%,20.0,,29.9,0.0,,,,2025-01-06,1,2025,16,KOKV
2025-01-03,3,17:55,EST,W  12  G 23,10.0,Mostly Cloudy,SCT043 BKN085,28.4,17.6,,,64%,19.0,,29.93,0.0,,,,2025-01-06,1,2025,17,KOKV
2025-01-03,3,18:55,EST,W  15  G 31,10.0,Mostly Cloudy,BKN045 BKN060 BKN100,28.4,15.8,,,59%,18.0,,29.95,0.0,,,,2025-01-06,1,2025,18,KOKV
2025-01-03,3,19:55,EST,W  18  G 35,10.0,Partly Cloudy,SCT043 SCT048,26.6,14.0,,,59%,14.0,,29.96,0.0,,,,2025-01-06,1,2025,19,KOKV
2025-01-03,3,20:55,EST,W  15  G 24,10.0,Mostly Cloudy,SCT037 BKN047,26.6,14.0,,,59%,16.0,,29.97,0.0,,,,2025-01-06,1,2025,20,KOKV
2025-01-03,3,21:55,EST,W  16  G 24,10.0,Overcast,BKN040 OVC050,26.6,14.0,,,59%,15.0,,29.98,0.0,,,,2025-01-06,1,2025,21,KOKV
2025-01-03,3,22:55,EST,W  17  G 35,10.0,Partly Cloudy,SCT039,26.6,14.0,,,59%,15.0,,29.98,0.0,,,,2025-01-06,1,2025,22,KOKV
2025-01-03,3,23:55,EST,W  10  G 23,10.0,Partly Cloudy,SCT041,26.6,14.0,,,59%,18.0,,29.98,0.0,,,,2025-01-06,1,2025,23,KOKV
2025-01-04,4,00:55,EST,NW  18  G 25,10.0,Fair,CLR,26.6,12.2,,,54%,14.0,,29.97,0.0,,,,2025-01-07,1,2025,0,KOKV
2025-01-04,4,01:55,EST,W  16  G 22,10.0,Partly Cloudy,SCT041,26.6,14.0,,,59%,15.0,,29.99,0.0,,,,2025-01-07,1,2025,1,KOKV
2025-01-04,4,02:55,EST,W  23  G 30,10.0,Overcast and Breezy,SCT026 BKN034 OVC060,26.6,15.8,,,64%,13.0,,30.0,0.0,,,,2025-01-07,1,2025,2,KOKV
2025-01-04,4,03:55,EST,NW  6,10.0,Overcast,SCT033 BKN040 OVC055,26.6,15.8,,,64%,21.0,,30.02,0.0,,,,2025-01-07,1,2025,3,KOKV
2025-01-04,4,04:55,EST,NW  21  G 28,10.0,Overcast and Breezy,SCT043 OVC050,24.8,12.2,,,59%,11.0,,30.02,0.0,,,,2025-01-07,1,2025,4,KOKV
2025-01-04,4,05:55,EST,W  25  G 32,10.0,Overcast and Breezy,OVC048,24.8,10.4,,,54%,10.0,,30.05,0.0,,,,2025-01-07,1,2025,5,KOKV
2025-01-04,4,06:55,EST,W  20  G 28,10.0,Overcast,OVC046,23.0,10.4,,,58%,9.0,,30.08,0.0,,,,2025-01-07,1,2025,6,KOKV
2025-01-04,4,07:55,EST,W  23  G 32,10.0,Overcast and Breezy,OVC046,23.0,10.4,,,58%,8.0,,30.09,0.0,,,,2025-01-07,1,2025,7,KOKV
2025-01-04,4,08:55,EST,W  16  G 29,10.0,Overcast,OVC046,23.0,10.4,,,58%,11.0,,30.1,0.0,,,,2025-01-07,1,2025,8,KOKV
2025-01-04,4,09:55,EST,W  17  G 23,10.0,Overcast,BKN045 OVC049,24.8,10.4,,,54%,12.0,,30.12,0.0,,,,2025-01-07,1,2025,9,KOKV
2025-01-04,4,10:55,EST,W  22  G 33,10.0,Overcast and Breezy,OVC045,26.6,10.4,,,50%,13.0,,30.11,0.0,,,,2025-01-07,1,2025,10,KOKV
2025-01-04,4,11:55,EST,W  20  G 31,10.0,Overcast,OVC049,26.6,8.6,,,46%,14.0,,30.1,0.0,,,,2025-01-07,1,2025,11,KOKV
2025-01-04,4,12:55,EST,W  21  G 26,10.0,Overcast and Breezy,OVC049,26.6,8.6,,,46%,14.0,,30.08,0.0,,,,2025-01-07,1,2025,12,KOKV
2025-01-04,4,13:55,EST,W  14  G 24,10.0,Mostly Cloudy,SCT030 SCT043 BKN049,26.6,10.4,,,50%,16.0,,30.08,0.0,,,,2025-01-07,1,2025,13,KOKV
2025-01-04,4,14:55,EST,NW  24  G 35,10.0,Mostly Cloudy and Breezy,BKN048 BKN055,28.4,8.6,,,43%,15.0,,30.08,0.0,,,,2025-01-07,1,2025,14,KOKV
2025-01-04,4,15:55,EST,W  20  G 31,10.0,Partly Cloudy,SCT050,26.6,8.6,,,46%,14.0,,30.09,0.0,,,,2025-01-07,1,2025,15,KOKV
2025-01-04,4,16:55,EST,W  13  G 24,10.0,Mostly Cloudy,BKN047,24.8,8.6,,,50%,14.0,,30.11,0.0,,,,2025-01-07,1,2025,16,KOKV
2025-01-04,4,17:55,EST,W  8,10.0,Mostly Cloudy,BKN045,23.0,8.6,,,54%,15.0,,30.13,0.0,,,,2025-01-07,1,2025,17,KOKV
2025-01-04,4,18:55,EST,W  15  G 23,10.0,Fair,CLR,23.0,8.6,,,54%,11.0,,30.13,0.0,,,,2025-01-07,1,2025,18,KOKV
2025-01-04,4,19:55,EST,W  14  G 20,10.0,Mostly Cloudy,BKN042,23.0,8.6,,,54%,11.0,,30.14,0.0,,,,2025-01-07,1,2025,19,KOKV
2025-01-04,4,20:55,EST,W  8  G 14,10.0,Overcast,OVC042,23.0,8.6,,,54%,15.0,,30.14,0.0,,,,2025-01-07,1,2025,20,KOKV
2025-01-04,4,21:55,EST,NW  10  G 22,10.0,Overcast,OVC042,23.0,8.6,,,54%,13.0,,30.15,0.0,,,,2025-01-07,1,2025,21,KOKV
2025-01-04,4,22:55,EST,W  6,10.0,Mostly Cloudy,BKN042,21.2,8.6,,,58%,14.0,,30.15,0.0,,,,2025-01-07,1,2025,22,KOKV
2025-01-04,4,23:55,EST,W  10  G 17,10.0,Partly Cloudy,SCT042,23.0,8.6,,,54%,13.0,,30.14,0.0,,,,2025-01-07,1,2025,23,KOKV
2025-01-05,5,00:55,EST,W  6,10.0,Partly Cloudy,SCT046,21.2,8.6,,,58%,14.0,,30.14,0.0,,,,2025-01-08,1,2025,0,KOKV
2025-01-05,5,01:55,EST,Calm,10.0,Fair,CLR,19.4,8.6,,,63%,,,30.14,0.0,,,,2025-01-08,1,2025,1,KOKV
2025-01-05,5,02:55,EST,Calm,10.0,Fair,CLR,15.8,8.6,,,73%,,,30.14,0.0,,,,2025-01-08,1,2025,2,KOKV
2025-01-05,5,03:55,EST,W  5,10.0,Fair,CLR,19.4,6.8,,,58%,14.0,,30.14,0.0,,,,2025-01-08,1,2025,3,KOKV
2025-01-05,5,04:55,EST,W  3,10.0,Fair,CLR,19.4,6.8,,,58%,,,30.14,0.0,,,,2025-01-08,1,2025,4,KOKV
2025-01-05,5,05:55,EST,W  5,10.0,Fair,CLR,19.4,6.8,,,58%,14.0,,30.16,0.0,,,,2025-01-08,1,2025,5,KOKV
2025-01-05,5,06:55,EST,Calm,10.0,Fair,CLR,15.8,6.8,,,67%,,,30.17,0.0,,,,2025-01-08,1,2025,6,KOKV
2025-01-05,5,07:55,EST,Calm,10.0,Fair,CLR,14.0,8.6,,,79%,,,30.18,0.0,,,,2025-01-08,1,2025,7,KOKV
2025-01-05,5,08:55,EST,W  12,10.0,Fair,CLR,23.0,5.0,,,46%,13.0,,30.19,0.0,,,,2025-01-08,1,2025,8,KOKV
2025-01-05,5,09:55,EST,W  9,10.0,Fair,CLR,26.6,5.0,,,39%,18.0,,30.19,0.0,,,,2025-01-08,1,2025,9,KOKV
2025-01-05,5,10:55,EST,W  13,10.0,Fair,CLR,28.4,5.0,,,37%,19.0,,30.19,0.0,,,,2025-01-08,1,2025,10,KOKV
2025-01-05,5,11:55,EST,W  13  G 18,10.0,Fair,CLR,30.2,5.0,,,34%,21.0,,30.17,0.0,,,,2025-01-08,1,2025,11,KOKV
2025-01-05,5,12:35,EST,W  8,10.0,Fair,CLR,32.0,5.0,,,32%,25.0,,30.15,0.0,,,,2025-01-08,1,2025,12,KOKV
2025-01-05,5,13:55,EST,NW  15,10.0,Fair,CLR,32.0,5.0,,,32%,22.0,,30.11,0.0,,,,2025-01-08,1,2025,13,KOKV
2025-01-05,5,14:55,EST,NW  9,10.0,Fair,CLR,32.0,5.0,,,32%,25.0,,30.1,0.0,,,,2025-01-08,1,2025,14,KOKV
2025-01-05,5,15:55,EST,NW  5,10.0,Fair,CLR,32.0,3.2,,,29%,28.0,,30.1,0.0,,,,2025-01-08,1,2025,15,KOKV
2025-01-05,5,16:55,EST,Calm,10.0,Mostly Cloudy,BKN100 BKN120,32.0,3.2,,,29%,,,30.1,0.0,,,,2025-01-08,1,2025,16,KOKV
2025-01-05,5,17:55,EST,NW  5,10.0,Overcast,BKN090 OVC110,32.0,5.0,,,32%,28.0,,30.1,0.0,,,,2025-01-08,1,2025,17,KOKV
2025-01-05,5,18:55,EST,Calm,10.0,Overcast,OVC100,32.0,5.0,,,32%,,,30.09,0.0,,,,2025-01-08,1,2025,18,KOKV
2025-01-05,5,19:55,EST,Calm,10.0,Mostly Cloudy,BKN110,30.2,8.6,,,40%,,,30.1,0.0,,,,2025-01-08,1,2025,19,KOKV
2025-01-05,5,20:55,EST,Calm,10.0,Overcast,OVC090,30.2,6.8,,,37%,,,30.09,0.0,,,,2025-01-08,1,2025,20,KOKV
2025-01-05,5,21:55,EST,E  3,10.0,Overcast,BKN060 OVC070,30.2,8.6,,,40%,,,30.08,0.0,,,,2025-01-08,1,2025,21,KOKV
2025-01-05,5,22:55,EST,Calm,10.0,Overcast,BKN055 OVC065,30.2,10.4,,,43%,,,30.1,0.0,,,,2025-01-08,1,2025,22,KOKV
2025-01-05,5,23:55,EST,SW  6,10.0,Overcast,SCT033 SCT039 OVC047,28.4,14.0,,,55%,23.0,,30.06,0.0,,,,2025-01-08,1,2025,23,KOKV
2025-01-06,6,00:55,EST,Calm,1.25,Overcast,OVC014,24.8,23.0,,,93%,,,30.06,0.0,,,,2025-01-09,1,2025,0,KOKV
2025-01-06,6,01:55,EST,NE  3,1.0,Overcast,OVC010,23.0,21.2,,,93%,,,30.01,0.0,,,,2025-01-09,1,2025,1,KOKV
2025-01-06,6,02:55,EST,E  3,1.5,Overcast,OVC015,23.0,21.2,,,93%,,,29.99,0.0,,,,2025-01-09,1,2025,2,KOKV
2025-01-06,6,03:55,EST,NE  3,0.75,Overcast,OVC009,23.0,21.2,,,93%,,,29.94,0.0,,,,2025-01-09,1,2025,3,KOKV
2025-01-06,6,04:55,EST,NE  5,1.25,Overcast,OVC011,23.0,21.2,,,93%,18.0,,29.9,0.0,,,,2025-01-09,1,2025,4,KOKV
2025-01-06,6,05:55,EST,NE  3,2.0,Overcast,OVC021,23.0,21.2,,,93%,,,29.87,0.0,,,,2025-01-09,1,2025,5,KOKV
2025-01-06,6,06:55,EST,E  3,1.25,Overcast,OVC017,23.0,21.2,,,93%,,,29.83,0.0,,,,2025-01-09,1,2025,6,KOKV
2025-01-06,6,07:55,EST,NE  5,1.75,Overcast,BKN017 BKN028 OVC038,23.0,21.2,,,93%,18.0,,29.82,0.0,,,,2025-01-09,1,2025,7,KOKV
2025-01-06,6,08:55,EST,NE  5,1.75,Overcast,SCT010 OVC016,23.0,21.2,,,93%,18.0,,29.81,0.0,,,,2025-01-09,1,2025,8,KOKV
2025-01-06,6,09:55,EST,NE  5,4.0,Overcast,OVC018,23.0,21.2,,,93%,18.0,,29.8,0.0,,,,2025-01-09,1,2025,9,KOKV
2025-01-06,6,10:55,EST,NE  3,1.0,Overcast,OVC007,23.0,21.2,,,93%,,,29.79,0.0,,,,2025-01-09,1,2025,10,KOKV
2025-01-06,6,11:55,EST,NE  6,0.75,Overcast,BKN007 OVC013,23.0,21.2,,,93%,17.0,,29.73,0.0,,,,2025-01-09,1,2025,11,KOKV
2025-01-06,6,12:55,EST,NE  6,1.0,Overcast,BKN007 BKN013 OVC026,24.8,21.2,,,86%,19.0,,29.69,0.0,,,,2025-01-09,1,2025,12,KOKV
2025-01-06,6,13:55,EST,NE  5,2.5,Overcast,BKN009 BKN014 OVC037,24.8,21.2,,,86%,20.0,,29.65,0.0,,,,2025-01-09,1,2025,13,KOKV
2025-01-06,6,14:55,EST,N  6,5.0,Overcast,OVC013,24.8,21.2,,,86%,19.0,,29.65,0.0,,,,2025-01-09,1,2025,14,KOKV
2025-01-06,6,15:55,EST,N  6,1.5,Overcast,SCT011 SCT024 OVC033,24.8,21.2,,,86%,19.0,,29.66,0.0,,,,2025-01-09,1,2025,15,KOKV
2025-01-06,6,16:55,EST,NW  6,1.25,Overcast,SCT009 BKN026 OVC036,24.8,21.2,,,86%,19.0,,29.7,0.0,,,,2025-01-09,1,2025,16,KOKV
2025-01-06,6,17:55,EST,NW  7,5.0,Overcast,BKN017 BKN025 OVC039,24.8,21.2,,,86%,18.0,,29.72,0.0,,,,2025-01-09,1,2025,17,KOKV
2025-01-06,6,18:55,EST,NW  12,2.5,Overcast,BKN026 BKN031 OVC049,26.6,21.2,,,80%,17.0,,29.75,0.0,,,,2025-01-09,1,2025,18,KOKV
2025-01-06,6,19:55,EST,NW  12,1.75,Overcast,BKN019 OVC024,26.6,23.0,,,86%,17.0,,29.78,0.0,,,,2025-01-09,1,2025,19,KOKV
2025-01-06,6,20:55,EST,NW  13,7.0,Overcast,SCT050 OVC060,26.6,23.0,,,86%,16.0,,29.78,0.0,,,,2025-01-09,1,2025,20,KOKV
2025-01-06,6,21:55,EST,NW  5,10.0,Overcast,BKN027 OVC070,26.6,21.2,,,80%,22.0,,29.82,0.0,,,,2025-01-09,1,2025,21,KOKV
2025-01-06,6,22:55,EST,NW  14  G 21,10.0,Overcast,OVC025,28.4,21.2,,,74%,18.0,,29.83,0.0,,,,2025-01-09,1,2025,22,KOKV
2025-01-06,6,23:55,EST,N  12  G 20,10.0,Overcast,OVC029,26.6,19.4,,,74%,17.0,,29.87,0.0,,,,2025-01-09,1,2025,23,KOKV
2025-01-07,7,00:55,EST,NW  20  G 26,10.0,Overcast,OVC031,26.6,15.8,,,64%,14.0,,29.9,0.0,,,,2025-01-10,1,2025,0,KOKV
2025-01-07,7,01:55,EST,NW  13  G 18,10.0,Overcast,OVC031,23.0,12.2,,,63%,12.0,,29.94,0.0,,,,2025-01-10,1,2025,1,KOKV
2025-01-07,7,02:55,EST,NW  7  G 17,10.0,Overcast,OVC036,23.0,10.4,,,58%,16.0,,29.97,0.0,,,,2025-01-10,1,2025,2,KOKV
2025-01-07,7,03:55,EST,NW  8,10.0,Overcast,OVC030,23.0,12.2,,,63%,15.0,,29.97,0.0,,,,2025-01-10,1,2025,3,KOKV
2025-01-07,7,04:55,EST,NW  28  G 32,10.0,Mostly Cloudy and Windy,BKN026 BKN032,21.2,12.2,,,68%,5.0,,29.97,0.0,,,,2025-01-10,1,2025,4,KOKV
2025-01-07,7,05:55,EST,NW  14  G 25,10.0,Mostly Cloudy,BKN033,21.2,10.4,,,63%,9.0,,30.03,0.0,,,,2025-01-10,1,2025,5,KOKV
2025-01-07,7,06:55,EST,NW  14  G 24,10.0,Overcast,OVC033,21.2,8.6,,,58%,9.0,,30.05,0.0,,,,2025-01-10,1,2025,6,KOKV
2025-01-07,7,07:55,EST,NW  20,10.0,Overcast,OVC039,23.0,10.4,,,58%,9.0,,30.04,0.0,,,,2025-01-10,1,2025,7,KOKV
2025-01-07,7,08:55,EST,NW  18  G 28,10.0,Overcast,OVC037,24.8,12.2,,,59%,12.0,,30.06,0.0,,,,2025-01-10,1,2025,8,KOKV
2025-01-07,7,09:55,EST,W  22  G 31,10.0,Overcast and Breezy,OVC033,26.6,14.0,,,59%,13.0,,30.08,0.0,,,,2025-01-10,1,2025,9,KOKV
2025-01-07,7,10:55,EST,NW  23  G 32,10.0,Overcast and Breezy,OVC035,28.4,17.6,,,64%,15.0,,30.09,0.0,,,,2025-01-10,1,2025,10,KOKV
2025-01-07,7,11:55,EST,NW  20  G 24,10.0,Mostly Cloudy,BKN037,30.2,17.6,,,59%,19.0,,30.08,0.0,,,,2025-01-10,1,2025,11,KOKV
2025-01-07,7,12:55,EST,NW  23  G 39,7.0,Partly Cloudy and Breezy,SCT033 SCT039,30.2,17.6,,,59%,18.0,,30.05,0.0,,,,2025-01-10,1,2025,12,KOKV
2025-01-07,7,13:55,EST,W  18  G 24,10.0,Overcast,OVC041,30.2,15.8,,,55%,19.0,,30.07,0.0,,,,2025-01-10,1,2025,13,KOKV
2025-01-07,7,14:55,EST,NW  22  G 26,10.0,Overcast and Breezy,OVC039,30.2,15.8,,,55%,18.0,,30.1,0.0,,,,2025-01-10,1,2025,14,KOKV
2025-01-07,7,15:55,EST,W  14  G 23,10.0,Overcast,OVC039,28.4,15.8,,,59%,18.0,,30.13,0.0,,,,2025-01-10,1,2025,15,KOKV
2025-01-07,7,16:55,EST,NW  16  G 23,10.0,Overcast,OVC041,28.4,14.0,,,55%,17.0,,30.15,0.0,,,,2025-01-10,1,2025,16,KOKV
2025-01-07,7,17:55,EST,W  21  G 28,10.0,Overcast and Breezy,OVC041,26.6,14.0,,,59%,14.0,,30.16,0.0,,,,2025-01-10,1,2025,17,KOKV
2025-01-07,7,18:55,EST,W  13,10.0,Overcast,OVC041,26.6,12.2,,,54%,16.0,,30.18,0.0,,,,2025-01-10,1,2025,18,KOKV
2025-01-07,7,19:55,EST,W  14  G 22,10.0,Overcast,OVC039,26.6,12.2,,,54%,16.0,,30.18,0.0,,,,2025-01-10,1,2025,19,KOKV
2025-01-07,7,20:55,EST,NW  12  G 23,10.0,Overcast,OVC039,24.8,10.4,,,54%,15.0,,30.19,0.0,,,,2025-01-10,1,2025,20,KOKV
2025-01-07,7,21:55,EST,NW  18  G 28,10.0,Overcast,OVC039,24.8,12.2,,,59%,12.0,,30.18,0.0,,,,2025-01-10,1,2025,21,KOKV
2025-01-07,7,22:55,EST,NW  21  G 37,7.0,Overcast and Breezy,OVC035,23.0,12.2,,,63%,9.0,,30.17,0.0,,,,2025-01-10,1,2025,22,KOKV
2025-01-07,7,23:55,EST,NW  21  G 31,10.0,Overcast and Breezy,OVC037,23.0,10.4,,,58%,9.0,,30.2,0.0,,,,2025-01-10,1,2025,23,KOKV
2025-01-08,8,00:55,EST,NW  17  G 28,10.0,Overcast,OVC040,23.0,10.4,,,58%,10.0,,30.18,0.0,,,,2025-01-11,1,2025,0,KOKV
2025-01-08,8,01:55,EST,NW  18  G 25,10.0,Overcast,OVC042,23.0,10.4,,,58%,10.0,,30.18,0.0,,,,2025-01-11,1,2025,1,KOKV
2025-01-08,8,02:55,EST,W  12  G 21,10.0,Overcast,OVC042,23.0,10.4,,,58%,13.0,,30.18,0.0,,,,2025-01-11,1,2025,2,KOKV
2025-01-08,8,03:55,EST,W  13  G 16,10.0,Overcast,OVC042,23.0,10.4,,,58%,12.0,,30.17,0.0,,,,2025-01-11,1,2025,3,KOKV
2025-01-08,8,04:55,EST,W  7,10.0,Overcast,BKN042 OVC050,23.0,10.4,,,58%,16.0,,30.16,0.0,,,,2025-01-11,1,2025,4,KOKV
2025-01-08,8,05:55,EST,W  6,10.0,Overcast,SCT043 OVC049,23.0,10.4,,,58%,17.0,,30.15,0.0,,,,2025-01-11,1,2025,5,KOKV
2025-01-08,8,06:55,EST,W  7,10.0,Overcast,SCT043 OVC049,23.0,10.4,,,58%,16.0,,30.16,0.0,,,,2025-01-11,1,2025,6,KOKV
2025-01-08,8,07:55,EST,W  7,10.0,Overcast,OVC049,23.0,10.4,,,58%,16.0,,30.15,0.0,,,,2025-01-11,1,2025,7,KOKV
2025-01-08,8,08:35,EST,W  6  G 10,10.0,Overcast,OVC049,24.8,10.4,,,54%,19.0,,30.14,0.0,,,,2025-01-11,1,2025,8,KOKV
2025-01-08,8,10:55,EST,W  13  G 22,10.0,Mostly Cloudy,BKN047 BKN055,28.4,12.2,,,51%,19.0,,30.12,0.0,,,,2025-01-11,1,2025,10,KOKV
2025-01-08,8,11:55,EST,W  13  G 17,10.0,Overcast,OVC047,28.4,12.2,,,51%,19.0,,30.09,0.0,,,,2025-01-11,1,2025,11,KOKV
2025-01-08,8,12:55,EST,W  13,10.0,Overcast,OVC047,28.4,12.2,,,51%,19.0,,30.05,0.0,,,,2025-01-11,1,2025,12,KOKV
2025-01-08,8,13:55,EST,W  17  G 24,10.0,Overcast,OVC049,28.4,12.2,,,51%,17.0,,30.02,0.0,,,,2025-01-11,1,2025,13,KOKV
2025-01-08,8,14:55,EST,W  21  G 28,10.0,Overcast and Breezy,OVC048,28.4,12.2,,,51%,16.0,,30.01,0.0,,,,2025-01-11,1,2025,14,KOKV
2025-01-08,8,15:55,EST,W  15,10.0,Overcast,SCT039 BKN047 OVC050,26.6,14.0,,,59%,16.0,,30.01,0.0,,,,2025-01-11,1,2025,15,KOKV
2025-01-08,8,16:55,EST,NW  18  G 23,10.0,Overcast,SCT039 BKN048 OVC060,26.6,14.0,,,59%,14.0,,30.01,0.0,,,,2025-01-11,1,2025,16,KOKV
2025-01-08,8,17:55,EST,W  12  G 18,10.0,Overcast,SCT032 OVC060,26.6,15.8,,,64%,17.0,,30.01,0.0,,,,2025-01-11,1,2025,17,KOKV
2025-01-08,8,18:55,EST,N  8,10.0,Overcast,SCT039 OVC046,24.8,12.2,,,59%,17.0,,30.03,0.0,,,,2025-01-11,1,2025,18,KOKV
2025-01-08,8,19:55,EST,NW  8,10.0,Overcast,BKN046 OVC050,23.0,10.4,,,58%,15.0,,30.04,0.0,,,,2025-01-11,1,2025,19,KOKV
2025-01-08,8,20:55,EST,NW  8,10.0,Overcast,OVC043,23.0,10.4,,,58%,15.0,,30.03,0.0,,,,2025-01-11,1,2025,20,KOKV
2025-01-08,8,21:55,EST,NW  8,10.0,Overcast,BKN039 OVC047,23.0,10.4,,,58%,15.0,,30.03,0.0,,,,2025-01-11,1,2025,21,KOKV
2025-01-08,8,22:55,EST,NW  14  G 23,10.0,Mostly Cloudy,BKN049,21.2,10.4,,,63%,9.0,,30.03,0.0,,,,2025-01-11,1,2025,22,KOKV
2025-01-08,8,23:55,EST,NW  9,10.0,Fair,CLR,21.2,5.0,,,49%,12.0,,30.01,0.0,,,,2025-01-11,1,2025,23,KOKV
2025-01-09,9,00:55,EST,NW  14  G 18,10.0,Fair,CLR,21.2,6.8,,,54%,9.0,,30.0,0.0,,,,2025-01-12,1,2025,0,KOKV
2025-01-09,9,01:55,EST,NW  10  G 17,10.0,Partly Cloudy,SCT032,21.2,8.6,,,58%,11.0,,30.0,0.0,,,,2025-01-12,1,2025,1,KOKV
2025-01-09,9,02:55,EST,W  13  G 25,10.0,Fair,CLR,21.2,8.6,,,58%,10.0,,30.0,0.0,,,,2025-01-12,1,2025,2,KOKV
2025-01-09,9,03:55,EST,NW  15  G 22,10.0,Partly Cloudy,SCT045,21.2,8.6,,,58%,9.0,,30.01,0.0,,,,2025-01-12,1,2025,3,KOKV
2025-01-09,9,04:55,EST,NW  15,10.0,Overcast,BKN037 OVC042,21.2,8.6,,,58%,9.0,,30.01,0.0,,,,2025-01-12,1,2025,4,KOKV
2025-01-09,9,05:55,EST,NW  14  G 24,10.0,Overcast,BKN037 OVC043,21.2,8.6,,,58%,9.0,,30.02,0.0,,,,2025-01-12,1,2025,5,KOKV
2025-01-09,9,06:55,EST,NW  18  G 32,10.0,Partly Cloudy,SCT039,21.2,8.6,,,58%,7.0,,30.03,0.0,,,,2025-01-12,1,2025,6,KOKV
2025-01-09,9,07:55,EST,NW  15  G 28,10.0,Fair,CLR,21.2,8.6,,,58%,9.0,,30.05,0.0,,,,2025-01-12,1,2025,7,KOKV
2025-01-09,9,08:55,EST,NW  20  G 25,10.0,Fair,CLR,23.0,8.6,,,54%,9.0,,30.07,0.0,,,,2025-01-12,1,2025,8,KOKV
2025-01-09,9,09:55,EST,NW  23  G 35,10.0,Fair and Breezy,CLR,23.0,8.6,,,54%,8.0,,30.07,0.0,,,,2025-01-12,1,2025,9,KOKV
2025-01-09,9,10:55,EST,NW  24  G 35,10.0,Fair and Breezy,CLR,24.8,8.6,,,50%,10.0,,30.08,0.0,,,,2025-01-12,1,2025,10,KOKV
2025-01-09,9,11:55,EST,NW  18  G 23,10.0,Fair,CLR,26.6,8.6,,,46%,14.0,,30.08,0.0,,,,2025-01-12,1,2025,11,KOKV
2025-01-09,9,12:55,EST,NW  20  G 23,10.0,Fair,CLR,26.6,8.6,,,46%,14.0,,30.07,0.0,,,,2025-01-12,1,2025,12,KOKV
2025-01-09,9,13:55,EST,W  16  G 29,10.0,Fair,CLR,28.4,8.6,,,43%,17.0,,30.06,0.0,,,,2025-01-12,1,2025,13,KOKV
2025-01-09,9,14:55,EST,NW  14  G 20,10.0,Fair,CLR,28.4,8.6,,,43%,18.0,,30.07,0.0,,,,2025-01-12,1,2025,14,KOKV
2025-01-09,9,15:55,EST,W  17  G 24,10.0,Fair,CLR,28.4,8.6,,,43%,17.0,,30.08,0.0,,,,2025-01-12,1,2025,15,KOKV
2025-01-09,9,16:55,EST,NW  15  G 24,10.0,Fair,CLR,26.6,8.6,,,46%,16.0,,30.09,0.0,,,,2025-01-12,1,2025,16,KOKV
2025-01-09,9,17:55,EST,NW  10  G 16,10.0,Fair,CLR,26.6,8.6,,,46%,18.0,,30.1,0.0,,,,2025-01-12,1,2025,17,KOKV
2025-01-09,9,18:55,EST,NW  15  G 22,10.0,Fair,CLR,24.8,8.6,,,50%,13.0,,30.12,0.0,,,,2025-01-12,1,2025,18,KOKV
2025-01-09,9,19:55,EST,W  14  G 20,10.0,Fair,CLR,24.8,8.6,,,50%,14.0,,30.15,0.0,,,,2025-01-12,1,2025,19,KOKV
2025-01-09,9,20:55,EST,NW  8  G 16,10.0,Fair,CLR,23.0,8.6,,,54%,15.0,,30.15,0.0,,,,2025-01-12,1,2025,20,KOKV
2025-01-09,9,21:55,EST,NW  16  G 23,10.0,Fair,CLR,23.0,8.6,,,54%,11.0,,30.15,0.0,,,,2025-01-12,1,2025,21,KOKV
2025-01-09,9,22:55,EST,W  12  G 20,10.0,Fair,CLR,23.0,8.6,,,54%,13.0,,30.14,0.0,,,,2025-01-12,1,2025,22,KOKV
2025-01-09,9,23:55,EST,NW  7  G 10,10.0,Fair,CLR,21.2,8.6,,,58%,13.0,,30.12,0.0,,,,2025-01-12,1,2025,23,KOKV
2025-01-10,10,00:55,EST,W  5,10.0,Fair,CLR,21.2,8.6,,,58%,16.0,,30.12,0.0,,,,2025-01-13,1,2025,0,KOKV
2025-01-10,10,01:55,EST,NW  7,10.0,Fair,CLR,21.2,8.6,,,58%,13.0,,30.13,0.0,,,,2025-01-13,1,2025,1,KOKV
2025-01-10,10,02:55,EST,W  5,10.0,Fair,CLR,19.4,6.8,,,58%,14.0,,30.14,0.0,,,,2025-01-13,1,2025,2,KOKV
2025-01-10,10,03:55,EST,W  3,10.0,Fair,CLR,17.6,5.0,,,58%,,,30.16,0.0,,,,2025-01-13,1,2025,3,KOKV
2025-01-10,10,04:55,EST,W  8,10.0,Fair,CLR,14.0,5.0,,,67%,4.0,,30.15,0.0,,,,2025-01-13,1,2025,4,KOKV
2025-01-10,10,05:55,EST,SE  8,10.0,Fair,CLR,8.6,-0.4,,,66%,-3.0,,30.15,0.0,,,,2025-01-13,1,2025,5,KOKV
2025-01-10,10,06:55,EST,Calm,10.0,Fair,CLR,10.4,3.2,,,72%,,,30.15,0.0,,,,2025-01-13,1,2025,6,KOKV
2025-01-10,10,07:55,EST,NW  3,10.0,Fair,CLR,12.2,3.2,,,67%,,,30.14,0.0,,,,2025-01-13,1,2025,7,KOKV
2025-01-10,10,08:55,EST,Calm,10.0,Fair,CLR,14.0,3.2,,,62%,,,30.15,0.0,,,,2025-01-13,1,2025,8,KOKV
2025-01-10,10,09:55,EST,Calm,10.0,Fair,CLR,21.2,5.0,,,49%,,,30.12,0.0,,,,2025-01-13,1,2025,9,KOKV
2025-01-10,10,10:55,EST,W  5,10.0,Fair,CLR,23.0,8.6,,,54%,18.0,,30.12,0.0,,,,2025-01-13,1,2025,10,KOKV
2025-01-12,12,14:55,EST,Calm,10.0,Fair,CLR,35.6,19.4,,,52%,,,30.03,0.0,,,,2025-01-13,1,2025,14,KOKV
2025-01-12,12,15:55,EST,S  3,10.0,Fair,CLR,35.6,19.4,,,52%,,,30.03,0.0,,,,2025-01-13,1,2025,15,KOKV
2025-01-12,12,16:55,EST,Calm,10.0,Fair,CLR,33.8,19.4,,,56%,,,30.01,0.0,,,,2025-01-13,1,2025,16,KOKV
2025-01-10,10,11:55,EST,Calm,10.0,Fair,CLR,26.6,6.8,,,43%,,,30.08,0.0,,,,2025-01-13,1,2025,11,KOKV
2025-01-10,10,12:55,EST,Calm,10.0,Fair,CLR,28.4,8.6,,,43%,,,30.05,0.0,,,,2025-01-13,1,2025,12,KOKV
2025-01-10,10,13:35,EST,Calm,10.0,Fair,CLR,28.4,6.8,,,40%,,,30.02,0.0,,,,2025-01-13,1,2025,13,KOKV
2025-01-10,10,14:55,EST,Calm,10.0,Fair,CLR,28.4,6.8,,,40%,,,29.94,0.0,,,,2025-01-13,1,2025,14,KOKV
2025-01-10,10,15:55,EST,Calm,10.0,Mostly Cloudy,BKN120,30.2,8.6,,,40%,,,29.94,0.0,,,,2025-01-13,1,2025,15,KOKV
2025-01-10,10,16:55,EST,SE  3,10.0,Overcast,OVC100,28.4,12.2,,,51%,,,29.9,0.0,,,,2025-01-13,1,2025,16,KOKV
2025-01-10,10,17:55,EST,Calm,10.0,Overcast,OVC100,28.4,10.4,,,47%,,,29.88,0.0,,,,2025-01-13,1,2025,17,KOKV
2025-01-10,10,18:55,EST,Calm,10.0,Overcast,OVC100,28.4,10.4,,,47%,,,29.86,0.0,,,,2025-01-13,1,2025,18,KOKV
2025-01-10,10,19:55,EST,Calm,10.0,Overcast,OVC080,26.6,12.2,,,54%,,,29.81,0.0,,,,2025-01-13,1,2025,19,KOKV
2025-01-10,10,20:55,EST,Calm,10.0,Overcast,SCT055 OVC070,26.6,10.4,,,50%,,,29.77,0.0,,,,2025-01-13,1,2025,20,KOKV
2025-01-10,10,21:55,EST,Calm,10.0,Overcast,SCT050 BKN060 OVC070,26.6,12.2,,,54%,,,29.76,0.0,,,,2025-01-13,1,2025,21,KOKV
2025-01-10,10,22:55,EST,SE  5,2.5,Overcast,SCT022 BKN026 OVC048,24.8,19.4,,,80%,20.0,,29.73,0.0,,,,2025-01-13,1,2025,22,KOKV
2025-01-10,10,23:55,EST,S  5,1.5,Overcast,BKN014 BKN018 OVC022,23.0,19.4,,,86%,18.0,,29.7,0.0,,,,2025-01-13,1,2025,23,KOKV
2025-01-11,11,00:55,EST,Calm,3.0,Overcast,SCT022 BKN029 OVC050,23.0,21.2,,,93%,,,29.66,0.0,,,,2025-01-14,1,2025,0,KOKV
2025-01-11,11,01:55,EST,Calm,7.0,Overcast,SCT029 BKN041 OVC110,23.0,21.2,,,93%,,,29.62,0.0,,,,2025-01-14,1,2025,1,KOKV
2025-01-11,11,02:55,EST,Calm,7.0,Mostly Cloudy,SCT017 BKN100 BKN120,19.4,17.6,,,93%,,,29.59,0.0,,,,2025-01-14,1,2025,2,KOKV
2025-01-11,11,03:55,EST,Calm,7.0,Overcast,OVC017,21.2,19.4,,,93%,,,29.57,0.0,,,,2025-01-14,1,2025,3,KOKV
2025-01-11,11,04:55,EST,Calm,7.0,Overcast,OVC013,21.2,19.4,,,93%,,,29.56,0.0,,,,2025-01-14,1,2025,4,KOKV
2025-01-11,11,05:55,EST,Calm,4.0,Partly Cloudy,SCT031 SCT120,17.6,17.6,,,100%,,,29.56,0.0,,,,2025-01-14,1,2025,5,KOKV
2025-01-11,11,06:55,EST,NE  3,10.0,Overcast,OVC031,21.2,17.6,,,86%,,,29.55,0.0,,,,2025-01-14,1,2025,6,KOKV
2025-01-11,11,07:55,EST,Calm,7.0,Fair,CLR,17.6,15.8,,,93%,,,29.58,0.0,,,,2025-01-14,1,2025,7,KOKV
2025-01-11,11,08:55,EST,Calm,10.0,Fair,CLR,21.2,17.6,,,86%,,,29.59,0.0,,,,2025-01-14,1,2025,8,KOKV
2025-01-11,11,09:55,EST,NW  17,10.0,Fair,CLR,28.4,17.6,,,64%,17.0,,29.6,0.0,,,,2025-01-14,1,2025,9,KOKV
2025-01-11,11,10:55,EST,NW  15  G 21,10.0,Fair,CLR,30.2,17.6,,,59%,20.0,,29.62,0.0,,,,2025-01-14,1,2025,10,KOKV
2025-01-11,11,11:55,EST,NW  22  G 31,7.0,Fair and Breezy,CLR,32.0,17.6,,,55%,20.0,,29.62,0.0,,,,2025-01-14,1,2025,11,KOKV
2025-01-11,11,12:55,EST,NW  14  G 23,10.0,Overcast,OVC041,32.0,19.4,,,60%,23.0,,29.63,0.0,,,,2025-01-14,1,2025,12,KOKV
2025-01-11,11,13:55,EST,NW  21  G 24,10.0,Overcast and Breezy,BKN043 OVC110,32.0,17.6,,,55%,21.0,,29.65,0.0,,,,2025-01-14,1,2025,13,KOKV
2025-01-11,11,14:55,EST,NW  25  G 30,10.0,Fair and Breezy,CLR,32.0,17.6,,,55%,19.0,,29.68,0.0,,,,2025-01-14,1,2025,14,KOKV
2025-01-11,11,15:55,EST,NW  20  G 25,10.0,Mostly Cloudy,BKN040,30.2,17.6,,,59%,19.0,,29.74,0.0,,,,2025-01-14,1,2025,15,KOKV
2025-01-11,11,16:55,EST,W  9,10.0,Overcast,OVC040,32.0,17.6,,,55%,25.0,,29.79,0.0,,,,2025-01-14,1,2025,16,KOKV
2025-01-11,11,17:55,EST,NW  18  G 28,10.0,Mostly Cloudy,BKN036,30.2,19.4,,,64%,19.0,,29.81,0.0,,,,2025-01-14,1,2025,17,KOKV
2025-01-11,11,18:55,EST,NW  18  G 24,10.0,Mostly Cloudy,BKN036,30.2,19.4,,,64%,19.0,,29.83,0.0,,,,2025-01-14,1,2025,18,KOKV
2025-01-11,11,19:55,EST,NW  14  G 24,10.0,Mostly Cloudy,BKN036,30.2,19.4,,,64%,21.0,,29.87,0.0,,,,2025-01-14,1,2025,19,KOKV
2025-01-11,11,20:55,EST,NW  10,10.0,Overcast,SCT036 OVC041,30.2,19.4,,,64%,22.0,,29.89,0.0,,,,2025-01-14,1,2025,20,KOKV
2025-01-11,11,21:55,EST,NW  10,10.0,Fair,CLR,28.4,19.4,,,69%,20.0,,29.9,0.0,,,,2025-01-14,1,2025,21,KOKV
2025-01-11,11,22:55,EST,NW  8,10.0,Mostly Cloudy,BKN044,28.4,19.4,,,69%,21.0,,29.93,0.0,,,,2025-01-15,1,2025,22,KOKV
2025-01-11,11,23:55,EST,Calm,10.0,Partly Cloudy,SCT050,24.8,17.6,,,74%,,,29.94,0.0,,,,2025-01-15,1,2025,23,KOKV
2025-01-12,12,00:55,EST,Calm,10.0,Overcast,OVC045,26.6,17.6,,,69%,,,29.95,0.0,,,,2025-01-15,1,2025,0,KOKV
2025-01-12,12,01:55,EST,S  3,10.0,Overcast,OVC041,32.0,19.4,,,60%,,,29.97,0.0,,,,2025-01-15,1,2025,1,KOKV
2025-01-12,12,02:55,EST,NW  10,10.0,Overcast,OVC039,32.0,19.4,,,60%,24.0,,29.97,0.0,,,,2025-01-15,1,2025,2,KOKV
2025-01-12,12,03:55,EST,NW  8,10.0,Partly Cloudy,SCT042,30.2,19.4,,,64%,23.0,,29.98,0.0,,,,2025-01-15,1,2025,3,KOKV
2025-01-12,12,04:55,EST,NW  5,10.0,Mostly Cloudy,BKN045,30.2,19.4,,,64%,26.0,,29.99,0.0,,,,2025-01-15,1,2025,4,KOKV
2025-01-12,12,05:55,EST,NW  10,10.0,Fair,CLR,30.2,19.4,,,64%,22.0,,29.99,0.0,,,,2025-01-15,1,2025,5,KOKV
2025-01-12,12,06:55,EST,W  7,10.0,Fair,CLR,28.4,19.4,,,69%,22.0,,30.02,0.0,,,,2025-01-15,1,2025,6,KOKV
2025-01-12,12,07:55,EST,W  6,10.0,Fair,CLR,28.4,19.4,,,69%,23.0,,30.04,0.0,,,,2025-01-15,1,2025,7,KOKV
2025-01-12,12,08:55,EST,W  7,10.0,Fair,CLR,30.2,19.4,,,64%,24.0,,30.07,0.0,,,,2025-01-15,1,2025,8,KOKV
2025-01-12,12,09:55,EST,W  5,10.0,Fair,CLR,32.0,19.4,,,60%,28.0,,30.09,0.0,,,,2025-01-15,1,2025,9,KOKV
2025-01-12,12,10:55,EST,W  7,10.0,Fair,CLR,32.0,21.2,,,64%,26.0,,30.12,0.0,,,,2025-01-15,1,2025,10,KOKV
2025-01-12,12,11:55,EST,SW  8,10.0,Fair,CLR,33.8,19.4,,,56%,28.0,,30.1,0.0,,,,2025-01-15,1,2025,11,KOKV
2025-01-12,12,12:55,EST,SW  6,10.0,Fair,CLR,33.8,19.4,,,56%,29.0,,30.05,0.0,,,,2025-01-15,1,2025,12,KOKV
2025-01-12,12,13:15,EST,SW  3,10.0,Fair,CLR,33.8,19.4,,,56%,,,30.04,0.0,,,,2025-01-15,1,2025,13,KOKV
2025-01-12,12,17:55,EST,Calm,10.0,Fair,CLR,30.2,19.4,,,64%,,,30.03,0.0,,,,2025-01-15,1,2025,17,KOKV
2025-01-12,12,18:55,EST,Calm,10.0,Fair,CLR,30.2,17.6,,,59%,,,30.04,0.0,,,,2025-01-15,1,2025,18,KOKV
2025-01-12,12,19:55,EST,Calm,10.0,Fair,CLR,28.4,17.6,,,64%,,,30.04,0.0,,,,2025-01-15,1,2025,19,KOKV
2025-01-12,12,20:55,EST,Calm,10.0,Fair,CLR,26.6,17.6,,,69%,,,30.04,0.0,,,,2025-01-15,1,2025,20,KOKV
2025-01-12,12,21:55,EST,S  5,10.0,Fair,CLR,28.4,17.6,,,64%,24.0,,30.02,0.0,,,,2025-01-15,1,2025,21,KOKV
2025-01-12,12,22:55,EST,S  5,10.0,Fair,CLR,28.4,19.4,,,69%,24.0,,30.01,0.0,,,,2025-01-15,1,2025,22,KOKV
2025-01-12,12,23:55,EST,SW  5,10.0,Fair,CLR,30.2,17.6,,,59%,26.0,,30.0,0.0,,,,2025-01-15,1,2025,23,KOKV
2025-01-13,13,00:55,EST,SW  5,10.0,Fair,CLR,28.4,17.6,,,64%,24.0,,30.0,0.0,,,,2025-01-16,1,2025,0,KOKV
2025-01-13,13,01:55,EST,SW  3,10.0,Fair,CLR,28.4,17.6,,,64%,,,30.0,0.0,,,,2025-01-16,1,2025,1,KOKV
2025-01-13,13,02:55,EST,SW  6,10.0,Fair,CLR,30.2,17.6,,,59%,25.0,,29.99,0.0,,,,2025-01-16,1,2025,2,KOKV
2025-01-13,13,03:55,EST,SW  8,10.0,Fair,CLR,30.2,17.6,,,59%,23.0,,30.0,0.0,,,,2025-01-16,1,2025,3,KOKV
2025-01-13,13,04:55,EST,SW  6,10.0,Overcast,OVC060,30.2,19.4,,,64%,25.0,,30.0,0.0,,,,2025-01-16,1,2025,4,KOKV
2025-01-13,13,05:55,EST,SW  6,10.0,Overcast,SCT042 OVC050,30.2,19.4,,,64%,25.0,,30.0,0.0,,,,2025-01-16,1,2025,5,KOKV
2025-01-13,13,06:55,EST,SW  6,10.0,Overcast,OVC042,30.2,19.4,,,64%,25.0,,29.99,0.0,,,,2025-01-16,1,2025,6,KOKV
2025-01-13,13,07:55,EST,SW  7,10.0,Overcast,OVC040,32.0,19.4,,,60%,26.0,,30.0,0.0,,,,2025-01-16,1,2025,7,KOKV
2025-01-13,13,08:55,EST,SW  9,10.0,Overcast,SCT036 OVC048,32.0,21.2,,,64%,25.0,,30.02,0.0,,,,2025-01-16,1,2025,8,KOKV
2025-01-13,13,09:55,EST,SW  5,10.0,Overcast,OVC060,33.8,23.0,,,65%,30.0,,30.04,0.0,,,,2025-01-16,1,2025,9,KOKV
2025-01-13,13,10:55,EST,SW  9,10.0,Overcast,OVC060,37.4,24.8,,,60%,31.0,,30.02,0.0,,,,2025-01-16,1,2025,10,KOKV
2025-01-13,13,11:55,EST,SW  8,10.0,Overcast,OVC050,39.2,26.6,,,61%,34.0,,29.98,0.0,,,,2025-01-16,1,2025,11,KOKV
2025-01-13,13,12:55,EST,W  24  G 30,10.0,Overcast and Breezy,OVC050,41.0,23.0,,,49%,32.0,,29.95,0.0,,,,2025-01-16,1,2025,12,KOKV
2025-01-13,13,13:55,EST,W  15  G 24,10.0,Overcast,OVC050,42.8,23.0,,,46%,36.0,,29.94,0.0,,,,2025-01-16,1,2025,13,KOKV
2025-01-13,13,14:55,EST,W  22  G 26,10.0,Overcast and Breezy,OVC055,41.0,23.0,,,49%,32.0,,29.95,0.0,,,,2025-01-16,1,2025,14,KOKV
2025-01-13,13,15:55,EST,W  18  G 24,10.0,Partly Cloudy,SCT055,41.0,23.0,,,49%,33.0,,29.97,0.0,,,,2025-01-17,1,2025,15,KOKV
2025-01-13,13,16:55,EST,W  10  G 22,10.0,Partly Cloudy,SCT055,39.2,21.2,,,48%,33.0,,29.99,0.0,,,,2025-01-17,1,2025,16,KOKV
2025-01-13,13,17:55,EST,SW  3,10.0,Fair,CLR,37.4,21.2,,,52%,,,30.0,0.0,,,,2025-01-17,1,2025,17,KOKV
2025-01-13,13,18:55,EST,SW  5,10.0,Fair,CLR,35.6,21.2,,,56%,32.0,,30.0,0.0,,,,2025-01-17,1,2025,18,KOKV
2025-01-13,13,19:55,EST,W  5,10.0,Fair,CLR,35.6,19.4,,,52%,32.0,,30.01,0.0,,,,2025-01-17,1,2025,19,KOKV
2025-01-13,13,20:55,EST,W  12,10.0,Fair,CLR,33.8,19.4,,,56%,26.0,,30.0,0.0,,,,2025-01-17,1,2025,20,KOKV
2025-01-13,13,21:55,EST,W  8,10.0,Fair,CLR,33.8,19.4,,,56%,28.0,,30.01,0.0,,,,2025-01-17,1,2025,21,KOKV
2025-01-13,13,22:55,EST,NW  13,10.0,Fair,CLR,32.0,19.4,,,60%,23.0,,30.0,0.0,,,,2025-01-17,1,2025,22,KOKV
2025-01-13,13,23:55,EST,W  20,10.0,Fair,CLR,32.0,15.8,,,51%,21.0,,30.02,0.0,,,,2025-01-17,1,2025,23,KOKV
2025-01-14,14,00:55,EST,NW  12  G 25,10.0,Fair,CLR,30.2,15.8,,,55%,21.0,,30.04,0.0,,,,2025-01-17,1,2025,0,KOKV
2025-01-14,14,01:55,EST,W  18  G 25,10.0,Fair,CLR,30.2,12.2,,,47%,19.0,,30.05,0.0,,,,2025-01-17,1,2025,1,KOKV
2025-01-14,14,02:55,EST,NW  15  G 20,10.0,Fair,CLR,28.4,10.4,,,47%,18.0,,30.07,0.0,,,,2025-01-17,1,2025,2,KOKV
2025-01-14,14,03:55,EST,NW  16  G 21,10.0,Fair,CLR,26.6,10.4,,,50%,15.0,,30.09,0.0,,,,2025-01-17,1,2025,3,KOKV
2025-01-14,14,04:55,EST,NW  12  G 23,10.0,Fair,CLR,24.8,8.6,,,50%,15.0,,30.12,0.0,,,,2025-01-17,1,2025,4,KOKV
2025-01-14,14,05:55,EST,W  18,10.0,Fair,CLR,23.0,6.8,,,50%,10.0,,30.13,0.0,,,,2025-01-17,1,2025,5,KOKV
2025-01-14,14,06:55,EST,NW  18  G 22,10.0,Fair,CLR,21.2,5.0,,,49%,7.0,,30.16,0.0,,,,2025-01-17,1,2025,6,KOKV
2025-01-14,14,07:55,EST,NW  14  G 17,10.0,Fair,CLR,21.2,3.2,,,45%,9.0,,30.18,0.0,,,,2025-01-17,1,2025,7,KOKV
2025-01-14,14,08:55,EST,NW  8,10.0,Fair,CLR,23.0,3.2,,,42%,15.0,,30.19,0.0,,,,2025-01-17,1,2025,8,KOKV
2025-01-14,14,09:35,EST,NW  9,10.0,Fair,CLR,23.0,5.0,,,46%,14.0,,30.18,0.0,,,,2025-01-17,1,2025,9,KOKV
2025-01-14,14,10:35,EST,N  6,10.0,Fair,CLR,26.6,5.0,,,39%,21.0,,30.17,0.0,,,,2025-01-17,1,2025,10,KOKV
2025-01-15,15,12:55,EST,NW  15  G 23,10.0,Fair,CLR,26.6,10.4,,,50%,16.0,,30.3,0.0,,,,2025-01-18,1,2025,12,KOKV
2025-01-15,15,13:55,EST,NW  17  G 24,10.0,Fair,CLR,28.4,10.4,,,47%,17.0,,30.28,0.0,,,,2025-01-18,1,2025,13,KOKV
2025-01-15,15,14:55,EST,W  12  G 17,10.0,Fair,CLR,28.4,10.4,,,47%,19.0,,30.28,0.0,,,,2025-01-18,1,2025,14,KOKV
2025-01-15,15,15:55,EST,NW  12,10.0,Fair,CLR,26.6,8.6,,,46%,17.0,,30.28,0.0,,,,2025-01-18,1,2025,15,KOKV
2025-01-15,15,16:55,EST,NW  9  G 21,10.0,Fair,CLR,24.8,8.6,,,50%,16.0,,30.29,0.0,,,,2025-01-18,1,2025,16,KOKV
2025-01-15,15,17:55,EST,NW  7,10.0,Fair,CLR,23.0,8.6,,,54%,16.0,,30.28,0.0,,,,2025-01-18,1,2025,17,KOKV
2025-01-15,15,18:55,EST,W  8,10.0,Fair,CLR,21.2,6.8,,,54%,12.0,,30.29,0.0,,,,2025-01-18,1,2025,18,KOKV
2025-01-15,15,19:55,EST,NW  3,10.0,Fair,CLR,21.2,6.8,,,54%,,,30.28,0.0,,,,2025-01-18,1,2025,19,KOKV
2025-01-15,15,20:55,EST,NW  12,10.0,Fair,CLR,21.2,8.6,,,58%,10.0,,30.27,0.0,,,,2025-01-18,1,2025,20,KOKV
2025-01-15,15,21:55,EST,W  6,10.0,Fair,CLR,19.4,8.6,,,63%,12.0,,30.25,0.0,,,,2025-01-18,1,2025,21,KOKV
2025-01-15,15,22:55,EST,Calm,10.0,Fair,CLR,14.0,6.8,,,73%,,,30.24,0.0,,,,2025-01-18,1,2025,22,KOKV
2025-01-15,15,23:55,EST,W  5,10.0,Fair,CLR,14.0,6.8,,,73%,7.0,,30.22,0.0,,,,2025-01-18,1,2025,23,KOKV
2025-01-16,16,00:55,EST,Calm,10.0,Fair,CLR,14.0,5.0,,,67%,,,30.19,0.0,,,,2025-01-19,1,2025,0,KOKV
2025-01-16,16,01:15,EST,Calm,10.0,Fair,CLR,14.0,5.0,,,67%,,,30.18,0.0,,,,2025-01-19,1,2025,1,KOKV
2025-01-16,16,03:55,EST,Calm,10.0,Mostly Cloudy,BKN085,12.2,5.0,,,73%,,,30.12,0.0,,,,2025-01-19,1,2025,3,KOKV
2025-01-16,16,04:55,EST,W  3,10.0,Overcast,OVC085,17.6,10.4,,,73%,,,30.1,0.0,,,,2025-01-19,1,2025,4,KOKV
2025-01-16,16,05:55,EST,S  3,10.0,Overcast,OVC085,19.4,8.6,,,63%,,,30.06,0.0,,,,2025-01-19,1,2025,5,KOKV
2025-01-16,16,06:55,EST,S  3,10.0,Overcast,OVC085,19.4,8.6,,,63%,,,30.05,0.0,,,,2025-01-19,1,2025,6,KOKV
2025-01-16,16,07:55,EST,S  3,10.0,Overcast,BKN065 OVC075,21.2,8.6,,,58%,,,30.03,0.0,,,,2025-01-19,1,2025,7,KOKV
2025-01-16,16,08:55,EST,S  5,10.0,Overcast,BKN080 OVC090,21.2,8.6,,,58%,16.0,,30.0,0.0,,,,2025-01-19,1,2025,8,KOKV
2025-01-16,16,09:55,EST,S  3,10.0,Overcast,OVC090,23.0,10.4,,,58%,,,29.96,0.0,,,,2025-01-19,1,2025,9,KOKV
2025-01-16,16,10:55,EST,SW  7,10.0,Overcast,BKN100 OVC120,26.6,10.4,,,50%,20.0,,29.92,0.0,,,,2025-01-19,1,2025,10,KOKV
2025-01-16,16,11:55,EST,SW  6,10.0,Overcast,SCT060 OVC080,28.4,10.4,,,47%,23.0,,29.86,0.0,,,,2025-01-19,1,2025,11,KOKV
2025-01-16,16,12:55,EST,S  6,10.0,Mostly Cloudy,SCT046 BKN060 BKN110,30.2,12.2,,,47%,25.0,,29.8,0.0,,,,2025-01-19,1,2025,12,KOKV
2025-01-16,16,13:55,EST,SW  10,10.0,Overcast,SCT070 BKN080 OVC100,33.8,17.6,,,51%,26.0,,29.76,0.0,,,,2025-01-19,1,2025,13,KOKV
2025-01-16,16,14:15,EST,SW  7,10.0,Overcast,SCT043 OVC070,33.8,17.6,,,51%,28.0,,29.75,0.0,,,,2025-01-19,1,2025,14,KOKV
2025-01-17,17,09:55,EST,W  6,10.0,Overcast,OVC045,33.8,23.0,,,65%,29.0,,30.15,0.0,,,,2025-01-20,1,2025,9,KOKV
2025-01-17,17,10:55,EST,SW  8,10.0,Overcast,OVC045,35.6,23.0,,,60%,30.0,,30.15,0.0,,,,2025-01-20,1,2025,10,KOKV
2025-01-17,17,11:55,EST,SW  6,10.0,Overcast,OVC047,35.6,23.0,,,60%,31.0,,30.12,0.0,,,,2025-01-20,1,2025,11,KOKV
2025-01-17,17,12:35,EST,SW  6,10.0,Overcast,OVC042,35.6,23.0,,,60%,31.0,,30.1,0.0,,,,2025-01-20,1,2025,12,KOKV
2025-01-17,17,13:55,EST,W  5,10.0,Partly Cloudy,SCT042,37.4,23.0,,,56%,34.0,,30.06,0.0,,,,2025-01-20,1,2025,13,KOKV
2025-01-17,17,14:55,EST,SW  5,10.0,Fair,CLR,39.2,21.2,,,48%,36.0,,30.04,0.0,,,,2025-01-20,1,2025,14,KOKV
2025-01-17,17,15:55,EST,S  5,10.0,Fair,CLR,41.0,23.0,,,49%,38.0,,30.04,0.0,,,,2025-01-20,1,2025,15,KOKV
2025-01-17,17,16:55,EST,S  5,10.0,Fair,CLR,37.4,23.0,,,56%,34.0,,30.05,0.0,,,,2025-01-20,1,2025,16,KOKV
2025-01-17,17,17:55,EST,SE  7,10.0,Fair,CLR,35.6,21.2,,,56%,31.0,,30.05,0.0,,,,2025-01-20,1,2025,17,KOKV
2025-01-17,17,18:55,EST,S  3,10.0,Fair,CLR,32.0,21.2,,,64%,,,30.04,0.0,,,,2025-01-20,1,2025,18,KOKV
2025-01-17,17,19:55,EST,S  5,10.0,Fair,CLR,32.0,21.2,,,64%,28.0,,30.03,0.0,,,,2025-01-20,1,2025,19,KOKV
2025-01-17,17,20:55,EST,S  7,10.0,Fair,CLR,32.0,21.2,,,64%,26.0,,30.03,0.0,,,,2025-01-20,1,2025,20,KOKV
2025-01-17,17,21:55,EST,S  6,10.0,Fair,CLR,33.8,21.2,,,60%,29.0,,30.02,0.0,,,,2025-01-20,1,2025,21,KOKV
2025-01-17,17,22:55,EST,S  5,10.0,Fair,CLR,32.0,21.2,,,64%,28.0,,30.0,0.0,,,,2025-01-20,1,2025,22,KOKV
2025-01-17,17,23:55,EST,Calm,10.0,Fair,CLR,30.2,21.2,,,69%,,,29.98,0.0,,,,2025-01-21,1,2025,23,KOKV
2025-01-18,18,00:55,EST,S  3,10.0,Fair,CLR,30.2,21.2,,,69%,,,29.97,0.0,,,,2025-01-21,1,2025,0,KOKV
2025-01-18,18,01:55,EST,S  6,10.0,Fair,CLR,32.0,21.2,,,64%,27.0,,29.95,0.0,,,,2025-01-21,1,2025,1,KOKV
2025-01-18,18,02:55,EST,S  3,10.0,Fair,CLR,32.0,21.2,,,64%,,,29.93,0.0,,,,2025-01-21,1,2025,2,KOKV
2025-01-18,18,03:35,EST,S  5,10.0,Fair,CLR,32.0,23.0,,,69%,28.0,,29.91,0.0,,,,2025-01-21,1,2025,3,KOKV
2025-01-18,18,04:55,EST,SW  5,10.0,Fair,CLR,32.0,23.0,,,69%,28.0,,29.89,0.0,,,,2025-01-21,1,2025,4,KOKV
2025-01-18,18,05:55,EST,S  7,10.0,Partly Cloudy,SCT120,32.0,23.0,,,69%,26.0,,29.89,0.0,,,,2025-01-21,1,2025,5,KOKV
2025-01-18,18,06:55,EST,Calm,10.0,Overcast,OVC100,32.0,23.0,,,69%,,,29.87,0.0,,,,2025-01-21,1,2025,6,KOKV
2025-01-18,18,07:55,EST,S  5,10.0,Overcast,SCT050 BKN065 OVC090,32.0,24.8,,,75%,28.0,,29.87,0.0,,,,2025-01-21,1,2025,7,KOKV
2025-01-18,18,08:55,EST,Calm,7.0,Overcast,OVC047,32.0,30.2,,,93%,,,29.85,0.0,,,,2025-01-21,1,2025,8,KOKV
2025-01-18,18,09:55,EST,S  5,10.0,Overcast,SCT039 BKN060 OVC075,33.8,32.0,,,93%,30.0,,29.82,0.0,,,,2025-01-21,1,2025,9,KOKV
2025-01-18,18,10:55,EST,SW  3,10.0,Overcast,OVC060,35.6,33.8,,,93%,,,29.83,0.0,,,,2025-01-21,1,2025,10,KOKV
2025-01-18,18,11:55,EST,S  6,10.0,Overcast,SCT070 OVC100,37.4,33.8,,,87%,33.0,,29.78,0.0,,,,2025-01-21,1,2025,11,KOKV
2025-01-18,18,12:55,EST,S  5,10.0,Overcast,BKN060 OVC070,41.0,33.8,,,76%,38.0,,29.74,0.0,,,,2025-01-21,1,2025,12,KOKV
2025-01-18,18,13:55,EST,S  7,10.0,Overcast,BKN090 OVC100,44.6,35.6,,,71%,41.0,,29.7,0.0,,,,2025-01-21,1,2025,13,KOKV
2025-01-18,18,14:55,EST,SW  6,10.0,Partly Cloudy,SCT080,46.4,35.6,,,66%,44.0,,29.68,0.0,,,,2025-01-21,1,2025,14,KOKV
2025-01-18,18,15:55,EST,SW  7,10.0,Mostly Cloudy,BKN049,46.4,33.8,,,62%,43.0,,29.69,0.0,,,,2025-01-21,1,2025,15,KOKV
2025-01-18,18,16:55,EST,SW  5,10.0,Overcast,BKN049 BKN060 OVC090,44.6,33.8,,,66%,43.0,,29.72,0.0,,,,2025-01-21,1,2025,16,KOKV
2025-01-18,18,17:55,EST,Calm,10.0,Mostly Cloudy,SCT045 BKN090,42.8,33.8,,,71%,,,29.73,0.0,,,,2025-01-21,1,2025,17,KOKV
2025-01-18,18,18:55,EST,Calm,10.0,Overcast,OVC090,41.0,33.8,,,76%,,,29.76,0.0,,,,2025-01-21,1,2025,18,KOKV
2025-01-18,18,19:55,EST,Calm,10.0,Overcast,OVC043,37.4,32.0,,,81%,,,29.77,0.0,,,,2025-01-21,1,2025,19,KOKV
2025-01-18,18,20:35,EST,Calm,10.0,Overcast,OVC043,37.4,32.0,,,81%,,,29.78,0.0,,,,2025-01-21,1,2025,20,KOKV
2025-01-18,18,21:55,EST,Calm,10.0,Overcast,SCT040 BKN060 OVC095,35.6,32.0,,,87%,,,29.8,0.0,,,,2025-01-21,1,2025,21,KOKV
2025-01-18,18,22:55,EST,N  3,10.0,Overcast,OVC095,35.6,32.0,,,87%,,,29.81,0.0,,,,2025-01-21,1,2025,22,KOKV
2025-01-18,18,23:55,EST,Calm,10.0,Overcast,BKN038 OVC095,33.8,32.0,,,93%,,,29.81,0.0,,,,2025-01-21,1,2025,23,KOKV
2025-01-19,19,00:55,EST,Calm,10.0,Overcast,SCT040 OVC095,35.6,32.0,,,87%,,,29.79,0.0,,,,2025-01-22,1,2025,0,KOKV
2025-01-19,19,01:55,EST,E  3,10.0,Overcast,SCT031 OVC095,33.8,32.0,,,93%,,,29.79,0.0,,,,2025-01-22,1,2025,1,KOKV
2025-01-19,19,02:55,EST,Calm,10.0,Overcast,SCT027 SCT034 OVC095,37.4,32.0,,,81%,,,29.81,0.0,,,,2025-01-22,1,2025,2,KOKV
2025-01-19,19,03:55,EST,Calm,10.0,Overcast,SCT029 OVC095,35.6,32.0,,,87%,,,29.8,0.0,,,,2025-01-22,1,2025,3,KOKV
2025-01-19,19,04:55,EST,Calm,7.0,Overcast,SCT024 BKN029 OVC050,33.8,32.0,,,93%,,,29.8,0.0,,,,2025-01-22,1,2025,4,KOKV
2025-01-19,19,05:55,EST,NW  3,10.0,Overcast,BKN024 OVC041,33.8,32.0,,,93%,,,29.81,0.0,,,,2025-01-22,1,2025,5,KOKV
2025-01-19,19,06:55,EST,N  3,10.0,Overcast,OVC026,35.6,32.0,,,87%,,,29.82,0.0,,,,2025-01-22,1,2025,6,KOKV
2025-01-19,19,07:55,EST,Calm,10.0,Overcast,SCT022 OVC026,35.6,32.0,,,87%,,,29.81,0.0,,,,2025-01-22,1,2025,7,KOKV
2025-01-19,19,08:55,EST,E  5,3.0,Overcast,OVC022,33.8,32.0,,,93%,30.0,,29.81,0.0,,,,2025-01-22,1,2025,8,KOKV
2025-01-19,19,09:55,EST,Calm,1.0,Overcast,BKN003 OVC020,32.0,32.0,,,100%,,,29.82,0.0,,,,2025-01-22,1,2025,9,KOKV
2025-01-19,19,10:55,EST,Calm,2.0,Overcast,OVC003,32.0,32.0,,,100%,,,29.78,0.0,,,,2025-01-22,1,2025,10,KOKV
2025-01-19,19,11:55,EST,NE  3,2.0,Overcast,OVC005,32.0,32.0,,,100%,,,29.74,0.0,,,,2025-01-22,1,2025,11,KOKV
2025-01-19,19,12:55,EST,Calm,0.5,Overcast,OVC003,32.0,32.0,,,100%,,,29.69,0.0,,,,2025-01-22,1,2025,12,KOKV
2025-01-19,19,13:55,EST,NW  8,0.25,Overcast,OVC003,32.0,32.0,,,100%,25.0,,29.7,0.0,,,,2025-01-22,1,2025,13,KOKV
2025-01-19,19,14:55,EST,N  8,0.5,Overcast,OVC007,30.2,28.4,,,93%,23.0,,29.71,0.0,,,,2025-01-22,1,2025,14,KOKV
2025-01-19,19,15:55,EST,N  9,0.75,Overcast,BKN006 OVC012,30.2,28.4,,,93%,23.0,,29.75,0.0,,,,2025-01-22,1,2025,15,KOKV
2025-01-19,19,16:55,EST,NW  7,3.0,Overcast,SCT009 SCT016 OVC034,28.4,26.6,,,93%,22.0,,29.77,0.0,,,,2025-01-22,1,2025,16,KOKV
2025-01-19,19,17:55,EST,NW  12  G 24,5.0,Overcast,SCT012 BKN021 OVC055,28.4,23.0,,,80%,19.0,,29.81,0.0,,,,2025-01-22,1,2025,17,KOKV
2025-01-19,19,18:55,EST,NW  8,10.0,Overcast,SCT015 BKN020 OVC085,26.6,21.2,,,80%,19.0,,29.87,0.0,,,,2025-01-22,1,2025,18,KOKV
2025-01-19,19,19:55,EST,NW  12,10.0,Overcast,SCT020 BKN025 OVC095,24.8,19.4,,,80%,15.0,,29.9,0.0,,,,2025-01-22,1,2025,19,KOKV
2025-01-19,19,20:55,EST,NW  14,10.0,Overcast,BKN033 OVC038,23.0,15.8,,,74%,11.0,,29.93,0.0,,,,2025-01-22,1,2025,20,KOKV
2025-01-19,19,21:35,EST,W  7,10.0,Partly Cloudy,SCT032 SCT038,23.0,14.0,,,68%,16.0,,29.95,0.0,,,,2025-01-22,1,2025,21,KOKV
2025-01-19,19,22:55,EST,NW  16  G 22,10.0,Fair,CLR,21.2,14.0,,,74%,8.0,,29.97,0.0,,,,2025-01-22,1,2025,22,KOKV
2025-01-19,19,23:55,EST,NW  9,10.0,Overcast,BKN030 OVC035,19.4,14.0,,,79%,10.0,,30.01,0.0,,,,2025-01-22,1,2025,23,KOKV
2025-01-20,20,00:55,EST,W  12,10.0,Partly Cloudy,SCT030 SCT039,21.2,14.0,,,74%,10.0,,30.03,0.0,,,,2025-01-23,1,2025,0,KOKV
2025-01-20,20,01:55,EST,W  8,10.0,Fair,CLR,21.2,12.2,,,68%,12.0,,30.05,0.0,,,,2025-01-23,1,2025,1,KOKV
2025-01-20,20,02:55,EST,W  12  G 20,10.0,Partly Cloudy,SCT042 SCT055,21.2,10.4,,,63%,10.0,,30.09,0.0,,,,2025-01-23,1,2025,2,KOKV
2025-01-20,20,03:55,EST,W  9  G 20,10.0,Fair,CLR,21.2,10.4,,,63%,12.0,,30.11,0.0,,,,2025-01-23,1,2025,3,KOKV
2025-01-20,20,04:55,EST,W  7,10.0,Fair,CLR,19.4,10.4,,,68%,11.0,,30.14,0.0,,,,2025-01-23,1,2025,4,KOKV
2025-01-20,20,05:55,EST,NW  7,10.0,Fair,CLR,19.4,8.6,,,63%,11.0,,30.15,0.0,,,,2025-01-23,1,2025,5,KOKV
2025-01-20,20,06:55,EST,W  9,10.0,Mostly Cloudy,BKN065,19.4,10.4,,,68%,10.0,,30.21,0.0,,,,2025-01-23,1,2025,6,KOKV
2025-01-20,20,07:55,EST,W  5,10.0,Overcast,SCT022 BKN036 OVC046,19.4,10.4,,,68%,14.0,,30.24,0.0,,,,2025-01-23,1,2025,7,KOKV
2025-01-20,20,08:55,EST,W  17  G 23,1.0,Overcast,SCT010 OVC017,19.4,12.2,,,73%,5.0,,30.28,0.0,,,,2025-01-23,1,2025,8,KOKV
2025-01-20,20,09:55,EST,NW  18  G 24,5.0,Partly Cloudy,SCT031,17.6,5.0,,,58%,3.0,,30.32,0.0,,,,2025-01-23,1,2025,9,KOKV
2025-01-20,20,10:55,EST,W  13,10.0,Partly Cloudy,SCT048,19.4,5.0,,,53%,8.0,,30.37,0.0,,,,2025-01-23,1,2025,10,KOKV
2025-01-20,20,11:55,EST,W  17  G 21,10.0,Partly Cloudy,SCT044,17.6,1.4,,,49%,3.0,,30.37,0.0,,,,2025-01-23,1,2025,11,KOKV
2025-01-20,20,12:55,EST,W  16  G 22,7.0,Fair,CLR,17.6,-0.4,,,45%,4.0,,30.37,0.0,,,,2025-01-23,1,2025,12,KOKV
2025-01-20,20,13:55,EST,NW  17,10.0,Fair,CLR,17.6,-0.4,,,45%,3.0,,30.37,0.0,,,,2025-01-23,1,2025,13,KOKV
2025-01-20,20,14:55,EST,NW  15,10.0,Fair,CLR,17.6,1.4,,,49%,4.0,,30.39,0.0,,,,2025-01-23,1,2025,14,KOKV
2025-01-20,20,15:55,EST,NW  15  G 20,10.0,Fair,CLR,17.6,-2.2,,,41%,4.0,,30.4,0.0,,,,2025-01-23,1,2025,15,KOKV
2025-01-20,20,16:55,EST,NW  12,10.0,Fair,CLR,14.0,-2.2,,,48%,1.0,,30.41,0.0,,,,2025-01-23,1,2025,16,KOKV
2025-01-20,20,17:55,EST,Calm,10.0,Fair,CLR,12.2,-2.2,,,52%,,,30.44,0.0,,,,2025-01-23,1,2025,17,KOKV
2025-01-20,20,18:55,EST,Calm,10.0,Fair,CLR,8.6,-4.0,,,56%,,,30.48,0.0,,,,2025-01-23,1,2025,18,KOKV
2025-01-20,20,19:55,EST,Calm,10.0,Fair,CLR,8.6,-4.0,,,56%,,,30.5,0.0,,,,2025-01-23,1,2025,19,KOKV
2025-01-20,20,20:55,EST,NW  10,10.0,Fair,CLR,8.6,-4.0,,,56%,-5.0,,30.5,0.0,,,,2025-01-23,1,2025,20,KOKV
2025-01-20,20,21:55,EST,Calm,10.0,Fair,CLR,5.0,-4.0,,,66%,,,30.51,0.0,,,,2025-01-23,1,2025,21,KOKV
2025-01-20,20,22:55,EST,W  5,10.0,Fair,CLR,10.4,-4.0,,,52%,3.0,,30.53,0.0,,,,2025-01-23,1,2025,22,KOKV
2025-01-20,20,23:55,EST,Calm,10.0,Fair,CLR,5.0,-4.0,,,66%,,,30.53,0.0,,,,2025-01-23,1,2025,23,KOKV
2025-01-21,21,00:55,EST,Calm,10.0,Fair,CLR,8.6,-2.2,,,61%,,,30.53,0.0,,,,2025-01-24,1,2025,0,KOKV
2025-01-21,21,01:55,EST,Calm,10.0,Fair,CLR,5.0,-0.4,,,78%,,,30.52,0.0,,,,2025-01-24,1,2025,1,KOKV
2025-01-21,21,02:55,EST,Calm,10.0,Fair,CLR,1.4,-4.0,,,78%,,,30.53,0.0,,,,2025-01-24,1,2025,2,KOKV
2025-01-21,21,03:55,EST,Calm,10.0,Fair,CLR,8.6,-2.2,,,61%,,,30.55,0.0,,,,2025-01-24,1,2025,3,KOKV
2025-01-21,21,04:55,EST,Calm,10.0,Fair,CLR,3.2,-2.2,,,78%,,,30.56,0.0,,,,2025-01-24,1,2025,4,KOKV
2025-01-21,21,05:55,EST,Calm,10.0,Fair,CLR,3.2,-0.4,,,85%,,,30.55,0.0,,,,2025-01-24,1,2025,5,KOKV
2025-01-21,21,06:55,EST,NW  7,10.0,Partly Cloudy,SCT120,8.6,-2.2,,,61%,-2.0,,30.55,0.0,,,,2025-01-24,1,2025,6,KOKV
2025-01-21,21,07:55,EST,Calm,10.0,Overcast,OVC110,6.8,1.4,,,78%,,,30.55,0.0,,,,2025-01-24,1,2025,7,KOKV
2025-01-21,21,08:55,EST,Calm,10.0,Overcast,BKN100 OVC110,10.4,-4.0,,,52%,,,30.56,0.0,,,,2025-01-24,1,2025,8,KOKV
2025-01-21,21,09:55,EST,NW  3,10.0,Overcast,OVC090,12.2,-4.0,,,48%,,,30.57,0.0,,,,2025-01-24,1,2025,9,KOKV
2025-01-21,21,10:55,EST,Calm,10.0,Overcast,OVC080,14.0,-4.0,,,44%,,,30.55,0.0,,,,2025-01-24,1,2025,10,KOKV
2025-01-21,21,11:55,EST,Calm,10.0,Overcast,OVC120,14.0,-2.2,,,48%,,,30.52,0.0,,,,2025-01-24,1,2025,11,KOKV
2025-01-21,21,12:55,EST,Calm,10.0,Overcast,OVC110,15.8,-4.0,,,41%,,,30.45,0.0,,,,2025-01-24,1,2025,12,KOKV
2025-01-21,21,13:55,EST,Calm,10.0,Overcast,BKN045 BKN049 OVC100,17.6,-0.4,,,45%,,,30.43,0.0,,,,2025-01-24,1,2025,13,KOKV
2025-01-21,21,14:55,EST,Calm,10.0,Overcast,SCT035 SCT041 OVC050,17.6,-0.4,,,45%,,,30.42,0.0,,,,2025-01-24,1,2025,14,KOKV
2025-01-21,21,15:55,EST,SE  3,10.0,Overcast,SCT037 SCT046 OVC050,17.6,1.4,,,49%,,,30.41,0.0,,,,2025-01-24,1,2025,15,KOKV
2025-01-21,21,16:55,EST,SE  5,10.0,Overcast,SCT049 BKN065 OVC110,15.8,3.2,,,57%,9.0,,30.4,0.0,,,,2025-01-24,1,2025,16,KOKV
2025-01-21,21,17:55,EST,Calm,10.0,Mostly Cloudy,BKN100,15.8,3.2,,,57%,,,30.42,0.0,,,,2025-01-24,1,2025,17,KOKV
2025-01-21,21,18:55,EST,Calm,10.0,Partly Cloudy,SCT046 SCT055 SCT070,14.0,3.2,,,62%,,,30.43,0.0,,,,2025-01-24,1,2025,18,KOKV
2025-01-21,21,19:55,EST,Calm,10.0,Partly Cloudy,SCT065,14.0,5.0,,,67%,,,30.45,0.0,,,,2025-01-24,1,2025,19,KOKV
2025-01-21,21,20:55,EST,Calm,10.0,Mostly Cloudy,BKN045,12.2,5.0,,,73%,,,30.43,0.0,,,,2025-01-24,1,2025,20,KOKV
2025-01-21,21,21:55,EST,Calm,10.0,Fair,CLR,10.4,3.2,,,72%,,,30.44,0.0,,,,2025-01-24,1,2025,21,KOKV
2025-01-21,21,22:55,EST,Calm,10.0,Fair,CLR,8.6,1.4,,,72%,,,30.45,0.0,,,,2025-01-24,1,2025,22,KOKV
2025-01-21,21,23:55,EST,NW  7,10.0,Partly Cloudy,SCT040 SCT048,8.6,1.4,,,72%,-2.0,,30.44,0.0,,,,2025-01-24,1,2025,23,KOKV
2025-01-22,22,00:35,EST,NW  10,10.0,Mostly Cloudy,SCT028 BKN042 BKN050,12.2,-0.4,,,57%,0.0,,30.45,0.0,,,,2025-01-25,1,2025,0,KOKV
2025-01-22,22,01:35,EST,NW  12,10.0,Overcast,SCT029 BKN039 OVC047,12.2,3.2,,,67%,-1.0,,30.45,0.0,,,,2025-01-25,1,2025,1,KOKV
2025-01-22,22,06:35,EST,Calm,10.0,Fair,CLR,5.0,-4.0,,,66%,,,30.49,0.0,,,,2025-01-25,1,2025,6,KOKV
2025-01-22,22,07:55,EST,Calm,10.0,Fair,CLR,3.2,-5.8,,,66%,,,30.49,0.0,,,,2025-01-25,1,2025,7,KOKV
2025-01-22,22,08:55,EST,NW  6,10.0,Fair,CLR,5.0,-5.8,,,60%,-5.0,,30.5,0.0,,,,2025-01-25,1,2025,8,KOKV
2025-01-22,22,09:55,EST,NW  10,10.0,Fair,CLR,8.6,-5.8,,,51%,-5.0,,30.5,0.0,,,,2025-01-25,1,2025,9,KOKV
2025-01-22,22,10:55,EST,NW  9,10.0,Fair,CLR,10.4,-4.0,,,52%,-1.0,,30.51,0.0,,,,2025-01-25,1,2025,10,KOKV
2025-01-22,22,11:55,EST,NW  3,10.0,Fair,CLR,12.2,-5.8,,,44%,,,30.51,0.0,,,,2025-01-25,1,2025,11,KOKV
2025-01-22,22,12:35,EST,Calm,10.0,Fair,CLR,12.2,-5.8,,,44%,,,30.48,0.0,,,,2025-01-25,1,2025,12,KOKV
2025-01-22,22,13:55,EST,SE  5,10.0,Fair,CLR,14.0,-4.0,,,44%,7.0,,30.46,0.0,,,,2025-01-25,1,2025,13,KOKV
2025-01-22,22,14:55,EST,Calm,10.0,Fair,CLR,15.8,-4.0,,,41%,,,30.44,0.0,,,,2025-01-25,1,2025,14,KOKV
2025-01-22,22,15:55,EST,Calm,10.0,Fair,CLR,15.8,-4.0,,,41%,,,30.42,0.0,,,,2025-01-25,1,2025,15,KOKV
2025-01-22,22,16:55,EST,E  5,10.0,Fair,CLR,15.8,-0.4,,,48%,9.0,,30.41,0.0,,,,2025-01-25,1,2025,16,KOKV
2025-01-22,22,17:55,EST,E  5,10.0,Fair,CLR,14.0,-2.2,,,48%,7.0,,30.42,0.0,,,,2025-01-25,1,2025,17,KOKV
2025-01-22,22,18:55,EST,Calm,10.0,Fair,CLR,10.4,-0.4,,,61%,,,30.41,0.0,,,,2025-01-25,1,2025,18,KOKV
2025-01-22,22,19:35,EST,Calm,10.0,Fair,CLR,8.6,-2.2,,,61%,,,30.42,0.0,,,,2025-01-25,1,2025,19,KOKV
2025-01-22,22,20:55,EST,Calm,10.0,Fair,CLR,5.0,-0.4,,,78%,,,30.4,0.0,,,,2025-01-25,1,2025,20,KOKV
2025-01-22,22,21:55,EST,Calm,10.0,Fair,CLR,5.0,-2.2,,,72%,,,30.37,0.0,,,,2025-01-25,1,2025,21,KOKV
2025-01-22,22,22:55,EST,Calm,10.0,Fair,CLR,6.8,-0.4,,,72%,,,30.37,0.0,,,,2025-01-25,1,2025,22,KOKV
2025-01-22,22,23:55,EST,Calm,10.0,Fair,CLR,6.8,-2.2,,,66%,,,30.36,0.0,,,,2025-01-25,1,2025,23,KOKV
2025-01-23,23,00:55,EST,Calm,10.0,Partly Cloudy,SCT120,5.0,-2.2,,,72%,,,30.35,0.0,,,,2025-01-26,1,2025,0,KOKV
2025-01-23,23,01:55,EST,Calm,10.0,Fair,CLR,8.6,-0.4,,,66%,,,30.33,0.0,,,,2025-01-26,1,2025,1,KOKV
2025-01-23,23,02:55,EST,Calm,10.0,Fair,CLR,5.0,-0.4,,,78%,,,30.3,0.0,,,,2025-01-26,1,2025,2,KOKV
2025-01-23,23,03:55,EST,Calm,10.0,Fair,CLR,1.4,-2.2,,,85%,,,30.28,0.0,,,,2025-01-26,1,2025,3,KOKV
2025-01-23,23,04:55,EST,Calm,10.0,Fair,CLR,3.2,-0.4,,,85%,,,30.27,0.0,,,,2025-01-26,1,2025,4,KOKV
2025-01-23,23,05:55,EST,Calm,10.0,Fair,CLR,-0.4,-5.8,,,78%,,,30.26,0.0,,,,2025-01-26,1,2025,5,KOKV
2025-01-23,23,06:55,EST,Calm,10.0,Fair,CLR,1.4,-2.2,,,85%,,,30.27,0.0,,,,2025-01-26,1,2025,6,KOKV
2025-01-23,23,07:55,EST,Calm,7.0,Fair,CLR,1.4,-2.2,,,85%,,,30.26,0.0,,,,2025-01-26,1,2025,7,KOKV
2025-01-23,23,08:55,EST,Calm,10.0,Fair,CLR,5.0,1.4,,,85%,,,30.26,0.0,,,,2025-01-26,1,2025,8,KOKV
2025-01-23,23,09:55,EST,Calm,10.0,Fair,CLR,12.2,1.4,,,62%,,,30.25,0.0,,,,2025-01-26,1,2025,9,KOKV
2025-01-23,23,10:55,EST,S  5,10.0,Fair,CLR,19.4,5.0,,,53%,14.0,,30.22,0.0,,,,2025-01-26,1,2025,10,KOKV
2025-01-23,23,11:55,EST,SW  3,10.0,Fair,CLR,23.0,5.0,,,46%,,,30.2,0.0,,,,2025-01-26,1,2025,11,KOKV
2025-01-23,23,12:55,EST,SW  3,10.0,Fair,CLR,26.6,8.6,,,46%,,,30.16,0.0,,,,2025-01-26,1,2025,12,KOKV
2025-01-23,23,13:55,EST,SW  6,10.0,Fair,CLR,28.4,8.6,,,43%,23.0,,30.13,0.0,,,,2025-01-26,1,2025,13,KOKV
2025-01-23,23,14:55,EST,SW  3,10.0,Fair,CLR,30.2,10.4,,,43%,,,30.11,0.0,,,,2025-01-26,1,2025,14,KOKV
2025-01-23,23,15:55,EST,Calm,10.0,Fair,CLR,30.2,8.6,,,40%,,,30.11,0.0,,,,2025-01-26,1,2025,15,KOKV
2025-01-23,23,16:55,EST,SW  3,10.0,Mostly Cloudy,BKN060,30.2,10.4,,,43%,,,30.11,0.0,,,,2025-01-26,1,2025,16,KOKV
2025-01-23,23,17:55,EST,SW  5,10.0,Overcast,SCT060 OVC070,30.2,12.2,,,47%,26.0,,30.12,0.0,,,,2025-01-26,1,2025,17,KOKV
2025-01-23,23,18:55,EST,W  7,10.0,Partly Cloudy,SCT080,30.2,12.2,,,47%,24.0,,30.14,0.0,,,,2025-01-26,1,2025,18,KOKV
2025-01-23,23,19:55,EST,W  6,10.0,Overcast,OVC080,30.2,17.6,,,59%,25.0,,30.15,0.0,,,,2025-01-26,1,2025,19,KOKV
2025-01-23,23,20:55,EST,W  3,10.0,Mostly Cloudy,BKN080,28.4,15.8,,,59%,,,30.16,0.0,,,,2025-01-26,1,2025,20,KOKV
2025-01-23,23,21:55,EST,Calm,10.0,Fair,CLR,23.0,14.0,,,68%,,,30.17,0.0,,,,2025-01-26,1,2025,21,KOKV
2025-01-23,23,22:55,EST,Calm,10.0,Mostly Cloudy,BKN040,23.0,15.8,,,74%,,,30.16,0.0,,,,2025-01-27,1,2025,22,KOKV
2025-01-23,23,23:55,EST,Calm,10.0,Overcast,OVC042,24.8,15.8,,,69%,,,30.16,0.0,,,,2025-01-27,1,2025,23,KOKV
2025-01-24,24,00:55,EST,Calm,10.0,Overcast,OVC042,26.6,17.6,,,69%,,,30.16,0.0,,,,2025-01-27,1,2025,0,KOKV
2025-01-24,24,01:55,EST,Calm,10.0,Overcast,OVC042,28.4,17.6,,,64%,,,30.16,0.0,,,,2025-01-27,1,2025,1,KOKV
2025-01-24,24,02:55,EST,W  3,10.0,Overcast,BKN046 OVC055,28.4,17.6,,,64%,,,30.16,0.0,,,,2025-01-27,1,2025,2,KOKV
2025-01-24,24,03:55,EST,W  3,10.0,Overcast,BKN047 OVC050,30.2,17.6,,,59%,,,30.15,0.0,,,,2025-01-27,1,2025,3,KOKV
2025-01-24,24,04:55,EST,W  8,10.0,Overcast,OVC048,30.2,17.6,,,59%,23.0,,30.16,0.0,,,,2025-01-27,1,2025,4,KOKV
2025-01-24,24,05:55,EST,NW  10,10.0,Overcast,OVC048,30.2,15.8,,,55%,22.0,,30.17,0.0,,,,2025-01-27,1,2025,5,KOKV
2025-01-24,24,06:55,EST,NW  7,10.0,Overcast,OVC050,28.4,15.8,,,59%,22.0,,30.18,0.0,,,,2025-01-27,1,2025,6,KOKV
2025-01-24,24,07:55,EST,NW  14  G 17,10.0,Overcast,OVC048,28.4,14.0,,,55%,18.0,,30.2,0.0,,,,2025-01-27,1,2025,7,KOKV
2025-01-24,24,08:55,EST,W  7,10.0,Overcast,OVC050,30.2,14.0,,,51%,24.0,,30.21,0.0,,,,2025-01-27,1,2025,8,KOKV
2025-01-24,24,09:55,EST,W  7,10.0,Overcast,BKN048 OVC050,30.2,14.0,,,51%,24.0,,30.23,0.0,,,,2025-01-27,1,2025,9,KOKV
2025-01-24,24,10:55,EST,NW  9,10.0,Mostly Cloudy,BKN047 BKN060,32.0,15.8,,,51%,25.0,,30.22,0.0,,,,2025-01-27,1,2025,10,KOKV
2025-01-24,24,11:55,EST,NW  10,10.0,Overcast,OVC049,32.0,15.8,,,51%,24.0,,30.21,0.0,,,,2025-01-27,1,2025,11,KOKV
2025-01-24,24,12:55,EST,W  5  G 9,10.0,Mostly Cloudy,BKN049,32.0,14.0,,,47%,28.0,,30.17,0.0,,,,2025-01-27,1,2025,12,KOKV
2025-01-24,24,13:55,EST,NW  3,10.0,Mostly Cloudy,BKN049,32.0,12.2,,,44%,,,30.15,0.0,,,,2025-01-27,1,2025,13,KOKV
2025-01-24,24,14:55,EST,Calm,10.0,Overcast,OVC055,32.0,12.2,,,44%,,,30.15,0.0,,,,2025-01-27,1,2025,14,KOKV
2025-01-24,24,15:55,EST,SE  5,10.0,Overcast,BKN055 OVC065,32.0,14.0,,,47%,28.0,,30.16,0.0,,,,2025-01-27,1,2025,15,KOKV
2025-01-24,24,16:55,EST,Calm,10.0,Overcast,BKN055 OVC065,32.0,15.8,,,51%,,,30.18,0.0,,,,2025-01-27,1,2025,16,KOKV
2025-01-24,24,17:55,EST,Calm,10.0,Overcast,SCT055 OVC065,30.2,14.0,,,51%,,,30.19,0.0,,,,2025-01-27,1,2025,17,KOKV
2025-01-24,24,18:55,EST,Calm,10.0,Mostly Cloudy,BKN050,26.6,17.6,,,69%,,,30.21,0.0,,,,2025-01-27,1,2025,18,KOKV
2025-01-24,24,19:55,EST,Calm,10.0,Overcast,OVC065,28.4,15.8,,,59%,,,30.24,0.0,,,,2025-01-27,1,2025,19,KOKV
2025-01-24,24,20:55,EST,N  3,10.0,Fair,CLR,28.4,14.0,,,55%,,,30.25,0.0,,,,2025-01-27,1,2025,20,KOKV
2025-01-24,24,21:55,EST,Calm,10.0,Fair,CLR,24.8,14.0,,,63%,,,30.27,0.0,,,,2025-01-27,1,2025,21,KOKV
2025-01-24,24,22:55,EST,Calm,10.0,Fair,CLR,23.0,12.2,,,63%,,,30.28,0.0,,,,2025-01-27,1,2025,22,KOKV
2025-01-24,24,23:55,EST,Calm,10.0,Fair,CLR,19.4,12.2,,,73%,,,30.28,0.0,,,,2025-01-27,1,2025,23,KOKV
2025-01-25,25,00:55,EST,NW  6,10.0,Fair,CLR,23.0,12.2,,,63%,17.0,,30.29,0.0,,,,2025-01-28,1,2025,0,KOKV
2025-01-25,25,01:55,EST,Calm,10.0,Fair,CLR,19.4,12.2,,,73%,,,30.3,0.0,,,,2025-01-28,1,2025,1,KOKV
2025-01-25,25,02:55,EST,Calm,10.0,Fair,CLR,15.8,10.4,,,79%,,,30.3,0.0,,,,2025-01-28,1,2025,2,KOKV
2025-01-25,25,03:55,EST,Calm,10.0,Fair,CLR,12.2,8.6,,,85%,,,30.31,0.0,,,,2025-01-28,1,2025,3,KOKV
2025-01-25,25,04:55,EST,Calm,10.0,Fair,CLR,12.2,8.6,,,85%,,,30.33,0.0,,,,2025-01-28,1,2025,4,KOKV
2025-01-25,25,05:55,EST,Calm,10.0,Fair,CLR,12.2,8.6,,,85%,,,30.33,0.0,,,,2025-01-28,1,2025,5,KOKV
2025-01-25,25,06:55,EST,Calm,10.0,Fair,CLR,10.4,6.8,,,85%,,,30.35,0.0,,,,2025-01-28,1,2025,6,KOKV
2025-01-25,25,07:55,EST,Calm,10.0,Fair,CLR,8.6,5.0,,,85%,,,30.37,0.0,,,,2025-01-28,1,2025,7,KOKV
2025-01-25,25,08:55,EST,SW  5,10.0,Fair,CLR,17.6,10.4,,,73%,11.0,,30.36,0.0,,,,2025-01-28,1,2025,8,KOKV
2025-01-25,25,09:55,EST,SW  7,10.0,Fair,CLR,24.8,12.2,,,59%,18.0,,30.36,0.0,,,,2025-01-28,1,2025,9,KOKV
2025-01-25,25,10:55,EST,S  9,10.0,Fair,CLR,28.4,12.2,,,51%,20.0,,30.35,0.0,,,,2025-01-28,1,2025,10,KOKV
2025-01-25,25,11:55,EST,SW  8,10.0,Fair,CLR,32.0,15.8,,,51%,25.0,,30.33,0.0,,,,2025-01-28,1,2025,11,KOKV
2025-01-25,25,12:55,EST,SW  7,10.0,Fair,CLR,32.0,15.8,,,51%,26.0,,30.29,0.0,,,,2025-01-28,1,2025,12,KOKV
2025-01-25,25,13:55,EST,SW  6,10.0,Fair,CLR,32.0,17.6,,,55%,27.0,,30.26,0.0,,,,2025-01-28,1,2025,13,KOKV
2025-01-25,25,14:55,EST,SW  7,10.0,Fair,CLR,33.8,17.6,,,51%,28.0,,30.24,0.0,,,,2025-01-28,1,2025,14,KOKV
2025-01-25,25,15:55,EST,SW  6,10.0,Fair,CLR,35.6,17.6,,,48%,31.0,,30.24,0.0,,,,2025-01-28,1,2025,15,KOKV
2025-01-25,25,16:55,EST,S  5,10.0,Fair,CLR,33.8,17.6,,,51%,30.0,,30.22,0.0,,,,2025-01-28,1,2025,16,KOKV
2025-01-25,25,17:55,EST,S  5,10.0,Fair,CLR,32.0,15.8,,,51%,28.0,,30.22,0.0,,,,2025-01-28,1,2025,17,KOKV
2025-01-25,25,18:55,EST,S  5,10.0,Fair,CLR,32.0,14.0,,,47%,28.0,,30.21,0.0,,,,2025-01-28,1,2025,18,KOKV
2025-01-25,25,19:55,EST,S  3,10.0,Fair,CLR,30.2,14.0,,,51%,,,30.21,0.0,,,,2025-01-28,1,2025,19,KOKV
2025-01-25,25,20:55,EST,SW  5,10.0,Fair,CLR,32.0,14.0,,,47%,28.0,,30.2,0.0,,,,2025-01-28,1,2025,20,KOKV
2025-01-25,25,21:55,EST,SW  5,10.0,Fair,CLR,32.0,15.8,,,51%,28.0,,30.2,0.0,,,,2025-01-28,1,2025,21,KOKV
2025-01-25,25,22:55,EST,SW  7,10.0,Fair,CLR,32.0,15.8,,,51%,26.0,,30.19,0.0,,,,2025-01-28,1,2025,22,KOKV
2025-01-25,25,23:55,EST,SW  7,10.0,Fair,CLR,32.0,15.8,,,51%,26.0,,30.19,0.0,,,,2025-01-28,1,2025,23,KOKV
2025-01-26,26,00:55,EST,SW  9,10.0,Fair,CLR,33.8,17.6,,,51%,27.0,,30.18,0.0,,,,2025-01-29,1,2025,0,KOKV
2025-01-26,26,01:55,EST,SW  12,10.0,Fair,CLR,33.8,17.6,,,51%,26.0,,30.17,0.0,,,,2025-01-29,1,2025,1,KOKV
2025-01-26,26,02:55,EST,SW  9,10.0,Fair,CLR,33.8,17.6,,,51%,27.0,,30.17,0.0,,,,2025-01-29,1,2025,2,KOKV
2025-01-26,26,03:55,EST,SW  6,10.0,Fair,CLR,32.0,17.6,,,55%,27.0,,30.15,0.0,,,,2025-01-29,1,2025,3,KOKV
2025-01-26,26,04:55,EST,SW  6,10.0,Fair,CLR,32.0,17.6,,,55%,27.0,,30.15,0.0,,,,2025-01-29,1,2025,4,KOKV
2025-01-26,26,05:55,EST,SW  6,10.0,Fair,CLR,32.0,17.6,,,55%,27.0,,30.16,0.0,,,,2025-01-29,1,2025,5,KOKV
2025-01-26,26,06:55,EST,SW  5,10.0,Fair,CLR,30.2,17.6,,,59%,26.0,,30.17,0.0,,,,2025-01-29,1,2025,6,KOKV
2025-01-26,26,07:55,EST,SW  5,10.0,Fair,CLR,24.8,17.6,,,74%,20.0,,30.19,0.0,,,,2025-01-29,1,2025,7,KOKV
2025-01-26,26,08:55,EST,S  5,10.0,Fair,CLR,32.0,21.2,,,64%,28.0,,30.2,0.0,,,,2025-01-29,1,2025,8,KOKV
2025-01-26,26,09:55,EST,W  9  G 17,10.0,Fair,CLR,41.0,23.0,,,49%,36.0,,30.19,0.0,,,,2025-01-29,1,2025,9,KOKV
2025-01-26,26,10:55,EST,NW  8,10.0,Partly Cloudy,SCT055,41.0,21.2,,,45%,36.0,,30.2,0.0,,,,2025-01-29,1,2025,10,KOKV
2025-01-26,26,11:55,EST,NW  10,10.0,Partly Cloudy,SCT065,41.0,21.2,,,45%,35.0,,30.2,0.0,,,,2025-01-29,1,2025,11,KOKV
2025-01-26,26,12:55,EST,W  10  G 20,10.0,Fair,CLR,42.8,21.2,,,42%,38.0,,30.17,0.0,,,,2025-01-29,1,2025,12,KOKV
2025-01-26,26,13:55,EST,W  15  G 18,10.0,Fair,CLR,42.8,19.4,,,39%,36.0,,30.16,0.0,,,,2025-01-29,1,2025,13,KOKV
2025-01-26,26,14:55,EST,W  12  G 16,10.0,Fair,CLR,42.8,19.4,,,39%,37.0,,30.16,0.0,,,,2025-01-29,1,2025,14,KOKV
2025-01-26,26,15:55,EST,NW  12,10.0,Fair,CLR,42.8,17.6,,,36%,37.0,,30.16,0.0,,,,2025-01-29,1,2025,15,KOKV
2025-01-26,26,16:55,EST,NW  8,10.0,Fair,CLR,39.2,17.6,,,42%,34.0,,30.17,0.0,,,,2025-01-29,1,2025,16,KOKV
2025-01-26,26,17:55,EST,W  6,10.0,Fair,CLR,33.8,17.6,,,51%,29.0,,30.17,0.0,,,,2025-01-29,1,2025,17,KOKV
2025-01-26,26,18:55,EST,NW  3,10.0,Fair,CLR,32.0,14.0,,,47%,,,30.17,0.0,,,,2025-01-29,1,2025,18,KOKV
2025-01-26,26,19:55,EST,NW  6,10.0,Fair,CLR,32.0,14.0,,,47%,27.0,,30.16,0.0,,,,2025-01-29,1,2025,19,KOKV
2025-01-26,26,20:55,EST,Calm,10.0,Fair,CLR,28.4,15.8,,,59%,,,30.15,0.0,,,,2025-01-29,1,2025,20,KOKV
2025-01-26,26,21:35,EST,Calm,0.0,,,28.4,15.8,,,59%,,,0.0,0.0,,,,2025-01-29,1,2025,21,KOKV
2025-01-27,27,07:55,EST,Calm,10.0,Fair,CLR,21.2,15.8,,,80%,,,30.09,0.0,,,,2025-01-30,1,2025,7,KOKV
2025-01-27,27,08:55,EST,Calm,10.0,Fair,CLR,28.4,21.2,,,74%,,,30.09,0.0,,,,2025-01-30,1,2025,8,KOKV
2025-01-27,27,09:55,EST,Calm,10.0,Fair,CLR,32.0,17.6,,,55%,,,30.09,0.0,,,,2025-01-30,1,2025,9,KOKV
2025-01-27,27,10:55,EST,Calm,10.0,Fair,CLR,35.6,15.8,,,44%,,,30.07,0.0,,,,2025-01-30,1,2025,10,KOKV
2025-01-27,27,11:55,EST,SE  6,10.0,Fair,CLR,37.4,17.6,,,45%,33.0,,30.02,0.0,,,,2025-01-30,1,2025,11,KOKV
2025-01-27,27,12:55,EST,SW  13,10.0,Fair,CLR,42.8,15.8,,,34%,37.0,,29.97,0.0,,,,2025-01-30,1,2025,12,KOKV
2025-01-27,27,13:55,EST,SW  12,10.0,Fair,CLR,44.6,17.6,,,34%,39.0,,29.93,0.0,,,,2025-01-30,1,2025,13,KOKV
2025-01-27,27,14:55,EST,SW  12,10.0,Fair,CLR,44.6,17.6,,,34%,39.0,,29.89,0.0,,,,2025-01-30,1,2025,14,KOKV
2025-01-27,27,15:55,EST,SW  9,10.0,Fair,CLR,44.6,17.6,,,34%,40.0,,29.87,0.0,,,,2025-01-30,1,2025,15,KOKV
2025-01-27,27,16:55,EST,SW  7,10.0,Fair,CLR,44.6,17.6,,,34%,41.0,,29.84,0.0,,,,2025-01-30,1,2025,16,KOKV
2025-01-27,27,17:55,EST,Calm,10.0,Fair,CLR,39.2,17.6,,,42%,,,29.82,0.0,,,,2025-01-30,1,2025,17,KOKV
2025-01-27,27,18:55,EST,Calm,10.0,Fair,CLR,33.8,19.4,,,56%,,,29.82,0.0,,,,2025-01-30,1,2025,18,KOKV
2025-01-27,27,19:55,EST,W  6,10.0,Fair,CLR,33.8,17.6,,,51%,29.0,,29.8,0.0,,,,2025-01-30,1,2025,19,KOKV
2025-01-27,27,20:55,EST,SW  6,10.0,Fair,CLR,37.4,14.0,,,38%,33.0,,29.78,0.0,,,,2025-01-30,1,2025,20,KOKV
2025-01-27,27,21:55,EST,SW  3,10.0,Fair,CLR,35.6,14.0,,,41%,,,29.76,0.0,,,,2025-01-30,1,2025,21,KOKV
2025-01-27,27,22:55,EST,W  15  G 20,10.0,Fair,CLR,37.4,12.2,,,35%,29.0,,29.74,0.0,,,,2025-01-30,1,2025,22,KOKV
2025-01-27,27,23:55,EST,SW  8,10.0,Fair,CLR,37.4,12.2,,,35%,32.0,,29.7,0.0,,,,2025-01-30,1,2025,23,KOKV
2025-01-28,28,00:55,EST,SW  6,10.0,Fair,CLR,35.6,10.4,,,35%,31.0,,29.7,0.0,,,,2025-01-31,1,2025,0,KOKV
2025-01-28,28,01:55,EST,SW  6,10.0,Fair,CLR,33.8,12.2,,,41%,29.0,,29.67,0.0,,,,2025-01-31,1,2025,1,KOKV
2025-01-28,28,02:55,EST,W  20  G 28,10.0,Fair,CLR,37.4,5.0,,,26%,28.0,,29.67,0.0,,,,2025-01-31,1,2025,2,KOKV
2025-01-28,28,03:55,EST,W  25  G 31,10.0,Fair and Breezy,CLR,37.4,12.2,,,35%,27.0,,29.66,0.0,,,,2025-01-31,1,2025,3,KOKV
2025-01-28,28,04:55,EST,W  16  G 28,10.0,Fair,CLR,35.6,14.0,,,41%,27.0,,29.66,0.0,,,,2025-01-31,1,2025,4,KOKV
2025-01-28,28,05:55,EST,W  13,10.0,Fair,CLR,33.8,17.6,,,51%,25.0,,29.66,0.0,,,,2025-01-31,1,2025,5,KOKV
2025-01-28,28,06:55,EST,W  9,10.0,Fair,CLR,33.8,19.4,,,56%,27.0,,29.68,0.0,,,,2025-01-31,1,2025,6,KOKV
2025-01-28,28,07:55,EST,W  5,10.0,Fair,CLR,33.8,19.4,,,56%,30.0,,29.69,0.0,,,,2025-01-31,1,2025,7,KOKV
2025-01-28,28,08:55,EST,NW  15  G 21,10.0,Fair,CLR,39.2,21.2,,,48%,31.0,,29.72,0.0,,,,2025-01-31,1,2025,8,KOKV
2025-01-28,28,09:55,EST,W  22  G 29,10.0,Fair and Breezy,CLR,41.0,23.0,,,49%,32.0,,29.72,0.0,,,,2025-01-31,1,2025,9,KOKV
2025-01-28,28,10:55,EST,NW  22  G 31,10.0,Fair and Breezy,CLR,42.8,23.0,,,46%,34.0,,29.75,0.0,,,,2025-01-31,1,2025,10,KOKV
2025-01-28,28,11:55,EST,NW  18  G 28,10.0,Fair,CLR,42.8,23.0,,,46%,35.0,,29.75,0.0,,,,2025-01-31,1,2025,11,KOKV
2025-01-28,28,12:55,EST,W  16  G 21,10.0,Fair,CLR,44.6,23.0,,,43%,38.0,,29.74,0.0,,,,2025-01-31,1,2025,12,KOKV
2025-01-28,28,13:55,EST,W  12,10.0,Fair,CLR,46.4,23.0,,,40%,42.0,,29.72,0.0,,,,2025-01-31,1,2025,13,KOKV
2025-01-28,28,14:55,EST,W  12,10.0,Fair,CLR,46.4,23.0,,,40%,42.0,,29.69,0.0,,,,2025-01-31,1,2025,14,KOKV
2025-01-28,28,15:55,EST,W  10,10.0,Fair,CLR,48.2,21.2,,,34%,44.0,,29.68,0.0,,,,2025-01-31,1,2025,15,KOKV
2025-01-28,28,16:55,EST,W  6,10.0,Fair,CLR,46.4,21.2,,,37%,44.0,,29.67,0.0,,,,2025-01-31,1,2025,16,KOKV
2025-01-28,28,17:55,EST,Calm,10.0,Fair,CLR,44.6,21.2,,,39%,,,29.68,0.0,,,,2025-01-31,1,2025,17,KOKV
2025-01-28,28,18:55,EST,Calm,10.0,Fair,CLR,35.6,21.2,,,56%,,,29.68,0.0,,,,2025-01-31,1,2025,18,KOKV
2025-01-28,28,19:55,EST,Calm,10.0,Fair,CLR,33.8,23.0,,,65%,,,29.67,0.0,,,,2025-01-31,1,2025,19,KOKV
2025-01-28,28,20:55,EST,SW  3,10.0,Fair,CLR,39.2,21.2,,,48%,,,29.66,0.0,,,,2025-01-31,1,2025,20,KOKV
2025-01-28,28,21:55,EST,SW  7,10.0,Fair,CLR,39.2,23.0,,,52%,35.0,,29.62,0.0,,,,2025-01-31,1,2025,21,KOKV
2025-01-28,28,22:55,EST,SW  5,10.0,Fair,CLR,35.6,23.0,,,60%,32.0,,29.61,0.0,,,,2025-01-31,1,2025,22,KOKV
2025-01-28,28,23:55,EST,Calm,10.0,Fair,CLR,35.6,23.0,,,60%,,,29.58,0.0,,,,2025-01-31,1,2025,23,KOKV
2025-01-29,29,00:55,EST,S  6,10.0,Fair,CLR,35.6,23.0,,,60%,31.0,,29.56,0.0,,,,2025-02-01,1,2025,0,KOKV
2025-01-29,29,01:55,EST,Calm,10.0,Fair,CLR,35.6,23.0,,,60%,,,29.55,0.0,,,,2025-02-01,1,2025,1,KOKV
2025-01-29,29,02:55,EST,W  16  G 25,10.0,Fair,CLR,46.4,24.8,,,43%,40.0,,29.54,0.0,,,,2025-02-01,1,2025,2,KOKV
2025-01-29,29,03:55,EST,W  16  G 23,10.0,Fair,CLR,44.6,24.8,,,46%,38.0,,29.54,0.0,,,,2025-02-01,1,2025,3,KOKV
2025-01-29,29,04:55,EST,W  14  G 22,10.0,Fair,CLR,44.6,24.8,,,46%,39.0,,29.53,0.0,,,,2025-02-01,1,2025,4,KOKV
2025-01-29,29,05:55,EST,W  7,10.0,Fair,CLR,44.6,24.8,,,46%,41.0,,29.53,0.0,,,,2025-02-01,1,2025,5,KOKV
2025-01-29,29,06:55,EST,W  14  G 22,10.0,Fair,CLR,44.6,24.8,,,46%,39.0,,29.54,0.0,,,,2025-02-01,1,2025,6,KOKV
2025-01-29,29,07:55,EST,W  13  G 18,10.0,Fair,CLR,44.6,24.8,,,46%,39.0,,29.55,0.0,,,,2025-02-01,1,2025,7,KOKV
2025-01-29,29,08:55,EST,W  14  G 22,10.0,Fair,CLR,48.2,23.0,,,37%,43.0,,29.57,0.0,,,,2025-02-01,1,2025,8,KOKV
2025-01-29,29,09:55,EST,W  17  G 35,10.0,Fair,CLR,50.0,23.0,,,35%,45.0,,29.58,0.0,,,,2025-02-01,1,2025,9,KOKV
2025-01-29,29,10:55,EST,W  20  G 28,10.0,Fair,CLR,51.8,23.0,,,32%,,,29.59,0.0,,,,2025-02-01,1,2025,10,KOKV
2025-01-29,29,11:55,EST,W  17  G 25,10.0,Fair,CLR,51.8,23.0,,,32%,,,29.59,0.0,,,,2025-02-01,1,2025,11,KOKV
2025-01-29,29,12:55,EST,NW  18  G 25,10.0,Fair,CLR,51.8,26.6,,,38%,,,29.6,0.0,,,,2025-02-01,1,2025,12,KOKV
2025-01-29,29,13:55,EST,NW  28  G 35,10.0,Fair and Windy,CLR,51.8,24.8,,,35%,,,29.63,0.0,,,,2025-02-01,1,2025,13,KOKV
2025-01-29,29,14:55,EST,W  28  G 40,10.0,Fair and Windy,CLR,50.0,23.0,,,35%,43.0,,29.66,0.0,,,,2025-02-01,1,2025,14,KOKV
2025-01-29,29,15:55,EST,Calm,0.0,Fair,CLR,48.2,23.0,,,37%,,,0.0,0.0,,,,2025-02-01,1,2025,15,KOKV
2025-01-29,29,16:15,EST,Calm,0.0,,,48.2,23.0,,,37%,,,0.0,0.0,,,,2025-02-01,1,2025,16,KOKV
2025-01-29,29,17:55,EST,W  15,0.0,,,44.6,21.2,,,39%,38.0,,29.78,0.0,,,,2025-02-01,1,2025,17,KOKV
2025-01-29,29,18:55,EST,W  15  G 28,10.0,Fair,CLR,44.6,21.2,,,39%,38.0,,29.83,0.0,,,,2025-02-01,1,2025,18,KOKV
2025-01-29,29,19:55,EST,NW  15  G 25,10.0,Fair,CLR,42.8,21.2,,,42%,36.0,,29.87,0.0,,,,2025-02-01,1,2025,19,KOKV
2025-01-29,29,20:55,EST,W  13  G 26,10.0,Fair,CLR,41.0,21.2,,,45%,34.0,,29.91,0.0,,,,2025-02-01,1,2025,20,KOKV
2025-01-29,29,21:55,EST,W  12  G 25,10.0,Partly Cloudy,SCT060,41.0,21.2,,,45%,35.0,,29.93,0.0,,,,2025-02-01,1,2025,21,KOKV
2025-01-29,29,22:55,EST,W  15  G 23,10.0,Partly Cloudy,SCT060,41.0,21.2,,,45%,34.0,,29.96,0.0,,,,2025-02-01,1,2025,22,KOKV
2025-01-29,29,23:55,EST,W  13  G 26,10.0,Partly Cloudy,SCT060,39.2,23.0,,,52%,32.0,,29.99,0.0,,,,2025-02-01,1,2025,23,KOKV
2025-01-30,30,00:55,EST,W  10  G 18,10.0,Fair,CLR,39.2,23.0,,,52%,33.0,,30.01,0.0,,,,2025-02-02,1,2025,0,KOKV
2025-01-30,30,01:55,EST,W  14,10.0,Fair,CLR,37.4,23.0,,,56%,30.0,,30.02,0.0,,,,2025-02-02,1,2025,1,KOKV
2025-01-30,30,02:55,EST,W  12  G 26,10.0,Fair,CLR,37.4,23.0,,,56%,30.0,,30.06,0.0,,,,2025-02-02,1,2025,2,KOKV
2025-01-30,30,03:55,EST,W  10,10.0,Fair,CLR,35.6,23.0,,,60%,29.0,,30.07,0.0,,,,2025-02-02,1,2025,3,KOKV
2025-01-30,30,04:55,EST,W  5,10.0,Fair,CLR,33.8,21.2,,,60%,30.0,,30.09,0.0,,,,2025-02-02,1,2025,4,KOKV
2025-01-30,30,05:55,EST,Calm,10.0,Fair,CLR,32.0,19.4,,,60%,,,30.12,0.0,,,,2025-02-02,1,2025,5,KOKV
2025-01-30,30,06:55,EST,Calm,10.0,Fair,CLR,28.4,19.4,,,69%,,,30.16,0.0,,,,2025-02-02,1,2025,6,KOKV
2025-01-30,30,11:55,EST,S  10,10.0,Fair,CLR,46.4,23.0,,,40%,42.0,,30.2,0.0,,,,2025-02-02,1,2025,11,KOKV
2025-01-30,30,12:55,EST,S  9,10.0,Fair,CLR,48.2,23.0,,,37%,45.0,,30.17,0.0,,,,2025-02-02,1,2025,12,KOKV
2025-01-30,30,13:55,EST,S  12  G 16,10.0,Fair,CLR,48.2,23.0,,,37%,44.0,,30.14,0.0,,,,2025-02-02,1,2025,13,KOKV
2025-01-30,30,14:55,EST,S  9,10.0,Fair,CLR,50.0,21.2,,,32%,47.0,,30.12,0.0,,,,2025-02-02,1,2025,14,KOKV
2025-01-30,30,15:55,EST,SW  6,10.0,Fair,CLR,50.0,21.2,,,32%,48.0,,30.13,0.0,,,,2025-02-02,1,2025,15,KOKV
2025-01-30,30,16:55,EST,Calm,10.0,Fair,CLR,46.4,21.2,,,37%,,,30.13,0.0,,,,2025-02-02,1,2025,16,KOKV
2025-01-30,30,17:55,EST,Calm,10.0,Fair,CLR,44.6,21.2,,,39%,,,30.12,0.0,,,,2025-02-02,1,2025,17,KOKV
2025-01-30,30,18:55,EST,Calm,10.0,Overcast,OVC120,42.8,21.2,,,42%,,,30.14,0.0,,,,2025-02-02,1,2025,18,KOKV
2025-01-30,30,19:55,EST,S  7,10.0,Mostly Cloudy,BKN120,44.6,23.0,,,43%,41.0,,30.13,0.0,,,,2025-02-02,1,2025,19,KOKV
2025-01-30,30,20:55,EST,S  5,10.0,Fair,CLR,44.6,23.0,,,43%,43.0,,30.11,0.0,,,,2025-02-02,1,2025,20,KOKV
2025-01-30,30,21:55,EST,S  5,10.0,Overcast,OVC120,44.6,23.0,,,43%,43.0,,30.1,0.0,,,,2025-02-02,1,2025,21,KOKV
2025-01-30,30,22:55,EST,Calm,10.0,Overcast,BKN090 OVC120,44.6,23.0,,,43%,,,30.08,0.0,,,,2025-02-02,1,2025,22,KOKV
2025-01-30,30,23:55,EST,SW  6,10.0,Drizzle,BKN070 BKN075 OVC090,44.6,28.4,,,53%,42.0,,30.07,0.0,,,,2025-02-02,1,2025,23,KOKV
2025-01-31,31,00:55,EST,SW  5,10.0,Drizzle,BKN070 OVC100,41.0,37.4,,,87%,38.0,,30.04,0.0,,,,2025-02-03,1,2025,0,KOKV
2025-01-31,31,01:55,EST,Calm,10.0,Drizzle,OVC070,41.0,37.4,,,87%,,,30.03,0.0,,,,2025-02-03,1,2025,1,KOKV
2025-01-31,31,02:55,EST,S  3,10.0,Drizzle,OVC055,41.0,39.2,,,93%,,,30.0,0.0,,,,2025-02-03,1,2025,2,KOKV
2025-01-31,31,03:55,EST,S  3,10.0,Overcast,SCT070 OVC090,42.8,39.2,,,87%,,,29.97,0.0,,,,2025-02-03,1,2025,3,KOKV
2025-01-31,31,04:55,EST,Calm,10.0,Overcast,BKN050 OVC090,41.0,39.2,,,93%,,,29.96,0.0,,,,2025-02-03,1,2025,4,KOKV
2025-01-31,31,05:55,EST,S  3,10.0,Overcast,OVC046,41.0,39.2,,,93%,,,29.92,0.0,,,,2025-02-03,1,2025,5,KOKV
2025-01-31,31,06:55,EST,Calm,10.0,Mostly Cloudy,BKN046 BKN065,41.0,39.2,,,93%,,,29.9,0.0,,,,2025-02-03,1,2025,6,KOKV
2025-01-31,31,07:55,EST,SW  6,10.0,Overcast,OVC040,42.8,39.2,,,87%,40.0,,29.89,0.0,,,,2025-02-03,1,2025,7,KOKV
2025-01-31,31,08:55,EST,NW  10,10.0,Light Rain,OVC038,44.6,41.0,,,87%,40.0,,29.92,0.0,,,,2025-02-03,1,2025,8,KOKV
2025-01-31,31,09:55,EST,W  6,10.0,Rain,BKN021 BKN031 OVC110,44.6,41.0,,,87%,42.0,,29.88,0.0,,,,2025-02-03,1,2025,9,KOKV
2025-01-31,31,10:55,EST,W  6,7.0,Rain,OVC010,44.6,42.8,,,93%,42.0,,29.86,0.0,,,,2025-02-03,1,2025,10,KOKV
2025-01-31,31,11:55,EST,SW  5,5.0,Light Rain,SCT010 SCT031 OVC085,44.6,44.6,,,100%,43.0,,29.82,0.0,,,,2025-02-03,1,2025,11,KOKV
2025-01-31,31,12:55,EST,SW  6,7.0,Rain,OVC006,46.4,44.6,,,93%,44.0,,29.78,0.0,,,,2025-02-03,1,2025,12,KOKV
2025-01-31,31,13:55,EST,SW  10,10.0,Light Drizzle,BKN006 OVC100,46.4,44.6,,,93%,42.0,,29.72,0.0,,,,2025-02-03,1,2025,13,KOKV
2025-01-31,31,14:55,EST,SW  13  G 18,10.0,Drizzle,OVC090,48.2,46.4,,,94%,43.0,,29.73,0.0,,,,2025-02-03,1,2025,14,KOKV
2025-01-31,31,15:55,EST,SW  9,10.0,Rain,SCT070 OVC090,50.0,46.4,,,88%,47.0,,29.74,0.0,,,,2025-02-03,1,2025,15,KOKV
2025-01-31,31,16:55,EST,SW  9,7.0,Light Rain,OVC090,48.2,46.4,,,94%,45.0,,29.73,0.0,,,,2025-02-03,1,2025,16,KOKV
2025-01-31,31,17:55,EST,SW  7,7.0,Light Rain,SCT065 OVC080,48.2,46.4,,,94%,46.0,,29.72,0.0,,,,2025-02-03,1,2025,17,KOKV
2025-01-31,31,18:55,EST,SW  8,10.0,Mostly Cloudy,SCT055 SCT090 BKN120,48.2,46.4,,,94%,45.0,,29.68,0.0,,,,2025-02-03,1,2025,18,KOKV
2025-01-31,31,19:55,EST,SW  8,10.0,Overcast,SCT006 BKN070 OVC110,48.2,46.4,,,94%,45.0,,29.68,0.0,,,,2025-02-03,1,2025,19,KOKV
2025-01-31,31,20:55,EST,SW  10,10.0,Partly Cloudy,SCT006 SCT049,50.0,46.4,,,88%,46.0,,29.7,0.0,,,,2025-02-03,1,2025,20,KOKV
2025-01-31,31,21:55,EST,SW  3,10.0,Overcast,BKN036 OVC045,50.0,46.4,,,88%,,,29.7,0.0,,,,2025-02-03,1,2025,21,KOKV
2025-01-31,31,22:55,EST,SW  3,10.0,Partly Cloudy,SCT045 SCT049,51.8,44.6,,,77%,,,29.66,0.0,,,,2025-02-03,1,2025,22,KOKV
2025-01-31,31,23:55,EST,Calm,10.0,Fair,CLR,44.6,42.8,,,93%,,,29.67,0.0,,,,2025-02-03,1,2025,23,KOKV
2025-02-01,1,00:55,EST,W  14  G 18,10.0,Mostly Cloudy,SCT050 BKN060 BKN070,51.8,41.0,,,67%,,,29.68,0.0,,,,2025-02-04,2,2025,0,KOKV
2025-02-01,1,01:55,EST,W  15  G 23,10.0,Partly Cloudy,SCT042,50.0,39.2,,,67%,45.0,,29.68,0.0,,,,2025-02-04,2,2025,1,KOKV
2025-02-01,1,02:55,EST,W  14,10.0,Mostly Cloudy,BKN041 BKN048 BKN055,50.0,37.4,,,62%,45.0,,29.71,0.0,,,,2025-02-04,2,2025,2,KOKV
2025-02-01,1,03:55,EST,W  13  G 22,10.0,Mostly Cloudy,BKN035 BKN060 BKN070,48.2,37.4,,,66%,43.0,,29.72,0.0,,,,2025-02-04,2,2025,3,KOKV
2025-02-01,1,04:55,EST,NW  13  G 18,10.0,Overcast,BKN031 OVC037,46.4,39.2,,,76%,41.0,,29.77,0.0,,,,2025-02-04,2,2025,4,KOKV
2025-02-01,1,05:55,EST,NW  17  G 22,10.0,Mostly Cloudy,SCT030 BKN070,42.8,33.8,,,71%,35.0,,29.86,0.0,,,,2025-02-04,2,2025,5,KOKV
2025-02-01,1,06:55,EST,NW  17  G 23,10.0,Overcast,SCT031 OVC070,41.0,32.0,,,70%,33.0,,29.93,0.0,,,,2025-02-04,2,2025,6,KOKV
2025-02-01,1,07:55,EST,NW  22  G 29,10.0,Partly Cloudy and Breezy,SCT031,37.4,30.2,,,75%,27.0,,30.0,0.0,,,,2025-02-04,2,2025,7,KOKV
2025-02-01,1,08:55,EST,NW  13  G 23,10.0,Mostly Cloudy,BKN032,37.4,28.4,,,70%,30.0,,30.06,0.0,,,,2025-02-04,2,2025,8,KOKV
2025-02-01,1,09:55,EST,NW  20  G 26,10.0,Mostly Cloudy,BKN036,37.4,24.8,,,60%,28.0,,30.11,0.0,,,,2025-02-04,2,2025,9,KOKV
2025-02-01,1,10:55,EST,NW  16  G 23,10.0,Overcast,OVC038,37.4,26.6,,,65%,29.0,,30.16,0.0,,,,2025-02-04,2,2025,10,KOKV
2025-02-01,1,11:55,EST,NW  21  G 25,10.0,Fair and Breezy,CLR,39.2,21.2,,,48%,30.0,,30.18,0.0,,,,2025-02-04,2,2025,11,KOKV
2025-02-01,1,12:55,EST,NW  14,10.0,Fair,CLR,41.0,19.4,,,42%,34.0,,30.21,0.0,,,,2025-02-04,2,2025,12,KOKV
2025-02-01,1,13:55,EST,W  9,10.0,Fair,CLR,41.0,17.6,,,39%,36.0,,30.22,0.0,,,,2025-02-04,2,2025,13,KOKV
2025-02-01,1,14:55,EST,NW  12  G 20,10.0,Fair,CLR,41.0,14.0,,,33%,35.0,,30.25,0.0,,,,2025-02-04,2,2025,14,KOKV
2025-02-01,1,15:55,EST,NW  12  G 20,10.0,Fair,CLR,39.2,12.2,,,33%,33.0,,30.29,0.0,,,,2025-02-04,2,2025,15,KOKV
2025-02-01,1,16:55,EST,NW  12  G 17,10.0,Fair,CLR,35.6,8.6,,,32%,28.0,,30.31,0.0,,,,2025-02-04,2,2025,16,KOKV
2025-02-01,1,17:55,EST,NW  7,10.0,Fair,CLR,33.8,8.6,,,35%,28.0,,30.32,0.0,,,,2025-02-04,2,2025,17,KOKV
2025-02-01,1,18:55,EST,N  3,10.0,Fair,CLR,32.0,5.0,,,32%,,,30.35,0.0,,,,2025-02-04,2,2025,18,KOKV
2025-02-01,1,19:55,EST,Calm,10.0,Fair,CLR,30.2,10.4,,,43%,,,30.37,0.0,,,,2025-02-04,2,2025,19,KOKV
2025-02-01,1,20:55,EST,Calm,10.0,Fair,CLR,30.2,8.6,,,40%,,,30.4,0.0,,,,2025-02-04,2,2025,20,KOKV
2025-02-01,1,21:55,EST,Calm,10.0,Fair,CLR,28.4,8.6,,,43%,,,30.41,0.0,,,,2025-02-04,2,2025,21,KOKV
2025-02-01,1,22:55,EST,Calm,10.0,Fair,CLR,24.8,12.2,,,59%,,,30.42,0.0,,,,2025-02-04,2,2025,22,KOKV
2025-02-01,1,23:55,EST,NE  3,10.0,Fair,CLR,24.8,12.2,,,59%,,,30.42,0.0,,,,2025-02-04,2,2025,23,KOKV
2025-02-02,2,00:55,EST,Calm,10.0,Fair,CLR,23.0,12.2,,,63%,,,30.43,0.0,,,,2025-02-05,2,2025,0,KOKV
2025-02-02,2,01:55,EST,E  3,10.0,Fair,CLR,24.8,10.4,,,54%,,,30.43,0.0,,,,2025-02-05,2,2025,1,KOKV
2025-02-02,2,02:55,EST,Calm,10.0,Fair,CLR,21.2,10.4,,,63%,,,30.44,0.0,,,,2025-02-05,2,2025,2,KOKV
2025-02-02,2,03:55,EST,Calm,10.0,Fair,CLR,19.4,14.0,,,79%,,,30.45,0.0,,,,2025-02-05,2,2025,3,KOKV
2025-02-02,2,04:55,EST,Calm,10.0,Fair,CLR,19.4,12.2,,,73%,,,30.45,0.0,,,,2025-02-05,2,2025,4,KOKV
2025-02-02,2,05:55,EST,Calm,10.0,Fair,CLR,21.2,10.4,,,63%,,,30.45,0.0,,,,2025-02-05,2,2025,5,KOKV
2025-02-02,2,06:55,EST,E  3,10.0,Mostly Cloudy,BKN042,21.2,10.4,,,63%,,,30.45,0.0,,,,2025-02-05,2,2025,6,KOKV
2025-02-02,2,07:55,EST,E  5,10.0,Fair,CLR,23.0,12.2,,,63%,18.0,,30.46,0.0,,,,2025-02-05,2,2025,7,KOKV
2025-02-02,2,08:55,EST,SE  7,10.0,Overcast,OVC041,26.6,14.0,,,59%,20.0,,30.43,0.0,,,,2025-02-05,2,2025,8,KOKV
2025-02-02,2,09:55,EST,SE  9,10.0,Overcast,OVC041,28.4,14.0,,,55%,20.0,,30.42,0.0,,,,2025-02-05,2,2025,9,KOKV
2025-02-02,2,10:55,EST,S  8,10.0,Overcast,OVC039,30.2,14.0,,,51%,23.0,,30.4,0.0,,,,2025-02-05,2,2025,10,KOKV
2025-02-02,2,11:55,EST,SE  10,10.0,Overcast,SCT039 OVC065,32.0,14.0,,,47%,24.0,,30.36,0.0,,,,2025-02-05,2,2025,11,KOKV
2025-02-02,2,12:55,EST,S  10,10.0,Overcast,OVC037,32.0,14.0,,,47%,24.0,,30.3,0.0,,,,2025-02-05,2,2025,12,KOKV
2025-02-02,2,13:35,EST,S  13,10.0,Overcast,OVC037,33.8,17.6,,,51%,25.0,,30.28,0.0,,,,2025-02-05,2,2025,13,KOKV
2025-02-02,2,14:55,EST,SE  9  G 17,10.0,Overcast,SCT037 OVC065,33.8,19.4,,,56%,27.0,,30.22,0.0,,,,2025-02-05,2,2025,14,KOKV
2025-02-02,2,15:55,EST,S  8  G 12,10.0,Overcast,SCT055 OVC075,33.8,19.4,,,56%,28.0,,30.21,0.0,,,,2025-02-05,2,2025,15,KOKV
2025-02-02,2,16:55,EST,SE  9,10.0,Overcast,BKN065 OVC075,33.8,21.2,,,60%,27.0,,30.2,0.0,,,,2025-02-05,2,2025,16,KOKV
2025-02-02,2,17:55,EST,S  8,10.0,Overcast,OVC070,33.8,21.2,,,60%,28.0,,30.19,0.0,,,,2025-02-05,2,2025,17,KOKV
2025-02-02,2,18:55,EST,S  8,10.0,Overcast,OVC060,35.6,23.0,,,60%,30.0,,30.2,0.0,,,,2025-02-05,2,2025,18,KOKV
2025-02-02,2,19:55,EST,S  7,10.0,Overcast,OVC060,33.8,23.0,,,65%,28.0,,30.19,0.0,,,,2025-02-05,2,2025,19,KOKV
2025-02-02,2,20:55,EST,S  7,10.0,Fair,CLR,33.8,24.8,,,70%,28.0,,30.16,0.0,,,,2025-02-05,2,2025,20,KOKV
2025-02-02,2,21:55,EST,Calm,10.0,Fair,CLR,32.0,23.0,,,69%,,,30.16,0.0,,,,2025-02-05,2,2025,21,KOKV
2025-02-02,2,22:55,EST,S  3,10.0,Partly Cloudy,SCT070,32.0,24.8,,,75%,,,30.15,0.0,,,,2025-02-05,2,2025,22,KOKV
2025-02-02,2,23:55,EST,SW  7,10.0,Fair,CLR,35.6,26.6,,,70%,31.0,,30.13,0.0,,,,2025-02-05,2,2025,23,KOKV
2025-02-03,3,00:55,EST,SW  3,10.0,Fair,CLR,35.6,26.6,,,70%,,,30.14,0.0,,,,2025-02-06,2,2025,0,KOKV
2025-02-03,3,01:55,EST,SW  7,10.0,Fair,CLR,35.6,26.6,,,70%,31.0,,30.13,0.0,,,,2025-02-06,2,2025,1,KOKV
2025-02-03,3,02:55,EST,W  7,10.0,Fair,CLR,33.8,26.6,,,75%,28.0,,30.13,0.0,,,,2025-02-06,2,2025,2,KOKV
2025-02-03,3,03:55,EST,Calm,10.0,Fair,CLR,30.2,24.8,,,80%,,,30.13,0.0,,,,2025-02-06,2,2025,3,KOKV
2025-02-03,3,04:55,EST,Calm,10.0,Fair,CLR,28.4,24.8,,,86%,,,30.11,0.0,,,,2025-02-06,2,2025,4,KOKV
2025-02-03,3,05:55,EST,Calm,10.0,Fair,CLR,28.4,24.8,,,86%,,,30.13,0.0,,,,2025-02-06,2,2025,5,KOKV
2025-02-03,3,06:55,EST,Calm,10.0,Fair,CLR,28.4,23.0,,,80%,,,30.14,0.0,,,,2025-02-06,2,2025,6,KOKV
2025-02-03,3,07:35,EST,Calm,10.0,Fair,CLR,28.4,23.0,,,80%,,,30.15,0.0,,,,2025-02-06,2,2025,7,KOKV
2025-02-03,3,08:35,EST,Calm,10.0,Fair,CLR,32.0,26.6,,,80%,,,30.13,0.0,,,,2025-02-06,2,2025,8,KOKV
2025-02-03,3,09:55,EST,Calm,10.0,Fair,CLR,33.8,28.4,,,81%,,,30.11,0.0,,,,2025-02-06,2,2025,9,KOKV
2025-02-03,3,10:55,EST,Calm,10.0,Fair,CLR,37.4,30.2,,,75%,,,30.11,0.0,,,,2025-02-06,2,2025,10,KOKV
2025-02-03,3,11:55,EST,Calm,10.0,Fair,CLR,41.0,32.0,,,70%,,,30.08,0.0,,,,2025-02-06,2,2025,11,KOKV
2025-02-03,3,12:55,EST,SW  9,10.0,Fair,CLR,46.4,35.6,,,66%,42.0,,30.03,0.0,,,,2025-02-06,2,2025,12,KOKV
2025-02-03,3,13:55,EST,SW  9,10.0,Fair,CLR,51.8,37.4,,,58%,,,29.98,0.0,,,,2025-02-06,2,2025,13,KOKV
2025-02-03,3,14:55,EST,SW  9,10.0,Fair,CLR,51.8,37.4,,,58%,,,29.94,0.0,,,,2025-02-06,2,2025,14,KOKV
2025-02-03,3,15:55,EST,SW  3,10.0,Fair,CLR,51.8,37.4,,,58%,,,29.92,0.0,,,,2025-02-06,2,2025,15,KOKV
2025-02-03,3,16:55,EST,SW  5,10.0,Fair,CLR,53.6,41.0,,,63%,,,29.9,0.0,,,,2025-02-06,2,2025,16,KOKV
2025-02-03,3,17:55,EST,S  3,10.0,Fair,CLR,48.2,37.4,,,66%,,,29.89,0.0,,,,2025-02-06,2,2025,17,KOKV
2025-02-03,3,18:55,EST,Calm,10.0,Fair,CLR,46.4,37.4,,,71%,,,29.88,0.0,,,,2025-02-06,2,2025,18,KOKV
2025-02-03,3,19:55,EST,SW  6,10.0,Fair,CLR,50.0,37.4,,,62%,48.0,,29.87,0.0,,,,2025-02-06,2,2025,19,KOKV
2025-02-03,3,20:55,EST,SW  6,10.0,Fair,CLR,51.8,37.4,,,58%,,,29.85,0.0,,,,2025-02-06,2,2025,20,KOKV
2025-02-03,3,21:55,EST,SW  7,10.0,Fair,CLR,50.0,37.4,,,62%,48.0,,29.84,0.0,,,,2025-02-06,2,2025,21,KOKV
2025-02-03,3,22:55,EST,SW  7,10.0,Fair,CLR,51.8,35.6,,,54%,,,29.82,0.0,,,,2025-02-06,2,2025,22,KOKV
2025-02-03,3,23:55,EST,SW  9,10.0,Fair,CLR,51.8,35.6,,,54%,,,29.83,0.0,,,,2025-02-06,2,2025,23,KOKV
2025-02-04,4,00:55,EST,SW  10  G 17,10.0,Fair,CLR,51.8,35.6,,,54%,,,29.82,0.0,,,,2025-02-07,2,2025,0,KOKV
2025-02-04,4,01:55,EST,SW  10,10.0,Fair,CLR,51.8,35.6,,,54%,,,29.79,0.0,,,,2025-02-07,2,2025,1,KOKV
2025-02-04,4,02:55,EST,SW  7,10.0,Fair,CLR,51.8,35.6,,,54%,,,29.79,0.0,,,,2025-02-07,2,2025,2,KOKV
2025-02-04,4,03:55,EST,SW  9,10.0,Fair,CLR,51.8,35.6,,,54%,,,29.8,0.0,,,,2025-02-07,2,2025,3,KOKV
2025-02-04,4,04:55,EST,W  8,10.0,Overcast,SCT060 OVC070,55.4,37.4,,,51%,,,29.81,0.0,,,,2025-02-07,2,2025,4,KOKV
2025-02-04,4,05:55,EST,NW  7,10.0,Overcast,OVC060,53.6,39.2,,,58%,,,29.83,0.0,,,,2025-02-07,2,2025,5,KOKV
2025-02-04,4,06:55,EST,NW  12,10.0,Overcast,BKN060 OVC070,57.2,41.0,,,55%,,,29.84,0.0,,,,2025-02-07,2,2025,6,KOKV
2025-02-04,4,07:55,EST,NW  10,10.0,Overcast,BKN055 OVC065,55.4,42.8,,,63%,,,29.89,0.0,,,,2025-02-07,2,2025,7,KOKV
2025-02-04,4,08:55,EST,NW  16,10.0,Overcast,SCT037 BKN043 OVC050,53.6,42.8,,,67%,,,29.95,0.0,,,,2025-02-07,2,2025,8,KOKV
2025-02-04,4,09:55,EST,NW  18  G 28,10.0,Overcast,OVC037,51.8,41.0,,,67%,,,29.99,0.0,,,,2025-02-07,2,2025,9,KOKV
2025-02-04,4,10:55,EST,NW  18  G 26,10.0,Mostly Cloudy,BKN035 BKN041,51.8,37.4,,,58%,,,30.03,0.0,,,,2025-02-07,2,2025,10,KOKV
2025-02-04,4,11:55,EST,N  13  G 22,10.0,Mostly Cloudy,BKN039,50.0,33.8,,,54%,46.0,,30.07,0.0,,,,2025-02-07,2,2025,11,KOKV
2025-02-04,4,12:55,EST,NW  17  G 25,10.0,Partly Cloudy,SCT043,46.4,30.2,,,53%,40.0,,30.09,0.0,,,,2025-02-07,2,2025,12,KOKV
2025-02-04,4,13:55,EST,NW  22  G 31,10.0,Fair and Breezy,CLR,46.4,28.4,,,50%,39.0,,30.11,0.0,,,,2025-02-07,2,2025,13,KOKV
2025-02-04,4,14:55,EST,NW  24  G 32,10.0,Fair and Breezy,CLR,44.6,26.6,,,49%,36.0,,30.12,0.0,,,,2025-02-07,2,2025,14,KOKV
2025-02-04,4,15:55,EST,NW  22  G 25,10.0,Partly Cloudy and Breezy,SCT049,44.6,26.6,,,49%,37.0,,30.15,0.0,,,,2025-02-07,2,2025,15,KOKV
2025-02-04,4,16:55,EST,NW  10,10.0,Fair,CLR,42.8,23.0,,,46%,38.0,,30.17,0.0,,,,2025-02-07,2,2025,16,KOKV
2025-02-04,4,17:55,EST,NW  9,10.0,Fair,CLR,37.4,21.2,,,52%,31.0,,30.21,0.0,,,,2025-02-07,2,2025,17,KOKV
2025-02-04,4,18:55,EST,NW  9,10.0,Fair,CLR,37.4,21.2,,,52%,31.0,,30.24,0.0,,,,2025-02-07,2,2025,18,KOKV
2025-02-04,4,19:55,EST,NW  8,10.0,Fair,CLR,33.8,21.2,,,60%,28.0,,30.25,0.0,,,,2025-02-07,2,2025,19,KOKV
2025-02-04,4,20:55,EST,Calm,10.0,Fair,CLR,33.8,21.2,,,60%,,,30.27,0.0,,,,2025-02-07,2,2025,20,KOKV
2025-02-04,4,21:55,EST,Calm,10.0,Fair,CLR,32.0,21.2,,,64%,,,30.28,0.0,,,,2025-02-07,2,2025,21,KOKV
2025-02-04,4,22:55,EST,Calm,10.0,Fair,CLR,32.0,21.2,,,64%,,,30.3,0.0,,,,2025-02-07,2,2025,22,KOKV
2025-02-04,4,23:55,EST,N  3,10.0,Fair,CLR,32.0,21.2,,,64%,,,30.3,0.0,,,,2025-02-07,2,2025,23,KOKV
2025-02-05,5,00:55,EST,Calm,10.0,Fair,CLR,32.0,19.4,,,60%,,,30.29,0.0,,,,2025-02-08,2,2025,0,KOKV
2025-02-05,5,01:55,EST,N  5,10.0,Fair,CLR,32.0,19.4,,,60%,28.0,,30.29,0.0,,,,2025-02-08,2,2025,1,KOKV
2025-02-05,5,02:55,EST,Calm,10.0,Fair,CLR,32.0,19.4,,,60%,,,30.3,0.0,,,,2025-02-08,2,2025,2,KOKV
2025-02-05,5,03:55,EST,Calm,10.0,Fair,CLR,30.2,19.4,,,64%,,,30.31,0.0,,,,2025-02-08,2,2025,3,KOKV
2025-02-05,5,04:55,EST,Calm,10.0,Fair,CLR,30.2,19.4,,,64%,,,30.33,0.0,,,,2025-02-08,2,2025,4,KOKV
2025-02-05,5,05:55,EST,Calm,10.0,Overcast,OVC110,30.2,21.2,,,69%,,,30.34,0.0,,,,2025-02-08,2,2025,5,KOKV
2025-02-05,5,06:55,EST,Calm,10.0,Mostly Cloudy,BKN120,30.2,19.4,,,64%,,,30.36,0.0,,,,2025-02-08,2,2025,6,KOKV
2025-02-05,5,07:55,EST,Calm,10.0,Overcast,BKN090 OVC120,32.0,19.4,,,60%,,,30.37,0.0,,,,2025-02-08,2,2025,7,KOKV
2025-02-05,5,08:55,EST,Calm,10.0,Overcast,OVC080,32.0,19.4,,,60%,,,30.39,0.0,,,,2025-02-08,2,2025,8,KOKV
2025-02-05,5,09:55,EST,Calm,10.0,Overcast,OVC070,32.0,17.6,,,55%,,,30.39,0.0,,,,2025-02-08,2,2025,9,KOKV
2025-02-05,5,10:55,EST,Calm,10.0,Overcast,OVC070,32.0,17.6,,,55%,,,30.4,0.0,,,,2025-02-08,2,2025,10,KOKV
2025-02-05,5,11:55,EST,SE  6,10.0,Overcast,BKN070 OVC095,33.8,17.6,,,51%,29.0,,30.37,0.0,,,,2025-02-08,2,2025,11,KOKV
2025-02-05,5,12:55,EST,Calm,10.0,Overcast,OVC085,33.8,17.6,,,51%,,,30.35,0.0,,,,2025-02-08,2,2025,12,KOKV
2025-02-05,5,13:55,EST,SE  5,10.0,Overcast,BKN043 OVC085,33.8,17.6,,,51%,30.0,,30.32,0.0,,,,2025-02-08,2,2025,13,KOKV
2025-02-05,5,14:55,EST,E  3,10.0,Overcast,BKN043 OVC070,33.8,14.0,,,44%,,,30.29,0.0,,,,2025-02-08,2,2025,14,KOKV
2025-02-05,5,15:55,EST,E  3,10.0,Overcast,BKN037 OVC065,33.8,17.6,,,51%,,,30.29,0.0,,,,2025-02-08,2,2025,15,KOKV
2025-02-05,5,16:55,EST,SE  7,10.0,Overcast,SCT037 SCT044 OVC055,33.8,19.4,,,56%,28.0,,30.27,0.0,,,,2025-02-08,2,2025,16,KOKV
2025-02-05,5,17:55,EST,SE  6,10.0,Overcast,OVC039,33.8,19.4,,,56%,29.0,,30.27,0.0,,,,2025-02-08,2,2025,17,KOKV
2025-02-05,5,18:55,EST,SE  5,10.0,Overcast,OVC033,32.0,21.2,,,64%,28.0,,30.27,0.0,,,,2025-02-08,2,2025,18,KOKV
2025-02-05,5,19:55,EST,S  5,10.0,Overcast,OVC031,32.0,23.0,,,69%,28.0,,30.28,0.0,,,,2025-02-08,2,2025,19,KOKV
2025-02-05,5,20:55,EST,S  3,10.0,Light Drizzle,OVC041,32.0,21.2,,,64%,,,30.27,0.0,,,,2025-02-08,2,2025,20,KOKV
2025-02-05,5,21:55,EST,SE  7,10.0,Light Drizzle,OVC041,32.0,23.0,,,69%,26.0,,30.24,0.0,,,,2025-02-08,2,2025,21,KOKV
2025-02-05,5,22:55,EST,SE  8,10.0,Drizzle,OVC039,32.0,24.8,,,75%,25.0,,30.23,0.0,,,,2025-02-08,2,2025,22,KOKV
2025-02-05,5,23:55,EST,SE  9,10.0,Unknown Precip,SCT021 OVC033,32.0,28.4,,,87%,25.0,,30.2,0.0,,,,2025-02-08,2,2025,23,KOKV
2025-02-06,6,00:55,EST,SE  7,10.0,Unknown Precip,OVC014,32.0,28.4,,,87%,26.0,,30.19,0.0,,,,2025-02-09,2,2025,0,KOKV
2025-02-06,6,01:55,EST,SE  9,10.0,Unknown Precip,OVC016,32.0,28.4,,,87%,25.0,,30.15,0.0,,,,2025-02-09,2,2025,1,KOKV
2025-02-06,6,02:55,EST,SE  8,5.0,Unknown Precip,OVC010,32.0,30.2,,,93%,25.0,,30.1,0.0,,,,2025-02-09,2,2025,2,KOKV
2025-02-06,6,03:55,EST,SE  10  G 16,5.0,Light Rain,OVC014,32.0,30.2,,,93%,24.0,,30.05,0.0,,,,2025-02-09,2,2025,3,KOKV
2025-02-06,6,04:55,EST,SE  9,5.0,Unknown Precip,BKN014 OVC022,32.0,30.2,,,93%,25.0,,30.08,0.0,,,,2025-02-09,2,2025,4,KOKV
2025-02-06,6,05:55,EST,S  6,10.0,Light Rain,BKN018 OVC025,32.0,30.2,,,93%,27.0,,30.02,0.0,,,,2025-02-09,2,2025,5,KOKV
2025-02-06,6,06:55,EST,SE  5,7.0,Light Rain,SCT009 OVC014,32.0,30.2,,,93%,28.0,,29.98,0.0,,,,2025-02-09,2,2025,6,KOKV
2025-02-06,6,07:55,EST,S  3,5.0,Light Rain,OVC014,32.0,32.0,,,100%,,,29.96,0.0,,,,2025-02-09,2,2025,7,KOKV
2025-02-06,6,08:55,EST,S  6,1.25,Light Rain,SCT007 OVC014,32.0,32.0,,,100%,27.0,,29.95,0.0,,,,2025-02-09,2,2025,8,KOKV
2025-02-06,6,09:55,EST,Calm,7.0,Light Drizzle,OVC009,32.0,32.0,,,100%,,,29.93,0.0,,,,2025-02-09,2,2025,9,KOKV
2025-02-06,6,10:55,EST,S  5,10.0,Overcast,BKN007 BKN012 OVC055,33.8,33.8,,,100%,30.0,,29.9,0.0,,,,2025-02-09,2,2025,10,KOKV
2025-02-06,6,11:55,EST,S  6,10.0,Overcast,OVC005,35.6,35.6,,,100%,31.0,,29.86,0.0,,,,2025-02-09,2,2025,11,KOKV
2025-02-06,6,12:55,EST,SW  7,10.0,Overcast,OVC009,41.0,37.4,,,87%,37.0,,29.82,0.0,,,,2025-02-09,2,2025,12,KOKV
2025-02-06,6,13:55,EST,SW  9,10.0,Fair,CLR,44.6,41.0,,,87%,40.0,,29.8,0.0,,,,2025-02-09,2,2025,13,KOKV
2025-02-06,6,14:55,EST,SW  7,10.0,Fair,CLR,48.2,41.0,,,76%,46.0,,29.78,0.0,,,,2025-02-09,2,2025,14,KOKV
2025-02-06,6,15:55,EST,SW  3,10.0,Fair,CLR,51.8,42.8,,,72%,,,29.78,0.0,,,,2025-02-09,2,2025,15,KOKV
2025-02-06,6,16:55,EST,Calm,10.0,Fair,CLR,51.8,42.8,,,72%,,,29.77,0.0,,,,2025-02-09,2,2025,16,KOKV
2025-02-06,6,17:55,EST,SE  3,10.0,Fair,CLR,46.4,42.8,,,87%,,,29.78,0.0,,,,2025-02-09,2,2025,17,KOKV
2025-02-06,6,18:55,EST,Calm,10.0,Fair,CLR,42.8,41.0,,,93%,,,29.81,0.0,,,,2025-02-09,2,2025,18,KOKV
2025-02-06,6,19:55,EST,Calm,2.5,Fog/Mist,CLR,37.4,37.4,,,100%,,,29.81,0.0,,,,2025-02-09,2,2025,19,KOKV
2025-02-06,6,20:55,EST,Calm,0.5,Fog,BKN002,37.4,35.6,,,93%,,,29.79,0.0,,,,2025-02-09,2,2025,20,KOKV
2025-02-06,6,21:55,EST,Calm,0.75,Fog/Mist,BKN002,35.6,35.6,,,100%,,,29.79,0.0,,,,2025-02-09,2,2025,21,KOKV
2025-02-06,6,22:55,EST,Calm,4.0,Fog/Mist,CLR,35.6,35.6,,,100%,,,29.79,0.0,,,,2025-02-09,2,2025,22,KOKV
2025-02-06,6,23:55,EST,NW  3,1.75,Fog/Mist,SCT060 BKN080,35.6,35.6,,,100%,,,29.82,0.0,,,,2025-02-09,2,2025,23,KOKV
2025-02-07,7,00:55,EST,Calm,10.0,Partly Cloudy,SCT070 SCT090,41.0,39.2,,,93%,,,29.83,0.0,,,,2025-02-10,2,2025,0,KOKV
2025-02-07,7,01:55,EST,W  10,10.0,Mostly Cloudy,BKN120,46.4,37.4,,,71%,42.0,,29.85,0.0,,,,2025-02-10,2,2025,1,KOKV
2025-02-07,7,02:55,EST,SW  10  G 17,10.0,Fair,CLR,48.2,26.6,,,43%,44.0,,29.84,0.0,,,,2025-02-10,2,2025,2,KOKV
2025-02-07,7,03:55,EST,W  12  G 20,10.0,Fair,CLR,46.4,17.6,,,32%,42.0,,29.84,0.0,,,,2025-02-10,2,2025,3,KOKV
2025-02-07,7,04:55,EST,NW  12,10.0,Fair,CLR,44.6,14.0,,,29%,39.0,,29.88,0.0,,,,2025-02-10,2,2025,4,KOKV
2025-02-07,7,05:55,EST,NW  23  G 26,10.0,Fair and Breezy,CLR,41.0,19.4,,,42%,32.0,,29.9,0.0,,,,2025-02-10,2,2025,5,KOKV
2025-02-07,7,06:55,EST,NW  18,10.0,Fair,CLR,37.4,19.4,,,48%,28.0,,29.93,0.0,,,,2025-02-10,2,2025,6,KOKV
2025-02-07,7,07:55,EST,NW  18,10.0,Fair,CLR,37.4,19.4,,,48%,28.0,,29.98,0.0,,,,2025-02-10,2,2025,7,KOKV
2025-02-07,7,08:55,EST,NW  21  G 26,10.0,Fair and Breezy,CLR,39.2,19.4,,,45%,30.0,,30.02,0.0,,,,2025-02-10,2,2025,8,KOKV
2025-02-07,7,09:55,EST,NW  18  G 25,10.0,Fair,CLR,41.0,21.2,,,45%,33.0,,30.03,0.0,,,,2025-02-10,2,2025,9,KOKV
2025-02-07,7,10:55,EST,NW  17  G 26,10.0,Fair,CLR,42.8,21.2,,,42%,35.0,,30.06,0.0,,,,2025-02-10,2,2025,10,KOKV
2025-02-07,7,11:55,EST,NW  24  G 29,10.0,Fair and Breezy,CLR,44.6,21.2,,,39%,36.0,,30.06,0.0,,,,2025-02-10,2,2025,11,KOKV
2025-02-07,7,12:55,EST,W  21  G 31,10.0,Fair and Breezy,CLR,44.6,19.4,,,37%,37.0,,30.07,0.0,,,,2025-02-10,2,2025,12,KOKV
2025-02-07,7,13:55,EST,NW  18  G 24,10.0,Fair,CLR,46.4,21.2,,,37%,40.0,,30.08,0.0,,,,2025-02-10,2,2025,13,KOKV
2025-02-07,7,14:55,EST,NW  15  G 23,10.0,Fair,CLR,44.6,19.4,,,37%,38.0,,30.08,0.0,,,,2025-02-10,2,2025,14,KOKV
2025-02-07,7,15:55,EST,NW  14  G 21,10.0,Fair,CLR,44.6,19.4,,,37%,39.0,,30.1,0.0,,,,2025-02-10,2,2025,15,KOKV
2025-02-07,7,16:55,EST,NW  15  G 23,10.0,Fair,CLR,42.8,17.6,,,36%,36.0,,30.12,0.0,,,,2025-02-10,2,2025,16,KOKV
2025-02-07,7,17:35,EST,NW  6,10.0,Fair,CLR,41.0,17.6,,,39%,38.0,,30.14,0.0,,,,2025-02-10,2,2025,17,KOKV
2025-02-07,7,19:55,EST,NW  8,10.0,Fair,CLR,35.6,17.6,,,48%,30.0,,30.19,0.0,,,,2025-02-10,2,2025,19,KOKV
2025-02-07,7,20:55,EST,N  12,10.0,Fair,CLR,37.4,19.4,,,48%,30.0,,30.19,0.0,,,,2025-02-10,2,2025,20,KOKV
2025-02-07,7,21:55,EST,N  6,10.0,Fair,CLR,33.8,19.4,,,56%,29.0,,30.22,0.0,,,,2025-02-10,2,2025,21,KOKV
2025-02-07,7,22:35,EST,SE  7,10.0,Fair,CLR,32.0,19.4,,,60%,26.0,,30.23,0.0,,,,2025-02-10,2,2025,22,KOKV
2025-02-07,7,23:55,EST,Calm,10.0,Fair,CLR,32.0,17.6,,,55%,,,30.23,0.0,,,,2025-02-10,2,2025,23,KOKV
2025-02-08,8,00:55,EST,Calm,10.0,Fair,CLR,30.2,19.4,,,64%,,,30.24,0.0,,,,2025-02-11,2,2025,0,KOKV
2025-02-08,8,01:55,EST,Calm,10.0,Fair,CLR,30.2,19.4,,,64%,,,30.24,0.0,,,,2025-02-11,2,2025,1,KOKV
2025-02-08,8,02:55,EST,Calm,10.0,Mostly Cloudy,BKN120,30.2,21.2,,,69%,,,30.25,0.0,,,,2025-02-11,2,2025,2,KOKV
2025-02-08,8,03:55,EST,Calm,10.0,Mostly Cloudy,BKN120,32.0,19.4,,,60%,,,30.23,0.0,,,,2025-02-11,2,2025,3,KOKV
2025-02-08,8,04:55,EST,Calm,10.0,Overcast,OVC100,32.0,19.4,,,60%,,,30.23,0.0,,,,2025-02-11,2,2025,4,KOKV
2025-02-08,8,05:55,EST,Calm,10.0,Mostly Cloudy,BKN100,32.0,19.4,,,60%,,,30.25,0.0,,,,2025-02-11,2,2025,5,KOKV
2025-02-08,8,06:55,EST,NE  3,10.0,Overcast,OVC080,32.0,19.4,,,60%,,,30.26,0.0,,,,2025-02-11,2,2025,6,KOKV
2025-02-08,8,07:55,EST,Calm,10.0,Overcast,OVC045,30.2,19.4,,,64%,,,30.26,0.0,,,,2025-02-11,2,2025,7,KOKV
2025-02-08,8,08:55,EST,S  3,5.0,Light Snow,BKN026 BKN032 OVC041,32.0,26.6,,,80%,,,30.27,0.0,,,,2025-02-11,2,2025,8,KOKV
2025-02-08,8,09:55,EST,Calm,5.0,Light Rain,SCT016 BKN038 OVC060,32.0,28.4,,,87%,,,30.26,0.0,,,,2025-02-11,2,2025,9,KOKV
2025-02-08,8,10:55,EST,SE  3,3.0,Light Drizzle,BKN017 OVC026,32.0,30.2,,,93%,,,30.25,0.0,,,,2025-02-11,2,2025,10,KOKV
2025-02-08,8,11:55,EST,E  8,10.0,Overcast,OVC017,32.0,30.2,,,93%,25.0,,30.18,0.0,,,,2025-02-11,2,2025,11,KOKV
2025-02-08,8,12:55,EST,SE  8,10.0,Light Drizzle,OVC017,32.0,28.4,,,87%,25.0,,30.15,0.0,,,,2025-02-11,2,2025,12,KOKV
2025-02-08,8,13:55,EST,SE  10,10.0,Overcast,OVC015,32.0,28.4,,,87%,24.0,,30.12,0.0,,,,2025-02-11,2,2025,13,KOKV
2025-02-08,8,14:55,EST,SE  14  G 17,10.0,Light Rain,OVC013,32.0,28.4,,,87%,23.0,,30.09,0.0,,,,2025-02-11,2,2025,14,KOKV
2025-02-08,8,15:55,EST,SE  12,10.0,Overcast,OVC009,32.0,30.2,,,93%,24.0,,30.05,0.0,,,,2025-02-11,2,2025,15,KOKV
2025-02-08,8,16:55,EST,SE  10  G 20,5.0,Unknown Precip,OVC007,32.0,30.2,,,93%,24.0,,30.01,0.0,,,,2025-02-11,2,2025,16,KOKV
2025-02-08,8,17:55,EST,S  10  G 16,10.0,Overcast,OVC010,32.0,30.2,,,93%,24.0,,29.97,0.0,,,,2025-02-11,2,2025,17,KOKV
2025-02-08,8,18:55,EST,S  12  G 17,10.0,Overcast,OVC010,32.0,30.2,,,93%,24.0,,29.95,0.0,,,,2025-02-11,2,2025,18,KOKV
2025-02-08,8,19:55,EST,S  13  G 22,10.0,Overcast,BKN008 OVC012,32.0,30.2,,,93%,23.0,,29.88,0.0,,,,2025-02-11,2,2025,19,KOKV
2025-02-08,8,20:55,EST,S  14  G 20,10.0,Overcast,OVC006,32.0,30.2,,,93%,23.0,,29.84,0.0,,,,2025-02-11,2,2025,20,KOKV
2025-02-08,8,21:55,EST,S  9,10.0,Overcast,SCT006 OVC021,32.0,30.2,,,93%,25.0,,29.79,0.0,,,,2025-02-11,2,2025,21,KOKV
2025-02-08,8,22:55,EST,S  6,10.0,Overcast,SCT019 BKN047 OVC065,32.0,32.0,,,100%,27.0,,29.77,0.0,,,,2025-02-11,2,2025,22,KOKV
2025-02-08,8,23:55,EST,Calm,7.0,Light Drizzle,SCT006 BKN036 OVC043,32.0,32.0,,,100%,,,29.79,0.0,,,,2025-02-11,2,2025,23,KOKV
2025-02-09,9,00:55,EST,S  3,10.0,Overcast,SCT031 OVC037,32.0,32.0,,,100%,,,29.75,0.0,,,,2025-02-12,2,2025,0,KOKV
2025-02-09,9,01:55,EST,Calm,7.0,Overcast,SCT030 BKN035 OVC044,32.0,32.0,,,100%,,,29.77,0.0,,,,2025-02-12,2,2025,1,KOKV
2025-02-09,9,02:55,EST,Calm,7.0,Overcast,BKN034 OVC041,32.0,32.0,,,100%,,,29.78,0.0,,,,2025-02-12,2,2025,2,KOKV
2025-02-09,9,03:55,EST,Calm,5.0,Fog/Mist,BKN039,32.0,32.0,,,100%,,,29.8,0.0,,,,2025-02-12,2,2025,3,KOKV
2025-02-09,9,04:55,EST,NW  15  G 25,10.0,Fair,CLR,41.0,33.8,,,76%,34.0,,29.83,0.0,,,,2025-02-12,2,2025,4,KOKV
2025-02-09,9,05:55,EST,NW  21  G 26,10.0,Mostly Cloudy and Breezy,BKN034 BKN041,41.0,32.0,,,70%,32.0,,29.89,0.0,,,,2025-02-12,2,2025,5,KOKV
2025-02-09,9,06:55,EST,NW  20  G 24,10.0,Overcast,OVC034,39.2,32.0,,,75%,30.0,,29.95,0.0,,,,2025-02-12,2,2025,6,KOKV
2025-02-09,9,07:55,EST,NW  18  G 24,10.0,Overcast,SCT027 BKN034 OVC042,37.4,30.2,,,75%,28.0,,30.01,0.0,,,,2025-02-12,2,2025,7,KOKV
2025-02-09,9,08:55,EST,NW  22  G 32,10.0,Overcast and Breezy,OVC031,35.6,28.4,,,75%,25.0,,30.06,0.0,,,,2025-02-12,2,2025,8,KOKV
2025-02-09,9,09:55,EST,NW  5  G 17,10.0,Overcast,OVC027,35.6,26.6,,,70%,32.0,,30.12,0.0,,,,2025-02-12,2,2025,9,KOKV
2025-02-09,9,10:55,EST,NW  6,10.0,Overcast,OVC029,35.6,26.6,,,70%,31.0,,30.16,0.0,,,,2025-02-12,2,2025,10,KOKV
2025-02-09,9,11:55,EST,NW  17  G 24,10.0,Overcast,OVC033,37.4,26.6,,,65%,29.0,,30.15,0.0,,,,2025-02-12,2,2025,11,KOKV
2025-02-09,9,12:55,EST,NW  12  G 20,10.0,Overcast,OVC035,37.4,26.6,,,65%,30.0,,30.17,0.0,,,,2025-02-12,2,2025,12,KOKV
2025-02-09,9,13:55,EST,NW  15,10.0,Overcast,OVC037,37.4,26.6,,,65%,29.0,,30.17,0.0,,,,2025-02-12,2,2025,13,KOKV
2025-02-09,9,14:55,EST,NW  13,10.0,Mostly Cloudy,BKN037,37.4,24.8,,,60%,30.0,,30.19,0.0,,,,2025-02-12,2,2025,14,KOKV
2025-02-09,9,15:55,EST,NW  17  G 23,10.0,Partly Cloudy,SCT040,37.4,24.8,,,60%,29.0,,30.19,0.0,,,,2025-02-12,2,2025,15,KOKV
2025-02-09,9,16:55,EST,NW  14,10.0,Partly Cloudy,SCT039,35.6,23.0,,,60%,27.0,,30.21,0.0,,,,2025-02-12,2,2025,16,KOKV
2025-02-09,9,17:55,EST,NW  10,10.0,Partly Cloudy,SCT120,33.8,23.0,,,65%,26.0,,30.24,0.0,,,,2025-02-12,2,2025,17,KOKV
2025-02-09,9,18:55,EST,NW  13  G 17,10.0,Mostly Cloudy,BKN120,33.8,23.0,,,65%,25.0,,30.25,0.0,,,,2025-02-12,2,2025,18,KOKV
2025-02-09,9,19:55,EST,NW  10,10.0,Fair,CLR,33.8,23.0,,,65%,26.0,,30.28,0.0,,,,2025-02-12,2,2025,19,KOKV
2025-02-09,9,20:55,EST,NW  14,10.0,Partly Cloudy,SCT120,32.0,21.2,,,64%,23.0,,30.27,0.0,,,,2025-02-12,2,2025,20,KOKV
2025-02-09,9,21:55,EST,NW  6,10.0,Fair,CLR,32.0,21.2,,,64%,27.0,,30.29,0.0,,,,2025-02-12,2,2025,21,KOKV
2025-02-09,9,22:55,EST,N  5,10.0,Fair,CLR,32.0,21.2,,,64%,28.0,,30.29,0.0,,,,2025-02-12,2,2025,22,KOKV
2025-02-09,9,23:55,EST,Calm,10.0,Mostly Cloudy,BKN120,32.0,23.0,,,69%,,,30.29,0.0,,,,2025-02-13,2,2025,23,KOKV
2025-02-10,10,00:55,EST,Calm,10.0,Partly Cloudy,SCT120,32.0,23.0,,,69%,,,30.3,0.0,,,,2025-02-13,2,2025,0,KOKV
2025-02-10,10,01:55,EST,NW  3,10.0,Overcast,OVC120,32.0,23.0,,,69%,,,30.3,0.0,,,,2025-02-13,2,2025,1,KOKV
2025-02-10,10,02:55,EST,NW  6,10.0,Mostly Cloudy,BKN034 BKN120,32.0,23.0,,,69%,27.0,,30.32,0.0,,,,2025-02-13,2,2025,2,KOKV
2025-02-10,10,03:55,EST,NW  6,10.0,Overcast,OVC032,32.0,23.0,,,69%,27.0,,30.33,0.0,,,,2025-02-13,2,2025,3,KOKV
2025-02-10,10,04:55,EST,N  5,10.0,Overcast,OVC032,32.0,23.0,,,69%,28.0,,30.34,0.0,,,,2025-02-13,2,2025,4,KOKV
2025-02-10,10,05:55,EST,NW  6,10.0,Mostly Cloudy,BKN110,32.0,21.2,,,64%,27.0,,30.35,0.0,,,,2025-02-13,2,2025,5,KOKV
2025-02-10,10,06:55,EST,NW  3,10.0,Overcast,OVC110,32.0,21.2,,,64%,,,30.37,0.0,,,,2025-02-13,2,2025,6,KOKV
2025-02-10,10,07:55,EST,NW  3,10.0,Fair,CLR,30.2,21.2,,,69%,,,30.39,0.0,,,,2025-02-13,2,2025,7,KOKV
2025-02-10,10,08:55,EST,N  8,10.0,Fair,CLR,32.0,21.2,,,64%,25.0,,30.4,0.0,,,,2025-02-13,2,2025,8,KOKV
2025-02-10,10,09:55,EST,W  10,10.0,Partly Cloudy,SCT036,33.8,21.2,,,60%,26.0,,30.4,0.0,,,,2025-02-13,2,2025,9,KOKV
2025-02-10,10,10:55,EST,NW  6,10.0,Fair,CLR,33.8,19.4,,,56%,29.0,,30.4,0.0,,,,2025-02-13,2,2025,10,KOKV
2025-02-10,10,11:55,EST,W  8,10.0,Fair,CLR,37.4,21.2,,,52%,32.0,,30.38,0.0,,,,2025-02-13,2,2025,11,KOKV
2025-02-10,10,12:55,EST,Calm,10.0,Fair,CLR,37.4,19.4,,,48%,,,30.36,0.0,,,,2025-02-13,2,2025,12,KOKV
2025-02-10,10,13:55,EST,NW  10,10.0,Partly Cloudy,SCT055,41.0,19.4,,,42%,35.0,,30.34,0.0,,,,2025-02-13,2,2025,13,KOKV
2025-02-10,10,14:55,EST,N  9,10.0,Partly Cloudy,SCT055,41.0,17.6,,,39%,36.0,,30.33,0.0,,,,2025-02-13,2,2025,14,KOKV
2025-02-10,10,15:55,EST,NW  8  G 16,10.0,Fair,CLR,41.0,17.6,,,39%,36.0,,30.34,0.0,,,,2025-02-13,2,2025,15,KOKV
2025-02-10,10,16:55,EST,NW  12,10.0,Fair,CLR,39.2,17.6,,,42%,33.0,,30.35,0.0,,,,2025-02-13,2,2025,16,KOKV
2025-02-10,10,17:55,EST,NW  7,10.0,Fair,CLR,35.6,14.0,,,41%,31.0,,30.37,0.0,,,,2025-02-13,2,2025,17,KOKV
2025-02-10,10,18:55,EST,NW  5,10.0,Fair,CLR,32.0,14.0,,,47%,28.0,,30.38,0.0,,,,2025-02-13,2,2025,18,KOKV
2025-02-10,10,19:55,EST,Calm,10.0,Fair,CLR,33.8,14.0,,,44%,,,30.4,0.0,,,,2025-02-13,2,2025,19,KOKV
2025-02-10,10,20:55,EST,E  3,10.0,Fair,CLR,26.6,15.8,,,64%,,,30.41,0.0,,,,2025-02-13,2,2025,20,KOKV
2025-02-10,10,21:55,EST,Calm,10.0,Fair,CLR,30.2,17.6,,,59%,,,30.42,0.0,,,,2025-02-13,2,2025,21,KOKV
2025-02-10,10,22:55,EST,Calm,10.0,Fair,CLR,28.4,17.6,,,64%,,,30.42,0.0,,,,2025-02-13,2,2025,22,KOKV
2025-02-10,10,23:55,EST,Calm,10.0,Fair,CLR,26.6,19.4,,,74%,,,30.41,0.0,,,,2025-02-13,2,2025,23,KOKV
2025-02-11,11,00:55,EST,Calm,10.0,Fair,CLR,30.2,19.4,,,64%,,,30.4,0.0,,,,2025-02-14,2,2025,0,KOKV
2025-02-11,11,01:55,EST,Calm,10.0,Fair,CLR,28.4,17.6,,,64%,,,30.41,0.0,,,,2025-02-14,2,2025,1,KOKV
2025-02-11,11,02:55,EST,Calm,10.0,Mostly Cloudy,BKN120,28.4,17.6,,,64%,,,30.41,0.0,,,,2025-02-14,2,2025,2,KOKV
2025-02-11,11,03:55,EST,Calm,10.0,Overcast,OVC110,28.4,17.6,,,64%,,,30.39,0.0,,,,2025-02-14,2,2025,3,KOKV
2025-02-11,11,04:55,EST,Calm,10.0,Overcast,OVC120,28.4,17.6,,,64%,,,30.39,0.0,,,,2025-02-14,2,2025,4,KOKV
2025-02-11,11,05:55,EST,Calm,10.0,Mostly Cloudy,BKN120,28.4,17.6,,,64%,,,30.4,0.0,,,,2025-02-14,2,2025,5,KOKV
2025-02-11,11,06:55,EST,Calm,10.0,Overcast,OVC120,28.4,17.6,,,64%,,,30.4,0.0,,,,2025-02-14,2,2025,6,KOKV
2025-02-11,11,07:55,EST,E  5,10.0,Overcast,OVC110,28.4,19.4,,,69%,24.0,,30.39,0.0,,,,2025-02-14,2,2025,7,KOKV
2025-02-11,11,08:55,EST,Calm,10.0,Overcast,OVC100,30.2,19.4,,,64%,,,30.39,0.0,,,,2025-02-14,2,2025,8,KOKV
2025-02-11,11,09:55,EST,SE  7,10.0,Overcast,SCT044 BKN050 OVC065,32.0,17.6,,,55%,26.0,,30.37,0.0,,,,2025-02-14,2,2025,9,KOKV
2025-02-11,11,10:55,EST,SE  13,10.0,Mostly Cloudy,SCT045 BKN085,32.0,19.4,,,60%,23.0,,30.35,0.0,,,,2025-02-14,2,2025,10,KOKV
2025-02-11,11,11:55,EST,S  10,10.0,Overcast,OVC050,32.0,19.4,,,60%,24.0,,30.3,0.0,,,,2025-02-14,2,2025,11,KOKV
2025-02-11,11,12:55,EST,S  9,4.0,Light Snow,SCT026 BKN037 OVC045,32.0,23.0,,,69%,25.0,,30.27,0.0,,,,2025-02-14,2,2025,12,KOKV
2025-02-11,11,13:55,EST,SE  5,1.25,Light Snow,BKN019 OVC029,30.2,26.6,,,86%,26.0,,30.24,0.0,,,,2025-02-14,2,2025,13,KOKV
2025-02-11,11,14:55,EST,E  5,1.5,Light Snow,SCT007 BKN023 OVC036,30.2,26.6,,,86%,26.0,,30.22,0.0,,,,2025-02-14,2,2025,14,KOKV
2025-02-11,11,15:55,EST,SE  6,0.75,Light Snow,OVC005,30.2,28.4,,,93%,25.0,,30.21,0.0,,,,2025-02-14,2,2025,15,KOKV
2025-02-11,11,16:55,EST,E  3,1.0,Light Snow,OVC005,30.2,28.4,,,93%,,,30.21,0.0,,,,2025-02-14,2,2025,16,KOKV
2025-02-11,11,17:55,EST,E  5,1.5,Light Snow,BKN005 OVC014,28.4,28.4,,,100%,24.0,,30.2,0.0,,,,2025-02-14,2,2025,17,KOKV
2025-02-11,11,18:55,EST,E  6,1.75,Light Snow,BKN005 OVC020,28.4,28.4,,,100%,23.0,,30.19,0.0,,,,2025-02-14,2,2025,18,KOKV
2025-02-11,11,19:55,EST,E  3,2.5,Light Snow,BKN005 OVC029,28.4,28.4,,,100%,,,30.19,0.0,,,,2025-02-14,2,2025,19,KOKV
2025-02-11,11,20:55,EST,Calm,2.5,Light Snow,BKN005 OVC026,28.4,28.4,,,100%,,,30.18,0.0,,,,2025-02-14,2,2025,20,KOKV
2025-02-11,11,21:55,EST,E  3,2.5,Light Snow,BKN005 BKN021 OVC029,28.4,28.4,,,100%,,,30.17,0.0,,,,2025-02-14,2,2025,21,KOKV
2025-02-11,11,22:55,EST,Calm,2.0,Light Snow,OVC005,28.4,26.6,,,93%,,,30.17,0.0,,,,2025-02-14,2,2025,22,KOKV
2025-02-11,11,23:55,EST,Calm,2.0,Light Snow,BKN005 OVC027,28.4,26.6,,,93%,,,30.15,0.0,,,,2025-02-14,2,2025,23,KOKV
2025-02-12,12,00:55,EST,Calm,2.0,Light Snow,SCT005 OVC030,28.4,26.6,,,93%,,,30.14,0.0,,,,2025-02-15,2,2025,0,KOKV
2025-02-12,12,01:55,EST,Calm,3.0,Light Snow,OVC005,28.4,26.6,,,93%,,,30.13,0.0,,,,2025-02-15,2,2025,1,KOKV
2025-02-12,12,02:55,EST,Calm,5.0,Fog/Mist,OVC005,28.4,26.6,,,93%,,,30.13,0.0,,,,2025-02-15,2,2025,2,KOKV
2025-02-12,12,03:55,EST,Calm,4.0,Light Snow,SCT005 OVC014,28.4,26.6,,,93%,,,30.13,0.0,,,,2025-02-15,2,2025,3,KOKV
2025-02-12,12,04:55,EST,Calm,2.5,Light Snow,SCT005 OVC019,28.4,26.6,,,93%,,,30.12,0.0,,,,2025-02-15,2,2025,4,KOKV
2025-02-12,12,05:55,EST,Calm,1.75,Light Snow,SCT004 BKN017 OVC033,28.4,26.6,,,93%,,,30.13,0.0,,,,2025-02-15,2,2025,5,KOKV
2025-02-12,12,06:55,EST,Calm,3.0,Light Snow,SCT019 OVC027,28.4,26.6,,,93%,,,30.15,0.0,,,,2025-02-15,2,2025,6,KOKV
2025-02-12,12,07:55,EST,Calm,0.5,Light Snow,OVC012,28.4,26.6,,,93%,,,30.17,0.0,,,,2025-02-15,2,2025,7,KOKV
2025-02-12,12,08:55,EST,Calm,1.25,Light Snow,SCT006 OVC032,28.4,26.6,,,93%,,,30.18,0.0,,,,2025-02-15,2,2025,8,KOKV
2025-02-12,12,09:55,EST,Calm,3.0,Fog/Mist,OVC006,28.4,26.6,,,93%,,,30.19,0.0,,,,2025-02-15,2,2025,9,KOKV
2025-02-12,12,10:55,EST,Calm,2.5,Fog/Mist,OVC008,30.2,26.6,,,86%,,,30.17,0.0,,,,2025-02-15,2,2025,10,KOKV
2025-02-12,12,11:55,EST,Calm,3.0,Fog/Mist,OVC008,30.2,28.4,,,93%,,,30.17,0.0,,,,2025-02-15,2,2025,11,KOKV
2025-02-12,12,12:55,EST,Calm,1.75,Fog/Mist,OVC006,30.2,28.4,,,93%,,,30.13,0.0,,,,2025-02-15,2,2025,12,KOKV
2025-02-12,12,13:55,EST,Calm,1.25,Fog/Mist,OVC004,30.2,30.2,,,100%,,,30.13,0.0,,,,2025-02-15,2,2025,13,KOKV
2025-02-12,12,14:55,EST,E  5,1.0,Fog/Mist,OVC004,32.0,30.2,,,93%,28.0,,30.13,0.0,,,,2025-02-15,2,2025,14,KOKV
2025-02-12,12,15:55,EST,SE  5,0.75,Fog/Mist,OVC004,32.0,30.2,,,93%,28.0,,30.12,0.0,,,,2025-02-15,2,2025,15,KOKV
2025-02-12,12,16:55,EST,SE  5,0.75,Unknown Precip,OVC002,32.0,30.2,,,93%,28.0,,30.12,0.0,,,,2025-02-15,2,2025,16,KOKV
2025-02-12,12,17:55,EST,E  3,3.0,Rain,OVC004,32.0,30.2,,,93%,,,30.12,0.0,,,,2025-02-15,2,2025,17,KOKV
2025-02-12,12,18:55,EST,Calm,4.0,Drizzle,OVC004,32.0,32.0,,,100%,,,30.11,0.0,,,,2025-02-15,2,2025,18,KOKV
2025-02-12,12,19:55,EST,Calm,2.5,Drizzle,OVC006,32.0,32.0,,,100%,,,30.1,0.0,,,,2025-02-15,2,2025,19,KOKV
2025-02-12,12,20:55,EST,Calm,2.5,Drizzle,OVC008,32.0,32.0,,,100%,,,30.09,0.0,,,,2025-02-15,2,2025,20,KOKV
2025-02-12,12,21:55,EST,Calm,3.0,Drizzle,BKN008 OVC012,32.0,32.0,,,100%,,,30.08,0.0,,,,2025-02-15,2,2025,21,KOKV
2025-02-12,12,22:55,EST,SE  5,4.0,Fog/Mist,BKN004 OVC008,32.0,32.0,,,100%,28.0,,30.05,0.0,,,,2025-02-15,2,2025,22,KOKV
2025-02-12,12,23:35,EST,Calm,3.0,Fog/Mist,OVC002,32.0,32.0,,,100%,,,30.04,0.0,,,,2025-02-15,2,2025,23,KOKV
2025-02-13,13,00:55,EST,SE  5,3.0,Drizzle,BKN002 OVC008,32.0,32.0,,,100%,28.0,,30.0,0.0,,,,2025-02-16,2,2025,0,KOKV
2025-02-13,13,01:55,EST,Calm,5.0,Rain,BKN002 OVC012,32.0,32.0,,,100%,,,29.96,0.0,,,,2025-02-16,2,2025,1,KOKV
2025-02-13,13,02:55,EST,Calm,4.0,Light Rain,OVC002,32.0,32.0,,,100%,,,29.93,0.0,,,,2025-02-16,2,2025,2,KOKV
2025-02-13,13,03:55,EST,Calm,4.0,Fog/Mist,OVC004,32.0,32.0,,,100%,,,29.89,0.0,,,,2025-02-16,2,2025,3,KOKV
2025-02-13,13,04:55,EST,Calm,4.0,Fog/Mist,OVC002,32.0,32.0,,,100%,,,29.85,0.0,,,,2025-02-16,2,2025,4,KOKV
2025-02-13,13,05:55,EST,E  3,1.0,Fog/Mist,OVC004,32.0,32.0,,,100%,,,29.83,0.0,,,,2025-02-16,2,2025,5,KOKV
2025-02-13,13,06:55,EST,Calm,1.25,Fog/Mist,OVC002,32.0,32.0,,,100%,,,29.81,0.0,,,,2025-02-16,2,2025,6,KOKV
2025-02-13,13,07:55,EST,S  3,2.0,Fog/Mist,OVC010,32.0,32.0,,,100%,,,29.8,0.0,,,,2025-02-16,2,2025,7,KOKV
2025-02-13,13,08:55,EST,Calm,5.0,Fog/Mist,SCT075,32.0,32.0,,,100%,,,29.78,0.0,,,,2025-02-16,2,2025,8,KOKV
2025-02-13,13,09:55,EST,SW  3,7.0,Partly Cloudy,SCT009 SCT044,35.6,33.8,,,93%,,,29.79,0.0,,,,2025-02-16,2,2025,9,KOKV
2025-02-13,13,10:55,EST,W  6,10.0,Fair,CLR,41.0,35.6,,,81%,38.0,,29.81,0.0,,,,2025-02-16,2,2025,10,KOKV
2025-02-13,13,11:55,EST,SW  14,10.0,Fair,CLR,46.4,41.0,,,82%,41.0,,29.82,0.0,,,,2025-02-16,2,2025,11,KOKV
2025-02-13,13,12:55,EST,W  8,10.0,Fair,CLR,51.8,42.8,,,72%,,,29.82,0.0,,,,2025-02-16,2,2025,12,KOKV
2025-02-13,13,13:55,EST,NW  23  G 31,10.0,Fair and Breezy,CLR,53.6,35.6,,,51%,,,29.85,0.0,,,,2025-02-16,2,2025,13,KOKV
2025-02-13,13,14:55,EST,W  21  G 29,10.0,Fair and Breezy,CLR,48.2,32.0,,,54%,42.0,,29.93,0.0,,,,2025-02-16,2,2025,14,KOKV
2025-02-13,13,15:55,EST,NW  24  G 32,10.0,Fair and Breezy,CLR,42.8,30.2,,,61%,34.0,,30.0,0.0,,,,2025-02-16,2,2025,15,KOKV
2025-02-13,13,16:55,EST,NW  24  G 31,10.0,Mostly Cloudy and Breezy,BKN045,39.2,28.4,,,65%,29.0,,30.09,0.0,,,,2025-02-16,2,2025,16,KOKV
2025-02-13,13,17:55,EST,W  20  G 31,10.0,Mostly Cloudy,BKN047,37.4,23.0,,,56%,28.0,,30.16,0.0,,,,2025-02-16,2,2025,17,KOKV
2025-02-13,13,18:55,EST,W  18  G 23,10.0,Overcast,BKN042 OVC049,35.6,23.0,,,60%,26.0,,30.21,0.0,,,,2025-02-16,2,2025,18,KOKV
2025-02-13,13,19:55,EST,NW  20  G 28,10.0,Overcast,BKN038 OVC047,33.8,24.8,,,70%,23.0,,30.25,0.0,,,,2025-02-16,2,2025,19,KOKV
2025-02-13,13,20:55,EST,NW  26  G 32,10.0,Partly Cloudy and Windy,SCT032 SCT038,32.0,23.0,,,69%,19.0,,30.27,0.0,,,,2025-02-16,2,2025,20,KOKV
2025-02-13,13,21:55,EST,W  20  G 28,10.0,Overcast,SCT042 SCT047 OVC050,33.8,19.4,,,56%,23.0,,30.3,0.0,,,,2025-02-16,2,2025,21,KOKV
2025-02-13,13,22:55,EST,W  10  G 17,10.0,Overcast,OVC060,33.8,19.4,,,56%,26.0,,30.32,0.0,,,,2025-02-16,2,2025,22,KOKV
2025-02-13,13,23:55,EST,NW  21  G 30,10.0,Overcast and Breezy,OVC060,33.8,17.6,,,51%,23.0,,30.34,0.0,,,,2025-02-16,2,2025,23,KOKV
2025-02-14,14,00:55,EST,W  20  G 33,10.0,Mostly Cloudy,BKN049 BKN060,32.0,15.8,,,51%,21.0,,30.38,0.0,,,,2025-02-17,2,2025,0,KOKV
2025-02-14,14,01:55,EST,W  23  G 39,10.0,Fair and Breezy,CLR,32.0,12.2,,,44%,20.0,,30.39,0.0,,,,2025-02-17,2,2025,1,KOKV
2025-02-14,14,02:55,EST,W  17  G 28,10.0,Fair,CLR,32.0,14.0,,,47%,22.0,,30.42,0.0,,,,2025-02-17,2,2025,2,KOKV
2025-02-14,14,03:55,EST,W  16  G 28,10.0,Fair,CLR,30.2,10.4,,,43%,20.0,,30.44,0.0,,,,2025-02-17,2,2025,3,KOKV
2025-02-14,14,04:55,EST,NW  18  G 30,10.0,Fair,CLR,28.4,10.4,,,47%,17.0,,30.46,0.0,,,,2025-02-17,2,2025,4,KOKV
2025-02-14,14,05:55,EST,N  6  G 20,10.0,Fair,CLR,28.4,10.4,,,47%,23.0,,30.52,0.0,,,,2025-02-17,2,2025,5,KOKV
2025-02-14,14,06:55,EST,W  9,10.0,Fair,CLR,26.6,6.8,,,43%,18.0,,30.55,0.0,,,,2025-02-17,2,2025,6,KOKV
2025-02-14,14,07:55,EST,Calm,10.0,Fair,CLR,26.6,8.6,,,46%,,,30.59,0.0,,,,2025-02-17,2,2025,7,KOKV
2025-02-14,14,08:55,EST,NW  12,10.0,Fair,CLR,28.4,8.6,,,43%,19.0,,30.62,0.0,,,,2025-02-17,2,2025,8,KOKV
2025-02-14,14,09:55,EST,W  10  G 15,10.0,Fair,CLR,30.2,5.0,,,34%,22.0,,30.62,0.0,,,,2025-02-17,2,2025,9,KOKV
2025-02-14,14,10:55,EST,NW  10  G 16,10.0,Fair,CLR,32.0,5.0,,,32%,24.0,,30.64,0.0,,,,2025-02-17,2,2025,10,KOKV
2025-02-14,14,11:55,EST,NW  12  G 18,10.0,Fair,CLR,33.8,8.6,,,35%,26.0,,30.61,0.0,,,,2025-02-17,2,2025,11,KOKV
2025-02-14,14,12:55,EST,NW  13,10.0,Fair,CLR,35.6,5.0,,,27%,28.0,,30.59,0.0,,,,2025-02-17,2,2025,12,KOKV
2025-02-14,14,13:55,EST,NW  9  G 18,10.0,Fair,CLR,37.4,6.8,,,28%,31.0,,30.56,0.0,,,,2025-02-17,2,2025,13,KOKV
2025-02-14,14,14:55,EST,N  8  G 16,10.0,Fair,CLR,37.4,3.2,,,23%,32.0,,30.53,0.0,,,,2025-02-17,2,2025,14,KOKV
2025-02-14,14,15:55,EST,NW  8,10.0,Fair,CLR,37.4,5.0,,,26%,32.0,,30.54,0.0,,,,2025-02-17,2,2025,15,KOKV
2025-02-14,14,16:55,EST,NW  7,10.0,Fair,CLR,37.4,5.0,,,26%,33.0,,30.52,0.0,,,,2025-02-17,2,2025,16,KOKV
2025-02-14,14,17:55,EST,Calm,10.0,Fair,CLR,33.8,3.2,,,27%,,,30.53,0.0,,,,2025-02-17,2,2025,17,KOKV
2025-02-14,14,18:55,EST,N  3,10.0,Fair,CLR,32.0,3.2,,,29%,,,30.53,0.0,,,,2025-02-17,2,2025,18,KOKV
2025-02-14,14,19:55,EST,Calm,10.0,Fair,CLR,28.4,12.2,,,51%,,,30.55,0.0,,,,2025-02-17,2,2025,19,KOKV
2025-02-14,14,20:55,EST,NE  3,10.0,Fair,CLR,30.2,8.6,,,40%,,,30.53,0.0,,,,2025-02-17,2,2025,20,KOKV
2025-02-14,14,21:55,EST,Calm,10.0,Fair,CLR,30.2,12.2,,,47%,,,30.51,0.0,,,,2025-02-17,2,2025,21,KOKV
2025-02-14,14,22:55,EST,Calm,10.0,Fair,CLR,28.4,12.2,,,51%,,,30.49,0.0,,,,2025-02-17,2,2025,22,KOKV
2025-02-14,14,23:55,EST,Calm,10.0,Fair,CLR,26.6,17.6,,,69%,,,30.48,0.0,,,,2025-02-17,2,2025,23,KOKV
2025-02-15,15,00:55,EST,SE  5,10.0,Mostly Cloudy,BKN120,32.0,15.8,,,51%,28.0,,30.44,0.0,,,,2025-02-18,2,2025,0,KOKV
2025-02-15,15,01:55,EST,SE  9,10.0,Overcast,OVC110,32.0,12.2,,,44%,25.0,,30.42,0.0,,,,2025-02-18,2,2025,1,KOKV
2025-02-15,15,02:55,EST,SE  5,10.0,Overcast,OVC090,32.0,14.0,,,47%,28.0,,30.4,0.0,,,,2025-02-18,2,2025,2,KOKV
2025-02-15,15,03:55,EST,SE  3,10.0,Overcast,OVC110,32.0,15.8,,,51%,,,30.4,0.0,,,,2025-02-18,2,2025,3,KOKV
2025-02-15,15,04:55,EST,SE  6,10.0,Mostly Cloudy,BKN120,32.0,15.8,,,51%,27.0,,30.38,0.0,,,,2025-02-18,2,2025,4,KOKV
2025-02-15,15,05:55,EST,SE  6,10.0,Overcast,OVC110,32.0,17.6,,,55%,27.0,,30.36,0.0,,,,2025-02-18,2,2025,5,KOKV
2025-02-15,15,06:55,EST,SE  3,10.0,Overcast,OVC080,32.0,19.4,,,60%,,,30.33,0.0,,,,2025-02-18,2,2025,6,KOKV
2025-02-15,15,07:55,EST,S  9,10.0,Overcast,OVC075,32.0,21.2,,,64%,25.0,,30.33,0.0,,,,2025-02-18,2,2025,7,KOKV
2025-02-15,15,08:55,EST,S  7,10.0,Overcast,SCT060 OVC075,33.8,21.2,,,60%,28.0,,30.32,0.0,,,,2025-02-18,2,2025,8,KOKV
2025-02-15,15,09:55,EST,S  5,10.0,Overcast,BKN050 OVC060,33.8,23.0,,,65%,30.0,,30.31,0.0,,,,2025-02-18,2,2025,9,KOKV
2025-02-15,15,10:55,EST,SE  6,10.0,Overcast,BKN048 OVC055,35.6,23.0,,,60%,31.0,,30.27,0.0,,,,2025-02-18,2,2025,10,KOKV
2025-02-15,15,11:55,EST,SE  5,10.0,Light Snow,SCT060 OVC090,35.6,26.6,,,70%,32.0,,30.22,0.0,,,,2025-02-18,2,2025,11,KOKV
2025-02-15,15,12:55,EST,S  12  G 17,5.0,Light Rain,SCT070 OVC080,33.8,30.2,,,87%,26.0,,30.15,0.0,,,,2025-02-18,2,2025,12,KOKV
2025-02-15,15,13:55,EST,S  12,4.0,Light Rain,SCT031 BKN047 OVC055,33.8,32.0,,,93%,26.0,,30.12,0.0,,,,2025-02-18,2,2025,13,KOKV
2025-02-15,15,14:55,EST,S  7,2.5,Rain,SCT024 BKN033 OVC075,33.8,32.0,,,93%,28.0,,30.09,0.0,,,,2025-02-18,2,2025,14,KOKV
2025-02-15,15,15:55,EST,SE  8,4.0,Light Rain,SCT007 OVC011,33.8,32.0,,,93%,28.0,,30.04,0.0,,,,2025-02-18,2,2025,15,KOKV
2025-02-15,15,16:55,EST,S  9,4.0,Light Rain,SCT005 BKN013 OVC020,33.8,32.0,,,93%,27.0,,29.99,0.0,,,,2025-02-18,2,2025,16,KOKV
2025-02-15,15,17:55,EST,S  5,10.0,Overcast,OVC014,33.8,32.0,,,93%,30.0,,29.97,0.0,,,,2025-02-18,2,2025,17,KOKV
2025-02-15,15,18:55,EST,SE  5,10.0,Overcast,OVC012,33.8,32.0,,,93%,30.0,,29.96,0.0,,,,2025-02-18,2,2025,18,KOKV
2025-02-15,15,19:55,EST,SE  3,10.0,Overcast,SCT012 BKN022 OVC050,33.8,33.8,,,100%,,,29.92,0.0,,,,2025-02-18,2,2025,19,KOKV
2025-02-15,15,20:55,EST,Calm,10.0,Overcast,OVC014,33.8,33.8,,,100%,,,29.9,0.0,,,,2025-02-18,2,2025,20,KOKV
2025-02-15,15,21:55,EST,Calm,10.0,Light Rain,SCT009 SCT065 OVC100,33.8,33.8,,,100%,,,29.87,0.0,,,,2025-02-18,2,2025,21,KOKV
2025-02-15,15,22:55,EST,Calm,5.0,Rain,BKN009 BKN024 OVC090,33.8,33.8,,,100%,,,29.84,0.0,,,,2025-02-18,2,2025,22,KOKV
2025-02-15,15,23:55,EST,Calm,2.5,Fog/Mist,OVC002,33.8,33.8,,,100%,,,29.8,0.0,,,,2025-02-18,2,2025,23,KOKV
2025-02-16,16,00:55,EST,Calm,2.5,Rain,OVC002,33.8,32.0,,,93%,,,29.76,0.0,,,,2025-02-19,2,2025,0,KOKV
2025-02-16,16,01:55,EST,Calm,3.0,Fog/Mist,OVC002,33.8,32.0,,,93%,,,29.69,0.0,,,,2025-02-19,2,2025,1,KOKV
2025-02-16,16,02:55,EST,Calm,0.75,Fog/Mist,OVC002,33.8,32.0,,,93%,,,29.64,0.0,,,,2025-02-19,2,2025,2,KOKV
2025-02-16,16,03:55,EST,Calm,0.25,Fog,OVC002,32.0,32.0,,,100%,,,29.57,0.0,,,,2025-02-19,2,2025,3,KOKV
2025-02-16,16,04:55,EST,Calm,0.75,Fog/Mist,OVC002,33.8,32.0,,,93%,,,29.54,0.0,,,,2025-02-19,2,2025,4,KOKV
2025-02-16,16,05:55,EST,Calm,0.75,Fog/Mist,OVC002,33.8,32.0,,,93%,,,29.49,0.0,,,,2025-02-19,2,2025,5,KOKV
2025-02-16,16,06:55,EST,NW  3,4.0,Fog/Mist,OVC002,33.8,33.8,,,100%,,,29.44,0.0,,,,2025-02-19,2,2025,6,KOKV
2025-02-16,16,07:55,EST,Calm,1.0,Fog/Mist,OVC002,33.8,33.8,,,100%,,,29.4,0.0,,,,2025-02-19,2,2025,7,KOKV
2025-02-16,16,08:55,EST,Calm,3.0,Light Rain,BKN004 BKN042 OVC090,35.6,35.6,,,100%,,,29.37,0.0,,,,2025-02-19,2,2025,8,KOKV
2025-02-16,16,09:55,EST,Calm,2.5,Light Rain,SCT001 SCT019 OVC090,37.4,37.4,,,100%,,,29.3,0.0,,,,2025-02-19,2,2025,9,KOKV
2025-02-16,16,10:55,EST,W  5,7.0,Partly Cloudy,SCT001 SCT006 SCT033,41.0,41.0,,,100%,38.0,,29.2,0.0,,,,2025-02-19,2,2025,10,KOKV
2025-02-16,16,11:55,EST,SE  3,10.0,Partly Cloudy,SCT005,46.4,46.4,,,100%,,,29.17,0.0,,,,2025-02-19,2,2025,11,KOKV
2025-02-16,16,12:55,EST,SW  8,10.0,Fair,CLR,53.6,51.8,,,94%,,,29.11,0.0,,,,2025-02-19,2,2025,12,KOKV
2025-02-16,16,13:55,EST,SW  17  G 24,10.0,Mostly Cloudy,BKN065,60.8,50.0,,,68%,,,29.08,0.0,,,,2025-02-19,2,2025,13,KOKV
2025-02-16,16,14:55,EST,Calm,0.0,,,53.6,46.4,,,77%,,,0.0,0.0,,,,2025-02-19,2,2025,14,KOKV
2025-02-16,16,15:55,EST,W  25  G 36,10.0,Mostly Cloudy and Breezy,BKN049 BKN060,48.2,32.0,,,54%,41.0,,29.32,0.0,,,,2025-02-19,2,2025,15,KOKV
2025-02-16,16,16:55,EST,W  23  G 37,10.0,Partly Cloudy and Breezy,SCT047,42.8,26.6,,,53%,34.0,,29.4,0.0,,,,2025-02-19,2,2025,16,KOKV
2025-02-16,16,17:55,EST,W  25  G 36,10.0,Mostly Cloudy and Breezy,BKN047,37.4,24.8,,,60%,27.0,,29.46,0.0,,,,2025-02-19,2,2025,17,KOKV
2025-02-16,16,18:55,EST,W  8,10.0,Overcast,OVC043,35.6,23.0,,,60%,30.0,,29.54,0.0,,,,2025-02-19,2,2025,18,KOKV
2025-02-16,16,19:55,EST,W  14  G 22,10.0,Overcast,OVC047,33.8,21.2,,,60%,25.0,,29.59,0.0,,,,2025-02-19,2,2025,19,KOKV
2025-02-16,16,20:55,EST,W  20  G 30,10.0,Mostly Cloudy,BKN047,33.8,19.4,,,56%,23.0,,29.64,0.0,,,,2025-02-19,2,2025,20,KOKV
2025-02-16,16,21:55,EST,W  30  G 39,10.0,Partly Cloudy and Windy,SCT045,33.8,19.4,,,56%,21.0,,29.65,0.0,,,,2025-02-19,2,2025,21,KOKV
2025-02-16,16,22:55,EST,NW  26  G 32,10.0,Overcast and Windy,OVC047,32.0,19.4,,,60%,19.0,,29.69,0.0,,,,2025-02-19,2,2025,22,KOKV
2025-02-16,16,23:55,EST,W  21  G 33,10.0,Overcast and Breezy,BKN047 OVC055,32.0,19.4,,,60%,21.0,,29.73,0.0,,,,2025-02-19,2,2025,23,KOKV
2025-02-17,17,00:35,EST,NW  22  G 35,4.0,Light Snow and Breezy,SCT021 BKN038 OVC050,30.2,23.0,,,75%,18.0,,29.76,0.0,,,,2025-02-20,2,2025,0,KOKV
2025-02-17,17,01:55,EST,W  17  G 25,10.0,Light Snow,SCT041 BKN048 OVC060,30.2,23.0,,,75%,19.0,,29.79,0.0,,,,2025-02-20,2,2025,1,KOKV
2025-02-17,17,02:55,EST,W  18  G 31,10.0,Partly Cloudy,SCT050 SCT065 SCT075,30.2,14.0,,,51%,19.0,,29.83,0.0,,,,2025-02-20,2,2025,2,KOKV
2025-02-17,17,03:55,EST,NW  24  G 32,10.0,Overcast and Breezy,BKN048 OVC050,30.2,17.6,,,59%,17.0,,29.86,0.0,,,,2025-02-20,2,2025,3,KOKV
2025-02-17,17,04:55,EST,W  22  G 35,10.0,Overcast and Breezy,OVC046,28.4,14.0,,,55%,16.0,,29.9,0.0,,,,2025-02-20,2,2025,4,KOKV
2025-02-17,17,05:55,EST,W  18  G 39,10.0,Overcast,OVC048,28.4,12.2,,,51%,17.0,,29.94,0.0,,,,2025-02-20,2,2025,5,KOKV
2025-02-17,17,06:55,EST,W  17  G 26,10.0,Mostly Cloudy,BKN050,28.4,12.2,,,51%,17.0,,29.97,0.0,,,,2025-02-20,2,2025,6,KOKV
2025-02-17,17,07:55,EST,NW  21  G 30,10.0,Overcast and Breezy,OVC046,28.4,12.2,,,51%,16.0,,29.97,0.0,,,,2025-02-20,2,2025,7,KOKV
2025-02-17,17,08:55,EST,W  20  G 31,10.0,Partly Cloudy,SCT047,30.2,14.0,,,51%,19.0,,30.0,0.0,,,,2025-02-20,2,2025,8,KOKV
2025-02-17,17,09:55,EST,W  22  G 36,10.0,Partly Cloudy and Breezy,SCT046,30.2,12.2,,,47%,18.0,,30.01,0.0,,,,2025-02-20,2,2025,9,KOKV
2025-02-17,17,10:55,EST,W  25  G 36,10.0,Fair and Breezy,CLR,32.0,10.4,,,40%,19.0,,30.03,0.0,,,,2025-02-20,2,2025,10,KOKV
2025-02-17,17,11:55,EST,W  22  G 33,10.0,Fair and Breezy,CLR,32.0,12.2,,,44%,20.0,,30.02,0.0,,,,2025-02-20,2,2025,11,KOKV
2025-02-17,17,12:55,EST,NW  23  G 33,10.0,Fair and Breezy,CLR,33.8,14.0,,,44%,22.0,,30.01,0.0,,,,2025-02-20,2,2025,12,KOKV
2025-02-17,17,13:55,EST,NW  18  G 30,10.0,Fair,CLR,33.8,12.2,,,41%,24.0,,30.02,0.0,,,,2025-02-20,2,2025,13,KOKV
2025-02-17,17,14:55,EST,NW  22  G 25,10.0,Fair and Breezy,CLR,33.8,14.0,,,44%,23.0,,30.01,0.0,,,,2025-02-20,2,2025,14,KOKV
2025-02-17,17,15:55,EST,NW  15  G 21,10.0,Fair,CLR,33.8,12.2,,,41%,25.0,,30.02,0.0,,,,2025-02-20,2,2025,15,KOKV
2025-02-17,17,16:55,EST,W  18  G 22,10.0,Fair,CLR,32.0,8.6,,,37%,21.0,,30.04,0.0,,,,2025-02-20,2,2025,16,KOKV
2025-02-17,17,17:55,EST,NW  9,10.0,Fair,CLR,30.2,10.4,,,43%,23.0,,30.06,0.0,,,,2025-02-20,2,2025,17,KOKV
2025-02-17,17,18:55,EST,W  9,10.0,Fair,CLR,30.2,8.6,,,40%,23.0,,30.07,0.0,,,,2025-02-20,2,2025,18,KOKV
2025-02-17,17,19:55,EST,W  6,10.0,Fair,CLR,28.4,10.4,,,47%,23.0,,30.08,0.0,,,,2025-02-20,2,2025,19,KOKV
2025-02-17,17,20:55,EST,W  12,10.0,Fair,CLR,28.4,8.6,,,43%,19.0,,30.09,0.0,,,,2025-02-20,2,2025,20,KOKV
2025-02-17,17,21:55,EST,W  13,10.0,Fair,CLR,28.4,5.0,,,37%,19.0,,30.11,0.0,,,,2025-02-20,2,2025,21,KOKV
2025-02-17,17,22:55,EST,W  12,10.0,Fair,CLR,28.4,6.8,,,40%,19.0,,30.11,0.0,,,,2025-02-20,2,2025,22,KOKV
2025-02-17,17,23:55,EST,NW  3,10.0,Fair,CLR,26.6,6.8,,,43%,,,30.12,0.0,,,,2025-02-20,2,2025,23,KOKV
2025-02-18,18,00:55,EST,Calm,10.0,Fair,CLR,26.6,6.8,,,43%,,,30.14,0.0,,,,2025-02-21,2,2025,0,KOKV
2025-02-18,18,01:55,EST,NW  10,10.0,Fair,CLR,24.8,8.6,,,50%,15.0,,30.14,0.0,,,,2025-02-21,2,2025,1,KOKV
2025-02-18,18,02:55,EST,NW  9,10.0,Fair,CLR,23.0,8.6,,,54%,14.0,,30.15,0.0,,,,2025-02-21,2,2025,2,KOKV
2025-02-18,18,03:55,EST,NW  10,10.0,Fair,CLR,23.0,6.8,,,50%,13.0,,30.17,0.0,,,,2025-02-21,2,2025,3,KOKV
2025-02-18,18,04:55,EST,NW  9,10.0,Fair,CLR,21.2,5.0,,,49%,12.0,,30.19,0.0,,,,2025-02-21,2,2025,4,KOKV
2025-02-18,18,05:55,EST,NW  6,10.0,Fair,CLR,21.2,5.0,,,49%,14.0,,30.2,0.0,,,,2025-02-21,2,2025,5,KOKV
2025-02-18,18,06:55,EST,NW  10,10.0,Fair,CLR,21.2,3.2,,,45%,11.0,,30.22,0.0,,,,2025-02-21,2,2025,6,KOKV
2025-02-18,18,07:55,EST,NW  6,10.0,Fair,CLR,19.4,1.4,,,45%,12.0,,30.25,0.0,,,,2025-02-21,2,2025,7,KOKV
2025-02-18,18,08:55,EST,NW  8,10.0,Fair,CLR,21.2,1.4,,,42%,12.0,,30.27,0.0,,,,2025-02-21,2,2025,8,KOKV
2025-02-18,18,09:55,EST,NW  10,10.0,Fair,CLR,23.0,3.2,,,42%,13.0,,30.28,0.0,,,,2025-02-21,2,2025,9,KOKV
2025-02-18,18,10:35,EST,NW  8  G 16,10.0,Fair,CLR,24.8,3.2,,,39%,17.0,,30.28,0.0,,,,2025-02-21,2,2025,10,KOKV
2025-02-18,18,11:55,EST,NW  16  G 21,10.0,Fair,CLR,28.4,1.4,,,31%,17.0,,30.27,0.0,,,,2025-02-21,2,2025,11,KOKV
2025-02-18,18,12:55,EST,NW  21  G 24,10.0,Fair and Breezy,CLR,30.2,-0.4,,,26%,18.0,,30.25,0.0,,,,2025-02-21,2,2025,12,KOKV
2025-02-18,18,13:55,EST,NW  17  G 28,10.0,Fair,CLR,32.0,1.4,,,27%,22.0,,30.22,0.0,,,,2025-02-21,2,2025,13,KOKV
2025-02-18,18,14:55,EST,NW  15  G 25,10.0,Fair,CLR,32.0,1.4,,,27%,22.0,,30.22,0.0,,,,2025-02-21,2,2025,14,KOKV
2025-02-18,18,15:55,EST,NW  17,10.0,Fair,CLR,30.2,3.2,,,31%,19.0,,30.24,0.0,,,,2025-02-21,2,2025,15,KOKV
2025-02-18,18,16:55,EST,NW  13,10.0,Fair,CLR,30.2,1.4,,,29%,21.0,,30.25,0.0,,,,2025-02-21,2,2025,16,KOKV
2025-02-18,18,17:55,EST,NW  9,10.0,Fair,CLR,28.4,1.4,,,31%,20.0,,30.26,0.0,,,,2025-02-21,2,2025,17,KOKV
2025-02-18,18,18:55,EST,NW  8,10.0,Fair,CLR,26.6,1.4,,,33%,19.0,,30.29,0.0,,,,2025-02-21,2,2025,18,KOKV
2025-02-18,18,19:55,EST,N  6,10.0,Fair,CLR,23.0,1.4,,,39%,17.0,,30.32,0.0,,,,2025-02-21,2,2025,19,KOKV
2025-02-18,18,20:55,EST,NW  12,10.0,Fair,CLR,21.2,3.2,,,45%,10.0,,30.33,0.0,,,,2025-02-21,2,2025,20,KOKV
2025-02-18,18,21:55,EST,N  7,10.0,Fair,CLR,19.4,3.2,,,49%,11.0,,30.36,0.0,,,,2025-02-21,2,2025,21,KOKV
2025-02-18,18,22:55,EST,N  8,10.0,Fair,CLR,19.4,1.4,,,45%,10.0,,30.37,0.0,,,,2025-02-21,2,2025,22,KOKV
2025-02-18,18,23:55,EST,N  10,10.0,Fair,CLR,17.6,1.4,,,49%,7.0,,30.37,0.0,,,,2025-02-21,2,2025,23,KOKV
2025-02-19,19,00:55,EST,NW  13,10.0,Fair,CLR,17.6,1.4,,,49%,5.0,,30.38,0.0,,,,2025-02-21,2,2025,0,KOKV
2025-02-19,19,01:55,EST,NW  5,10.0,Fair,CLR,15.8,1.4,,,53%,9.0,,30.39,0.0,,,,2025-02-21,2,2025,1,KOKV
2025-02-19,19,02:55,EST,N  6,10.0,Fair,CLR,15.8,1.4,,,53%,8.0,,30.4,0.0,,,,2025-02-21,2,2025,2,KOKV
2025-02-19,19,03:55,EST,NW  6,10.0,Fair,CLR,15.8,1.4,,,53%,8.0,,30.4,0.0,,,,2025-02-21,2,2025,3,KOKV
2025-02-19,19,04:55,EST,NW  8,10.0,Fair,CLR,15.8,1.4,,,53%,6.0,,30.39,0.0,,,,2025-02-21,2,2025,4,KOKV
2025-02-19,19,05:55,EST,N  5,10.0,Overcast,OVC110,15.8,-0.4,,,48%,9.0,,30.4,0.0,,,,2025-02-21,2,2025,5,KOKV
2025-02-19,19,06:55,EST,NW  8,10.0,Overcast,OVC090,15.8,1.4,,,53%,6.0,,30.4,0.0,,,,2025-02-21,2,2025,6,KOKV
2025-02-19,19,07:55,EST,N  3,10.0,Overcast,BKN070 OVC080,15.8,1.4,,,53%,,,30.4,0.0,,,,2025-02-21,2,2025,7,KOKV
2025-02-19,19,08:55,EST,NW  6,10.0,Overcast,OVC060,17.6,1.4,,,49%,10.0,,30.41,0.0,,,,2025-02-21,2,2025,8,KOKV
2025-02-19,19,09:55,EST,Calm,10.0,Overcast,OVC060,17.6,1.4,,,49%,,,30.42,0.0,,,,2025-02-21,2,2025,9,KOKV
2025-02-19,19,10:55,EST,NW  5,10.0,Overcast,SCT039 OVC045,17.6,3.2,,,53%,11.0,,30.41,0.0,,,,2025-02-21,2,2025,10,KOKV
2025-02-19,19,11:55,EST,NW  8,7.0,Overcast,SCT035 OVC043,17.6,5.0,,,58%,8.0,,30.38,0.0,,,,2025-02-21,2,2025,11,KOKV
2025-02-19,19,12:55,EST,NW  6,10.0,Overcast,SCT036 SCT045 OVC075,21.2,6.8,,,54%,14.0,,30.33,0.0,,,,2025-02-21,2,2025,12,KOKV
2025-02-19,19,13:55,EST,SW  3,10.0,Overcast,OVC095,21.2,6.8,,,54%,,,30.28,0.0,,,,2025-02-22,2,2025,13,KOKV
2025-02-19,19,14:55,EST,W  3,10.0,Overcast,OVC050,23.0,8.6,,,54%,,,30.25,0.0,,,,2025-02-22,2,2025,14,KOKV
2025-02-19,19,15:55,EST,Calm,10.0,Overcast,SCT045 BKN055 OVC120,24.8,8.6,,,50%,,,30.23,0.0,,,,2025-02-22,2,2025,15,KOKV
2025-02-19,19,16:55,EST,N  5,10.0,Overcast,OVC110,24.8,6.8,,,46%,20.0,,30.21,0.0,,,,2025-02-22,2,2025,16,KOKV
2025-02-19,19,17:55,EST,NW  5,10.0,Fair,CLR,23.0,6.8,,,50%,18.0,,30.21,0.0,,,,2025-02-22,2,2025,17,KOKV
2025-02-19,19,18:55,EST,Calm,10.0,Fair,CLR,21.2,6.8,,,54%,,,30.23,0.0,,,,2025-02-22,2,2025,18,KOKV
2025-02-19,19,19:55,EST,Calm,10.0,Fair,CLR,19.4,8.6,,,63%,,,30.22,0.0,,,,2025-02-22,2,2025,19,KOKV
2025-02-19,19,20:55,EST,Calm,10.0,Overcast,OVC050,19.4,8.6,,,63%,,,30.21,0.0,,,,2025-02-22,2,2025,20,KOKV
2025-02-19,19,21:55,EST,Calm,10.0,Mostly Cloudy,BKN050,19.4,8.6,,,63%,,,30.2,0.0,,,,2025-02-22,2,2025,21,KOKV
2025-02-19,19,22:55,EST,Calm,10.0,Mostly Cloudy,BKN048,21.2,6.8,,,54%,,,30.18,0.0,,,,2025-02-22,2,2025,22,KOKV
2025-02-19,19,23:55,EST,NW  6,10.0,Overcast,OVC050,19.4,6.8,,,58%,12.0,,30.17,0.0,,,,2025-02-22,2,2025,23,KOKV
2025-02-20,20,00:55,EST,NW  5,10.0,Overcast,OVC050,19.4,5.0,,,53%,14.0,,30.15,0.0,,,,2025-02-23,2,2025,0,KOKV
2025-02-20,20,01:55,EST,NW  3,10.0,Overcast,OVC050,19.4,6.8,,,58%,,,30.13,0.0,,,,2025-02-23,2,2025,1,KOKV
2025-02-20,20,02:55,EST,NW  7,10.0,Overcast,OVC048,19.4,6.8,,,58%,11.0,,30.12,0.0,,,,2025-02-23,2,2025,2,KOKV
2025-02-20,20,03:55,EST,NW  8,10.0,Overcast,OVC046,19.4,6.8,,,58%,10.0,,30.1,0.0,,,,2025-02-23,2,2025,3,KOKV
2025-02-20,20,04:55,EST,NW  5,10.0,Overcast,OVC046,19.4,5.0,,,53%,14.0,,30.09,0.0,,,,2025-02-23,2,2025,4,KOKV
2025-02-20,20,05:55,EST,NW  8,10.0,Overcast,OVC050,19.4,5.0,,,53%,10.0,,30.09,0.0,,,,2025-02-23,2,2025,5,KOKV
2025-02-20,20,06:55,EST,NW  8,10.0,Overcast,OVC050,17.6,6.8,,,62%,8.0,,30.1,0.0,,,,2025-02-23,2,2025,6,KOKV
2025-02-20,20,07:55,EST,NW  8,7.0,Light Snow,OVC060,17.6,8.6,,,68%,8.0,,30.1,0.0,,,,2025-02-23,2,2025,7,KOKV
2025-02-20,20,08:55,EST,NW  9,7.0,Light Snow,SCT030 BKN039 OVC070,17.6,8.6,,,68%,7.0,,30.12,0.0,,,,2025-02-23,2,2025,8,KOKV
2025-02-20,20,09:55,EST,NW  12,7.0,Overcast,BKN023 OVC032,19.4,12.2,,,73%,8.0,,30.11,0.0,,,,2025-02-23,2,2025,9,KOKV
2025-02-20,20,10:55,EST,NW  13,3.0,Light Snow,BKN017 OVC025,21.2,12.2,,,68%,10.0,,30.1,0.0,,,,2025-02-23,2,2025,10,KOKV
2025-02-20,20,11:35,EST,NW  20  G 29,10.0,Overcast,SCT028 BKN033 OVC060,23.0,8.6,,,54%,9.0,,30.1,0.0,,,,2025-02-23,2,2025,11,KOKV
2025-02-20,20,12:55,EST,NW  17,10.0,Overcast,BKN036 OVC044,23.0,10.4,,,58%,10.0,,30.06,0.0,,,,2025-02-23,2,2025,12,KOKV
2025-02-20,20,13:55,EST,NW  21  G 25,10.0,Overcast and Breezy,OVC042,24.8,8.6,,,50%,11.0,,30.05,0.0,,,,2025-02-23,2,2025,13,KOKV
2025-02-20,20,14:55,EST,NW  22  G 30,10.0,Overcast and Breezy,OVC046,26.6,8.6,,,46%,13.0,,30.06,0.0,,,,2025-02-23,2,2025,14,KOKV
2025-02-20,20,15:55,EST,NW  25  G 37,10.0,Overcast and Breezy,OVC046,24.8,5.0,,,42%,10.0,,30.07,0.0,,,,2025-02-23,2,2025,15,KOKV
2025-02-20,20,16:55,EST,W  21  G 26,10.0,Overcast and Breezy,BKN048 OVC055,23.0,5.0,,,46%,9.0,,30.1,0.0,,,,2025-02-23,2,2025,16,KOKV
2025-02-20,20,17:55,EST,W  25  G 35,10.0,Overcast and Breezy,OVC050,23.0,5.0,,,46%,8.0,,30.1,0.0,,,,2025-02-23,2,2025,17,KOKV
2025-02-20,20,18:55,EST,W  14  G 28,10.0,Partly Cloudy,SCT048,23.0,5.0,,,46%,11.0,,30.13,0.0,,,,2025-02-23,2,2025,18,KOKV
2025-02-20,20,19:55,EST,NW  22  G 33,10.0,Mostly Cloudy and Breezy,BKN046,23.0,5.0,,,46%,9.0,,30.15,0.0,,,,2025-02-23,2,2025,19,KOKV
2025-02-20,20,20:55,EST,NW  22  G 31,10.0,Mostly Cloudy and Breezy,BKN044,21.2,6.8,,,54%,6.0,,30.16,0.0,,,,2025-02-23,2,2025,20,KOKV
2025-02-20,20,21:55,EST,NW  14  G 35,10.0,Overcast,OVC044,23.0,6.8,,,50%,11.0,,30.18,0.0,,,,2025-02-23,2,2025,21,KOKV
2025-02-20,20,22:55,EST,NW  16  G 28,10.0,Mostly Cloudy,BKN040,21.2,8.6,,,58%,8.0,,30.2,0.0,,,,2025-02-23,2,2025,22,KOKV
2025-02-20,20,23:55,EST,NW  21  G 32,10.0,Overcast and Breezy,SCT033 OVC040,21.2,8.6,,,58%,7.0,,30.2,0.0,,,,2025-02-23,2,2025,23,KOKV
2025-02-21,21,00:55,EST,W  29  G 38,10.0,Mostly Cloudy and Windy,BKN035 BKN060,21.2,8.6,,,58%,4.0,,30.2,0.0,,,,2025-02-23,2,2025,0,KOKV
2025-02-21,21,01:55,EST,NW  16  G 26,10.0,Overcast,OVC037,23.0,8.6,,,54%,11.0,,30.24,0.0,,,,2025-02-23,2,2025,1,KOKV
2025-02-21,21,02:55,EST,W  23  G 26,10.0,Overcast and Breezy,OVC037,23.0,8.6,,,54%,8.0,,30.25,0.0,,,,2025-02-23,2,2025,2,KOKV
2025-02-21,21,03:55,EST,NW  16  G 22,10.0,Overcast,OVC037,23.0,10.4,,,58%,11.0,,30.28,0.0,,,,2025-02-23,2,2025,3,KOKV
2025-02-21,21,04:55,EST,NW  13  G 18,10.0,Mostly Cloudy,BKN035,21.2,10.4,,,63%,10.0,,30.29,0.0,,,,2025-02-23,2,2025,4,KOKV
2025-02-21,21,05:55,EST,NW  9  G 23,10.0,Overcast,OVC035,23.0,10.4,,,58%,14.0,,30.31,0.0,,,,2025-02-23,2,2025,5,KOKV
2025-02-21,21,06:55,EST,NW  18  G 24,10.0,Overcast,OVC037,23.0,10.4,,,58%,10.0,,30.33,0.0,,,,2025-02-23,2,2025,6,KOKV
2025-02-21,21,07:55,EST,NW  18  G 29,10.0,Overcast,OVC035,24.8,10.4,,,54%,12.0,,30.35,0.0,,,,2025-02-23,2,2025,7,KOKV
2025-02-21,21,08:55,EST,W  22  G 36,10.0,Overcast and Breezy,OVC029,24.8,10.4,,,54%,11.0,,30.35,0.0,,,,2025-02-23,2,2025,8,KOKV
2025-02-21,21,09:55,EST,W  15,10.0,Overcast,OVC038,26.6,10.4,,,50%,16.0,,30.39,0.0,,,,2025-02-23,2,2025,9,KOKV
2025-02-21,21,10:55,EST,NW  21  G 31,10.0,Fair and Breezy,CLR,28.4,8.6,,,43%,16.0,,30.39,0.0,,,,2025-02-23,2,2025,10,KOKV
2025-02-21,21,11:55,EST,W  23  G 29,10.0,Fair and Breezy,CLR,32.0,10.4,,,40%,20.0,,30.38,0.0,,,,2025-02-23,2,2025,11,KOKV
2025-02-21,21,12:55,EST,NW  18  G 35,10.0,Fair,CLR,32.0,10.4,,,40%,21.0,,30.37,0.0,,,,2025-02-23,2,2025,12,KOKV
2025-02-21,21,13:55,EST,NW  18  G 29,10.0,Fair,CLR,32.0,10.4,,,40%,21.0,,30.36,0.0,,,,2025-02-23,2,2025,13,KOKV
2025-02-21,21,14:55,EST,NW  22  G 29,10.0,Fair and Breezy,CLR,32.0,10.4,,,40%,20.0,,30.36,0.0,,,,2025-02-23,2,2025,14,KOKV
2025-02-21,21,15:55,EST,NW  15  G 25,10.0,Fair,CLR,32.0,10.4,,,40%,22.0,,30.38,0.0,,,,2025-02-23,2,2025,15,KOKV
2025-02-21,21,16:55,EST,NW  16  G 22,10.0,Partly Cloudy,SCT048,32.0,12.2,,,44%,22.0,,30.39,0.0,,,,2025-02-23,2,2025,16,KOKV
2025-02-21,21,17:55,EST,NW  14  G 23,10.0,Fair,CLR,28.4,12.2,,,51%,18.0,,30.4,0.0,,,,2025-02-23,2,2025,17,KOKV
2025-02-21,21,18:55,EST,W  14,10.0,Fair,CLR,26.6,12.2,,,54%,16.0,,30.42,0.0,,,,2025-02-23,2,2025,18,KOKV
2025-02-21,21,19:55,EST,W  13,10.0,Partly Cloudy,SCT039,26.6,12.2,,,54%,16.0,,30.43,0.0,,,,2025-02-23,2,2025,19,KOKV
2025-02-21,21,20:55,EST,W  9  G 22,10.0,Fair,CLR,26.6,12.2,,,54%,18.0,,30.44,0.0,,,,2025-02-23,2,2025,20,KOKV
2025-02-21,21,21:55,EST,NW  13,10.0,Fair,CLR,24.8,12.2,,,59%,14.0,,30.44,0.0,,,,2025-02-23,2,2025,21,KOKV
2025-02-21,21,22:55,EST,W  6,10.0,Fair,CLR,24.8,12.2,,,59%,19.0,,30.44,0.0,,,,2025-02-23,2,2025,22,KOKV
2025-02-21,21,23:55,EST,NW  7,10.0,Fair,CLR,23.0,12.2,,,63%,16.0,,30.45,0.0,,,,2025-02-23,2,2025,23,KOKV
2025-02-22,22,00:55,EST,W  7,10.0,Fair,CLR,23.0,12.2,,,63%,16.0,,30.44,0.0,,,,2025-02-25,2,2025,0,KOKV
2025-02-22,22,01:55,EST,Calm,10.0,Fair,CLR,21.2,12.2,,,68%,,,30.44,0.0,,,,2025-02-25,2,2025,1,KOKV
2025-02-22,22,02:55,EST,Calm,10.0,Fair,CLR,19.4,10.4,,,68%,,,30.44,0.0,,,,2025-02-25,2,2025,2,KOKV
2025-02-22,22,03:55,EST,Calm,10.0,Fair,CLR,19.4,10.4,,,68%,,,30.43,0.0,,,,2025-02-25,2,2025,3,KOKV
2025-02-22,22,04:55,EST,Calm,10.0,Fair,CLR,17.6,10.4,,,73%,,,30.43,0.0,,,,2025-02-25,2,2025,4,KOKV
2025-02-22,22,05:55,EST,Calm,10.0,Fair,CLR,15.8,10.4,,,79%,,,30.43,0.0,,,,2025-02-25,2,2025,5,KOKV
2025-02-22,22,06:55,EST,Calm,10.0,Fair,CLR,12.2,8.6,,,85%,,,30.42,0.0,,,,2025-02-25,2,2025,6,KOKV
2025-02-22,22,07:55,EST,S  5,10.0,Fair,CLR,21.2,12.2,,,68%,16.0,,30.42,0.0,,,,2025-02-25,2,2025,7,KOKV
2025-02-22,22,08:55,EST,Calm,10.0,Fair,CLR,26.6,14.0,,,59%,,,30.42,0.0,,,,2025-02-25,2,2025,8,KOKV
2025-02-22,22,09:55,EST,W  3,10.0,Fair,CLR,30.2,12.2,,,47%,,,30.4,0.0,,,,2025-02-25,2,2025,9,KOKV
2025-02-22,22,10:55,EST,Calm,10.0,Fair,CLR,32.0,12.2,,,44%,,,30.37,0.0,,,,2025-02-25,2,2025,10,KOKV
2025-02-22,22,11:55,EST,S  7,10.0,Fair,CLR,33.8,12.2,,,41%,28.0,,30.34,0.0,,,,2025-02-25,2,2025,11,KOKV
2025-02-22,22,12:55,EST,S  6,10.0,Fair,CLR,35.6,12.2,,,38%,31.0,,30.29,0.0,,,,2025-02-25,2,2025,12,KOKV
2025-02-22,22,13:55,EST,SE  3,10.0,Fair,CLR,41.0,14.0,,,33%,,,30.25,0.0,,,,2025-02-25,2,2025,13,KOKV
2025-02-22,22,14:55,EST,Calm,10.0,Overcast,OVC120,39.2,12.2,,,33%,,,30.23,0.0,,,,2025-02-25,2,2025,14,KOKV
2025-02-22,22,15:55,EST,S  3,10.0,Overcast,OVC110,41.0,12.2,,,31%,,,30.21,0.0,,,,2025-02-25,2,2025,15,KOKV
2025-02-22,22,16:55,EST,S  5,10.0,Partly Cloudy,SCT120,39.2,14.0,,,36%,36.0,,30.2,0.0,,,,2025-02-25,2,2025,16,KOKV
2025-02-22,22,17:55,EST,SE  3,10.0,Mostly Cloudy,BKN120,37.4,15.8,,,41%,,,30.2,0.0,,,,2025-02-25,2,2025,17,KOKV
2025-02-22,22,18:55,EST,Calm,10.0,Partly Cloudy,SCT120,32.0,15.8,,,51%,,,30.21,0.0,,,,2025-02-25,2,2025,18,KOKV
2025-02-22,22,19:55,EST,Calm,10.0,Fair,CLR,28.4,15.8,,,59%,,,30.2,0.0,,,,2025-02-25,2,2025,19,KOKV
2025-02-22,22,20:55,EST,Calm,10.0,Fair,CLR,30.2,15.8,,,55%,,,30.19,0.0,,,,2025-02-25,2,2025,20,KOKV
2025-02-22,22,21:55,EST,Calm,10.0,Fair,CLR,28.4,15.8,,,59%,,,30.2,0.0,,,,2025-02-25,2,2025,21,KOKV
2025-02-22,22,22:55,EST,Calm,10.0,Overcast,OVC090,26.6,17.6,,,69%,,,30.18,0.0,,,,2025-02-25,2,2025,22,KOKV
2025-02-22,22,23:55,EST,Calm,10.0,Fair,CLR,28.4,17.6,,,64%,,,30.18,0.0,,,,2025-02-25,2,2025,23,KOKV
2025-02-23,23,00:55,EST,W  3,10.0,Fair,CLR,26.6,17.6,,,69%,,,30.17,0.0,,,,2025-02-25,2,2025,0,KOKV
2025-02-23,23,01:55,EST,Calm,10.0,Fair,CLR,24.8,15.8,,,69%,,,30.17,0.0,,,,2025-02-25,2,2025,1,KOKV
2025-02-23,23,02:55,EST,W  8,10.0,Fair,CLR,33.8,14.0,,,44%,28.0,,30.16,0.0,,,,2025-02-25,2,2025,2,KOKV
2025-02-23,23,03:55,EST,W  9  G 16,10.0,Fair,CLR,33.8,15.8,,,48%,27.0,,30.15,0.0,,,,2025-02-25,2,2025,3,KOKV
2025-02-23,23,04:55,EST,NW  5,10.0,Fair,CLR,30.2,15.8,,,55%,26.0,,30.16,0.0,,,,2025-02-25,2,2025,4,KOKV
2025-02-23,23,05:55,EST,W  8,10.0,Fair,CLR,32.0,15.8,,,51%,25.0,,30.17,0.0,,,,2025-02-25,2,2025,5,KOKV
2025-02-23,23,06:55,EST,W  13,10.0,Fair,CLR,32.0,15.8,,,51%,23.0,,30.18,0.0,,,,2025-02-25,2,2025,6,KOKV
2025-02-23,23,07:55,EST,SE  5,10.0,Fair,CLR,32.0,15.8,,,51%,28.0,,30.21,0.0,,,,2025-02-25,2,2025,7,KOKV
2025-02-23,23,08:55,EST,NW  14  G 24,10.0,Fair,CLR,33.8,19.4,,,56%,25.0,,30.2,0.0,,,,2025-02-25,2,2025,8,KOKV
2025-02-23,23,09:55,EST,NW  14  G 18,10.0,Fair,CLR,37.4,19.4,,,48%,30.0,,30.19,0.0,,,,2025-02-25,2,2025,9,KOKV
2025-02-23,23,10:55,EST,NW  10,10.0,Fair,CLR,39.2,17.6,,,42%,33.0,,30.19,0.0,,,,2025-02-25,2,2025,10,KOKV
2025-02-23,23,11:55,EST,W  6,10.0,Fair,CLR,41.0,15.8,,,36%,38.0,,30.16,0.0,,,,2025-02-25,2,2025,11,KOKV
2025-02-23,23,12:55,EST,Calm,10.0,Fair,CLR,42.8,14.0,,,31%,,,30.12,0.0,,,,2025-02-25,2,2025,12,KOKV
2025-02-23,23,13:55,EST,W  3,10.0,Fair,CLR,46.4,14.0,,,27%,,,30.08,0.0,,,,2025-02-25,2,2025,13,KOKV
2025-02-23,23,14:55,EST,W  5,10.0,Fair,CLR,46.4,14.0,,,27%,45.0,,30.06,0.0,,,,2025-02-25,2,2025,14,KOKV
2025-02-23,23,15:55,EST,Calm,10.0,Fair,CLR,48.2,15.8,,,27%,,,30.05,0.0,,,,2025-02-25,2,2025,15,KOKV
2025-02-23,23,16:55,EST,W  6,10.0,Fair,CLR,48.2,17.6,,,29%,46.0,,30.04,0.0,,,,2025-02-25,2,2025,16,KOKV
2025-02-23,23,17:55,EST,Calm,10.0,Fair,CLR,44.6,19.4,,,37%,,,30.05,0.0,,,,2025-02-25,2,2025,17,KOKV
2025-02-23,23,18:55,EST,Calm,10.0,Fair,CLR,37.4,19.4,,,48%,,,30.07,0.0,,,,2025-02-25,2,2025,18,KOKV
2025-02-23,23,19:55,EST,Calm,10.0,Fair,CLR,33.8,19.4,,,56%,,,30.09,0.0,,,,2025-02-25,2,2025,19,KOKV
2025-02-23,23,20:55,EST,Calm,10.0,Fair,CLR,39.2,19.4,,,45%,,,30.1,0.0,,,,2025-02-25,2,2025,20,KOKV
2025-02-23,23,21:55,EST,Calm,10.0,Fair,CLR,37.4,19.4,,,48%,,,30.11,0.0,,,,2025-02-25,2,2025,21,KOKV
2025-02-23,23,22:55,EST,Calm,10.0,Partly Cloudy,SCT120,32.0,19.4,,,60%,,,30.1,0.0,,,,2025-02-25,2,2025,22,KOKV
2025-02-23,23,23:55,EST,Calm,10.0,Partly Cloudy,SCT120,33.8,19.4,,,56%,,,30.08,0.0,,,,2025-02-25,2,2025,23,KOKV
2025-02-24,24,00:55,EST,Calm,10.0,Partly Cloudy,SCT100 SCT120,32.0,21.2,,,64%,,,30.09,0.0,,,,2025-02-25,2,2025,0,KOKV
2025-02-24,24,01:55,EST,Calm,10.0,Partly Cloudy,SCT120,32.0,21.2,,,64%,,,30.08,0.0,,,,2025-02-25,2,2025,1,KOKV
2025-02-24,24,02:55,EST,Calm,10.0,Mostly Cloudy,BKN120,32.0,19.4,,,60%,,,30.06,0.0,,,,2025-02-25,2,2025,2,KOKV
2025-02-24,24,03:55,EST,Calm,10.0,Overcast,OVC110,32.0,21.2,,,64%,,,30.06,0.0,,,,2025-02-25,2,2025,3,KOKV
2025-02-24,24,04:55,EST,Calm,10.0,Fair,CLR,32.0,19.4,,,60%,,,30.07,0.0,,,,2025-02-25,2,2025,4,KOKV
2025-02-24,24,05:55,EST,Calm,10.0,Fair,CLR,23.0,19.4,,,86%,,,30.07,0.0,,,,2025-02-25,2,2025,5,KOKV
2025-02-24,24,06:55,EST,Calm,10.0,Fair,CLR,26.6,19.4,,,74%,,,30.09,0.0,,,,2025-02-25,2,2025,6,KOKV
2025-02-24,24,07:55,EST,Calm,10.0,Fair,CLR,28.4,23.0,,,80%,,,30.1,0.0,,,,2025-02-25,2,2025,7,KOKV
2025-02-24,24,08:55,EST,SW  3,10.0,Fair,CLR,35.6,23.0,,,60%,,,30.1,0.0,,,,2025-02-25,2,2025,8,KOKV
2025-02-24,24,09:55,EST,S  7,10.0,Fair,CLR,41.0,23.0,,,49%,37.0,,30.09,0.0,,,,2025-02-25,2,2025,9,KOKV
2025-02-24,24,10:55,EST,S  7,10.0,Fair,CLR,44.6,23.0,,,43%,41.0,,30.06,0.0,,,,2025-02-25,2,2025,10,KOKV
2025-02-24,24,11:55,EST,S  7,10.0,Fair,CLR,48.2,23.0,,,37%,46.0,,30.02,0.0,,,,2025-02-25,2,2025,11,KOKV
2025-02-24,24,12:55,EST,S  8,10.0,Fair,CLR,51.8,23.0,,,32%,,,29.98,0.0,,,,2025-02-25,2,2025,12,KOKV
2025-02-24,24,13:55,EST,SW  7,10.0,Fair,CLR,53.6,24.8,,,33%,,,29.94,0.0,,,,2025-02-25,2,2025,13,KOKV
2025-02-24,24,14:55,EST,S  9,10.0,Fair,CLR,53.6,24.8,,,33%,,,29.9,0.0,,,,2025-02-25,2,2025,14,KOKV
2025-02-24,24,15:55,EST,S  6,10.0,Fair,CLR,55.4,26.6,,,33%,,,29.89,0.0,,,,2025-02-25,2,2025,15,KOKV
2025-02-24,24,16:55,EST,S  12  G 16,10.0,Fair,CLR,55.4,26.6,,,33%,,,29.88,0.0,,,,2025-02-25,2,2025,16,KOKV
2025-02-24,24,17:55,EST,S  6,10.0,Fair,CLR,51.8,24.8,,,35%,,,29.88,0.0,,,,2025-02-25,2,2025,17,KOKV
2025-02-24,24,18:55,EST,S  6,10.0,Fair,CLR,50.0,24.8,,,37%,48.0,,29.88,0.0,,,,2025-02-25,2,2025,18,KOKV
2025-02-24,24,19:55,EST,S  6,10.0,Fair,CLR,46.4,24.8,,,43%,44.0,,29.87,0.0,,,,2025-02-25,2,2025,19,KOKV
2025-02-24,24,20:55,EST,Calm,10.0,Fair,CLR,46.4,24.8,,,43%,,,29.87,0.0,,,,2025-02-25,2,2025,20,KOKV
2025-02-24,24,21:55,EST,S  3,10.0,Fair,CLR,42.8,26.6,,,53%,,,29.87,0.0,,,,2025-02-25,2,2025,21,KOKV
2025-02-24,24,22:55,EST,SW  6,10.0,Fair,CLR,46.4,26.6,,,46%,44.0,,29.86,0.0,,,,2025-02-25,2,2025,22,KOKV
2025-02-24,24,23:55,EST,SW  7,10.0,Fair,CLR,46.4,26.6,,,46%,43.0,,29.85,0.0,,,,2025-02-25,2,2025,23,KOKV
2025-02-25,25,00:15,EST,SW  7,10.0,Fair,CLR,46.4,26.6,,,46%,43.0,,29.84,0.0,,,,2025-02-25,2,2025,0,KOKV
2025-03-01,1,23:55,EST,NW  12  G 17,10.0,Partly Cloudy,SCT049,24.8,8.6,,,50%,15.0,,30.01,0.0,,,,2025-03-04,3,2025,23,KOKV
2025-03-02,2,00:55,EST,NW  14  G 30,10.0,Partly Cloudy,SCT039,23.0,5.0,,,46%,11.0,,30.04,0.0,,,,2025-03-04,3,2025,0,KOKV
2025-03-02,2,01:55,EST,NW  14  G 23,10.0,Partly Cloudy,SCT047,21.2,3.2,,,45%,9.0,,30.07,0.0,,,,2025-03-04,3,2025,1,KOKV
2025-03-02,2,02:55,EST,NW  17  G 26,10.0,Partly Cloudy,SCT047,21.2,5.0,,,49%,8.0,,30.09,0.0,,,,2025-03-04,3,2025,2,KOKV
2025-03-02,2,03:55,EST,NW  15  G 25,10.0,Partly Cloudy,SCT050,21.2,3.2,,,45%,9.0,,30.11,0.0,,,,2025-03-04,3,2025,3,KOKV
2025-03-02,2,04:55,EST,NW  12  G 18,10.0,Mostly Cloudy,BKN048,21.2,3.2,,,45%,10.0,,30.13,0.0,,,,2025-03-04,3,2025,4,KOKV
2025-03-02,2,05:55,EST,NW  10,10.0,Partly Cloudy,SCT046,19.4,3.2,,,49%,9.0,,30.15,0.0,,,,2025-03-04,3,2025,5,KOKV
2025-03-02,2,06:55,EST,NW  10,10.0,Fair,CLR,19.4,5.0,,,53%,9.0,,30.16,0.0,,,,2025-03-04,3,2025,6,KOKV
2025-03-02,2,07:55,EST,NW  12  G 16,10.0,Fair,CLR,21.2,5.0,,,49%,10.0,,30.18,0.0,,,,2025-03-04,3,2025,7,KOKV
2025-03-02,2,08:55,EST,NW  18  G 24,10.0,Fair,CLR,23.0,5.0,,,46%,10.0,,30.2,0.0,,,,2025-03-04,3,2025,8,KOKV
2025-03-02,2,09:55,EST,W  12,10.0,Fair,CLR,26.6,5.0,,,39%,17.0,,30.21,0.0,,,,2025-03-04,3,2025,9,KOKV
2025-03-02,2,10:55,EST,NW  12  G 21,10.0,Fair,CLR,28.4,5.0,,,37%,19.0,,30.2,0.0,,,,2025-03-04,3,2025,10,KOKV
2025-03-02,2,11:55,EST,NW  12  G 16,10.0,Fair,CLR,30.2,5.0,,,34%,21.0,,30.18,0.0,,,,2025-03-04,3,2025,11,KOKV
2025-03-02,2,12:55,EST,NW  8,10.0,Fair,CLR,32.0,6.8,,,34%,25.0,,30.15,0.0,,,,2025-03-04,3,2025,12,KOKV
2025-03-02,2,13:55,EST,NW  13  G 17,10.0,Fair,CLR,33.8,6.8,,,32%,25.0,,30.13,0.0,,,,2025-03-04,3,2025,13,KOKV
2025-03-02,2,14:55,EST,NW  9,10.0,Fair,CLR,35.6,6.8,,,30%,29.0,,30.12,0.0,,,,2025-03-04,3,2025,14,KOKV
2025-03-02,2,15:55,EST,NW  9,10.0,Fair,CLR,35.6,6.8,,,30%,29.0,,30.12,0.0,,,,2025-03-04,3,2025,15,KOKV
2025-03-02,2,16:55,EST,NW  13  G 17,10.0,Fair,CLR,35.6,6.8,,,30%,28.0,,30.11,0.0,,,,2025-03-04,3,2025,16,KOKV
2025-03-02,2,17:55,EST,NW  8,10.0,Fair,CLR,33.8,8.6,,,35%,28.0,,30.11,0.0,,,,2025-03-04,3,2025,17,KOKV
2025-03-02,2,18:55,EST,NW  3,10.0,Fair,CLR,32.0,8.6,,,37%,,,30.13,0.0,,,,2025-03-04,3,2025,18,KOKV
2025-03-02,2,19:55,EST,N  6,10.0,Fair,CLR,30.2,8.6,,,40%,25.0,,30.15,0.0,,,,2025-03-04,3,2025,19,KOKV
2025-03-02,2,20:55,EST,Calm,10.0,Fair,CLR,30.2,8.6,,,40%,,,30.17,0.0,,,,2025-03-04,3,2025,20,KOKV
2025-03-02,2,21:55,EST,Calm,10.0,Fair,CLR,26.6,10.4,,,50%,,,30.2,0.0,,,,2025-03-04,3,2025,21,KOKV
2025-03-02,2,22:55,EST,Calm,10.0,Fair,CLR,24.8,10.4,,,54%,,,30.2,0.0,,,,2025-03-04,3,2025,22,KOKV
2025-03-02,2,23:55,EST,Calm,10.0,Fair,CLR,21.2,8.6,,,58%,,,30.2,0.0,,,,2025-03-04,3,2025,23,KOKV
2025-03-03,3,00:55,EST,Calm,10.0,Fair,CLR,19.4,8.6,,,63%,,,30.21,0.0,,,,2025-03-04,3,2025,0,KOKV
2025-03-03,3,01:55,EST,Calm,10.0,Fair,CLR,21.2,12.2,,,68%,,,30.22,0.0,,,,2025-03-04,3,2025,1,KOKV
2025-03-03,3,02:55,EST,Calm,10.0,Fair,CLR,21.2,12.2,,,68%,,,30.23,0.0,,,,2025-03-04,3,2025,2,KOKV
2025-03-03,3,03:55,EST,Calm,10.0,Overcast,OVC120,21.2,12.2,,,68%,,,30.23,0.0,,,,2025-03-04,3,2025,3,KOKV
2025-03-03,3,04:55,EST,Calm,10.0,Overcast,OVC110,21.2,14.0,,,74%,,,30.25,0.0,,,,2025-03-04,3,2025,4,KOKV
2025-03-03,3,05:55,EST,Calm,10.0,Overcast,OVC110,21.2,14.0,,,74%,,,30.25,0.0,,,,2025-03-04,3,2025,5,KOKV
2025-03-03,3,06:55,EST,Calm,10.0,Overcast,OVC100,23.0,12.2,,,63%,,,30.27,0.0,,,,2025-03-04,3,2025,6,KOKV
2025-03-03,3,07:55,EST,Calm,10.0,Overcast,OVC100,24.8,14.0,,,63%,,,30.27,0.0,,,,2025-03-04,3,2025,7,KOKV
2025-03-03,3,08:55,EST,Calm,10.0,Fair,CLR,28.4,12.2,,,51%,,,30.29,0.0,,,,2025-03-04,3,2025,8,KOKV
2025-03-03,3,09:55,EST,Calm,10.0,Fair,CLR,30.2,12.2,,,47%,,,30.3,0.0,,,,2025-03-04,3,2025,9,KOKV
2025-03-03,3,10:55,EST,NW  7,10.0,Fair,CLR,32.0,12.2,,,44%,26.0,,30.28,0.0,,,,2025-03-04,3,2025,10,KOKV
2025-03-03,3,11:55,EST,SE  5,10.0,Fair,CLR,33.8,14.0,,,44%,30.0,,30.28,0.0,,,,2025-03-04,3,2025,11,KOKV
2025-03-03,3,12:55,EST,W  5,10.0,Fair,CLR,37.4,14.0,,,38%,34.0,,30.24,0.0,,,,2025-03-04,3,2025,12,KOKV
2025-03-03,3,13:55,EST,W  5,10.0,Fair,CLR,39.2,12.2,,,33%,36.0,,30.21,0.0,,,,2025-03-04,3,2025,13,KOKV
2025-03-03,3,14:55,EST,S  9,10.0,Fair,CLR,41.0,12.2,,,31%,36.0,,30.2,0.0,,,,2025-03-04,3,2025,14,KOKV
2025-03-03,3,15:55,EST,SW  5,10.0,Fair,CLR,42.8,10.4,,,26%,41.0,,30.18,0.0,,,,2025-03-04,3,2025,15,KOKV
2025-03-03,3,16:55,EST,S  3,0.0,,,42.8,10.4,,,26%,,,30.17,0.0,,,,2025-03-04,3,2025,16,KOKV
2025-03-03,3,17:55,EST,SE  3,10.0,Fair,CLR,41.0,10.4,,,28%,,,30.17,0.0,,,,2025-03-04,3,2025,17,KOKV
2025-03-03,3,18:55,EST,Calm,10.0,Fair,CLR,33.8,14.0,,,44%,,,30.19,0.0,,,,2025-03-04,3,2025,18,KOKV
2025-03-03,3,19:55,EST,Calm,10.0,Fair,CLR,33.8,14.0,,,44%,,,30.19,0.0,,,,2025-03-04,3,2025,19,KOKV
2025-03-03,3,20:55,EST,Calm,10.0,Fair,CLR,32.0,14.0,,,47%,,,30.18,0.0,,,,2025-03-04,3,2025,20,KOKV
2025-03-03,3,21:55,EST,Calm,10.0,Fair,CLR,32.0,14.0,,,47%,,,30.18,0.0,,,,2025-03-04,3,2025,21,KOKV
2025-03-03,3,22:55,EST,Calm,10.0,Partly Cloudy,SCT090,30.2,14.0,,,51%,,,30.17,0.0,,,,2025-03-04,3,2025,22,KOKV
2025-03-03,3,23:55,EST,Calm,10.0,Overcast,OVC080,33.8,15.8,,,48%,,,30.17,0.0,,,,2025-03-04,3,2025,23,KOKV
2025-03-04,4,00:55,EST,Calm,10.0,Overcast,OVC080,33.8,21.2,,,60%,,,30.16,0.0,,,,2025-03-04,3,2025,0,KOKV
2025-03-04,4,01:55,EST,Calm,10.0,Overcast,OVC070,33.8,21.2,,,60%,,,30.16,0.0,,,,2025-03-04,3,2025,1,KOKV
2025-03-04,4,02:55,EST,Calm,10.0,Overcast,OVC070,35.6,19.4,,,52%,,,30.15,0.0,,,,2025-03-04,3,2025,2,KOKV
2025-03-04,4,03:55,EST,SE  6,10.0,Overcast,BKN070 OVC090,35.6,21.2,,,56%,31.0,,30.13,0.0,,,,2025-03-04,3,2025,3,KOKV
2025-03-04,4,04:55,EST,Calm,10.0,Overcast,BKN070 OVC100,35.6,17.6,,,48%,,,30.14,0.0,,,,2025-03-04,3,2025,4,KOKV
2025-03-04,4,05:55,EST,Calm,10.0,Overcast,BKN070 OVC100,33.8,19.4,,,56%,,,30.14,0.0,,,,2025-03-04,3,2025,5,KOKV
2025-03-04,4,06:55,EST,Calm,10.0,Overcast,SCT085 OVC110,32.0,19.4,,,60%,,,30.14,0.0,,,,2025-03-04,3,2025,6,KOKV
2025-03-04,4,07:55,EST,Calm,10.0,Overcast,OVC085,35.6,21.2,,,56%,,,30.15,0.0,,,,2025-03-04,3,2025,7,KOKV
2025-03-04,4,08:55,EST,SE  3,10.0,Overcast,OVC075,41.0,21.2,,,45%,,,30.14,0.0,,,,2025-03-04,3,2025,8,KOKV
2025-03-04,4,09:55,EST,S  3,10.0,Mostly Cloudy,BKN070 BKN085,46.4,21.2,,,37%,,,30.14,0.0,,,,2025-03-04,3,2025,9,KOKV
2025-03-04,4,10:55,EST,S  5,10.0,Overcast,BKN070 OVC090,50.0,21.2,,,32%,49.0,,30.13,0.0,,,,2025-03-04,3,2025,10,KOKV
2025-03-04,4,11:55,EST,S  5,10.0,Overcast,OVC070,53.6,23.0,,,30%,,,30.1,0.0,,,,2025-03-04,3,2025,11,KOKV
2025-03-04,4,12:55,EST,S  9,10.0,,,57.2,23.0,,,27%,,,30.06,0.0,,,,2025-03-04,3,2025,12,KOKV
2025-03-04,4,14:55,EST,S  16  G 24,10.0,Fair,CLR,60.8,23.0,,,23%,,,29.99,0.0,,,,2025-03-04,3,2025,14,KOKV
2025-03-04,4,15:55,EST,S  17  G 23,10.0,Fair,CLR,62.6,23.0,,,22%,,,29.97,0.0,,,,2025-03-04,3,2025,15,KOKV
2025-03-04,4,16:55,EST,S  14  G 17,10.0,Fair,CLR,59.0,24.8,,,27%,,,29.97,0.0,,,,2025-03-04,3,2025,16,KOKV
2025-03-04,4,17:55,EST,S  12  G 20,10.0,Fair,CLR,55.4,24.8,,,31%,,,29.97,0.0,,,,2025-03-04,3,2025,17,KOKV
2025-03-04,4,18:55,EST,S  8,10.0,Fair,CLR,53.6,24.8,,,33%,,,29.97,0.0,,,,2025-03-04,3,2025,18,KOKV
2025-03-04,4,19:55,EST,S  10,10.0,Fair,CLR,53.6,26.6,,,35%,,,29.94,0.0,,,,2025-03-04,3,2025,19,KOKV
2025-03-04,4,20:55,EST,SE  12  G 16,10.0,Fair,CLR,51.8,28.4,,,41%,,,29.92,0.0,,,,2025-03-04,3,2025,20,KOKV
2025-03-04,4,21:55,EST,S  13  G 20,10.0,Fair,CLR,53.6,33.8,,,47%,,,29.89,0.0,,,,2025-03-04,3,2025,21,KOKV
2025-03-04,4,22:55,EST,S  12  G 20,10.0,Mostly Cloudy,BKN065,53.6,37.4,,,54%,,,29.86,0.0,,,,2025-03-04,3,2025,22,KOKV
2025-03-04,4,23:35,EST,S  13  G 22,10.0,Mostly Cloudy,BKN065,53.6,37.4,,,54%,,,29.85,0.0,,,,2025-03-04,3,2025,23,KOKV
2025-03-07,7,22:55,EDT,Calm,10.0,Overcast,BKN065 OVC075,41.0,30.2,,,66%,,,29.72,0.0,,,,2025-03-11,3,2025,22,KOKV
2025-03-07,7,23:55,EDT,SE  5,10.0,Overcast,OVC065,37.4,32.0,,,81%,34.0,,29.69,0.0,,,,2025-03-11,3,2025,23,KOKV
2025-03-08,8,00:55,EDT,Calm,10.0,Overcast,OVC065,39.2,30.2,,,70%,,,29.67,0.0,,,,2025-03-11,3,2025,0,KOKV
2025-03-08,8,01:55,EDT,Calm,10.0,Overcast,SCT065 OVC085,39.2,30.2,,,70%,,,29.66,0.0,,,,2025-03-11,3,2025,1,KOKV
2025-03-08,8,02:55,EDT,Calm,10.0,Mostly Cloudy,BKN050,33.8,30.2,,,87%,,,29.66,0.0,,,,2025-03-11,3,2025,2,KOKV
2025-03-08,8,03:55,EDT,Calm,10.0,Partly Cloudy,SCT044 SCT095 SCT110,33.8,30.2,,,87%,,,29.65,0.0,,,,2025-03-11,3,2025,3,KOKV
2025-03-08,8,04:55,EDT,NW  8  G 17,10.0,Mostly Cloudy,SCT038 SCT080 BKN110,41.0,32.0,,,70%,36.0,,29.66,0.0,,,,2025-03-11,3,2025,4,KOKV
2025-03-08,8,05:55,EDT,W  15  G 22,10.0,Partly Cloudy,SCT080,41.0,30.2,,,66%,34.0,,29.68,0.0,,,,2025-03-11,3,2025,5,KOKV
2025-03-08,8,06:55,EDT,NW  12,10.0,Mostly Cloudy,BKN035 BKN075 BKN090,39.2,30.2,,,70%,33.0,,29.71,0.0,,,,2025-03-11,3,2025,6,KOKV
2025-03-08,8,07:55,EDT,NW  10,10.0,Overcast,OVC033,39.2,32.0,,,75%,33.0,,29.73,0.0,,,,2025-03-11,3,2025,7,KOKV
2025-03-08,8,08:55,EDT,NW  6  G 16,10.0,Overcast,OVC035,39.2,28.4,,,65%,36.0,,29.76,0.0,,,,2025-03-11,3,2025,8,KOKV
2025-03-08,8,09:55,EDT,NW  15  G 24,10.0,Overcast,OVC031,37.4,28.4,,,70%,29.0,,29.78,0.0,,,,2025-03-11,3,2025,9,KOKV
2025-03-08,8,10:55,EDT,NW  16  G 24,10.0,Overcast,BKN035 OVC042,37.4,24.8,,,60%,29.0,,29.8,0.0,,,,2025-03-11,3,2025,10,KOKV
2025-03-08,8,11:55,EDT,W  20  G 26,10.0,Partly Cloudy,SCT050,42.8,23.0,,,46%,35.0,,29.81,0.0,,,,2025-03-11,3,2025,11,KOKV
2025-03-08,8,12:55,EDT,NW  18  G 26,10.0,Mostly Cloudy,BKN050,41.0,21.2,,,45%,33.0,,29.82,0.0,,,,2025-03-11,3,2025,12,KOKV
2025-03-08,8,13:55,EDT,NW  22  G 29,10.0,Partly Cloudy and Breezy,SCT060,42.8,21.2,,,42%,34.0,,29.82,0.0,,,,2025-03-11,3,2025,13,KOKV
2025-03-08,8,14:55,EDT,W  22  G 31,10.0,Partly Cloudy and Breezy,SCT060,44.6,19.4,,,37%,37.0,,29.82,0.0,,,,2025-03-11,3,2025,14,KOKV
2025-03-08,8,15:55,EDT,NW  14  G 25,10.0,Partly Cloudy,SCT060,44.6,21.2,,,39%,39.0,,29.85,0.0,,,,2025-03-11,3,2025,15,KOKV
2025-03-08,8,16:55,EDT,NW  13  G 21,10.0,Partly Cloudy,SCT060,42.8,21.2,,,42%,37.0,,29.87,0.0,,,,2025-03-11,3,2025,16,KOKV
2025-03-08,8,17:55,EDT,NW  13,10.0,Fair,CLR,41.0,19.4,,,42%,34.0,,29.89,0.0,,,,2025-03-11,3,2025,17,KOKV
2025-03-08,8,18:55,EDT,NW  8  G 16,10.0,Fair,CLR,39.2,19.4,,,45%,34.0,,29.92,0.0,,,,2025-03-11,3,2025,18,KOKV
2025-03-08,8,19:55,EDT,Calm,10.0,Fair,CLR,37.4,19.4,,,48%,,,29.95,0.0,,,,2025-03-11,3,2025,19,KOKV
2025-03-08,8,20:55,EDT,N  6,10.0,Fair,CLR,35.6,19.4,,,52%,31.0,,29.97,0.0,,,,2025-03-11,3,2025,20,KOKV
2025-03-08,8,21:55,EDT,N  5,10.0,Fair,CLR,33.8,19.4,,,56%,30.0,,29.97,0.0,,,,2025-03-11,3,2025,21,KOKV
2025-03-08,8,22:55,EDT,Calm,10.0,Fair,CLR,32.0,21.2,,,64%,,,29.99,0.0,,,,2025-03-11,3,2025,22,KOKV
2025-03-08,8,23:55,EDT,Calm,10.0,Fair,CLR,28.4,19.4,,,69%,,,29.98,0.0,,,,2025-03-11,3,2025,23,KOKV
2025-03-09,9,00:55,EDT,Calm,10.0,Fair,CLR,28.4,19.4,,,69%,,,29.97,0.0,,,,2025-03-11,3,2025,0,KOKV
2025-03-09,9,01:55,EDT,Calm,10.0,Fair,CLR,30.2,19.4,,,64%,,,29.98,0.0,,,,2025-03-11,3,2025,1,KOKV
2025-03-09,9,03:55,EDT,Calm,10.0,Fair,CLR,30.2,19.4,,,64%,,,30.0,0.0,,,,2025-03-11,3,2025,3,KOKV
2025-03-09,9,04:55,EDT,W  6,10.0,Fair,CLR,28.4,19.4,,,69%,23.0,,30.0,0.0,,,,2025-03-11,3,2025,4,KOKV
2025-03-09,9,05:55,EDT,W  9,10.0,Fair,CLR,33.8,17.6,,,51%,27.0,,30.01,0.0,,,,2025-03-11,3,2025,5,KOKV
2025-03-09,9,06:55,EDT,W  7,10.0,Fair,CLR,33.8,15.8,,,48%,28.0,,30.01,0.0,,,,2025-03-11,3,2025,6,KOKV
2025-03-09,9,07:55,EDT,SW  9,10.0,Fair,CLR,33.8,15.8,,,48%,27.0,,30.02,0.0,,,,2025-03-11,3,2025,7,KOKV
2025-03-09,9,08:55,EDT,SW  9,10.0,Fair,CLR,35.6,15.8,,,44%,29.0,,30.03,0.0,,,,2025-03-11,3,2025,8,KOKV
2025-03-09,9,09:55,EDT,SW  12  G 18,10.0,Fair,CLR,39.2,17.6,,,42%,33.0,,30.03,0.0,,,,2025-03-11,3,2025,9,KOKV
2025-03-09,9,10:55,EDT,SW  16  G 23,10.0,Fair,CLR,44.6,21.2,,,39%,38.0,,30.02,0.0,,,,2025-03-11,3,2025,10,KOKV
2025-03-09,9,11:55,EDT,SW  14  G 21,10.0,Partly Cloudy,SCT055,46.4,24.8,,,43%,41.0,,30.0,0.0,,,,2025-03-11,3,2025,11,KOKV
2025-03-09,9,12:55,EDT,W  15  G 23,10.0,Partly Cloudy,SCT070 SCT075,51.8,26.6,,,38%,,,29.97,0.0,,,,2025-03-11,3,2025,12,KOKV
2025-03-09,9,13:55,EDT,W  23  G 33,10.0,Partly Cloudy and Breezy,SCT065,51.8,24.8,,,35%,,,29.96,0.0,,,,2025-03-11,3,2025,13,KOKV
2025-03-09,9,14:55,EDT,W  16  G 21,10.0,Partly Cloudy,SCT070,53.6,26.6,,,35%,,,29.94,0.0,,,,2025-03-11,3,2025,14,KOKV
2025-03-09,9,15:55,EDT,NW  13  G 21,10.0,Fair,CLR,55.4,24.8,,,31%,,,29.91,0.0,,,,2025-03-11,3,2025,15,KOKV
2025-03-09,9,16:55,EDT,NW  10  G 18,10.0,Fair,CLR,55.4,23.0,,,28%,,,29.9,0.0,,,,2025-03-11,3,2025,16,KOKV
2025-03-09,9,17:55,EDT,W  8,10.0,Fair,CLR,55.4,23.0,,,28%,,,29.91,0.0,,,,2025-03-11,3,2025,17,KOKV
2025-03-09,9,18:55,EDT,W  6,10.0,Fair,CLR,53.6,23.0,,,30%,,,29.92,0.0,,,,2025-03-11,3,2025,18,KOKV
2025-03-09,9,19:55,EDT,SW  3,10.0,Fair,CLR,50.0,23.0,,,35%,,,29.92,0.0,,,,2025-03-11,3,2025,19,KOKV
2025-03-09,9,20:55,EDT,S  5,10.0,Fair,CLR,37.4,24.8,,,60%,34.0,,29.93,0.0,,,,2025-03-11,3,2025,20,KOKV
2025-03-09,9,21:55,EDT,W  6,10.0,Fair,CLR,48.2,23.0,,,37%,46.0,,29.94,0.0,,,,2025-03-11,3,2025,21,KOKV
2025-03-09,9,22:55,EDT,SW  6,10.0,Fair,CLR,46.4,23.0,,,40%,44.0,,29.94,0.0,,,,2025-03-11,3,2025,22,KOKV
2025-03-09,9,23:55,EDT,SW  3,10.0,Fair,CLR,37.4,23.0,,,56%,,,29.93,0.0,,,,2025-03-12,3,2025,23,KOKV
2025-03-10,10,00:15,EDT,S  5,10.0,Fair,CLR,37.4,23.0,,,56%,34.0,,29.93,0.0,,,,2025-03-12,3,2025,0,KOKV
2025-03-10,10,01:55,EDT,S  6,10.0,Fair,CLR,39.2,24.8,,,56%,36.0,,29.92,0.0,,,,2025-03-12,3,2025,1,KOKV
2025-03-10,10,02:55,EDT,SW  6,10.0,Fair,CLR,39.2,24.8,,,56%,36.0,,29.93,0.0,,,,2025-03-12,3,2025,2,KOKV
2025-03-10,10,03:55,EDT,SW  7,10.0,Fair,CLR,42.8,24.8,,,49%,39.0,,29.92,0.0,,,,2025-03-12,3,2025,3,KOKV
2025-03-10,10,04:55,EDT,W  8,10.0,Fair,CLR,42.8,24.8,,,49%,39.0,,29.91,0.0,,,,2025-03-12,3,2025,4,KOKV
2025-03-10,10,05:55,EDT,SW  6,10.0,Fair,CLR,37.4,24.8,,,60%,33.0,,29.93,0.0,,,,2025-03-12,3,2025,5,KOKV
2025-03-10,10,06:55,EDT,S  3,10.0,Fair,CLR,37.4,24.8,,,60%,,,29.93,0.0,,,,2025-03-12,3,2025,6,KOKV
2025-03-10,10,07:55,EDT,SW  5,10.0,Fair,CLR,37.4,24.8,,,60%,34.0,,29.94,0.0,,,,2025-03-12,3,2025,7,KOKV
2025-03-10,10,08:55,EDT,SW  3,10.0,Fair,CLR,41.0,26.6,,,57%,,,29.93,0.0,,,,2025-03-12,3,2025,8,KOKV
2025-03-10,10,09:55,EDT,S  3,10.0,Fair,CLR,48.2,28.4,,,46%,,,29.93,0.0,,,,2025-03-12,3,2025,9,KOKV
2025-03-10,10,10:55,EDT,S  5,10.0,Fair,CLR,53.6,28.4,,,38%,,,29.93,0.0,,,,2025-03-12,3,2025,10,KOKV
2025-03-10,10,11:55,EDT,W  6,10.0,Fair,CLR,55.4,28.4,,,36%,,,29.91,0.0,,,,2025-03-12,3,2025,11,KOKV
2025-03-10,10,12:55,EDT,W  3,10.0,Fair,CLR,59.0,30.2,,,34%,,,29.9,0.0,,,,2025-03-12,3,2025,12,KOKV
2025-03-10,10,13:55,EDT,N  5,10.0,Fair,CLR,60.8,28.4,,,29%,,,29.87,0.0,,,,2025-03-12,3,2025,13,KOKV
2025-03-10,10,14:55,EDT,SE  5,10.0,Fair,CLR,62.6,28.4,,,27%,,,29.84,0.0,,,,2025-03-12,3,2025,14,KOKV
2025-03-10,10,15:55,EDT,S  3,10.0,Fair,CLR,62.6,28.4,,,27%,,,29.82,0.0,,,,2025-03-12,3,2025,15,KOKV
2025-03-10,10,16:55,EDT,SE  3,10.0,Fair,CLR,62.6,26.6,,,25%,,,29.81,0.0,,,,2025-03-12,3,2025,16,KOKV
2025-03-10,10,17:55,EDT,SE  5,10.0,Fair,CLR,62.6,28.4,,,27%,,,29.8,0.0,,,,2025-03-12,3,2025,17,KOKV
2025-03-10,10,18:55,EDT,SE  5,10.0,Fair,CLR,60.8,28.4,,,29%,,,29.8,0.0,,,,2025-03-12,3,2025,18,KOKV
2025-03-10,10,19:55,EDT,SE  5,10.0,Fair,CLR,51.8,28.4,,,41%,,,29.81,0.0,,,,2025-03-12,3,2025,19,KOKV
2025-03-10,10,20:55,EDT,S  3,10.0,Fair,CLR,50.0,28.4,,,43%,,,29.81,0.0,,,,2025-03-12,3,2025,20,KOKV
2025-03-10,10,21:55,EDT,Calm,10.0,Fair,CLR,46.4,28.4,,,50%,,,29.81,0.0,,,,2025-03-12,3,2025,21,KOKV
2025-03-10,10,22:55,EDT,Calm,10.0,Fair,CLR,44.6,28.4,,,53%,,,29.81,0.0,,,,2025-03-12,3,2025,22,KOKV
2025-03-10,10,23:55,EDT,S  3,10.0,Fair,CLR,44.6,28.4,,,53%,,,29.81,0.0,,,,2025-03-12,3,2025,23,KOKV
2025-03-11,11,00:55,EDT,W  3,10.0,Fair,CLR,41.0,28.4,,,61%,,,29.79,0.0,,,,2025-03-12,3,2025,0,KOKV
2025-03-11,11,01:55,EDT,Calm,10.0,Fair,CLR,35.6,28.4,,,75%,,,29.79,0.0,,,,2025-03-12,3,2025,1,KOKV
2025-03-11,11,02:55,EDT,SW  6,10.0,Fair,CLR,42.8,28.4,,,57%,40.0,,29.78,0.0,,,,2025-03-12,3,2025,2,KOKV
2025-03-11,11,03:55,EDT,S  3,10.0,Fair,CLR,35.6,28.4,,,75%,,,29.78,0.0,,,,2025-03-12,3,2025,3,KOKV
2025-03-11,11,04:55,EDT,Calm,10.0,Fair,CLR,39.2,28.4,,,65%,,,29.78,0.0,,,,2025-03-12,3,2025,4,KOKV
2025-03-11,11,05:55,EDT,SW  5,10.0,Fair,CLR,37.4,28.4,,,70%,34.0,,29.79,0.0,,,,2025-03-12,3,2025,5,KOKV
2025-03-11,11,06:55,EDT,SW  6,10.0,Fair,CLR,37.4,28.4,,,70%,33.0,,29.81,0.0,,,,2025-03-12,3,2025,6,KOKV
2025-03-11,11,07:55,EDT,SW  7,10.0,Fair,CLR,39.2,28.4,,,65%,35.0,,29.82,0.0,,,,2025-03-12,3,2025,7,KOKV
2025-03-11,11,08:55,EDT,SW  3,10.0,Fair,CLR,42.8,30.2,,,61%,,,29.82,0.0,,,,2025-03-12,3,2025,8,KOKV
2025-03-11,11,09:55,EDT,SW  7,10.0,Fair,CLR,50.0,32.0,,,50%,48.0,,29.82,0.0,,,,2025-03-12,3,2025,9,KOKV
2025-03-11,11,10:55,EDT,SW  6,10.0,Fair,CLR,55.4,32.0,,,41%,,,29.82,0.0,,,,2025-03-12,3,2025,10,KOKV
2025-03-11,11,11:55,EDT,S  6,10.0,Fair,CLR,60.8,32.0,,,34%,,,29.8,0.0,,,,2025-03-12,3,2025,11,KOKV
2025-03-11,11,12:55,EDT,SW  8,10.0,Fair,CLR,64.4,32.0,,,30%,,,29.78,0.0,,,,2025-03-12,3,2025,12,KOKV
2025-03-11,11,13:55,EDT,S  7,10.0,Fair,CLR,68.0,30.2,,,24%,,,29.75,0.0,,,,2025-03-12,3,2025,13,KOKV
2025-03-11,11,14:55,EDT,SW  9  G 16,10.0,Fair,CLR,69.8,32.0,,,25%,,,29.7,0.0,,,,2025-03-12,3,2025,14,KOKV
2025-03-11,11,15:55,EDT,S  9,10.0,Fair,CLR,71.6,32.0,,,23%,,,29.69,0.0,,,,2025-03-12,3,2025,15,KOKV
2025-03-11,11,16:55,EDT,S  8,10.0,Fair,CLR,71.6,32.0,,,23%,,,29.67,0.0,,,,2025-03-12,3,2025,16,KOKV
2025-03-11,11,17:55,EDT,S  8,10.0,Fair,CLR,71.6,32.0,,,23%,,,29.67,0.0,,,,2025-03-12,3,2025,17,KOKV
2025-03-11,11,18:55,EDT,SW  6,10.0,Fair,CLR,68.0,32.0,,,26%,,,29.69,0.0,,,,2025-03-12,3,2025,18,KOKV
2025-03-11,11,19:55,EDT,SW  5,10.0,Fair,CLR,64.4,32.0,,,30%,,,29.71,0.0,,,,2025-03-12,3,2025,19,KOKV
2025-03-11,11,20:55,EDT,SW  5,10.0,Fair,CLR,62.6,32.0,,,32%,,,29.73,0.0,,,,2025-03-12,3,2025,20,KOKV
2025-03-11,11,21:55,EDT,W  7,10.0,Fair,CLR,60.8,32.0,,,34%,,,29.74,0.0,,,,2025-03-12,3,2025,21,KOKV
2025-03-11,11,22:55,EDT,SW  5,10.0,Fair,CLR,59.0,32.0,,,36%,,,29.76,0.0,,,,2025-03-12,3,2025,22,KOKV
2025-03-11,11,23:55,EDT,SW  6,10.0,Fair,CLR,55.4,32.0,,,41%,,,29.76,0.0,,,,2025-03-12,3,2025,23,KOKV
2025-03-12,12,00:55,EDT,Calm,10.0,Fair,CLR,48.2,32.0,,,54%,,,29.78,0.0,,,,2025-03-12,3,2025,0,KOKV
2025-03-12,12,01:55,EDT,NW  3,10.0,Fair,CLR,46.4,30.2,,,53%,,,29.79,0.0,,,,2025-03-12,3,2025,1,KOKV
2025-03-12,12,02:55,EDT,Calm,10.0,Fair,CLR,44.6,32.0,,,61%,,,29.82,0.0,,,,2025-03-12,3,2025,2,KOKV
2025-03-12,12,03:55,EDT,NW  3,10.0,Fair,CLR,46.4,32.0,,,57%,,,29.84,0.0,,,,2025-03-12,3,2025,3,KOKV
2025-03-12,12,04:55,EDT,NW  3,10.0,Fair,CLR,46.4,33.8,,,62%,,,29.85,0.0,,,,2025-03-12,3,2025,4,KOKV
2025-03-12,12,05:55,EDT,NW  3,10.0,Fair,CLR,46.4,32.0,,,57%,,,29.88,0.0,,,,2025-03-12,3,2025,5,KOKV
2025-03-12,12,06:55,EDT,Calm,10.0,Fair,CLR,37.4,32.0,,,81%,,,29.91,0.0,,,,2025-03-12,3,2025,6,KOKV
2025-03-12,12,07:35,EDT,Calm,10.0,Fair,CLR,35.6,32.0,,,87%,,,29.92,0.0,,,,2025-03-12,3,2025,7,KOKV
2025-03-12,12,08:55,EDT,Calm,10.0,Fair,CLR,46.4,32.0,,,57%,,,29.95,0.0,,,,2025-03-12,3,2025,8,KOKV
2025-03-12,12,09:55,EDT,NE  5,10.0,Fair,CLR,48.2,28.4,,,46%,47.0,,29.96,0.0,,,,2025-03-12,3,2025,9,KOKV
2025-03-12,12,10:55,EDT,E  3,10.0,Fair,CLR,51.8,32.0,,,47%,,,29.95,0.0,,,,2025-03-12,3,2025,10,KOKV
2025-03-12,12,11:55,EDT,SE  5,10.0,Fair,CLR,53.6,33.8,,,47%,,,29.93,0.0,,,,2025-03-12,3,2025,11,KOKV
2025-03-12,12,12:55,EDT,E  5,10.0,Fair,CLR,57.2,32.0,,,39%,,,29.91,0.0,,,,2025-03-12,3,2025,12,KOKV
2025-03-12,12,13:55,EDT,E  8,10.0,Fair,CLR,60.8,32.0,,,34%,,,29.87,0.0,,,,2025-03-12,3,2025,13,KOKV
2025-03-12,12,14:55,EDT,E  8  G 17,10.0,Fair,CLR,62.6,33.8,,,34%,,,29.83,0.0,,,,2025-03-12,3,2025,14,KOKV
2025-03-12,12,15:55,EDT,SE  8,10.0,Fair,CLR,66.2,35.6,,,32%,,,29.8,0.0,,,,2025-03-12,3,2025,15,KOKV
2025-03-12,12,16:55,EDT,SE  10  G 18,10.0,Fair,CLR,68.0,33.8,,,28%,,,29.78,0.0,,,,2025-03-12,3,2025,16,KOKV
2025-03-12,12,17:55,EDT,E  9,10.0,Fair,CLR,64.4,32.0,,,30%,,,29.78,0.0,,,,2025-03-12,3,2025,17,KOKV
2025-03-12,12,18:55,EDT,E  10,10.0,Fair,CLR,62.6,33.8,,,34%,,,29.8,0.0,,,,2025-03-12,3,2025,18,KOKV
2025-03-12,12,19:55,EDT,SE  9,10.0,Fair,CLR,59.0,32.0,,,36%,,,29.8,0.0,,,,2025-03-12,3,2025,19,KOKV
2025-03-12,12,20:55,EDT,SE  7,10.0,Fair,CLR,53.6,32.0,,,44%,,,29.82,0.0,,,,2025-03-15,3,2025,20,KOKV
2025-03-12,12,21:55,EDT,Calm,10.0,Fair,CLR,50.0,33.8,,,54%,,,29.84,0.0,,,,2025-03-15,3,2025,21,KOKV
2025-03-12,12,22:55,EDT,E  3,10.0,Fair,CLR,44.6,33.8,,,66%,,,29.86,0.0,,,,2025-03-15,3,2025,22,KOKV
2025-03-12,12,23:55,EDT,E  7,10.0,Fair,CLR,46.4,30.2,,,53%,43.0,,29.86,0.0,,,,2025-03-15,3,2025,23,KOKV
2025-03-13,13,00:55,EDT,E  6,10.0,Fair,CLR,46.4,28.4,,,50%,44.0,,29.87,0.0,,,,2025-03-16,3,2025,0,KOKV
2025-03-13,13,01:55,EDT,Calm,10.0,Fair,CLR,44.6,28.4,,,53%,,,29.89,0.0,,,,2025-03-16,3,2025,1,KOKV
2025-03-13,13,02:55,EDT,NE  3,10.0,Fair,CLR,41.0,28.4,,,61%,,,29.89,0.0,,,,2025-03-16,3,2025,2,KOKV
2025-03-13,13,03:55,EDT,N  3,10.0,Fair,CLR,39.2,28.4,,,65%,,,29.9,0.0,,,,2025-03-16,3,2025,3,KOKV
2025-03-13,13,04:55,EDT,NE  3,10.0,Fair,CLR,37.4,32.0,,,81%,,,29.92,0.0,,,,2025-03-16,3,2025,4,KOKV
2025-03-13,13,05:55,EDT,Calm,10.0,Fair,CLR,35.6,32.0,,,87%,,,29.94,0.0,,,,2025-03-16,3,2025,5,KOKV
2025-03-13,13,06:55,EDT,Calm,10.0,Partly Cloudy,SCT011,35.6,32.0,,,87%,,,29.95,0.0,,,,2025-03-16,3,2025,6,KOKV
2025-03-13,13,07:55,EDT,Calm,10.0,Partly Cloudy,SCT012,35.6,33.8,,,93%,,,29.97,0.0,,,,2025-03-16,3,2025,7,KOKV
2025-03-13,13,08:55,EDT,NE  5,10.0,Overcast,OVC012,37.4,33.8,,,87%,34.0,,29.98,0.0,,,,2025-03-16,3,2025,8,KOKV
2025-03-13,13,09:55,EDT,Calm,10.0,Overcast,OVC012,41.0,35.6,,,81%,,,30.0,0.0,,,,2025-03-16,3,2025,9,KOKV
2025-03-13,13,10:55,EDT,Calm,10.0,Overcast,OVC012,41.0,35.6,,,81%,,,30.01,0.0,,,,2025-03-16,3,2025,10,KOKV
2025-03-13,13,11:55,EDT,NE  7,10.0,Overcast,OVC012,42.8,35.6,,,76%,39.0,,29.99,0.0,,,,2025-03-16,3,2025,11,KOKV
2025-03-13,13,12:55,EDT,E  8,10.0,Overcast,OVC014,44.6,37.4,,,76%,41.0,,30.0,0.0,,,,2025-03-16,3,2025,12,KOKV
2025-03-13,13,13:55,EDT,E  7,10.0,Partly Cloudy,SCT016,46.4,37.4,,,71%,43.0,,30.0,0.0,,,,2025-03-16,3,2025,13,KOKV
2025-03-13,13,14:55,EDT,E  7,10.0,Fair,CLR,50.0,37.4,,,62%,48.0,,29.98,0.0,,,,2025-03-16,3,2025,14,KOKV
2025-03-13,13,15:55,EDT,NE  6,10.0,Fair,CLR,50.0,37.4,,,62%,48.0,,29.96,0.0,,,,2025-03-16,3,2025,15,KOKV
2025-03-13,13,16:55,EDT,E  7,10.0,Fair,CLR,51.8,37.4,,,58%,,,29.95,0.0,,,,2025-03-16,3,2025,16,KOKV
2025-03-13,13,17:55,EDT,NE  5,10.0,Fair,CLR,50.0,37.4,,,62%,49.0,,29.96,0.0,,,,2025-03-16,3,2025,17,KOKV
2025-03-13,13,18:55,EDT,NE  5,10.0,Fair,CLR,46.4,37.4,,,71%,45.0,,29.97,0.0,,,,2025-03-16,3,2025,18,KOKV
2025-03-13,13,19:55,EDT,NE  6,10.0,Partly Cloudy,SCT100,42.8,35.6,,,76%,40.0,,30.0,0.0,,,,2025-03-16,3,2025,19,KOKV
2025-03-13,13,20:55,EDT,Calm,10.0,Overcast,OVC110,42.8,35.6,,,76%,,,30.02,0.0,,,,2025-03-16,3,2025,20,KOKV
2025-03-13,13,21:55,EDT,Calm,10.0,Partly Cloudy,SCT110,39.2,35.6,,,87%,,,30.03,0.0,,,,2025-03-16,3,2025,21,KOKV
2025-03-13,13,22:55,EDT,Calm,10.0,Fair,CLR,37.4,33.8,,,87%,,,30.04,0.0,,,,2025-03-16,3,2025,22,KOKV
2025-03-13,13,23:55,EDT,N  3,10.0,Fair,CLR,37.4,35.6,,,93%,,,30.05,0.0,,,,2025-03-16,3,2025,23,KOKV
2025-03-14,14,00:55,EDT,Calm,5.0,Fog/Mist,CLR,33.8,33.8,,,100%,,,30.04,0.0,,,,2025-03-16,3,2025,0,KOKV
2025-03-14,14,01:55,EDT,Calm,7.0,Fair,CLR,35.6,33.8,,,93%,,,30.04,0.0,,,,2025-03-16,3,2025,1,KOKV
2025-03-14,14,02:55,EDT,Calm,4.0,Fog/Mist,CLR,32.0,32.0,,,100%,,,30.05,0.0,,,,2025-03-16,3,2025,2,KOKV
2025-03-14,14,03:55,EDT,Calm,3.0,Fog/Mist,CLR,32.0,32.0,,,100%,,,30.04,0.0,,,,2025-03-16,3,2025,3,KOKV
2025-03-14,14,04:55,EDT,Calm,2.5,Fog/Mist,CLR,33.8,32.0,,,93%,,,30.05,0.0,,,,2025-03-16,3,2025,4,KOKV
2025-03-14,14,05:55,EDT,Calm,2.5,Fog/Mist,CLR,32.0,32.0,,,100%,,,30.06,0.0,,,,2025-03-16,3,2025,5,KOKV
2025-03-14,14,06:55,EDT,N  5,3.0,Fog/Mist,SCT100,33.8,33.8,,,100%,30.0,,30.08,0.0,,,,2025-03-16,3,2025,6,KOKV
2025-03-14,14,07:55,EDT,Calm,2.0,Fog/Mist,SCT100,33.8,33.8,,,100%,,,30.09,0.0,,,,2025-03-16,3,2025,7,KOKV
2025-03-14,14,08:55,EDT,Calm,4.0,Fog/Mist,BKN009 BKN015,37.4,35.6,,,93%,,,30.11,0.0,,,,2025-03-16,3,2025,8,KOKV
2025-03-14,14,09:55,EDT,Calm,5.0,Fog/Mist,BKN007 BKN012,41.0,37.4,,,87%,,,30.12,0.0,,,,2025-03-16,3,2025,9,KOKV
2025-03-14,14,10:55,EDT,E  3,7.0,Overcast,OVC009,44.6,37.4,,,76%,,,30.13,0.0,,,,2025-03-16,3,2025,10,KOKV
2025-03-14,14,11:55,EDT,NE  6,7.0,Overcast,OVC011,44.6,39.2,,,81%,42.0,,30.12,0.0,,,,2025-03-16,3,2025,11,KOKV
2025-03-14,14,12:55,EDT,NE  6,7.0,Mostly Cloudy,BKN015,46.4,39.2,,,76%,44.0,,30.1,0.0,,,,2025-03-16,3,2025,12,KOKV
2025-03-14,14,13:55,EDT,E  5,7.0,Fair,CLR,51.8,39.2,,,62%,,,30.08,0.0,,,,2025-03-16,3,2025,13,KOKV
2025-03-14,14,14:55,EDT,E  6,10.0,Fair,CLR,53.6,41.0,,,63%,,,30.06,0.0,,,,2025-03-16,3,2025,14,KOKV
2025-03-14,14,15:55,EDT,SE  12  G 16,10.0,Fair,CLR,55.4,41.0,,,59%,,,30.04,0.0,,,,2025-03-16,3,2025,15,KOKV
2025-03-14,14,16:55,EDT,E  7,10.0,Fair,CLR,55.4,39.2,,,55%,,,30.02,0.0,,,,2025-03-16,3,2025,16,KOKV
2025-03-14,14,17:55,EDT,SE  13,10.0,Fair,CLR,55.4,39.2,,,55%,,,30.02,0.0,,,,2025-03-16,3,2025,17,KOKV
2025-03-14,14,18:55,EDT,E  12,10.0,Fair,CLR,51.8,39.2,,,62%,,,30.02,0.0,,,,2025-03-16,3,2025,18,KOKV
2025-03-14,14,19:55,EDT,E  10  G 17,10.0,Fair,CLR,46.4,37.4,,,71%,42.0,,30.02,0.0,,,,2025-03-16,3,2025,19,KOKV
2025-03-14,14,20:55,EDT,E  7,10.0,Fair,CLR,44.6,37.4,,,76%,41.0,,30.03,0.0,,,,2025-03-16,3,2025,20,KOKV
2025-03-14,14,21:55,EDT,E  5,10.0,Fair,CLR,42.8,37.4,,,81%,41.0,,30.02,0.0,,,,2025-03-17,3,2025,21,KOKV
2025-03-14,14,22:55,EDT,Calm,10.0,Fair,CLR,41.0,37.4,,,87%,,,30.02,0.0,,,,2025-03-17,3,2025,22,KOKV
2025-03-14,14,23:55,EDT,Calm,10.0,Fair,CLR,41.0,37.4,,,87%,,,30.01,0.0,,,,2025-03-17,3,2025,23,KOKV
2025-03-15,15,00:55,EDT,Calm,10.0,Fair,CLR,37.4,35.6,,,93%,,,30.0,0.0,,,,2025-03-17,3,2025,0,KOKV
2025-03-15,15,01:55,EDT,Calm,7.0,Fair,CLR,37.4,35.6,,,93%,,,30.0,0.0,,,,2025-03-17,3,2025,1,KOKV
2025-03-15,15,02:55,EDT,NE  3,7.0,Fair,CLR,37.4,37.4,,,100%,,,29.99,0.0,,,,2025-03-17,3,2025,2,KOKV
2025-03-15,15,03:55,EDT,Calm,2.5,Fog/Mist,CLR,35.6,33.8,,,93%,,,29.96,0.0,,,,2025-03-17,3,2025,3,KOKV
2025-03-15,15,04:55,EDT,Calm,4.0,Fog/Mist,CLR,35.6,33.8,,,93%,,,29.98,0.0,,,,2025-03-17,3,2025,4,KOKV
2025-03-15,15,05:55,EDT,Calm,0.0,,,0.0,0.0,,,0%,,,30.02,0.0,,,,2025-03-17,3,2025,5,KOKV
2025-03-15,15,06:55,EDT,E  5,5.0,Fog/Mist,OVC023,37.4,37.4,,,100%,34.0,,30.0,0.0,,,,2025-03-17,3,2025,6,KOKV
2025-03-15,15,07:55,EDT,Calm,3.0,Fog/Mist,BKN009 OVC021,41.0,39.2,,,93%,,,30.03,0.0,,,,2025-03-17,3,2025,7,KOKV
2025-03-15,15,08:55,EDT,SE  6,4.0,Fog/Mist,OVC007,42.8,41.0,,,93%,40.0,,30.04,0.0,,,,2025-03-17,3,2025,8,KOKV
2025-03-15,15,09:55,EDT,SE  7,10.0,Overcast,SCT009 SCT014 OVC021,44.6,42.8,,,93%,41.0,,30.0,0.0,,,,2025-03-17,3,2025,9,KOKV
2025-03-15,15,10:55,EDT,SE  10,10.0,Overcast,BKN013 OVC021,50.0,42.8,,,76%,46.0,,30.01,0.0,,,,2025-03-17,3,2025,10,KOKV
2025-03-15,15,11:55,EDT,SE  12,10.0,Fair,CLR,51.8,42.8,,,72%,,,30.0,0.0,,,,2025-03-17,3,2025,11,KOKV
2025-03-15,15,12:55,EDT,S  10,10.0,Fair,CLR,53.6,44.6,,,72%,,,30.0,0.0,,,,2025-03-17,3,2025,12,KOKV
2025-03-15,15,13:55,EDT,SE  8,10.0,Fair,CLR,55.4,44.6,,,67%,,,29.97,0.0,,,,2025-03-17,3,2025,13,KOKV
2025-03-15,15,14:55,EDT,SE  12,10.0,Fair,CLR,55.4,44.6,,,67%,,,29.93,0.0,,,,2025-03-17,3,2025,14,KOKV
2025-03-15,15,15:55,EDT,SE  14,10.0,Fair,CLR,57.2,44.6,,,63%,,,29.92,0.0,,,,2025-03-17,3,2025,15,KOKV
2025-03-15,15,16:55,EDT,SE  9,10.0,Fair,CLR,59.0,46.4,,,63%,,,29.9,0.0,,,,2025-03-17,3,2025,16,KOKV
2025-03-15,15,17:55,EDT,SE  15  G 24,10.0,Fair,CLR,55.4,46.4,,,72%,,,29.87,0.0,,,,2025-03-17,3,2025,17,KOKV
2025-03-15,15,18:35,EDT,S  15  G 22,10.0,Fair,CLR,55.4,46.4,,,72%,,,29.89,0.0,,,,2025-03-17,3,2025,18,KOKV
2025-03-15,15,19:55,EDT,S  8,10.0,Mostly Cloudy,BKN020 BKN031,53.6,46.4,,,77%,,,29.92,0.0,,,,2025-03-17,3,2025,19,KOKV
2025-03-15,15,20:55,EDT,SE  9,10.0,Partly Cloudy,SCT033,51.8,46.4,,,82%,,,29.91,0.0,,,,2025-03-17,3,2025,20,KOKV
2025-03-15,15,21:55,EDT,SE  15  G 23,10.0,Partly Cloudy,SCT028,53.6,50.0,,,88%,,,29.91,0.0,,,,2025-03-17,3,2025,21,KOKV
2025-03-15,15,22:55,EDT,SE  14  G 21,10.0,Overcast,OVC025,53.6,50.0,,,88%,,,29.92,0.0,,,,2025-03-17,3,2025,22,KOKV
2025-03-15,15,23:55,EDT,SE  10,10.0,Mostly Cloudy,SCT050 SCT065 BKN070,53.6,50.0,,,88%,,,29.9,0.0,,,,2025-03-17,3,2025,23,KOKV
2025-03-16,16,00:55,EDT,SE  8,10.0,Mostly Cloudy,SCT015 BKN023 BKN060,53.6,50.0,,,88%,,,29.87,0.0,,,,2025-03-17,3,2025,0,KOKV
2025-03-16,16,01:55,EDT,SE  14,10.0,Partly Cloudy,SCT027,53.6,50.0,,,88%,,,29.85,0.0,,,,2025-03-17,3,2025,1,KOKV
2025-03-16,16,02:55,EDT,S  9  G 18,10.0,Partly Cloudy,SCT039,55.4,51.8,,,88%,,,29.83,0.0,,,,2025-03-17,3,2025,2,KOKV
2025-03-16,16,03:55,EDT,SE  12,10.0,Partly Cloudy,SCT039,55.4,51.8,,,88%,,,29.81,0.0,,,,2025-03-17,3,2025,3,KOKV
2025-03-16,16,04:55,EDT,SE  15  G 21,10.0,Partly Cloudy,SCT048,59.0,53.6,,,82%,,,29.79,0.0,,,,2025-03-17,3,2025,4,KOKV
2025-03-16,16,05:55,EDT,S  13  G 20,10.0,Overcast,SCT031 OVC044,59.0,55.4,,,88%,,,29.79,0.0,,,,2025-03-17,3,2025,5,KOKV
2025-03-16,16,06:55,EDT,SE  16  G 28,10.0,Overcast,SCT030 OVC040,59.0,55.4,,,88%,,,29.78,0.0,,,,2025-03-17,3,2025,6,KOKV
2025-03-16,16,07:55,EDT,S  18  G 26,10.0,Overcast,BKN028 OVC032,60.8,55.4,,,83%,,,29.76,0.0,,,,2025-03-17,3,2025,7,KOKV
2025-03-16,16,08:55,EDT,S  16  G 24,10.0,Overcast,OVC029,62.6,55.4,,,77%,,,29.75,0.0,,,,2025-03-17,3,2025,8,KOKV
2025-03-16,16,09:55,EDT,SE  12  G 22,10.0,Overcast,SCT016 BKN035 OVC043,60.8,59.0,,,94%,,,29.74,0.0,,,,2025-03-17,3,2025,9,KOKV
2025-03-16,16,10:55,EDT,SE  12  G 17,10.0,Overcast,SCT017 BKN035 OVC048,62.6,59.0,,,88%,,,29.74,0.0,,,,2025-03-17,3,2025,10,KOKV
2025-03-16,16,11:55,EDT,SE  16  G 25,7.0,Light Rain,SCT016 SCT035 OVC045,62.6,59.0,,,88%,,,29.72,0.0,,,,2025-03-17,3,2025,11,KOKV
2025-03-16,16,12:55,EDT,S  17  G 25,10.0,Overcast,BKN050 BKN060 OVC070,64.4,59.0,,,83%,,,29.67,0.0,,,,2025-03-17,3,2025,12,KOKV
2025-03-16,16,13:55,EDT,S  23  G 31,10.0,Partly Cloudy and Breezy,SCT034 SCT044,69.8,55.4,,,60%,,,29.64,0.0,,,,2025-03-17,3,2025,13,KOKV
2025-03-16,16,14:55,EDT,S  22  G 41,10.0,Mostly Cloudy and Breezy,SCT028 BKN035 BKN044,69.8,59.0,,,69%,,,29.63,0.0,,,,2025-03-17,3,2025,14,KOKV
2025-03-16,16,15:55,EDT,S  21  G 25,10.0,Mostly Cloudy and Breezy,SCT042 SCT050 BKN070,71.6,55.4,,,57%,,,29.63,0.0,,,,2025-03-17,3,2025,15,KOKV
2025-03-16,16,16:55,EDT,S  22  G 36,10.0,Fair and Breezy,CLR,71.6,53.6,,,53%,,,29.62,0.0,,,,2025-03-17,3,2025,16,KOKV
2025-03-16,16,17:35,EDT,S  17  G 24,10.0,Overcast,BKN070 OVC080,69.8,55.4,,,60%,,,29.64,0.0,,,,2025-03-17,3,2025,17,KOKV
2025-03-16,16,18:55,EDT,NW  10,10.0,Overcast,BKN040 BKN050 OVC070,60.8,50.0,,,68%,,,29.69,0.0,,,,2025-03-17,3,2025,18,KOKV
2025-03-16,16,19:55,EDT,NW  7,10.0,Overcast,OVC035,57.2,51.8,,,82%,,,29.67,0.0,,,,2025-03-17,3,2025,19,KOKV
2025-03-16,16,20:55,EDT,W  3,3.0,Heavy Rain,SCT043 BKN055 OVC075,53.6,50.0,,,88%,,,0.0,0.0,,,,2025-03-17,3,2025,20,KOKV
2025-03-16,16,21:55,EDT,NW  3,10.0,Thunderstorm in Vicinity,SCT065 SCT080 BKN100,51.8,50.0,,,94%,,,29.72,0.0,,,,2025-03-17,3,2025,21,KOKV
2025-03-16,16,22:55,EDT,Calm,10.0,Overcast,SCT003 SCT037 OVC080,51.8,51.8,,,100%,,,29.77,0.0,,,,2025-03-17,3,2025,22,KOKV
2025-03-16,16,23:55,EDT,Calm,10.0,Overcast,SCT065 OVC080,51.8,51.8,,,100%,,,29.78,0.0,,,,2025-03-17,3,2025,23,KOKV
2025-03-17,17,00:55,EDT,NW  3,10.0,Overcast,SCT045 OVC085,51.8,51.8,,,100%,,,29.78,0.0,,,,2025-03-17,3,2025,0,KOKV
2025-03-17,17,01:55,EDT,N  5,10.0,Partly Cloudy,SCT085,51.8,51.8,,,100%,,,29.79,0.0,,,,2025-03-17,3,2025,1,KOKV
2025-03-17,17,02:55,EDT,NW  16  G 21,10.0,Partly Cloudy,SCT110,51.8,46.4,,,82%,,,29.79,0.0,,,,2025-03-17,3,2025,2,KOKV
2025-03-17,17,03:55,EDT,NW  13,10.0,Partly Cloudy,SCT110,50.0,42.8,,,76%,46.0,,29.82,0.0,,,,2025-03-17,3,2025,3,KOKV
2025-03-17,17,04:55,EDT,NW  15  G 25,10.0,Fair,CLR,48.2,41.0,,,76%,43.0,,29.83,0.0,,,,2025-03-17,3,2025,4,KOKV
2025-03-17,17,05:55,EDT,NW  14  G 20,10.0,Partly Cloudy,SCT036 SCT047,46.4,37.4,,,71%,41.0,,29.85,0.0,,,,2025-03-17,3,2025,5,KOKV
2025-03-17,17,06:55,EDT,NW  10,10.0,Overcast,OVC043,44.6,35.6,,,71%,40.0,,29.9,0.0,,,,2025-03-17,3,2025,6,KOKV
2025-03-17,17,07:55,EDT,NW  9  G 17,10.0,Overcast,BKN038 OVC044,44.6,33.8,,,66%,40.0,,29.93,0.0,,,,2025-03-17,3,2025,7,KOKV
2025-03-17,17,08:55,EDT,NW  15,10.0,Overcast,OVC041,42.8,32.0,,,66%,36.0,,29.97,0.0,,,,2025-03-17,3,2025,8,KOKV
2025-03-17,17,09:55,EDT,NW  16  G 21,10.0,Overcast,SCT035 OVC040,42.8,32.0,,,66%,36.0,,29.99,0.0,,,,2025-03-17,3,2025,9,KOKV
2025-03-17,17,10:55,EDT,NW  13  G 23,10.0,Overcast,SCT037 OVC050,44.6,32.0,,,61%,39.0,,30.0,0.0,,,,2025-03-17,3,2025,10,KOKV
2025-03-17,17,11:35,EDT,NW  15,10.0,Overcast,BKN035 OVC042,44.6,32.0,,,61%,38.0,,30.0,0.0,,,,2025-03-17,3,2025,11,KOKV
2025-03-17,17,12:55,EDT,NW  13  G 20,10.0,Overcast,SCT032 BKN037 OVC045,44.6,32.0,,,61%,39.0,,30.01,0.0,,,,2025-03-17,3,2025,12,KOKV
2025-03-17,17,13:55,EDT,NW  14  G 18,10.0,Overcast,OVC037,44.6,32.0,,,61%,39.0,,30.0,0.0,,,,2025-03-17,3,2025,13,KOKV
2025-03-17,17,14:55,EDT,NW  15  G 21,10.0,Mostly Cloudy,BKN043,46.4,32.0,,,57%,41.0,,29.99,0.0,,,,2025-03-17,3,2025,14,KOKV
2025-03-17,17,15:55,EDT,NW  16  G 29,10.0,Partly Cloudy,SCT043,44.6,30.2,,,57%,38.0,,29.99,0.0,,,,2025-03-17,3,2025,15,KOKV
2025-03-17,17,16:55,EDT,NW  20  G 31,10.0,Mostly Cloudy,BKN043,44.6,30.2,,,57%,37.0,,30.0,0.0,,,,2025-03-17,3,2025,16,KOKV
2025-03-17,17,17:55,EDT,NW  21  G 28,10.0,Fair and Breezy,CLR,44.6,26.6,,,49%,37.0,,30.01,0.0,,,,2025-03-17,3,2025,17,KOKV
2025-03-17,17,18:55,EDT,NW  10  G 20,10.0,Fair,CLR,42.8,26.6,,,53%,38.0,,30.02,0.0,,,,2025-03-17,3,2025,18,KOKV
2025-03-17,17,19:55,EDT,NW  9,10.0,Fair,CLR,41.0,26.6,,,57%,36.0,,30.04,0.0,,,,2025-03-17,3,2025,19,KOKV
2025-03-17,17,20:55,EDT,NW  9,10.0,Fair,CLR,39.2,26.6,,,61%,34.0,,30.05,0.0,,,,2025-03-17,3,2025,20,KOKV
2025-03-17,17,21:55,EDT,NW  9,10.0,Fair,CLR,37.4,26.6,,,65%,31.0,,30.08,0.0,,,,2025-03-17,3,2025,21,KOKV
2025-03-17,17,22:55,EDT,NW  5,10.0,Fair,CLR,37.4,24.8,,,60%,34.0,,30.1,0.0,,,,2025-03-17,3,2025,22,KOKV
2025-03-17,17,23:15,EDT,NW  7,10.0,Fair,CLR,35.6,24.8,,,65%,31.0,,30.1,0.0,,,,2025-03-17,3,2025,23,KOKV
2025-03-18,18,23:55,EDT,Calm,10.0,Fair,CLR,42.8,28.4,,,57%,,,30.03,0.0,,,,2025-03-21,3,2025,23,KOKV
2025-03-19,19,00:55,EDT,Calm,10.0,Fair,CLR,41.0,28.4,,,61%,,,30.01,0.0,,,,2025-03-21,3,2025,0,KOKV
2025-03-19,19,01:55,EDT,Calm,10.0,Fair,CLR,41.0,28.4,,,61%,,,30.0,0.0,,,,2025-03-22,3,2025,1,KOKV
2025-03-19,19,02:55,EDT,Calm,10.0,Fair,CLR,41.0,30.2,,,66%,,,30.01,0.0,,,,2025-03-22,3,2025,2,KOKV
2025-03-19,19,03:55,EDT,Calm,10.0,Fair,CLR,37.4,30.2,,,75%,,,30.0,0.0,,,,2025-03-22,3,2025,3,KOKV
2025-03-19,19,04:55,EDT,Calm,10.0,Fair,CLR,35.6,28.4,,,75%,,,29.99,0.0,,,,2025-03-22,3,2025,4,KOKV
2025-03-19,19,05:55,EDT,NW  3,10.0,Fair,CLR,35.6,30.2,,,81%,,,30.01,0.0,,,,2025-03-22,3,2025,5,KOKV
2025-03-19,19,06:55,EDT,Calm,10.0,Fair,CLR,33.8,30.2,,,87%,,,30.02,0.0,,,,2025-03-22,3,2025,6,KOKV
2025-03-19,19,07:55,EDT,W  5,10.0,Fair,CLR,32.0,30.2,,,93%,28.0,,30.03,0.0,,,,2025-03-22,3,2025,7,KOKV
2025-03-19,19,08:55,EDT,SE  3,10.0,Fair,CLR,46.4,32.0,,,57%,,,30.02,0.0,,,,2025-03-22,3,2025,8,KOKV
2025-03-19,19,09:55,EDT,Calm,10.0,Fair,CLR,51.8,32.0,,,47%,,,30.02,0.0,,,,2025-03-22,3,2025,9,KOKV
2025-03-19,19,10:55,EDT,Calm,10.0,Fair,CLR,57.2,32.0,,,39%,,,30.01,0.0,,,,2025-03-22,3,2025,10,KOKV
2025-03-19,19,11:55,EDT,SE  3,10.0,Fair,CLR,62.6,32.0,,,32%,,,29.99,0.0,,,,2025-03-22,3,2025,11,KOKV
2025-03-19,19,12:55,EDT,SE  9,10.0,Fair,CLR,68.0,32.0,,,26%,,,29.97,0.0,,,,2025-03-22,3,2025,12,KOKV
2025-03-19,19,13:55,EDT,SE  10,10.0,Fair,CLR,69.8,32.0,,,25%,,,29.93,0.0,,,,2025-03-22,3,2025,13,KOKV
2025-03-19,19,14:55,EDT,SE  17  G 24,10.0,Fair,CLR,69.8,32.0,,,25%,,,29.91,0.0,,,,2025-03-22,3,2025,14,KOKV
2025-03-19,19,15:55,EDT,S  12  G 23,10.0,Fair,CLR,69.8,32.0,,,25%,,,29.88,0.0,,,,2025-03-22,3,2025,15,KOKV
2025-03-19,19,16:55,EDT,S  15  G 21,10.0,Fair,CLR,69.8,33.8,,,27%,,,29.85,0.0,,,,2025-03-22,3,2025,16,KOKV
2025-03-19,19,17:55,EDT,S  10,10.0,Fair,CLR,69.8,33.8,,,27%,,,29.84,0.0,,,,2025-03-22,3,2025,17,KOKV
2025-03-19,19,18:55,EDT,S  12  G 18,10.0,Fair,CLR,68.0,32.0,,,26%,,,29.84,0.0,,,,2025-03-22,3,2025,18,KOKV
2025-03-19,19,19:55,EDT,SE  8,10.0,Fair,CLR,64.4,33.8,,,32%,,,29.83,0.0,,,,2025-03-22,3,2025,19,KOKV
2025-03-19,19,20:55,EDT,SE  6,10.0,Fair,CLR,64.4,33.8,,,32%,,,29.83,0.0,,,,2025-03-22,3,2025,20,KOKV
2025-03-19,19,21:55,EDT,S  13  G 20,10.0,Fair,CLR,64.4,33.8,,,32%,,,29.82,0.0,,,,2025-03-22,3,2025,21,KOKV
2025-03-19,19,22:55,EDT,S  9,10.0,Fair,CLR,62.6,35.6,,,37%,,,29.81,0.0,,,,2025-03-22,3,2025,22,KOKV
2025-03-19,19,23:55,EDT,S  16  G 23,10.0,Fair,CLR,62.6,35.6,,,37%,,,29.79,0.0,,,,2025-03-22,3,2025,23,KOKV
2025-03-20,20,00:55,EDT,S  14  G 22,10.0,Fair,CLR,60.8,35.6,,,39%,,,29.77,0.0,,,,2025-03-22,3,2025,0,KOKV
2025-03-20,20,01:55,EDT,SE  16  G 21,10.0,Fair,CLR,55.4,33.8,,,44%,,,29.75,0.0,,,,2025-03-22,3,2025,1,KOKV
2025-03-20,20,02:55,EDT,SE  9,10.0,Fair,CLR,53.6,33.8,,,47%,,,29.74,0.0,,,,2025-03-22,3,2025,2,KOKV
2025-03-20,20,03:55,EDT,SE  3,10.0,Fair,CLR,48.2,32.0,,,54%,,,29.72,0.0,,,,2025-03-22,3,2025,3,KOKV
2025-03-20,20,04:55,EDT,Calm,10.0,Fair,CLR,42.8,32.0,,,66%,,,29.71,0.0,,,,2025-03-22,3,2025,4,KOKV
2025-03-20,20,05:55,EDT,SE  6,10.0,Fair,CLR,41.0,32.0,,,70%,38.0,,29.68,0.0,,,,2025-03-22,3,2025,5,KOKV
2025-03-20,20,06:55,EDT,SE  9,10.0,Fair,CLR,41.0,32.0,,,70%,36.0,,29.65,0.0,,,,2025-03-22,3,2025,6,KOKV
2025-03-20,20,07:55,EDT,Calm,10.0,Fair,CLR,41.0,33.8,,,76%,,,29.67,0.0,,,,2025-03-22,3,2025,7,KOKV
2025-03-20,20,08:55,EDT,SE  3,10.0,Fair,CLR,53.6,35.6,,,51%,,,29.64,0.0,,,,2025-03-22,3,2025,8,KOKV
2025-03-20,20,09:55,EDT,S  8,10.0,Fair,CLR,57.2,35.6,,,44%,,,29.62,0.0,,,,2025-03-22,3,2025,9,KOKV
2025-03-20,20,10:55,EDT,SE  9,10.0,Fair,CLR,60.8,37.4,,,42%,,,29.59,0.0,,,,2025-03-22,3,2025,10,KOKV
2025-03-20,20,11:55,EDT,S  14  G 18,10.0,Fair,CLR,64.4,37.4,,,37%,,,29.56,0.0,,,,2025-03-22,3,2025,11,KOKV
2025-03-20,20,12:55,EDT,S  14  G 17,10.0,Fair,CLR,68.0,37.4,,,33%,,,29.54,0.0,,,,2025-03-22,3,2025,12,KOKV
2025-03-20,20,13:55,EDT,SE  5,10.0,Partly Cloudy,SCT095 SCT110,68.0,39.2,,,35%,,,29.53,0.0,,,,2025-03-22,3,2025,13,KOKV
2025-03-20,20,14:55,EDT,NW  16,10.0,Mostly Cloudy,BKN100,62.6,42.8,,,49%,,,29.53,0.0,,,,2025-03-22,3,2025,14,KOKV
2025-03-20,20,15:55,EDT,NW  9,10.0,Partly Cloudy,SCT075 SCT100,62.6,42.8,,,49%,,,29.51,0.0,,,,2025-03-22,3,2025,15,KOKV
2025-03-20,20,16:55,EDT,NW  12  G 21,10.0,Overcast,OVC070,59.0,46.4,,,63%,,,29.5,0.0,,,,2025-03-22,3,2025,16,KOKV
2025-03-20,20,17:55,EDT,NW  16  G 24,7.0,Rain,SCT038 BKN055 OVC085,51.8,46.4,,,82%,,,29.54,0.0,,,,2025-03-22,3,2025,17,KOKV
2025-03-20,20,18:55,EDT,NW  9,10.0,Light Rain,OVC060,48.2,41.0,,,76%,45.0,,29.57,0.0,,,,2025-03-22,3,2025,18,KOKV
2025-03-20,20,19:55,EDT,NW  18,10.0,Overcast,SCT080 OVC110,50.0,37.4,,,62%,44.0,,29.57,0.0,,,,2025-03-22,3,2025,19,KOKV
2025-03-20,20,20:55,EDT,NW  23  G 31,10.0,Fair and Breezy,CLR,48.2,32.0,,,54%,41.0,,29.61,0.0,,,,2025-03-22,3,2025,20,KOKV
2025-03-20,20,21:55,EDT,NW  22  G 37,10.0,Mostly Cloudy and Breezy,SCT049 BKN060,46.4,32.0,,,57%,39.0,,29.64,0.0,,,,2025-03-22,3,2025,21,KOKV
2025-03-20,20,22:55,EDT,W  12  G 20,10.0,Overcast,BKN045 OVC055,44.6,32.0,,,61%,39.0,,29.68,0.0,,,,2025-03-22,3,2025,22,KOKV
2025-03-20,20,23:55,EDT,NW  16  G 22,10.0,Overcast,OVC043,42.8,32.0,,,66%,36.0,,29.69,0.0,,,,2025-03-22,3,2025,23,KOKV
2025-03-21,21,00:55,EDT,NW  20  G 37,10.0,Overcast,SCT033 BKN041 OVC049,41.0,30.2,,,66%,33.0,,29.71,0.0,,,,2025-03-22,3,2025,0,KOKV
2025-03-21,21,01:55,EDT,NW  21  G 26,10.0,Overcast and Breezy,BKN042 OVC048,41.0,28.4,,,61%,32.0,,29.73,0.0,,,,2025-03-22,3,2025,1,KOKV
2025-03-21,21,02:55,EDT,NW  20  G 29,10.0,Overcast,OVC046,39.2,26.6,,,61%,30.0,,29.74,0.0,,,,2025-03-22,3,2025,2,KOKV
2025-03-21,21,03:55,EDT,Calm,0.0,,,37.4,26.6,,,65%,,,0.0,0.0,,,,2025-03-22,3,2025,3,KOKV
2025-03-21,21,07:55,EDT,NW  8  G 21,10.0,Mostly Cloudy,BKN040,35.6,23.0,,,60%,30.0,,29.89,0.0,,,,2025-03-22,3,2025,7,KOKV
2025-03-21,21,08:55,EDT,NW  21  G 29,10.0,Mostly Cloudy and Breezy,BKN042,37.4,23.0,,,56%,28.0,,29.91,0.0,,,,2025-03-22,3,2025,8,KOKV
2025-03-21,21,09:55,EDT,NW  23  G 30,10.0,Fair and Breezy,CLR,41.0,23.0,,,49%,32.0,,29.91,0.0,,,,2025-03-22,3,2025,9,KOKV
2025-03-21,21,10:55,EDT,NW  23  G 33,10.0,Fair and Breezy,CLR,42.8,21.2,,,42%,34.0,,29.92,0.0,,,,2025-03-22,3,2025,10,KOKV
2025-03-21,21,11:55,EDT,W  18  G 29,10.0,Fair,CLR,44.6,19.4,,,37%,37.0,,29.92,0.0,,,,2025-03-22,3,2025,11,KOKV
2025-03-21,21,12:55,EDT,NW  25,10.0,Breezy,,48.2,19.4,,,32%,41.0,,29.91,0.0,,,,2025-03-22,3,2025,12,KOKV
2025-03-21,21,13:55,EDT,NW  20  G 25,10.0,Fair,CLR,50.0,21.2,,,32%,44.0,,29.9,0.0,,,,2025-03-22,3,2025,13,KOKV
2025-03-21,21,14:55,EDT,NW  17  G 22,10.0,Fair,CLR,51.8,19.4,,,28%,,,29.9,0.0,,,,2025-03-22,3,2025,14,KOKV
2025-03-21,21,15:55,EDT,W  8,10.0,Fair,CLR,53.6,23.0,,,30%,,,29.89,0.0,,,,2025-03-22,3,2025,15,KOKV
2025-03-21,21,16:55,EDT,NW  15  G 20,10.0,Fair,CLR,53.6,23.0,,,30%,,,29.87,0.0,,,,2025-03-22,3,2025,16,KOKV
2025-03-21,21,17:55,EDT,NW  14  G 20,10.0,Fair,CLR,53.6,21.2,,,28%,,,29.87,0.0,,,,2025-03-22,3,2025,17,KOKV
2025-03-21,21,18:55,EDT,W  7,10.0,Fair,CLR,51.8,21.2,,,30%,,,29.89,0.0,,,,2025-03-22,3,2025,18,KOKV
2025-03-21,21,19:55,EDT,W  6,10.0,Fair,CLR,50.0,21.2,,,32%,48.0,,29.9,0.0,,,,2025-03-22,3,2025,19,KOKV
2025-03-21,21,20:55,EDT,Calm,10.0,Fair,CLR,42.8,23.0,,,46%,,,29.91,0.0,,,,2025-03-22,3,2025,20,KOKV
2025-03-21,21,21:55,EDT,SW  6,10.0,Fair,CLR,44.6,23.0,,,43%,42.0,,29.92,0.0,,,,2025-03-22,3,2025,21,KOKV
2025-03-21,21,22:55,EDT,Calm,10.0,Fair,CLR,44.6,21.2,,,39%,,,29.9,0.0,,,,2025-03-22,3,2025,22,KOKV
2025-03-21,21,23:55,EDT,S  3,10.0,Fair,CLR,41.0,26.6,,,57%,,,29.9,0.0,,,,2025-03-22,3,2025,23,KOKV
2025-03-22,22,00:55,EDT,SW  3,10.0,Fair,CLR,41.0,24.8,,,53%,,,29.9,0.0,,,,2025-03-22,3,2025,0,KOKV
2025-03-22,22,01:55,EDT,SW  5,10.0,Fair,CLR,41.0,23.0,,,49%,38.0,,29.88,0.0,,,,2025-03-22,3,2025,1,KOKV
2025-03-22,22,02:55,EDT,S  3,10.0,Fair,CLR,41.0,23.0,,,49%,,,29.85,0.0,,,,2025-03-22,3,2025,2,KOKV
2025-03-22,22,03:55,EDT,SW  7,10.0,Fair,CLR,44.6,23.0,,,43%,41.0,,29.82,0.0,,,,2025-03-22,3,2025,3,KOKV
2025-03-22,22,04:35,EDT,Calm,0.0,,,44.6,23.0,,,43%,,,0.0,0.0,,,,2025-03-22,3,2025,4,KOKV
2025-03-22,22,07:55,EDT,SW  6,10.0,Fair,CLR,44.6,23.0,,,43%,42.0,,29.78,0.0,,,,2025-03-22,3,2025,7,KOKV
2025-03-22,22,08:55,EDT,SW  9,10.0,Fair,CLR,44.6,23.0,,,43%,40.0,,29.77,0.0,,,,2025-03-22,3,2025,8,KOKV
2025-03-22,22,09:55,EDT,SW  9,10.0,Fair,CLR,50.0,26.6,,,40%,47.0,,29.77,0.0,,,,2025-03-22,3,2025,9,KOKV
2025-03-22,22,10:55,EDT,SW  7  G 17,10.0,Partly Cloudy,SCT080 SCT090,55.4,28.4,,,36%,,,29.74,0.0,,,,2025-03-22,3,2025,10,KOKV
2025-03-22,22,11:55,EDT,W  20  G 24,10.0,Mostly Cloudy,BKN070 BKN095,57.2,30.2,,,36%,,,29.75,0.0,,,,2025-03-22,3,2025,11,KOKV
2025-03-22,22,12:55,EDT,W  31  G 41,10.0,Overcast and Windy,BKN070 OVC085,57.2,30.2,,,36%,,,29.75,0.0,,,,2025-03-22,3,2025,12,KOKV
2025-03-22,22,13:35,EDT,W  20  G 28,10.0,Partly Cloudy,SCT070,59.0,30.2,,,34%,,,29.75,0.0,,,,2025-03-22,3,2025,13,KOKV
